EVENT_NAME: 202010301151
EVENT_ID: 10614
EVENT_DATE_YYYYMMDD: 2020/10/30
EVENT_TIME_HHMMSS: 11:51:24.00000
EVENT_LATITUDE_DEGREE: 37.879
EVENT_LONGITUDE_DEGREE: 26.703
EVENT_DEPTH_KM: 16.54
HYPOCENTER_REFERENCE: AFAD
MAGNITUDE_W: 6.6
MAGNITUDE_W_REFERENCE: AFAD
MAGNITUDE_L: 
MAGNITUDE_L_REFERENCE: 
FOCAL_MECHANISM: 
NETWORK: TK
STATION_CODE: 3520
STATION_NAME: 
STATION_LATITUDE_DEGREE: 38.478
STATION_LONGITUDE_DEGREE: 27.2111
STATION_ELEVATION_M: 184.0
LOCATION: -_-_-
SENSOR_DEPTH_M: 
VS30_M/S: 875
SITE_CLASSIFICATION_EC8: A
MORPHOLOGIC_CLASSIFICATION: 
EPICENTRAL_DISTANCE_KM: 80.05
EARTHQUAKE_BACKAZIMUTH_DEGREE: 
DATE_TIME_FIRST_SAMPLE_YYYYMMDD_HHMMSS: 2020/10/30 11:51:14.8559730
DATE_TIME_FIRST_SAMPLE_PRECISION: millisecond
SAMPLING_INTERVAL_S: 0.01
NDATA: 11251
DURATION_S: 
STREAM: HNN
UNITS: cm/s^2
INSTRUMENT: sensor = CMG-5T/GURALP | digitizer = 
INSTRUMENT_ANALOG/DIGITAL: 
INSTRUMENTAL_FREQUENCY_HZ: 
INSTRUMENTAL_DAMPING: 
FULL_SCALE_G: 
N_BIT_DIGITAL_CONVERTER: 
PGA_CM/S^2: 36.370
TIME_PGA_S: 
BASELINE_CORRECTION: BASELINE REMOVED
FILTER_TYPE: BUTTERWORTH
FILTER_ORDER: 
LOW_CUT_FREQUENCY_HZ: 
HIGH_CUT_FREQUENCY_HZ: 
LATE/NORMAL_TRIGGERED: 
DATABASE_VERSION: 
HEADER_FORMAT: DYNA 1.2
DATA_TYPE: Acceleration
PROCESSING: Manual Paolucci et al., 2011
DATA_TIMESTAMP_YYYYMMDD_HHMMSS: 
DATA_LICENSE: U (unknown license)
DATA_CITATION: Turkish Accelerometric Archive v 1.0 - Disaster And Emergency Management Presidency, Earthquake Department
DATA_CREATOR: AFAD
ORIGINAL_DATA_MEDIATOR_CITATION: : AFAD - Disaster And Emergency Management Presidency
ORIGINAL_DATA_MEDIATOR: AFAD PROCESS SERVICE
ORIGINAL_DATA_CREATOR_CITATION: AFAD PROCESS SERVICE
ORIGINAL_DATA_CREATOR: network: TK
USER1: GuestUser
USER2: 
USER3: 
USER4: 
USER5: 
[...]
0.014506
0.634398
1.083286
1.374888
1.644476
1.867803
1.553871
0.652907
-0.226362
-0.987267
-1.608434
-1.897801
-1.826654
-1.667135
-1.386699
-0.593569
0.659933
1.752959
1.559304
0.224448
-1.125083
-2.268835
-3.290713
-4.265694
-5.005543
-4.887498
-3.595392
-1.136882
2.079982
5.021516
6.727095
6.560558
4.891988
3.249899
2.687754
2.452624
1.412560
-0.130627
-1.767931
-3.163085
-3.968337
-3.790632
-2.284132
-0.274190
1.069600
1.509555
1.756810
1.919839
1.626644
0.925399
0.005612
-0.813358
-1.113254
-0.901731
-0.482194
0.029863
0.652307
1.862739
3.170797
3.699444
3.532907
3.148786
2.950983
2.944284
3.019259
2.431910
1.120663
-0.084025
-0.434328
-0.025958
0.075497
-0.299372
-0.754001
-0.659246
0.313822
1.694939
3.097751
4.433246
5.488945
6.015678
5.864455
4.829495
3.252809
1.622843
0.394227
-0.235873
-0.761966
-1.340382
-1.531804
-1.320281
-1.112905
-0.963275
-0.700387
-0.190563
0.052545
-0.929454
-2.966513
-4.818210
-5.638457
-5.318142
-3.937343
-1.914959
-0.195023
0.660320
0.963726
1.357101
2.082595
2.798837
3.485408
3.853898
3.252511
1.708686
-0.798635
-3.618933
-5.722990
-6.625548
-6.268225
-5.798280
-5.653117
-4.991750
-3.386349
-1.052264
1.251513
2.679848
2.693248
1.562258
0.086388
-1.068849
-1.465094
-1.110960
-0.194682
0.892283
1.381050
0.844109
-0.392801
-1.562395
-2.092317
-2.178775
-2.562897
-2.970308
-2.544710
-1.262813
0.672155
2.535339
3.767147
4.530925
4.766057
4.531884
4.243474
4.157653
4.512106
4.867834
3.898916
1.807940
-0.012492
-0.437131
0.792124
2.691041
4.580705
5.749343
5.338104
3.724728
1.926310
0.567846
-0.516884
-1.775170
-2.909350
-3.151819
-2.367941
-1.144747
0.471501
2.142306
3.354652
4.205209
4.352924
4.112370
3.374116
1.675238
-0.444770
-2.330286
-3.162337
-3.080981
-2.604337
-1.687102
-0.644165
0.075268
0.608700
1.108634
1.085345
0.576799
0.029649
-0.654687
-1.542889
-2.119710
-1.995284
-1.567453
-1.322431
-1.277765
-1.674009
-2.840732
-3.910147
-4.109545
-3.392665
-1.972306
-0.492287
0.999856
2.499018
3.658085
4.018599
3.446245
2.322274
1.140557
0.391455
-0.218864
-0.700930
-0.790260
-0.749741
-0.616383
-0.125701
1.021243
2.521361
4.204927
5.713660
6.340571
6.064923
4.749848
2.745331
0.542691
-1.479692
-2.545917
-2.452438
-1.886144
-1.787879
-1.900818
-1.773840
-1.352071
-0.634553
-0.178327
-0.007003
0.016287
-0.191725
-0.423984
-0.598497
-0.620829
-0.502465
-0.269885
0.307575
1.387201
2.794480
3.891972
4.745082
5.751648
6.166399
5.616378
4.078933
1.564274
-0.823727
-2.248551
-2.622144
-2.491976
-2.232278
-1.599943
-0.849884
0.435842
2.286264
3.098218
2.260105
0.379375
-1.495293
-2.204515
-1.655449
-0.411518
1.033726
2.277019
2.382303
0.966731
-1.274832
-3.485447
-4.472870
-4.084281
-2.918514
-1.673945
-1.223781
-1.597055
-1.966819
-1.682875
-0.972057
-0.163932
0.644512
1.405419
1.854307
1.961823
1.799115
1.044271
-0.059601
-1.345643
-2.699003
-3.516059
-3.603794
-2.707934
-1.151345
-0.051619
0.377488
0.235836
-0.077140
0.133745
0.639740
0.664626
-0.162320
-1.493985
-3.038768
-4.295140
-4.820595
-4.615134
-3.575706
-1.886717
0.199794
2.070955
3.393369
4.033680
3.403261
2.110519
1.024194
0.060380
-0.693506
-0.875996
-0.428703
0.136953
0.599878
1.306867
2.225060
3.013086
3.199405
2.459556
0.624768
-1.542778
-2.603260
-2.404499
-1.057518
0.783972
1.911454
2.246764
1.725775
-0.134218
-2.742355
-4.268952
-3.878449
-2.113209
-0.423581
-0.372854
-1.882542
-3.382021
-3.513464
-2.437347
-0.875016
0.356154
1.215963
2.076091
2.769043
3.719139
5.088133
6.294737
6.696407
6.192008
5.049533
3.764447
3.043741
2.866675
2.353982
0.693707
-1.456929
-3.164740
-3.347230
-1.087481
2.223819
4.485163
4.740713
3.716601
2.284439
1.430693
1.674439
2.242647
2.972927
3.048221
2.124286
1.001591
0.204316
-0.094623
-0.087603
-0.161938
-0.607315
-1.132770
-1.324830
-0.760451
0.113715
1.022975
1.505042
0.831553
0.127118
0.294294
1.502812
3.206797
4.096595
4.044274
3.391841
2.239476
1.339150
0.763925
0.115002
-0.363236
-0.773837
-1.374905
-2.145062
-2.841203
-3.667192
-4.412465
-4.753197
-4.926115
-4.694173
-4.248476
-3.718553
-3.030067
-2.141864
-1.060642
0.015155
1.128600
1.578126
1.391489
1.823468
2.886504
3.664958
3.471941
2.690298
2.527589
3.311467
3.869147
3.189277
2.079981
1.132438
0.735237
1.170087
1.731595
1.800508
0.728540
-0.734569
-2.055706
-3.263265
-4.028956
-4.358522
-3.790952
-3.147451
-2.939756
-2.814373
-2.451626
-1.673810
-1.421450
-1.765053
-2.044530
-2.064948
-1.851510
-1.593089
-1.570436
-1.333071
-0.528774
0.391014
0.668897
-0.079247
-0.752098
-1.010199
-1.377093
-2.032077
-2.697272
-2.733003
-2.355261
-1.629767
-0.708703
0.163230
1.267422
1.930065
1.089081
-0.592250
-1.889778
-2.512859
-2.294317
-1.804592
-1.743336
-1.853723
-1.741101
-1.439290
-0.882568
0.148565
1.676440
3.506763
4.435166
3.726901
1.900727
0.200573
-0.786850
-1.940811
-3.395944
-4.928603
-6.312271
-7.020854
-6.195501
-3.533764
-0.209384
2.660685
4.171651
3.806672
2.356006
1.159932
0.461877
0.247803
0.764327
1.016687
-0.076019
-1.332710
-1.399388
-0.564464
0.618531
0.869934
-0.231386
-1.759897
-2.495599
-1.850503
-1.087043
-0.555844
0.486136
1.998378
2.582219
1.552045
0.266322
-0.369521
0.209854
1.623832
3.090133
4.420842
5.170264
5.433472
5.031803
3.747994
1.962656
0.301425
-0.622828
-0.844240
-0.570186
-0.145226
0.442124
1.221536
1.385203
0.781265
0.245281
0.097886
-0.299954
-0.923992
-1.362988
-1.683302
-1.759870
-1.851114
-2.095497
-2.319461
-2.081138
-0.993217
0.494778
1.423180
0.823389
-1.468581
-4.611426
-7.550406
-9.376581
-8.951302
-6.834163
-4.114042
-1.246844
0.695143
2.089022
3.136744
3.241390
2.581619
1.628653
0.549347
-0.832407
-1.667648
-1.875661
-2.205226
-2.219263
-1.670198
-1.027973
-0.579085
-0.337572
-0.350971
-0.946296
-1.946480
-2.688881
-3.378003
-3.911435
-3.958013
-3.617280
-3.050348
-2.613265
-2.502239
-2.637191
-2.600820
-3.133613
-4.531957
-6.061745
-7.630455
-8.991791
-10.157237
-10.682373
-10.248800
-9.383886
-8.237900
-6.569329
-4.323617
-2.135971
-0.552264
0.148983
-0.000007
-0.054881
0.255863
0.321267
-0.042436
-0.938933
-2.115226
-3.256107
-4.099324
-4.146541
-3.042030
-0.916596
1.228619
2.638769
3.405099
4.267142
5.553824
6.548267
6.897296
6.524341
6.040679
6.444902
7.419245
8.004043
7.570152
6.330051
4.600545
2.820950
1.349546
0.097322
-0.406120
0.169745
1.611799
2.863068
2.834355
1.859056
0.573652
-0.561805
-0.755460
0.105944
1.121762
1.466963
0.757741
-0.337516
-0.990268
-1.257940
-1.588463
-2.389887
-3.171530
-3.463130
-3.491523
-2.941820
-1.426706
0.945983
3.434482
5.428791
7.042488
8.369050
9.777285
10.682717
10.551274
10.179914
9.688915
9.025635
8.002161
6.443022
4.806675
3.433854
2.326473
0.745320
-1.681285
-4.491692
-6.848108
-8.436918
-9.681486
-10.641152
-11.854773
-12.904089
-12.964387
-12.679166
-12.163918
-11.060683
-9.590873
-8.486680
-7.673132
-6.747920
-6.048906
-5.488355
-4.848364
-4.029073
-3.454803
-3.536476
-3.681957
-3.617829
-3.052173
-1.949576
-0.474342
1.385971
3.038909
4.590074
5.664276
5.639711
5.314612
5.505717
6.154003
6.817285
7.121329
7.009347
7.344657
8.367495
9.407880
9.651626
8.894548
7.822262
6.962135
6.655859
6.563977
6.819527
7.684122
7.980190
6.755722
4.709730
2.716380
1.075886
0.129300
-0.475915
-1.031679
-1.410058
-1.793541
-2.807125
-4.917562
-8.061365
-11.287798
-13.058141
-12.815352
-10.913564
-8.481534
-5.626460
-2.497013
0.025943
1.808411
2.438512
2.678430
2.704273
2.611433
3.180598
3.357665
3.071489
3.290669
4.169620
5.537338
7.147525
8.146435
8.089009
7.932043
7.797409
7.395741
7.048947
6.568795
5.329651
3.236442
0.999665
-1.116834
-3.374348
-4.971453
-4.956777
-3.921816
-2.512623
-0.535223
1.636791
3.504761
4.910444
5.326790
5.036147
4.617569
4.176340
3.202955
1.322544
-0.694415
-2.362984
-3.693692
-4.899975
-5.805405
-6.555145
-7.244266
-7.792692
-7.942959
-6.846423
-5.192847
-3.933283
-3.188966
-2.885560
-3.068368
-3.442280
-3.581380
-3.912860
-4.588901
-5.047997
-4.911129
-3.988788
-2.270766
-0.107367
2.524700
5.151981
7.694717
9.999770
11.001870
10.836928
9.712637
7.816275
5.408812
2.422934
-0.896340
-3.901042
-6.077839
-7.254132
-7.491815
-7.237541
-6.402298
-5.198566
-3.943468
-2.637325
-1.238660
0.087264
0.641753
0.283793
-0.750528
-2.298182
-4.205073
-5.843653
-6.602326
-6.609982
-6.110048
-4.482952
-1.527061
1.790619
4.386315
5.461794
5.127442
3.176205
-0.443922
-4.844097
-9.266286
-13.179928
-15.818693
-16.986372
-17.193108
-16.638619
-16.230249
-15.827941
-14.668874
-13.124090
-11.448181
-10.344946
-9.646251
-8.463895
-6.439915
-3.252402
0.289880
3.075724
5.141178
6.620879
7.890971
9.421398
11.106240
12.705899
14.218460
16.396855
19.039769
21.284842
22.893753
23.840659
24.186178
23.767920
22.375957
19.584053
15.677749
11.642235
8.530336
6.332163
4.906701
4.566607
4.698370
5.161615
5.712275
6.619621
8.426336
10.840499
13.661118
16.390172
18.136907
18.424043
18.201355
18.045346
17.262107
15.649689
13.789058
11.777523
10.188713
10.053760
11.120625
12.821100
14.467338
16.080716
17.759177
19.203464
20.030412
19.014276
16.183450
12.284484
7.931845
3.382998
-1.544229
-6.470817
-11.210768
-15.417606
-18.934046
-21.382664
-22.724538
-23.255098
-22.794087
-22.358918
-22.472814
-22.948180
-23.252542
-23.026343
-22.569798
-21.531966
-19.742479
-17.502192
-15.833302
-15.271155
-15.541699
-15.861694
-15.200007
-13.503680
-11.046127
-8.340044
-6.290860
-5.659483
-6.027971
-6.468562
-6.761757
-6.673383
-5.582909
-3.417915
-1.033103
1.186766
3.302629
5.093711
6.696241
8.227626
9.517498
10.006904
9.670000
9.464540
9.491340
9.395310
8.530717
6.749208
4.322604
1.072881
-2.710913
-7.008677
-11.382691
-14.938372
-16.248342
-14.535744
-11.135114
-7.529981
-5.108798
-4.162211
-4.084684
-4.606630
-5.716244
-7.861138
-10.663888
-13.026047
-14.396954
-14.970265
-14.431408
-12.498674
-9.989118
-7.509551
-5.929035
-5.432291
-5.325413
-4.985317
-3.535606
-1.312866
1.496905
5.652061
11.034556
16.818083
21.783915
24.614743
25.232721
24.811591
24.109069
23.400486
23.243520
23.600205
24.322828
25.573459
26.836851
27.998470
28.352285
26.864291
23.783977
19.975618
16.537981
13.608572
11.000754
8.718036
6.590370
4.877454
4.334771
4.947006
6.079274
7.394670
8.533318
9.480862
10.132978
9.829254
7.891416
4.126765
-1.130666
-6.825499
-12.392397
-17.050675
-20.321773
-22.772944
-24.050691
-25.109898
-26.807181
-28.650264
-29.885261
-29.523789
-27.873085
-25.912274
-24.312616
-23.201085
-22.749645
-22.989881
-23.693359
-24.437356
-24.388542
-22.687110
-19.269890
-15.336147
-11.938708
-9.611004
-8.411738
-7.641898
-6.417109
-4.233610
-1.100972
2.911892
7.746599
12.488147
16.200477
18.414604
18.843392
17.940515
16.435293
15.609622
16.051810
17.513644
19.864638
23.039389
26.886354
29.635826
29.674750
27.481043
23.815613
19.519444
15.419484
10.996338
6.338380
1.614381
-2.826632
-6.753035
-11.196919
-15.175325
-18.133448
-19.987698
-20.209747
-19.765007
-19.534661
-20.471037
-22.818520
-25.360617
-27.139892
-28.042451
-27.994594
-26.933153
-24.832604
-21.498334
-17.426129
-13.294901
-9.379663
-6.238411
-3.336438
-0.404475
1.491251
2.253434
2.860884
4.180108
5.901002
7.455357
7.863089
6.650744
4.685150
2.710623
1.101713
-0.132645
-0.888446
-1.210674
-1.289795
-1.436552
-1.352644
-0.374152
1.458723
4.134498
7.332858
10.087435
11.610525
11.338386
9.413310
7.291706
5.873262
4.907215
4.427701
4.264355
3.948507
3.699977
3.988389
5.123847
6.379582
6.838360
6.440201
4.956036
2.687993
0.482482
-0.822702
-0.500473
1.223611
3.454646
5.779479
7.504520
8.167163
8.121542
7.687012
7.162195
6.724475
6.713948
6.515507
5.868817
5.420250
5.299335
5.502563
5.855739
6.322493
5.762582
3.489435
0.231097
-3.358721
-6.150305
-7.656803
-7.596823
-6.233252
-4.501512
-2.717130
-0.795242
1.606160
4.239183
7.023431
8.582572
8.236416
7.421593
6.051644
4.424549
2.880086
1.974018
2.203726
2.413335
1.931588
0.791346
0.470075
1.472813
2.861269
4.448166
5.088157
4.167414
2.055700
-0.278064
-1.015999
0.278978
2.464391
4.308752
5.278949
4.893232
3.519135
1.925539
0.964597
1.541100
2.377300
2.255428
0.913554
-0.920277
-2.175054
-3.384209
-4.090878
-3.943162
-3.529050
-3.475131
-4.783826
-7.389411
-10.858313
-14.187158
-16.798167
-18.755466
-20.064798
-21.182388
-21.214291
-19.774790
-17.751129
-16.009498
-14.546388
-12.859951
-11.313891
-10.067726
-9.829085
-10.756528
-11.731828
-11.503714
-9.819830
-7.512225
-4.972998
-2.409206
0.602516
3.412926
6.055840
9.260899
11.897751
12.868905
10.937448
6.547481
1.207419
-3.752987
-7.498815
-10.076006
-11.900266
-13.638067
-15.150307
-16.281297
-16.330428
-15.164981
-13.105588
-10.779160
-8.611932
-6.920071
-7.287283
-9.804495
-14.003038
-18.548057
-21.988884
-23.768798
-23.917788
-23.190699
-21.208513
-17.543400
-12.338609
-7.315031
-3.905149
-2.066531
-1.009556
0.273298
1.835948
3.647448
5.319210
7.410826
10.196669
13.021115
15.569275
18.337571
22.193150
26.511972
30.657875
33.719686
35.332107
35.826936
35.416334
34.902364
34.602788
34.524306
34.543449
34.912577
35.718468
36.369626
35.971148
33.916861
30.347143
26.376074
23.445070
22.059168
22.355875
23.608420
24.359756
23.872266
22.425747
20.099959
16.617657
11.814855
6.457565
2.253279
-0.296474
-1.621440
-2.387450
-2.800923
-2.920561
-3.394013
-4.153004
-4.977080
-6.453907
-8.483309
-10.320650
-11.585317
-11.847246
-11.903396
-12.889224
-14.650633
-16.616547
-17.763488
-17.530271
-16.406298
-15.057084
-14.407841
-15.304337
-17.910879
-21.525582
-25.026708
-27.808721
-29.023299
-28.259840
-26.126430
-22.917223
-18.396449
-12.395019
-5.620879
1.013204
6.169183
8.297807
6.927539
2.595956
-2.651585
-7.517237
-11.710994
-14.291694
-14.889571
-12.785832
-8.656838
-4.473607
-1.365535
-0.263257
-0.735114
-1.675000
-2.184184
-2.559372
-3.586675
-5.534084
-8.559842
-11.908786
-15.104592
-18.051229
-20.377974
-21.416124
-21.436861
-21.134412
-20.430294
-19.371086
-17.310417
-14.544035
-11.977052
-10.242759
-9.794829
-10.037616
-10.573599
-10.455874
-9.547571
-7.674815
-4.302580
-0.151253
4.815536
9.823162
13.911639
16.919532
18.475483
18.928518
18.334150
16.885398
15.332321
14.001932
13.087888
12.815111
13.606327
15.489610
17.996614
19.695813
19.453983
17.774566
15.678804
14.272484
13.005903
10.789864
8.071658
6.001739
5.121513
5.289647
5.956437
5.994404
4.819706
2.576548
-0.018509
-2.482441
-4.843642
-6.712568
-7.654368
-7.641287
-6.962691
-6.159671
-5.797243
-5.593058
-5.153422
-4.836935
-4.972526
-5.391103
-5.017509
-3.311610
-0.447284
3.028320
6.522428
10.392364
14.356096
18.191575
21.456614
24.215658
26.525815
27.227700
26.298980
23.784002
20.788233
18.859329
18.605056
19.354797
19.524526
18.705874
17.021353
15.162318
13.444616
11.819755
10.383765
9.440050
9.322326
9.963912
11.042263
11.540920
10.860412
9.055295
6.799057
4.603117
2.389630
0.209642
-1.472965
-1.895690
-1.291431
0.110105
2.035502
3.389501
3.652390
3.036008
2.156421
1.024474
-0.746507
-2.738582
-4.713747
-6.372107
-7.830430
-9.235155
-10.013289
-10.603190
-10.839277
-10.373800
-9.183467
-7.125669
-5.410838
-5.090841
-5.548023
-6.108891
-6.415167
-5.889710
-6.083366
-7.824038
-10.504278
-13.639466
-16.344591
-18.803418
-20.785603
-22.403126
-23.623128
-24.477511
-24.877585
-23.856661
-21.860757
-19.323126
-16.829522
-14.932519
-13.707411
-12.764652
-11.558687
-10.517983
-9.773347
-9.211201
-8.317255
-6.912528
-5.362320
-3.606652
-1.883525
0.050805
2.305449
4.644319
6.846961
8.133962
8.341656
7.552357
5.908353
3.389866
0.094839
-3.424153
-6.792239
-9.315193
-10.151711
-8.747623
-6.052705
-2.841584
0.984324
4.621680
7.121665
8.450779
9.055039
9.165108
9.649408
10.396916
10.489438
9.498187
7.574387
5.848390
4.734628
3.863974
2.899203
1.851801
0.656046
-0.701780
-2.176055
-3.315340
-3.508358
-3.010657
-1.447688
1.186293
4.193868
6.701828
7.495597
6.487117
4.423578
2.256033
0.780801
0.318515
0.679986
1.394633
1.935084
2.320483
2.733001
3.472532
5.253086
7.769342
10.395985
11.998196
11.580575
9.655499
7.311845
5.451852
4.099450
3.468074
3.779137
4.369677
4.428062
3.779777
3.065770
2.904338
3.153826
3.486584
3.769572
3.937706
4.168690
4.060218
3.201368
1.666156
0.137006
-0.618475
-0.945170
-0.953783
-0.724394
-0.518294
-0.264977
-0.292095
-0.673983
-0.705567
0.009718
1.714978
3.966432
5.488246
6.027740
5.800586
5.152620
4.195825
2.528850
0.437236
-1.065114
-1.828891
-2.572250
-3.993564
-6.446649
-9.355320
-11.889760
-13.306289
-13.297355
-11.832012
-9.412105
-6.634238
-4.163286
-3.010600
-2.856822
-3.285928
-3.767994
-3.425984
-2.373795
-0.852301
0.490213
1.010565
1.129886
1.010567
0.617512
0.679407
1.469346
2.107743
1.871974
1.420855
2.045532
3.936792
6.728378
9.704368
11.737919
12.471389
11.826613
9.792745
6.308847
2.344797
-0.332252
-1.495784
-1.873844
-2.348891
-3.074383
-3.546559
-4.012354
-5.167910
-7.477108
-10.828286
-14.535191
-17.710259
-20.145478
-22.498065
-24.708681
-26.063317
-26.353003
-25.491599
-23.689350
-22.029713
-21.229245
-21.394187
-22.522624
-23.853651
-24.493322
-24.069639
-22.881220
-21.167346
-19.109229
-16.875960
-14.004296
-10.423728
-6.460953
-3.044690
-1.110998
-0.778240
-1.657190
-2.523378
-2.887719
-3.201652
-3.476343
-3.476981
-2.563254
-0.313395
3.031084
6.413528
8.917342
10.844972
12.238532
13.835957
16.086135
17.704617
18.062579
17.448750
16.622123
16.265120
16.735383
17.991437
19.523460
21.106848
22.934938
24.652003
25.381644
24.891602
23.745617
22.756281
21.650176
19.796564
17.153013
13.922113
10.903374
8.590666
6.839466
5.580860
4.915985
4.860792
5.019355
5.007552
4.795711
4.480502
3.734591
2.142272
0.127546
-1.881757
-3.248516
-3.666774
-3.738557
-3.881166
-4.423212
-4.959833
-5.267066
-5.655335
-6.176962
-6.484195
-6.146971
-5.393402
-4.427034
-3.773962
-3.839683
-4.796478
-6.700817
-8.836777
-10.409954
-10.885959
-9.605976
-5.921083
-0.717568
4.117139
7.665803
10.085390
11.761299
12.895800
13.393819
13.196655
12.764997
12.239541
11.249247
9.486880
7.023587
4.423744
1.713834
-1.328515
-4.496564
-7.750435
-10.549676
-12.480176
-13.626799
-13.692839
-12.977235
-11.820721
-10.408656
-8.973940
-7.201682
-5.475365
-4.002364
-2.754605
-2.276047
-2.538614
-3.562407
-5.320627
-7.539856
-9.473227
-10.022611
-8.814093
-5.979118
-2.077917
2.474760
7.099859
11.253739
14.282689
15.202796
14.262272
12.126950
9.928138
8.287963
6.618118
5.069188
3.710404
2.394372
0.868732
-1.112495
-3.053204
-4.309257
-4.193446
-2.986842
-1.673042
-0.721988
-0.067958
0.655302
1.278704
1.741948
1.735249
0.799511
-0.240872
-0.818969
-0.942755
-0.493548
0.221736
0.903203
1.461521
2.030048
3.058947
4.398270
5.541385
6.598679
7.496134
7.900676
