EVENT_NAME: 202010301151
EVENT_ID: 10614
EVENT_DATE_YYYYMMDD: 2020/10/30
EVENT_TIME_HHMMSS: 11:51:24.00000
EVENT_LATITUDE_DEGREE: 37.879
EVENT_LONGITUDE_DEGREE: 26.703
EVENT_DEPTH_KM: 16.54
HYPOCENTER_REFERENCE: AFAD
MAGNITUDE_W: 6.6
MAGNITUDE_W_REFERENCE: AFAD
MAGNITUDE_L: 
MAGNITUDE_L_REFERENCE: 
FOCAL_MECHANISM: 
NETWORK: TK
STATION_CODE: 3520
STATION_NAME: 
STATION_LATITUDE_DEGREE: 38.478
STATION_LONGITUDE_DEGREE: 27.2111
STATION_ELEVATION_M: 184.0
LOCATION: -_-_-
SENSOR_DEPTH_M: 
VS30_M/S: 875
SITE_CLASSIFICATION_EC8: A
MORPHOLOGIC_CLASSIFICATION: 
EPICENTRAL_DISTANCE_KM: 80.05
EARTHQUAKE_BACKAZIMUTH_DEGREE: 
DATE_TIME_FIRST_SAMPLE_YYYYMMDD_HHMMSS: 2020/10/30 11:51:14.8559730
DATE_TIME_FIRST_SAMPLE_PRECISION: millisecond
SAMPLING_INTERVAL_S: 0.01
NDATA: 11251
DURATION_S: 
STREAM: HNZ
UNITS: cm/s^2
INSTRUMENT: sensor = CMG-5T/GURALP | digitizer = 
INSTRUMENT_ANALOG/DIGITAL: 
INSTRUMENTAL_FREQUENCY_HZ: 
INSTRUMENTAL_DAMPING: 
FULL_SCALE_G: 
N_BIT_DIGITAL_CONVERTER: 
PGA_CM/S^2: 19.656
TIME_PGA_S: 
BASELINE_CORRECTION: BASELINE REMOVED
FILTER_TYPE: BUTTERWORTH
FILTER_ORDER: 
LOW_CUT_FREQUENCY_HZ: 
HIGH_CUT_FREQUENCY_HZ: 
LATE/NORMAL_TRIGGERED: 
DATABASE_VERSION: 
HEADER_FORMAT: DYNA 1.2
DATA_TYPE: Acceleration
PROCESSING: Manual Paolucci et al., 2011
DATA_TIMESTAMP_YYYYMMDD_HHMMSS: 
DATA_LICENSE: U (unknown license)
DATA_CITATION: Turkish Accelerometric Archive v 1.0 - Disaster And Emergency Management Presidency, Earthquake Department
DATA_CREATOR: AFAD
ORIGINAL_DATA_MEDIATOR_CITATION: : AFAD - Disaster And Emergency Management Presidency
ORIGINAL_DATA_MEDIATOR: AFAD PROCESS SERVICE
ORIGINAL_DATA_CREATOR_CITATION: AFAD PROCESS SERVICE
ORIGINAL_DATA_CREATOR: network: TK
USER1: GuestUser
USER2: 
USER3: 
USER4: 
USER5: 
[...]
-1.026628
-0.801179
0.305657
2.411316
4.283362
4.997389
5.424423
6.153836
6.806633
6.952955
6.737238
5.975168
4.029018
1.446711
-0.695060
-1.797816
-2.352962
-2.976560
-3.093367
-2.323763
-1.431386
-1.079397
-1.182075
-1.283496
-0.804025
0.267958
1.331777
1.513894
0.417104
-1.315843
-2.393794
-2.151075
-1.404707
-0.453612
0.381931
-0.145898
-1.846503
-3.754660
-5.582434
-7.129809
-7.799564
-7.233743
-5.846508
-4.249837
-3.059792
-2.611092
-2.772487
-3.425600
-4.162236
-4.250470
-4.048885
-4.589274
-6.102738
-7.716680
-7.675233
-5.627350
-2.908142
-0.069615
2.705484
4.928892
6.147511
5.757840
3.785628
1.371309
0.105275
0.470138
1.143659
1.187304
1.474924
2.214070
2.135570
1.655155
2.285659
3.878876
5.173796
5.565977
5.809323
6.453957
7.120570
7.368313
6.772033
5.245067
3.707740
3.291380
3.729090
3.586535
2.073386
0.057528
-1.269736
-1.601631
-1.319977
-1.026077
-1.159212
-1.757062
-2.182528
-1.902444
-0.813192
0.851616
2.701682
4.162393
4.525058
4.357697
4.766205
5.366251
4.952089
3.518381
1.946200
0.733859
-0.629514
-2.809278
-5.040851
-6.235608
-6.407051
-5.802609
-4.095725
-2.090859
-1.081361
-0.994385
-1.496466
-2.010479
-2.000746
-1.609822
-0.838961
-0.236089
-0.939756
-2.242842
-2.476456
-1.597267
-0.581175
-0.255876
-0.743199
-1.061906
-0.431716
0.395349
0.353587
-0.498914
-1.213885
-1.322528
-1.449070
-2.583540
-4.232964
-5.047157
-5.133821
-5.024865
-5.200076
-5.788192
-6.175350
-5.915990
-4.764880
-2.968194
-1.357707
-0.213505
1.006684
2.147432
2.341481
1.277346
-0.400023
-1.484567
-1.407011
-0.874160
-0.169553
1.155197
2.388888
2.896933
2.497215
1.120026
0.108957
0.651227
2.568489
5.434333
8.315249
9.727290
9.187529
7.189569
4.950146
3.389269
2.339892
1.688349
0.670686
-1.563085
-4.349176
-6.263927
-6.552490
-5.396671
-3.436078
-1.668593
-1.024587
-1.411432
-1.450368
-0.293292
1.601989
2.968815
3.028473
2.845412
3.009004
2.704426
1.831201
1.090483
0.853729
0.845878
0.846191
0.992513
1.086711
0.546322
-0.547014
-0.882363
-0.248405
0.000593
-0.684548
-1.934882
-3.110800
-3.858112
-4.098634
-3.788092
-2.908275
-1.465463
0.068723
0.330281
-1.168111
-2.593655
-2.787392
-2.388303
-2.056096
-1.987332
-2.111989
-2.360047
-2.182012
-0.809848
1.217311
2.742391
3.442288
3.445427
3.422819
3.532403
3.077735
2.442519
2.404211
2.981021
3.189200
2.182213
0.284732
-1.722020
-2.916463
-3.208480
-2.991824
-2.807195
-2.842991
-2.416899
-1.202362
0.727145
2.871112
4.137458
3.649821
2.094596
0.865299
0.195858
-0.509692
-1.481826
-2.644556
-4.076694
-5.108487
-4.868281
-3.165165
-0.422407
2.121905
3.020875
1.567385
-1.459541
-3.671018
-3.280408
-0.548954
3.469885
7.046931
8.157849
6.116558
1.955163
-2.262437
-4.470461
-4.173735
-2.556968
-1.022783
-0.555243
-1.410256
-2.986519
-4.686810
-6.256479
-7.220763
-7.545436
-7.204123
-5.899782
-3.674805
-0.722298
2.020146
4.272755
6.352038
7.342068
6.668231
4.857413
2.893679
1.788097
1.354781
0.640124
-0.619002
-1.828517
-2.342530
-2.239854
-2.183964
-2.254300
-1.851757
-1.174468
-0.551186
0.218419
1.357283
3.018951
4.676851
5.713980
6.163622
6.091716
5.648352
5.026325
3.756522
1.846481
-0.078631
-1.656778
-2.793132
-3.710316
-4.298118
-4.481179
-3.907194
-1.807815
0.995858
2.896791
3.321627
2.319664
0.433487
-1.549087
-2.746356
-2.441153
-0.873998
0.960682
2.155438
2.449966
2.083845
1.923078
2.295163
2.355763
1.949765
1.430414
0.941521
0.822516
1.293509
2.140043
2.391553
1.358190
-0.051027
-0.802421
-0.584194
0.535202
1.688196
1.976444
0.977306
-1.330568
-3.985094
-5.756349
-6.237078
-5.379869
-3.602964
-1.899534
-0.692847
-0.093115
0.119460
0.521374
1.303853
2.273473
2.500491
1.736223
1.030672
1.057675
1.599004
2.305809
3.000996
3.006333
1.731193
-0.482168
-2.629590
-4.041947
-4.599605
-4.622214
-4.875610
-5.521815
-5.859048
-5.305160
-3.981038
-2.449678
-1.366391
-0.864312
-0.994935
-1.440811
-0.802457
1.183883
3.109622
3.991009
3.895239
3.321567
2.806926
2.508943
2.395275
2.536573
2.481937
1.814379
0.593875
-0.470888
-0.349686
0.590418
1.903550
3.053718
2.743803
1.168482
-0.452054
-1.174247
-0.880033
0.011402
1.199249
2.322414
3.129070
3.752038
4.040285
3.794739
3.691120
4.054727
5.154027
6.543460
6.730287
5.673061
3.946080
2.081568
0.367461
-1.652164
-3.498778
-4.248916
-3.800844
-2.687728
-1.576810
-0.091607
1.552163
1.663945
0.395712
-0.232281
0.073236
-0.152214
-0.684439
-0.557585
-0.601859
-1.346974
-1.941056
-1.850625
-1.868210
-2.699987
-3.638209
-3.848274
-3.616231
-3.701011
-3.603673
-2.140765
0.607331
3.345692
5.180058
5.809306
4.205726
0.325358
-4.079384
-7.063293
-7.864927
-7.493470
-6.859826
-6.490253
-6.296832
-5.723789
-4.437975
-2.258213
-0.372666
0.526305
0.645309
0.484542
1.129804
2.592084
4.316237
5.511935
5.895638
6.027201
5.478335
3.409726
0.204136
-2.744605
-4.040783
-3.147464
-0.703945
2.022799
3.477543
3.526840
3.160719
2.691607
2.641995
2.838556
2.773244
2.576367
2.479656
3.105136
4.556740
6.321713
7.625425
7.528085
5.472350
1.714441
-2.166242
-4.246783
-4.163574
-2.558740
-0.305502
1.030551
0.899614
0.253723
-0.316182
-0.719040
-1.191291
-2.061062
-2.392015
-1.598547
-0.102983
1.845991
3.455850
4.283544
3.193661
-0.353243
-3.928406
-5.891199
-6.212418
-4.371458
-0.911846
1.950544
2.692830
1.025195
-1.704691
-3.513625
-3.739389
-2.658614
-1.070735
-0.135969
-0.124038
0.068441
0.191213
-0.568659
-1.896237
-3.175773
-3.280335
-2.041620
-0.337876
1.119694
2.042843
2.083661
0.653407
-1.560582
-2.770097
-1.975687
0.204703
2.304082
3.028471
2.319780
1.198498
0.100452
-0.640267
-0.772774
-0.548895
0.462486
2.126038
3.434146
4.233580
4.674744
4.539725
3.477160
1.659120
0.421032
0.862196
2.507536
3.861174
3.962280
3.072099
1.592547
0.729370
1.806377
3.894138
5.377456
5.461607
4.150043
2.377846
1.069109
0.384282
0.117070
0.026010
-0.126279
-0.084204
0.221313
0.367949
0.540960
0.898287
1.172091
1.480435
2.203567
2.749606
2.360564
1.881405
1.864448
1.677305
0.790893
-0.683321
-2.664639
-5.318224
-7.768024
-8.632771
-7.205659
-4.158010
-1.092779
0.750065
1.151038
1.271298
2.069476
3.129527
4.195230
5.081955
4.864040
3.495957
2.087996
1.382446
0.791190
-0.498394
-2.037292
-2.604998
-2.230401
-2.241706
-2.180791
-1.310080
-0.519124
-0.168705
-0.163368
-0.329473
-0.491810
-0.458527
0.351897
1.849973
3.226532
3.600501
2.751768
1.128720
-0.662317
-1.558777
-1.466463
-1.542451
-2.396836
-3.462541
-4.064159
-4.169662
-3.789099
-3.173039
-2.639246
-2.263707
-1.767908
-0.984488
-0.163702
1.016609
2.526303
4.091888
5.884493
7.323851
7.590434
6.712185
5.654958
5.089450
4.231297
2.291112
-0.094633
-1.885983
-2.761720
-2.840848
-1.983325
-0.459501
0.664605
1.097919
1.053959
0.993671
1.017220
0.494415
-0.376926
-1.401497
-2.213179
-2.106735
-1.125811
0.258284
1.133706
0.578245
-0.857661
-2.202195
-3.464461
-4.520746
-5.084056
-4.690933
-3.202905
-1.390519
-0.400803
-0.175669
0.225304
0.397059
0.040672
-0.753739
-2.022914
-3.538889
-4.952502
-5.517382
-4.791737
-2.817957
-0.592979
0.826912
1.116101
-0.124185
-2.280085
-3.835938
-3.770942
-2.602562
-1.297594
-0.240997
0.242871
0.440374
0.431581
0.017419
-0.954715
-1.753523
-1.728718
-2.110224
-3.135737
-3.920415
-4.107872
-3.613014
-2.024507
0.996137
3.936398
4.862059
4.142692
3.262246
2.681979
2.043938
1.634800
2.228252
3.148889
3.685194
4.126358
4.462333
4.700969
4.533609
3.754897
3.039926
2.013471
0.436580
-0.467730
-0.566954
0.018649
1.071478
2.013466
2.705199
2.679137
1.939046
1.009302
0.456040
0.269211
-0.351875
-1.451177
-2.207595
-2.469155
-2.170545
-1.257131
-0.756621
-0.686601
0.200438
2.023186
4.013294
5.365048
5.137714
3.945783
3.216682
3.348560
3.836509
3.420777
2.073732
0.300908
-1.367356
-2.199761
-1.937889
-0.630409
1.030631
2.961394
4.900949
6.210627
7.062498
7.737904
7.811064
6.750697
5.358436
4.462604
4.112811
4.196019
3.811373
2.884455
2.186126
0.634983
-2.190986
-4.930919
-6.683962
-6.974409
-6.428684
-6.202294
-6.368399
-6.889947
-7.691267
-7.650762
-6.646917
-5.687031
-5.810118
-7.539611
-9.505229
-10.016416
-8.582082
-6.422101
-4.705798
-3.509472
-2.705329
-1.945144
-1.289521
-1.066584
-1.422029
-2.389766
-3.983299
-5.224527
-5.763660
-6.250983
-6.637828
-6.557132
-5.487033
-3.499436
-0.807232
1.701598
2.522384
1.628121
0.194413
-0.951047
-1.290792
-0.762651
-0.032296
0.369305
0.035212
-0.778982
-1.916906
-3.204606
-4.010321
-4.093845
-3.214342
-1.891162
-0.905214
-0.480064
-0.357606
-0.475670
-1.012918
-2.264823
-4.317732
-5.852547
-5.882378
-4.486979
-2.444747
-0.663446
0.089202
-0.287908
-0.839601
-1.188766
-1.218910
-0.650264
0.852522
3.022236
4.823633
5.484908
4.985339
4.283557
4.594098
5.970971
7.649909
9.250034
10.362836
10.676204
10.202697
9.062889
7.515828
6.601783
6.931165
8.064377
8.919702
7.776127
5.734207
4.630195
4.124032
4.189028
4.684828
4.813252
4.248371
3.807205
4.400972
5.432449
5.991990
6.187609
6.085245
5.889624
6.072369
6.327962
5.920080
4.689841
3.349389
2.801779
3.461170
4.454026
4.618559
3.418464
0.819829
-1.698736
-2.535538
-1.877716
-0.434904
1.037425
1.263187
0.054928
-1.874580
-3.655569
-4.365515
-4.134101
-3.283486
-2.271790
-2.111339
-2.600860
-2.853942
-3.144703
-3.850254
-4.603846
-5.147061
-6.022484
-7.255234
-8.229880
-8.608874
-7.785263
-6.522056
-5.679605
-5.004199
-4.797591
-5.374403
-6.521118
-7.631096
-8.725375
-9.916364
-10.956321
-11.542867
-11.813847
-12.450318
-12.955853
-12.739197
-11.594995
-9.863933
-8.343250
-6.863071
-5.609913
-4.794465
-4.327867
-4.045585
-3.189004
-1.537698
0.517408
2.347064
3.435374
3.589546
2.928583
2.473915
3.294073
4.930935
6.325392
7.245715
7.603356
7.212115
6.423042
5.725027
5.150099
4.861535
4.979283
4.738133
3.255441
0.670936
-1.645730
-2.699189
-2.740951
-2.085642
-1.093414
-0.255359
0.313916
1.400971
3.357795
5.218537
6.434330
6.508747
5.614484
4.448615
2.819600
1.592502
1.789691
3.028092
4.466822
5.096698
4.677826
3.701296
2.709695
2.584410
3.602071
4.388317
4.119535
3.518859
2.833404
2.114666
1.355422
0.879088
1.479135
2.889606
3.869587
3.335479
1.520265
-0.716018
-1.911089
-1.202086
0.335553
1.917780
3.179417
3.906317
4.155316
4.178551
4.158140
3.246922
1.281617
-0.370632
-0.960633
-1.106014
-1.012444
-0.831897
-1.285936
-1.874994
-1.514527
-0.229969
1.007176
1.193061
0.150278
-1.331158
-2.832689
-4.490905
-6.432031
-8.569406
-9.952561
-10.160741
-10.008454
-10.078790
-10.128402
-9.815034
-9.618474
-10.201566
-11.120634
-11.643125
-11.545159
-10.431100
-8.023063
-4.722962
-1.194899
1.499817
2.829591
3.522266
3.858241
3.390386
1.632319
-0.822819
-2.990337
-4.979505
-6.697380
-7.258493
-6.110209
-3.623672
-0.541171
2.242407
4.544313
6.320590
7.777218
9.918673
12.224348
13.948501
15.333538
16.057613
15.867016
15.043089
13.360695
11.056589
9.232269
7.764963
6.464389
5.664640
4.558744
2.944801
1.450492
0.214287
-0.483100
-0.841371
-1.115804
-1.688535
-3.310327
-5.825125
-8.931178
-11.955278
-13.864377
-14.439619
-13.528088
-11.210482
-8.505404
-6.328468
-5.135596
-4.652985
-4.743730
-5.757940
-7.614915
-10.108675
-12.023740
-12.558477
-11.607697
-9.428876
-8.003020
-8.074298
-8.173207
-6.791938
-3.797355
-0.582661
2.126499
4.338916
5.904188
6.821998
6.615702
5.041637
2.398101
-0.711721
-3.253522
-4.320797
-3.983565
-3.127926
-1.499542
0.927336
3.220136
5.057642
6.791844
8.804246
10.177665
10.253965
9.411512
8.105600
7.239911
7.216989
7.669771
8.208902
8.404521
8.106537
7.404754
6.120194
4.535454
3.487019
2.775502
2.090675
2.121446
3.072226
4.420840
5.782641
7.242724
8.403568
8.574695
8.211400
7.831464
6.840176
5.315409
3.872595
2.237301
0.158644
-2.441561
-4.879116
-6.325698
-6.864517
-6.723219
-5.825191
-4.894820
-5.069717
-6.138562
-7.075528
-6.928578
-6.294306
-5.555474
-4.562618
-3.830065
-3.311972
-2.555556
-1.543860
-1.157017
-0.616944
0.716283
2.162864
3.222601
3.536910
3.742577
3.611326
3.262161
3.625768
4.516261
5.173455
5.362794
5.192921
4.266316
2.684716
1.129177
0.396622
0.192524
-0.459019
-1.757709
-3.787383
-6.104677
-8.312072
-9.760853
-10.072652
-9.796336
-8.849010
-8.009384
-7.716112
-7.519866
-7.448589
-6.663599
-5.029563
-3.363499
-1.871703
-0.855925
-0.793127
-1.531961
-2.589502
-3.603083
-4.580869
-5.784732
-6.911038
-8.230765
-9.845335
-10.417752
-9.382192
-7.055166
-4.318374
-2.450097
-1.461009
-0.514311
0.941062
2.425322
3.139663
3.374845
3.604690
4.251207
5.265101
5.529171
4.575877
3.323659
2.544319
2.232834
2.659240
3.864671
5.713481
8.012562
9.912239
10.873695
11.199623
11.721170
12.326868
12.370827
11.867175
11.148123
10.616526
10.629085
11.203384
11.669667
12.131555
12.430793
11.740000
9.461642
5.102743
-0.271934
-5.410172
-9.408289
-12.178366
-14.011792
-14.689711
-14.744347
-14.263933
-13.020822
-10.698506
-7.957318
-6.322654
-6.288743
-7.407513
-9.237799
-11.322422
-12.790042
-13.984799
-14.120132
-12.585947
-10.899159
-9.551801
-8.209468
-6.194554
-3.448656
-0.098943
3.633531
6.922328
9.159866
11.003338
13.735733
16.760774
18.469855
17.714379
15.248251
13.412313
13.578416
15.228780
17.265046
19.027821
19.656127
18.673945
16.649296
15.070207
14.578802
14.255385
13.374938
12.418190
12.280031
12.401233
11.897268
11.135511
10.662632
10.023335
8.480355
6.526983
4.954174
3.693478
2.621179
1.654070
0.165412
-2.123309
-4.678612
-7.012234
-8.691802
-9.138305
-8.934522
-9.200164
-9.707897
-9.847313
-9.464238
-9.005490
-9.483707
-11.248996
-13.399872
-15.243974
-16.564643
-16.552398
-15.588116
-15.056835
-14.517390
-13.016488
-10.619441
-7.802266
-5.638204
-4.577211
-4.329154
-5.373821
-7.376491
-8.651003
-8.822760
-8.721340
-8.536083
-8.375004
-8.692141
-9.757846
-11.559872
-13.389215
-14.396831
-14.872850
-15.136294
-14.544098
-12.851344
-11.026712
-9.663026
-8.173114
-6.488524
-4.613653
-2.744433
-1.524872
-0.562474
0.196454
0.351882
0.238214
0.451417
1.110495
1.460914
1.185538
0.306975
-1.320155
-2.842096
-3.769642
-3.804811
-2.151621
0.755985
3.897832
6.389393
7.401088
6.957096
6.349826
6.504312
7.470478
9.047367
10.929146
13.172964
15.187878
16.449828
16.789258
15.799540
13.544417
10.786586
8.458930
6.673546
5.508932
5.047671
5.511757
6.730376
7.840038
9.032282
10.232689
10.835247
10.678876
9.995933
9.522112
9.053314
7.617722
4.925202
1.334966
-2.083199
-4.715746
-6.686702
-7.535749
-7.477346
-8.064835
-9.483471
-10.494226
-10.639607
-9.344373
-6.828321
-3.896852
-0.811210
1.784283
3.684589
5.157231
6.716850
8.077396
9.068053
9.717711
9.694161
9.582377
9.397118
8.676810
6.913719
4.549639
2.667230
1.280935
0.034369
-1.230409
-1.823549
-1.410645
-0.386076
0.973842
2.607250
4.482122
6.376775
8.137352
9.685667
10.976820
11.641235
11.873278
12.076433
12.594526
13.418137
13.922729
14.303606
14.469395
14.262470
13.340576
11.376214
9.055152
6.665638
3.984422
1.292844
-0.195499
-0.665553
-1.004042
-1.235144
-1.983398
-3.143930
-3.771295
-3.797044
-3.921701
-4.186715
-4.051697
-3.951219
-4.593657
-5.840851
-7.229030
-8.530232
-10.302115
-12.823820
-15.114425
-16.850512
-17.913391
-17.562029
-15.689356
-12.952878
-10.644377
-9.457786
-9.344120
-10.040565
-10.140417
-8.480005
-5.873521
-4.020002
-3.500024
-3.474278
-3.415875
-3.511331
-4.180458
-5.446492
-6.502463
-6.847232
-6.447201
-5.077236
-3.086500
-1.544150
0.012643
2.137142
4.101502
5.749041
6.755084
6.691656
5.141455
2.537796
-0.134000
-2.040901
-2.410162
-2.241546
-1.985326
-1.863496
-2.311884
-2.397292
-1.678241
-0.412208
0.630573
1.056351
0.731050
-0.595900
-2.786967
-5.229860
-7.087778
-8.660586
-9.699287
-9.621731
-9.381525
-9.716560
-10.377837
-10.658864
-10.435928
-9.841534
-8.891695
-8.276263
-8.410341
-8.594971
-7.793967
-5.966195
-3.462389
-0.824506
1.731424
4.376214
6.437914
7.665953
8.113711
7.600326
6.267411
4.697428
3.291979
2.583602
2.990855
3.963615
5.237183
6.250449
6.688787
7.157269
7.689806
7.700481
7.260571
7.291970
8.015417
9.023344
10.040064
10.891621
10.960071
10.239135
9.508464
8.730066
7.689482
6.254203
4.625817
2.971055
0.839019
-1.828067
-4.168283
-4.954531
-3.702942
-1.189716
1.498720
3.859344
5.361816
6.174438
7.011551
8.379633
10.243829
11.198063
10.336142
8.396271
6.118541
3.367931
0.778716
-0.703033
-1.639685
-2.773527
-4.090743
-5.321296
-5.985713
-5.804852
-5.114375
-4.302381
-3.630115
-2.999611
-2.175686
-1.553346
-1.514097
-1.496200
-1.323817
-2.113833
-3.753523
-4.692373
-4.605711
-3.834536
-2.515124
-1.775978
-1.935175
-2.146809
-2.595825
-3.024117
-2.638216
-1.286148
0.699250
2.844158
4.697992
5.779395
5.919123
4.858442
2.765655
0.240181
-2.034409
-3.748517
-4.879846
-5.060395
-4.225794
-2.864934
-1.955915
-1.661702
-1.194790
-0.002860
1.115908
1.140085
0.645854
0.201862
-0.261598
-1.096515
-2.279340
-3.386492
-4.716268
-6.279029
-7.411300
-8.309331
-9.495924
-10.655828
-11.362634
-11.506446
-11.150375
-10.349371
-9.072976
-7.571132
-6.254546
-5.748385
-6.166315
-6.556299
-6.551904
-6.581421
-6.696972
-6.523019
-6.107289
-5.563134
-4.654429
-3.270962
-1.610550
-0.549557
-0.277009
-0.438718
-0.924785
-1.285882
-1.609613
-2.112322
-2.565420
-2.688193
-2.198046
-1.334242
-0.920396
-1.015852
-1.275214
-1.639450
-1.258887
0.210929
1.941048
2.984143
3.009890
2.682077
2.992933
4.297587
6.277647
8.803119
11.372865
13.326550
14.622412
15.318227
15.464234
15.182893
14.673276
14.385968
14.409831
14.620208
14.753970
14.123464
12.609373
10.418619
8.316412
6.764013
5.463125
4.127070
2.696815
2.068194
2.408251
3.179425
4.409034
5.768952
6.175262
5.094172
2.634009
-0.739883
-3.937623
-6.405635
-8.050349
-9.152791
-9.717672
-9.583910
-8.882757
-7.284202
-5.207117
-3.423932
-2.177053
-1.614059
-1.119201
0.084660
1.817291
3.507847
4.321725
3.928600
3.166216
2.511219
1.811006
1.223518
0.928989
0.943432
1.228540
1.990922
3.986368
6.891148
9.264646
10.460657
11.133551
11.992330
12.517959
11.943973
10.289211
8.331129
6.439927
4.815937
4.027806
4.000487
4.381678
4.557201
4.070192
2.934466
1.433562
-0.128885
-1.991198
-4.246321
-6.851236
-9.301037
-11.023936
-12.274270
-12.830358
-12.285262
-11.340447
-10.876989
-10.765522
-10.542585
-9.819138
-8.627523
-7.520372
-6.504595
-5.577992
-4.827856
-3.994196
-2.832724
-1.349092
-0.207716
-0.060767
-0.853923
-1.909893
-2.174279
-1.489140
-0.127024
1.897310
3.883336
5.394600
6.187126
5.654587
3.793844
1.410296
-0.591432
-1.746311
-1.870655
-1.079071
-0.045709
0.324177
0.225268
0.340504
0.863307
2.167333
3.770284
4.335476
3.454088
1.644526
-0.059848
-1.238905
-2.259080
-2.994460
-3.509101
-3.972247
-4.294094
-4.447639
-4.467736
-4.442617
-4.599302
-5.508950
-7.149896
-8.921465
-10.461304
-11.624033
-12.026264
-11.114419
-9.275657
-7.782291
-7.213958
-7.148020
-7.211762
-7.225265
