EVENT_NAME: 202010301151
EVENT_ID: 10614
EVENT_DATE_YYYYMMDD: 2020/10/30
EVENT_TIME_HHMMSS: 11:51:24.00000
EVENT_LATITUDE_DEGREE: 37.879
EVENT_LONGITUDE_DEGREE: 26.703
EVENT_DEPTH_KM: 16.54
HYPOCENTER_REFERENCE: AFAD
MAGNITUDE_W: 6.6
MAGNITUDE_W_REFERENCE: AFAD
MAGNITUDE_L: 
MAGNITUDE_L_REFERENCE: 
FOCAL_MECHANISM: 
NETWORK: TK
STATION_CODE: 3520
STATION_NAME: 
STATION_LATITUDE_DEGREE: 38.478
STATION_LONGITUDE_DEGREE: 27.2111
STATION_ELEVATION_M: 184.0
LOCATION: -_-_-
SENSOR_DEPTH_M: 
VS30_M/S: 875
SITE_CLASSIFICATION_EC8: A
MORPHOLOGIC_CLASSIFICATION: 
EPICENTRAL_DISTANCE_KM: 80.05
EARTHQUAKE_BACKAZIMUTH_DEGREE: 
DATE_TIME_FIRST_SAMPLE_YYYYMMDD_HHMMSS: 2020/10/30 11:51:14.8559730
DATE_TIME_FIRST_SAMPLE_PRECISION: millisecond
SAMPLING_INTERVAL_S: 0.01
NDATA: 11251
DURATION_S: 
STREAM: HNE
UNITS: cm/s^2
INSTRUMENT: sensor = CMG-5T/GURALP | digitizer = 
INSTRUMENT_ANALOG/DIGITAL: 
INSTRUMENTAL_FREQUENCY_HZ: 
INSTRUMENTAL_DAMPING: 
FULL_SCALE_G: 
N_BIT_DIGITAL_CONVERTER: 
PGA_CM/S^2: 58.865
TIME_PGA_S: 
BASELINE_CORRECTION: BASELINE REMOVED
FILTER_TYPE: BUTTERWORTH
FILTER_ORDER: 
LOW_CUT_FREQUENCY_HZ: 
HIGH_CUT_FREQUENCY_HZ: 
LATE/NORMAL_TRIGGERED: 
DATABASE_VERSION: 
HEADER_FORMAT: DYNA 1.2
DATA_TYPE: Acceleration
PROCESSING: Manual Paolucci et al., 2011
DATA_TIMESTAMP_YYYYMMDD_HHMMSS: 
DATA_LICENSE: U (unknown license)
DATA_CITATION: Turkish Accelerometric Archive v 1.0 - Disaster And Emergency Management Presidency, Earthquake Department
DATA_CREATOR: AFAD
ORIGINAL_DATA_MEDIATOR_CITATION: : AFAD - Disaster And Emergency Management Presidency
ORIGINAL_DATA_MEDIATOR: AFAD PROCESS SERVICE
ORIGINAL_DATA_CREATOR_CITATION: AFAD PROCESS SERVICE
ORIGINAL_DATA_CREATOR: network: TK
USER1: GuestUser
USER2: 
USER3: 
USER4: 
USER5: 
[...]
1.131447
2.352255
2.780166
2.636373
2.277051
1.654688
1.032640
0.966879
1.653110
3.106438
4.803298
6.146816
6.918315
7.655834
8.388632
8.289204
7.349368
5.982249
4.596881
3.556674
2.802162
2.321703
2.068101
1.855401
1.758805
1.616900
1.785861
2.460451
3.038760
3.057952
2.168773
1.008059
0.332208
0.397337
0.579827
-0.055121
-1.195698
-2.627004
-4.016777
-4.822575
-5.006328
-4.218781
-2.653756
-1.083382
0.239370
1.162841
1.501708
1.207832
0.766388
0.518449
0.397940
0.387870
0.372136
0.122624
-0.516100
-0.875422
-1.048477
-1.724643
-3.137385
-5.222201
-7.481329
-9.574326
-10.394598
-9.227280
-7.042096
-5.214659
-4.397852
-4.631632
-5.295212
-5.439005
-4.919533
-3.746551
-2.046859
-0.416074
0.923039
2.286379
3.265227
3.540222
3.698171
3.937926
4.328080
4.230540
2.927922
1.207775
0.002382
-0.758737
-1.319115
-1.184765
0.229862
2.474513
4.503635
5.754648
6.027440
6.063623
6.479892
6.567990
5.776036
3.851372
1.377344
-0.377099
-0.831443
-0.548582
-0.398185
-0.528762
-0.529079
0.187988
1.665228
3.376247
4.415192
3.987593
2.100686
0.067785
-0.629462
-0.081672
1.158643
2.429164
2.893259
3.083301
3.754429
4.644234
5.442793
5.283583
3.844096
2.108846
0.399083
-1.658674
-3.446155
-3.785025
-3.119874
-2.662073
-2.548803
-2.303070
-1.971754
-1.929279
-2.039405
-1.841811
-1.035387
0.262823
1.452795
1.507227
0.109273
-1.805952
-3.484880
-4.155698
-3.237261
-1.789282
-0.877767
-0.762295
-1.265408
-1.654622
-1.965174
-2.098898
-1.979966
-2.338029
-3.398373
-5.000214
-6.127891
-6.497282
-6.072832
-4.110729
-1.256932
1.414373
2.756947
2.634550
1.682758
0.258689
-0.694677
-0.365563
0.908733
1.927541
1.946733
1.017280
-0.137456
-0.753211
-0.550898
-0.132741
0.257413
0.722766
0.642531
0.074287
-0.463122
-0.534862
-0.097827
0.600361
1.325294
1.844136
1.701917
0.602558
-0.708241
-1.531030
-1.813579
-1.468105
-0.514113
0.916246
2.702150
3.949072
4.003189
3.170331
1.708820
0.157636
-0.042478
1.410850
3.232623
4.348340
3.754924
1.995447
0.706674
0.393290
0.558790
0.643112
0.715163
1.009666
1.595213
2.297176
2.966103
3.440895
3.390551
2.288045
0.463438
-0.852395
-0.913437
0.064467
0.971577
1.156585
0.701612
-0.094747
-1.180892
-2.132054
-1.994243
-0.556333
1.383431
2.733241
3.535261
3.966948
4.039628
3.953730
3.414432
2.507319
1.200926
-0.469822
-1.694723
-2.156618
-2.075757
-1.599391
-1.192876
-1.319363
-1.588069
-1.613871
-1.226549
-0.147015
1.143643
1.861968
2.037536
2.378606
2.972333
3.099761
2.346822
0.866118
-0.611755
-1.127454
-0.705207
0.013748
0.500497
0.275526
-0.412282
-1.025205
-1.630262
-2.340095
-2.808912
-2.885686
-2.459663
-1.680612
-1.208966
-1.182538
-1.614228
-2.723655
-4.451039
-6.231282
-7.049352
-6.230971
-4.169756
-1.618329
0.441627
0.919566
0.324263
0.138308
0.929630
2.469484
4.097753
5.131034
4.952001
2.785064
-0.717528
-4.126985
-6.428589
-7.123948
-6.934536
-6.330740
-5.596998
-4.968975
-4.163809
-3.025752
-1.689156
-0.681361
-0.148989
0.259099
0.844960
1.560139
2.413131
3.821779
5.495356
6.356528
6.230985
5.377675
3.817052
2.140326
0.721291
-0.308847
-1.051403
-1.513927
-1.690443
-1.823223
-1.540362
-1.196146
-1.114026
-1.216286
-1.771630
-2.721534
-3.441750
-3.097219
-1.837081
-0.281181
0.412917
0.173788
0.104880
0.715912
1.901480
2.605646
2.925950
3.507720
4.583163
6.073619
7.617878
8.653362
8.936223
9.282012
9.120600
8.013374
6.300464
4.388701
2.969037
2.346045
2.663202
2.706621
2.054682
1.121139
-0.479758
-2.123133
-3.322233
-4.245393
-4.838808
-5.488230
-6.040427
-6.329270
-6.305044
-5.428140
-4.292285
-3.160521
-1.704362
-0.198489
1.041197
2.524730
4.949671
7.138001
7.407018
5.263364
1.815520
-1.396657
-3.915993
-5.553704
-6.018116
-5.201623
-3.792345
-2.526858
-1.571608
-1.536370
-2.273577
-2.852519
-2.627237
-1.556513
-0.631469
-0.197265
-0.312425
-0.668916
-0.505933
0.160791
1.142471
1.886597
1.848838
0.397710
-1.775521
-3.171587
-3.132258
-1.625756
-0.141594
0.888541
2.031318
3.072780
3.335818
2.334627
0.467228
-1.813924
-4.347419
-6.924964
-8.158675
-7.179827
-4.242021
-0.162380
3.772210
6.763821
7.867582
7.240814
5.202879
1.921481
-1.562231
-4.329505
-5.714559
-5.709841
-4.403765
-2.478161
-0.852095
0.155700
0.035820
-1.274663
-3.271694
-4.972963
-5.365637
-4.602633
-3.154339
-1.017610
1.569056
3.675265
4.423796
3.744798
1.782062
0.067894
-0.064572
1.036986
3.182211
5.045831
5.635153
5.180180
3.762404
1.729818
-0.196105
-1.219635
-1.008512
-0.025888
0.810113
1.166600
1.147091
1.505780
1.911352
1.587270
0.681415
-0.652352
-1.268107
-1.059187
-0.905958
-1.030557
-0.991543
-0.882050
-1.490883
-2.450541
-3.503018
-4.184219
-3.765432
-3.019419
-2.495228
-1.607311
-0.261276
1.044170
1.993442
2.267808
1.817240
1.219105
0.740533
0.428407
0.101808
-0.440006
-0.760628
-0.234549
1.292405
2.810864
3.841942
4.952625
6.015168
6.432381
6.231324
5.595117
4.513378
2.951496
0.860072
-1.507922
-4.103401
-6.056383
-5.937764
-3.730870
-0.929933
0.767557
1.282309
1.449382
1.848975
2.403686
2.521361
2.052858
1.132844
0.221641
-0.515880
-0.683900
0.035998
0.542254
0.276381
-0.619405
-1.740789
-2.477996
-2.646960
-2.803024
-3.391405
-4.067571
-4.966503
-5.909171
-6.647007
-7.094429
-7.089396
-6.306255
-4.072616
-1.108380
1.251745
2.155079
2.025760
2.071696
2.427239
2.846969
3.242158
3.119446
2.168598
0.682229
-1.005195
-1.956358
-1.545123
-0.392278
0.201135
-0.026353
-0.417139
-1.477483
-2.792056
-3.243569
-2.946234
-2.591949
-2.283602
-1.468682
-0.234345
1.056313
1.669863
1.067952
-0.492042
-2.410413
-3.832280
-4.886645
-6.134201
-7.174407
-7.092602
-5.980031
-4.990799
-4.511287
-4.340124
-3.656095
-1.988496
-0.001851
2.038912
3.068418
2.808208
2.594879
2.597395
2.588898
2.646476
2.900704
3.121267
2.989430
2.536974
2.048334
2.297843
2.932159
3.084444
3.211243
3.456662
3.729455
4.302730
4.709560
5.243190
6.311711
7.306606
7.855025
7.769441
7.679137
7.938400
8.089112
7.456366
6.062503
5.026387
4.431713
4.308057
4.954329
5.772081
6.224219
6.368009
6.033229
5.374682
4.914675
4.775602
5.022279
5.259517
5.698755
6.756579
8.574890
10.826464
12.470149
12.833559
11.417356
8.787266
5.156616
0.864589
-2.401077
-4.076859
-4.044453
-2.896328
-1.445202
-0.138498
0.546475
0.720785
0.000884
-1.242266
-2.456470
-3.397564
-4.179450
-5.107329
-5.567022
-5.324750
-4.221618
-3.047377
-2.581395
-2.914602
-3.666911
-4.490330
-6.109162
-7.503655
-7.234952
-5.978276
-5.012642
-5.049457
-6.166121
-7.631094
-8.971783
-9.726924
-9.973605
-10.906518
-12.521260
-14.287030
-15.551576
-16.014415
-15.660445
-14.677821
-14.260608
-14.445619
-14.215617
-13.711563
-13.622207
-13.680731
-13.109659
-11.619518
-9.845256
-7.952374
-5.716533
-3.248801
-0.760932
0.709386
0.605238
-0.695177
-2.547158
-4.306321
-5.849639
-7.558144
-9.479661
-11.087481
-12.109124
-12.607517
-12.688382
-12.352032
-11.119582
-8.555885
-5.503234
-2.678069
-0.177929
2.543089
5.729462
8.582945
10.983029
12.224917
12.220825
11.424466
9.870135
8.210085
6.829751
6.002557
5.426447
5.006399
4.824849
5.044467
6.174344
7.425042
8.601485
9.932732
10.725942
11.329108
11.521667
10.856199
9.685731
7.666989
5.137269
3.021618
2.157926
2.536753
3.542660
5.152050
7.388206
10.054162
12.900407
15.594996
17.644569
19.252386
19.633730
17.670680
13.838030
9.673748
7.129869
6.269009
6.185312
5.741352
4.621855
3.535711
2.966838
3.260082
3.995713
4.684461
4.857513
4.748645
4.378625
3.733923
3.203121
2.959272
3.564956
4.861277
6.211088
6.984790
7.201262
7.545163
8.118124
7.991951
6.765792
4.958174
2.978134
1.156987
-0.141855
-0.334417
0.198270
1.281894
2.472181
2.907643
2.598664
1.485146
0.119600
-1.307930
-2.425853
-3.104222
-3.607335
-4.186907
-5.283748
-6.236170
-6.570635
-5.898248
-4.498409
-3.079692
-2.109025
-1.689295
-1.378430
-1.009672
-0.448353
0.529237
1.966203
2.680752
1.645895
-0.580825
-2.502972
-3.219097
-3.091354
-3.119988
-3.869151
-5.109784
-6.416492
-8.061754
-10.592418
-13.287009
-15.922134
-17.790791
-18.157980
-17.294605
-15.647458
-14.195389
-12.744578
-11.310444
-9.717730
-7.706543
-5.495244
-2.865157
-0.847048
0.035520
0.831562
2.023737
3.107361
3.644452
3.728460
4.146303
5.238736
6.493840
7.657697
8.574561
9.361793
10.370847
11.964190
13.629586
14.213559
13.210166
10.811022
8.165200
6.222916
4.709174
3.146978
1.503289
0.150643
-0.073068
0.367428
0.836557
2.437766
5.365190
8.724616
11.233880
12.443361
12.983284
13.174585
13.765165
14.803795
15.611478
15.954436
15.491282
14.284001
12.391745
9.706908
6.872301
3.963753
1.109009
-1.118655
-2.847297
-4.572478
-6.747911
-9.100173
-11.305812
-13.197123
-14.964152
-16.778376
-18.914794
-21.862043
-24.734407
-26.994793
-28.294579
-28.309998
-27.347511
-25.509691
-23.920753
-22.915160
-21.572586
-19.489976
-17.034200
-15.251128
-13.995081
-12.311121
-10.048850
-7.964666
-6.995572
-7.397370
-8.480368
-9.054276
-9.171009
-9.691428
-10.694192
-11.765863
-12.405530
-11.812433
-9.565265
-6.162418
-2.137525
1.930474
5.428027
8.385342
10.508541
10.746408
9.036645
5.809365
1.433958
-3.170193
-7.245746
-9.733303
-10.214706
-9.485684
-8.176147
-7.157654
-7.004740
-7.289807
-7.711113
-8.119834
-8.177100
-7.435492
-6.172837
-5.117846
-3.860540
-1.872636
0.931448
4.486266
8.501091
12.523466
15.678061
17.122893
17.492281
18.046363
18.532797
18.678160
18.241436
16.997656
15.191927
12.360466
8.814455
5.665521
3.534452
2.366816
1.791020
1.759869
2.417469
4.139185
6.937920
10.532069
14.017037
15.818043
15.398939
13.891176
12.930574
13.088207
14.166168
15.173334
15.677388
16.082015
16.456122
16.864526
17.120328
16.939407
16.251285
16.166015
17.439997
19.917168
22.771909
24.633012
25.281172
24.941673
24.117940
23.336998
22.626536
21.497286
18.995569
14.741300
9.430464
3.677871
-2.040426
-6.877097
-10.139931
-11.189891
-10.084557
-7.976775
-5.699716
-3.767504
-2.819176
-2.243069
-1.711012
-1.194686
-0.066698
1.043356
1.320553
0.910259
-0.448679
-3.382084
-7.506406
-12.495679
-17.880455
-22.854939
-26.436506
-27.821874
-27.708290
-26.589111
-25.278946
-24.840022
-25.309784
-26.097018
-26.654879
-27.170893
-27.294863
-26.719385
-25.648347
-23.877546
-21.866988
-20.299446
-19.297629
-18.183485
-15.694986
-12.448831
-9.474212
-7.429987
-7.102447
-7.314203
-7.237432
-6.981944
-5.895803
-4.206494
-2.843154
-2.196882
-2.278376
-2.774252
-3.676646
-4.112426
-3.159693
-1.122705
1.918933
4.824646
7.164948
9.075135
9.921205
10.125720
9.668544
8.810515
8.389209
8.568868
9.032962
9.104070
8.545894
6.581271
2.951879
-0.703628
-3.024740
-2.933495
-0.396542
3.395201
6.970786
9.140867
9.993544
9.087060
6.407571
2.858728
-0.267866
-2.018533
-2.417815
-1.147609
0.880884
2.404691
3.237860
3.734992
3.708561
2.860286
1.593537
-0.153354
-1.944610
-2.730271
-1.379517
1.808744
5.269800
8.341329
10.306578
10.360695
8.838458
7.410298
7.207038
8.156310
9.925223
11.702317
13.259476
14.920782
16.530172
18.066565
20.117397
22.451406
24.208678
25.220249
25.920324
26.725805
27.516183
28.377985
29.220908
29.631513
28.674058
26.514671
23.923597
20.519488
16.514730
12.047762
7.608798
3.326525
-0.353524
-2.987390
-5.193972
-6.807455
-7.815883
-8.064137
-8.019145
-7.855533
-7.807394
-8.692482
-9.844072
-10.930216
-11.947139
-12.931968
-14.290907
-16.203614
-18.870517
-22.522248
-26.551549
-29.363502
-30.169930
-28.919861
-26.482964
-24.176643
-22.067602
-20.508555
-19.990027
-20.539078
-21.221852
-21.559779
-22.305166
-23.041429
-24.074399
-24.798390
-23.557760
-20.176624
-14.632956
-8.267445
-3.229407
-0.565968
-0.071982
-0.899491
-2.622469
-5.149042
-7.800843
-9.823045
-11.296513
-12.245159
-12.862802
-13.391401
-12.916923
-11.128502
-9.395458
-9.219890
-10.598022
-12.162735
-12.868793
-11.854390
-9.380994
-6.472135
-3.165883
0.186306
2.790592
3.710603
2.967103
1.445180
-0.376596
-1.484135
-1.353561
-0.241304
1.449892
3.075958
4.407205
6.019427
8.844591
12.964821
17.553236
21.050790
22.485239
22.150459
20.811029
18.823122
16.370804
14.580492
14.031756
15.515918
18.655725
21.894958
24.594580
25.977428
26.632825
26.461344
25.583493
24.637679
23.835656
23.831249
23.213292
20.576279
15.521876
9.043406
2.224178
-4.656719
-11.335616
-17.169072
-21.660896
-25.214144
-27.366294
-29.302914
-30.973662
-31.552289
-30.950696
-28.193179
-23.740689
-17.320115
-9.535571
-1.648138
5.368366
10.505517
13.329108
14.248804
15.294985
17.116129
19.200313
20.693286
20.880181
20.055189
19.210375
18.504947
16.737290
13.943271
11.288954
9.649985
8.722420
8.066705
7.458502
6.831734
6.683537
7.376690
9.896653
14.116309
18.093376
20.473008
21.294221
20.880151
19.739260
19.006143
18.928425
19.066551
18.911432
17.928804
15.973935
13.050284
9.551784
6.339292
4.148756
3.434204
3.712660
4.079530
4.707868
6.162454
8.991080
12.824986
16.010100
17.175531
16.399623
14.545439
11.421362
7.001276
2.197642
-2.488001
-6.851137
-10.332332
-12.304507
-13.183617
-14.333948
-17.019100
-20.935759
-24.510403
-27.431222
-30.170493
-32.566175
-34.269331
-35.693715
-38.056045
-41.289932
-44.361150
-46.955056
-49.207576
-51.555433
-54.247193
-56.969473
-58.864560
-58.674833
-55.265694
-48.553762
-40.396997
-33.169053
-28.021834
-25.333538
-25.005683
-25.846722
-26.856093
-27.731428
-27.790582
-27.333095
-26.459651
-25.214302
-24.586908
-24.549467
-24.699238
-24.179767
-22.429103
-19.341841
-15.389002
-11.934554
-9.385330
-7.376974
-5.304432
-2.828519
0.214377
3.709099
7.267379
9.960079
10.846108
10.240107
8.927106
8.464267
9.850891
12.361414
14.882320
16.852604
18.200212
18.931123
19.617669
20.154131
20.163254
20.316169
20.694052
21.131402
21.357313
20.691844
19.396464
18.042874
17.401948
17.869818
19.039025
21.209106
24.529516
28.473861
32.160829
34.568150
35.119715
34.094926
31.817863
28.779998
26.608026
26.771008
29.634245
33.208256
35.298733
35.113093
32.868753
29.644935
25.437232
20.401078
15.027314
10.212038
6.314887
3.042613
0.774676
-0.797590
-1.543292
-1.608739
-1.357342
-0.475088
1.121716
3.236105
5.213941
7.079134
9.134056
10.745649
11.105597
10.679885
10.449566
10.427225
10.003087
8.772208
6.803494
4.119286
1.186510
-1.766402
-4.270950
-5.109471
-4.581819
-3.400656
-1.504313
1.947303
6.923357
11.702760
15.253488
16.977093
16.518659
14.298232
11.927092
10.421216
9.297000
8.312800
7.379886
6.329926
4.268078
1.160362
-2.060625
-5.033989
-7.293431
-9.033715
-10.980089
-13.353432
-16.160665
-19.175247
-21.941262
-23.935147
-24.390120
-23.307440
-20.937877
-17.551706
-14.073031
-11.120436
-9.271919
-8.788946
-8.921411
-8.687949
-7.684873
-6.312408
-5.691622
-6.162013
-7.260428
-8.610556
-9.557629
-9.773160
-9.267218
-8.284594
-7.172967
-5.559487
-2.975967
0.079830
3.224356
5.677929
6.635382
6.249944
4.960856
3.685927
2.292379
0.671973
-1.560410
-4.693297
-8.205642
-11.792243
-14.158349
-15.786935
-17.612172
-19.702337
-21.510269
-22.397874
-23.032508
-23.025272
-22.305689
-20.842293
-18.502305
-15.669274
-12.876518
-10.978602
-9.602361
-8.362675
-6.924450
-4.771989
-2.247307
-0.102083
1.170012
1.661165
1.351242
0.259434
-0.794931
-0.805945
0.474330
3.199124
7.515060
12.756043
17.931265
21.953955
24.230385
24.835125
24.191996
22.901020
21.279671
19.839870
19.163389
19.556374
20.797004
22.048018
22.520608
22.379332
22.052418
21.346675
20.254238
18.432777
15.904945
12.799117
8.480346
3.185872
-2.165239
-6.984919
-11.019884
-13.726432
-15.139488
-16.015452
-17.022621
-18.479727
-20.045700
-21.594367
-22.902019
-24.108041
-26.054730
-28.864795
-32.015931
-34.988666
-36.596171
-35.696298
-32.729859
-28.541668
-23.631059
-18.366793
-13.345430
-9.143709
-6.008308
-4.034248
-2.782291
-1.734536
-0.575713
0.539689
1.139395
1.050035
0.703928
0.707387
1.516329
3.917986
7.952318
12.427149
16.264515
19.335100
21.935926
24.345449
26.745533
28.867159
30.547343
31.472703
31.012695
28.864321
25.272372
21.817606
19.931014
19.386053
19.726179
20.411782
20.910487
20.817981
19.768335
18.240120
16.955751
16.692709
17.207147
17.143902
15.702528
13.149210
9.945214
5.936679
1.740933
-1.895066
-4.530820
-5.930032
-6.414267
-6.594873
-6.660005
-6.420879
-6.105295
-5.536740
-4.635922
-3.353130
-2.285239
-2.093623
-2.367992
-2.892187
-3.344014
-3.568984
-3.415126
-2.619399
-1.004031
1.708178
4.892978
7.791454
10.195943
11.872981
13.284776
15.150598
17.060156
17.900562
17.058265
14.446424
10.681108
6.690822
2.866667
-0.297055
-2.317999
-3.625336
-5.633065
-8.753052
-12.470229
-16.176707
-18.455028
-18.792955
-18.038761
-17.140146
-16.227058
-15.139029
-13.937100
-12.408258
-10.784395
-9.289220
-7.718216
-6.307051
-5.311526
-4.863164
-5.522025
-7.287795
-9.848349
-12.973370
-15.989211
-18.315357
-19.625526
-20.490792
-21.763204
-23.309668
-24.634940
-25.194060
-24.702276
-23.519855
-22.154312
-20.856103
-19.385785
-17.628199
-15.336666
-12.207243
-8.391272
-3.835579
0.778323
4.977842
8.197567
9.637994
10.000145
10.098941
10.799332
12.092507
13.265803
14.388443
15.168438
15.606102
16.437698
18.111590
20.724057
23.902564
26.897321
29.223464
30.147250
28.995975
25.686259
20.425451
13.996065
7.321258
1.758394
-2.017306
-4.512730
-5.492839
-5.152084
-4.409532
-4.138942
-4.900376
-5.768159
-6.262147
-6.655451
-6.920695
-7.474781
-7.958701
-7.798550
-7.113577
-6.338931
-6.160531
-6.915357
-8.227729
-9.291219
-9.689242
-9.016854
-7.093452
-4.211967
-1.007030
1.627462
3.324323
4.213498
4.971468
6.001288
7.135255
7.957726
8.173883
7.939788
7.321202
6.516662
5.751452
5.489668
6.003477
7.029206
7.831226
7.615695
6.788186
6.005042
5.529932
5.422637
5.591913
5.755210
6.071738
6.710459
6.428224
4.729473
2.566311
0.783550
-0.297560
-0.992604
-1.749004
-3.036204
-4.941360
-6.767856
-8.136863
-8.909939
-8.892949
-8.214269
-7.242658
-6.664663
-6.142045
-5.382502
-4.639635
-3.678406
-3.021122
-2.875130
-2.934913
-2.793326
-1.996026
-0.770813
0.720586
2.297253
3.731702
5.095042
6.476317
7.788056
8.775400
9.258688
8.897163
7.906670
6.823357
5.250463
3.000145
0.474201
-1.646169
-3.340830
-5.046189
-6.617510
-8.332623
-10.093988
-11.150870
-10.509318
-7.556408
-3.235123
0.936707
4.058894
6.245336
7.693000
8.199886
7.509561
5.612586
3.709003
2.853806
2.438477
1.548040
0.000632
-2.014020
-4.127154
-5.601880
-6.096184
-6.144955
-6.299130
-6.809795
-7.529697
-8.019280
-7.851263
-6.823646
-5.232820
-3.646084
-2.486317
-1.796624
-1.567252
-1.981637
-3.190176
-4.670566
-5.538978
-5.195391
-3.649245
-1.685883
0.219899
1.594881
1.925883
1.443221
0.951120
1.176087
2.022157
3.046313
3.533691
3.131578
2.076898
0.997047
0.834061
1.214146
1.198413
0.728022
0.075768
-0.717444
-1.480137
-2.058764
-2.849145
-4.044785
-5.258988
-5.653550
-5.114885
-4.262838
-3.596428
-3.754380
-4.992496
-7.153770
