EVENT_NAME: 202010301151
EVENT_ID: 10614
EVENT_DATE_YYYYMMDD: 2020/10/30
EVENT_TIME_HHMMSS: 11:51:24.00000
EVENT_LATITUDE_DEGREE: 37.879
EVENT_LONGITUDE_DEGREE: 26.703
EVENT_DEPTH_KM: 16.54
HYPOCENTER_REFERENCE: AFAD
MAGNITUDE_W: 6.6
MAGNITUDE_W_REFERENCE: AFAD
MAGNITUDE_L: 
MAGNITUDE_L_REFERENCE: 
FOCAL_MECHANISM: 
NETWORK: TK
STATION_CODE: 3533
STATION_NAME: 
STATION_LATITUDE_DEGREE: 38.25717
STATION_LONGITUDE_DEGREE: 27.13017
STATION_ELEVATION_M: 127.0
LOCATION: -_-_-
SENSOR_DEPTH_M: 
VS30_M/S: 415
SITE_CLASSIFICATION_EC8: B
MORPHOLOGIC_CLASSIFICATION: 
EPICENTRAL_DISTANCE_KM: 56.27
EARTHQUAKE_BACKAZIMUTH_DEGREE: 
DATE_TIME_FIRST_SAMPLE_YYYYMMDD_HHMMSS: 2020/10/30 11:51:08.2953430
DATE_TIME_FIRST_SAMPLE_PRECISION: millisecond
SAMPLING_INTERVAL_S: 0.01
NDATA: 10501
DURATION_S: 
STREAM: HNZ
UNITS: cm/s^2
INSTRUMENT: sensor = GMS+/GEOSIG | digitizer = 
INSTRUMENT_ANALOG/DIGITAL: 
INSTRUMENTAL_FREQUENCY_HZ: 
INSTRUMENTAL_DAMPING: 
FULL_SCALE_G: 
N_BIT_DIGITAL_CONVERTER: 
PGA_CM/S^2: 43.701
TIME_PGA_S: 
BASELINE_CORRECTION: BASELINE REMOVED
FILTER_TYPE: BUTTERWORTH
FILTER_ORDER: 
LOW_CUT_FREQUENCY_HZ: 
HIGH_CUT_FREQUENCY_HZ: 
LATE/NORMAL_TRIGGERED: 
DATABASE_VERSION: 
HEADER_FORMAT: DYNA 1.2
DATA_TYPE: Acceleration
PROCESSING: Manual Paolucci et al., 2011
DATA_TIMESTAMP_YYYYMMDD_HHMMSS: 
DATA_LICENSE: U (unknown license)
DATA_CITATION: Turkish Accelerometric Archive v 1.0 - Disaster And Emergency Management Presidency, Earthquake Department
DATA_CREATOR: AFAD
ORIGINAL_DATA_MEDIATOR_CITATION: : AFAD - Disaster And Emergency Management Presidency
ORIGINAL_DATA_MEDIATOR: AFAD PROCESS SERVICE
ORIGINAL_DATA_CREATOR_CITATION: AFAD PROCESS SERVICE
ORIGINAL_DATA_CREATOR: network: TK
USER1: GuestUser
USER2: 
USER3: 
USER4: 
USER5: 
[...]
0.002231
0.000412
-0.000108
0.008984
-0.004265
-0.007383
-0.002188
0.004826
0.003526
0.001188
0.010799
-0.006086
0.001966
0.001186
-0.008166
0.001186
-0.002452
0.006900
0.000924
0.003002
0.005340
-0.010766
-0.007130
0.005338
0.005078
-0.005832
-0.001417
0.003518
0.004817
-0.004016
-0.004276
-0.004017
-0.011031
0.005854
0.012348
0.008710
-0.001681
-0.009214
-0.008176
0.001175
0.002474
-0.002982
0.009227
0.001433
-0.011815
-0.001944
0.015200
0.003250
-0.008959
-0.004284
-0.003505
0.007405
0.007924
-0.004805
-0.001429
0.001688
-0.001170
0.004285
-0.000911
-0.004548
-0.006627
-0.000392
0.001166
-0.001432
0.006360
-0.004031
-0.001953
0.001943
0.002462
0.011034
0.000903
-0.011827
-0.008450
0.000901
-0.001437
0.007395
0.012590
0.003238
0.001938
-0.003258
0.001418
-0.002479
-0.003519
0.005573
-0.004039
0.000377
0.006870
-0.001702
0.002194
0.005051
-0.000924
-0.004821
-0.002484
0.005569
-0.005342
-0.000926
0.007386
-0.002486
-0.000408
-0.002227
0.002448
-0.000929
-0.004566
-0.000150
-0.001709
0.000368
0.000628
0.000627
0.000367
0.005562
-0.001192
-0.000933
0.002443
-0.007688
-0.000675
0.003221
0.000104
0.000883
-0.001715
-0.005872
-0.000417
0.004518
-0.001977
0.003478
0.003737
0.000879
0.003996
-0.000161
-0.003018
-0.007954
0.004774
0.006592
-0.005358
0.001915
-0.005359
-0.000164
0.006849
0.001134
0.001393
-0.003802
0.003730
-0.003024
-0.008220
0.004768
0.001910
0.004248
0.003728
-0.006663
-0.003027
-0.000430
0.000869
0.003986
-0.001210
-0.002509
-0.005627
0.002945
0.003983
-0.005888
0.001904
-0.000434
0.000345
-0.003812
-0.006150
0.004240
0.000863
0.004239
0.003460
-0.001217
0.000601
-0.001477
-0.003296
-0.001998
-0.002777
-0.004596
0.004236
0.010470
0.001897
-0.001481
-0.002520
-0.009794
-0.005378
0.001635
0.006830
0.006570
0.001894
0.003452
-0.002264
-0.003823
0.000073
0.000333
0.001891
0.001631
0.003709
-0.002786
0.000331
0.004746
-0.005905
0.000070
-0.003827
-0.007205
0.002147
-0.001491
-0.000712
0.005782
0.000586
0.000066
0.007859
-0.001233
-0.010585
-0.005910
-0.005651
-0.006690
0.002661
0.002401
0.003699
0.003699
0.000321
0.005257
-0.001238
0.000060
-0.001758
0.003177
0.003956
-0.007734
-0.002799
0.002656
-0.003320
-0.003840
0.006291
0.001615
0.004212
-0.002802
-0.009297
-0.001504
-0.003842
0.002651
0.000573
0.004988
0.003429
-0.000987
-0.002027
-0.005924
0.001869
-0.009561
-0.000989
0.007323
0.006543
0.004465
-0.003329
0.006022
-0.006187
-0.007227
0.001345
-0.003850
-0.002812
0.002123
0.007318
0.004460
-0.006190
-0.000996
0.002901
-0.004893
-0.008790
-0.000478
0.004717
-0.000998
0.010691
0.000300
-0.004636
-0.004896
-0.008014
-0.006196
0.000817
0.009129
-0.004639
0.012506
0.006011
-0.002042
-0.001783
-0.004641
-0.000745
-0.007239
0.001073
-0.000226
0.004709
-0.006462
0.007825
0.004448
-0.012178
0.002369
-0.006464
0.001329
-0.004127
0.006264
0.005484
0.004444
0.003665
-0.017896
0.007820
-0.003610
-0.001792
0.000286
-0.006988
0.006000
-0.009067
0.009376
0.008336
0.008855
0.003400
-0.010888
0.005217
-0.009850
-0.000239
-0.012448
-0.013488
0.015606
0.000539
0.015345
0.006773
-0.009593
-0.013230
-0.024920
0.009109
0.016642
0.007809
-0.000764
-0.005440
0.009886
-0.009597
0.000793
0.011963
-0.007260
0.003390
-0.007521
0.003129
0.007545
-0.019991
0.001309
0.006764
0.000270
0.007543
0.004685
0.000009
-0.007006
0.000787
0.000527
0.004423
0.005981
-0.001033
-0.002073
-0.005970
0.001563
0.009356
0.012732
-0.003633
-0.014024
-0.015583
-0.022078
0.011172
0.012210
0.002858
0.029874
0.005715
-0.019743
-0.015587
-0.013249
-0.002599
0.007012
0.014285
0.013505
0.008829
-0.010394
-0.018448
-0.004680
-0.012734
0.003372
0.027270
0.013761
0.007007
0.005448
-0.003644
-0.012217
-0.009880
-0.005724
-0.002607
0.014797
0.014017
0.004925
0.003366
-0.014039
-0.016377
0.005443
0.003624
-0.001052
0.008039
-0.007547
-0.005989
0.001804
0.000245
0.003881
-0.004692
0.004400
-0.007290
-0.006511
0.012971
-0.006252
0.002319
0.010112
-0.008851
-0.003916
-0.002878
-0.005735
0.007772
-0.002100
-0.006516
0.004913
-0.000802
0.008809
0.005172
-0.000024
0.006210
-0.008597
-0.008338
-0.004442
0.000753
0.006208
-0.002625
0.007766
0.003869
-0.015355
-0.002886
0.001270
-0.000029
0.009841
-0.001849
-0.002628
0.003606
-0.007825
0.006722
0.002565
-0.005748
0.007500
-0.006528
-0.002632
-0.002632
-0.002892
0.007498
-0.001075
0.001782
-0.002115
-0.001336
0.004379
-0.005753
-0.002376
0.002819
-0.005235
0.005416
0.004896
0.001778
0.009830
-0.008354
-0.009393
-0.004198
0.003075
0.001775
-0.004719
0.014763
0.000735
-0.006539
-0.003942
-0.005501
0.003851
-0.008359
0.002551
0.009564
-0.002645
0.004628
0.003588
0.005146
0.003847
-0.007843
-0.010960
-0.009402
0.008521
0.009040
-0.003948
0.005143
-0.006027
-0.004989
0.007999
-0.000573
0.003582
-0.005770
-0.001874
0.007478
-0.005771
0.009295
0.000722
-0.006032
0.003579
-0.007332
0.003318
-0.002397
-0.003177
0.005395
-0.001879
0.005654
0.000458
0.002536
0.007991
-0.003699
-0.010454
-0.004999
0.006171
-0.002402
0.002014
0.004351
-0.010196
0.000454
-0.001365
0.001752
0.007726
-0.008120
-0.006302
-0.001367
0.001230
0.005906
0.002268
0.006424
-0.001369
-0.012799
-0.003968
-0.003449
0.006682
0.010838
0.003824
0.009019
-0.003451
-0.011764
-0.010206
-0.002413
0.003821
-0.000076
0.001742
0.002521
0.005898
-0.005273
-0.010469
0.003818
-0.000339
0.000181
0.006674
-0.001119
0.003037
0.005374
-0.004757
-0.004238
-0.000342
-0.001381
-0.001122
0.007969
0.000695
-0.007098
0.001214
-0.009177
0.005629
0.021735
0.015500
0.002771
-0.029181
-0.013076
-0.007881
-0.005024
0.023290
0.005626
-0.001389
-0.009702
0.002247
0.011599
-0.015937
0.001467
0.002505
-0.007106
0.009258
0.004322
-0.000094
0.000425
-0.001913
0.000944
-0.003213
0.000164
-0.001655
-0.014124
0.003280
0.016268
0.013669
-0.002696
-0.011529
-0.000099
-0.006075
0.000159
0.005874
-0.001400
0.004574
0.001457
-0.009714
0.000417
0.003014
-0.003481
-0.001403
0.015482
0.008987
-0.009197
0.005609
-0.012835
-0.000626
0.001192
-0.008940
0.024830
-0.000108
-0.004525
-0.006603
-0.018813
0.008203
0.018073
0.029243
-0.006086
-0.038038
-0.003749
0.000667
0.001965
0.011576
0.003523
-0.001153
-0.011025
0.003781
0.018588
-0.004012
-0.004792
-0.002195
-0.015444
-0.001157
-0.002196
0.001700
0.009752
-0.007393
-0.001938
0.002478
-0.005835
0.003516
0.017023
-0.005837
-0.005837
0.009748
-0.015709
-0.000903
0.012864
0.001694
0.008967
0.001174
-0.008698
-0.005841
-0.003503
-0.007400
0.004808
0.010523
-0.006363
-0.004025
0.006105
-0.003247
-0.006884
-0.002208
-0.000910
0.010260
0.007402
-0.003509
-0.003769
-0.003770
-0.004809
-0.002991
0.007919
0.000385
-0.005330
0.004281
-0.001954
0.003241
0.012332
0.000642
-0.010268
-0.007411
-0.000658
-0.002996
0.001419
0.006355
-0.002218
-0.000400
0.002457
0.000119
-0.000921
0.004014
0.010508
0.000377
-0.002481
-0.002741
-0.002742
0.002713
0.002193
0.001153
0.000633
0.006348
-0.000926
-0.008979
-0.000667
0.000891
0.008424
0.004527
-0.004825
0.004007
0.000110
-0.003268
-0.005087
-0.000151
0.005823
-0.002490
-0.000412
-0.002231
-0.002751
0.007120
0.006600
-0.001973
-0.003272
0.005559
0.007637
-0.006651
-0.005872
-0.001196
-0.002496
0.005817
-0.004834
0.002698
0.008413
-0.003537
-0.004576
-0.005876
-0.001200
0.000618
0.004774
-0.008994
-0.002501
0.003733
-0.000943
0.013604
-0.005620
-0.010036
-0.002503
0.005549
0.006068
-0.000167
0.008405
-0.007701
-0.003285
-0.001467
-0.012897
0.003468
0.006325
-0.002508
0.001128
0.000609
-0.000171
0.005543
0.008660
0.009958
0.006841
0.001905
-0.005369
-0.013942
-0.009526
0.003202
-0.001474
0.005799
0.007617
0.000083
0.006577
-0.004853
0.000861
-0.004854
-0.001997
0.006835
-0.006674
0.005275
0.004495
0.000598
-0.011871
-0.007195
0.005273
-0.002261
0.008130
-0.002262
-0.009016
-0.011095
0.003972
0.021116
0.007608
0.009685
-0.007720
-0.015513
0.001112
0.001631
0.002410
0.007864
0.013839
0.005526
-0.009541
-0.009802
0.000329
0.000588
-0.002789
0.002406
0.008120
0.008639
0.007600
-0.007467
-0.011364
0.005521
-0.005650
-0.005650
0.004220
0.008636
0.005518
-0.006951
0.006037
0.007855
-0.004874
-0.010330
-0.006433
0.014867
0.038765
0.053572
0.064741
0.064741
0.068377
0.086301
0.067857
0.021877
-0.043325
-0.108267
-0.130088
-0.146454
-0.171912
-0.166457
-0.069564
0.067074
0.180852
0.292292
0.413863
0.603493
0.818061
0.941450
0.993923
1.113156
1.306163
1.389548
1.195241
0.760909
0.275142
-0.249330
-0.781335
-1.260867
-1.740918
-2.184083
-2.441253
-2.310331
-1.826124
-1.179042
-0.437405
0.562181
1.666974
2.192224
2.077146
1.630865
0.897799
0.130964
-0.312980
-0.607297
-0.996430
-0.716920
0.574905
1.453440
0.848180
-0.283369
-0.856677
-0.872784
-0.667308
-1.202430
-2.795587
-4.071048
-3.642951
-1.513893
0.850254
2.036094
1.727749
0.908181
0.826614
1.308223
1.728527
1.737359
1.376800
1.598122
2.458733
2.428080
0.833104
-0.998260
-1.448698
-0.678746
-0.105958
-0.470933
-1.621185
-2.688053
-2.561806
-1.586638
-0.821102
-0.330401
0.231737
1.390301
2.870978
3.133083
1.493947
-0.789153
-1.363501
0.487086
2.474569
2.114790
-0.118435
-1.767702
-1.592619
-0.382620
0.369408
0.089897
-0.982425
-1.745884
-1.400912
-0.973335
-0.561343
0.335895
1.564077
3.484801
4.664666
3.052286
0.615403
0.297706
1.233390
1.331582
0.314590
-0.675646
-0.078700
2.202582
4.103823
3.561687
0.899325
-1.985658
-3.681164
-3.654928
-3.318009
-3.693894
-3.445296
-2.653004
-1.678875
-0.280545
-0.003892
-0.409910
0.723197
2.040740
1.431584
-0.333800
-1.785643
-1.507432
0.521615
2.035802
1.515746
-0.210412
-0.921917
-0.570452
-1.018811
-1.662777
-2.072431
-2.636647
-2.659767
-2.256088
-0.919323
1.191291
2.139184
1.714463
0.507581
-1.297547
-2.521054
-1.335734
2.546497
5.708392
5.699040
4.194724
2.455577
1.681468
2.393232
2.594032
1.026072
-1.278329
-2.279475
-1.193386
0.806307
2.275034
2.459989
0.150132
-3.717813
-6.117809
-6.508241
-4.891446
-1.968018
0.179743
1.238816
1.328436
0.506010
0.069859
0.080769
-0.186273
0.915922
4.024565
6.265582
5.196377
1.519621
-2.476129
-4.076560
-1.825412
0.810453
1.074117
1.588197
4.101192
6.996305
8.149934
7.652218
6.270772
4.272117
2.087728
-1.212624
-4.960556
-6.171594
-4.432189
-1.888282
-0.332792
-0.559310
-2.703175
-5.294101
-4.791190
-2.301575
-2.719542
-4.208013
-3.688477
-2.490428
-2.248584
-4.355303
-7.831518
-10.081887
-9.098926
-4.827563
-0.200057
3.347853
5.920594
7.129034
7.405946
7.183065
6.038007
3.293299
0.075813
-1.191076
-0.003937
0.875637
-0.174865
-1.588522
-2.552262
-2.681626
-2.634609
-2.969450
-2.934382
-2.062341
-0.786622
-0.579327
-0.206561
0.249332
-0.146555
0.403633
0.130357
-1.581774
-1.484881
0.731718
2.643350
3.908679
5.833819
6.486095
4.160393
0.554814
-1.994289
-2.884514
-2.572014
0.044108
3.853085
4.924367
2.229535
0.051900
1.165005
3.793336
6.307889
5.302327
1.712074
0.481553
0.716903
0.191132
-0.872878
-0.984319
-0.009410
0.452716
0.156321
-0.016945
0.019942
-1.250324
-2.549943
-1.426707
-0.894963
-1.771939
0.611431
5.674567
8.826331
8.473046
4.295458
-1.130315
-3.076237
-1.569064
1.309164
3.740332
3.663440
1.671799
-0.540645
-1.932222
-2.510466
-1.812470
-0.989006
-1.476331
-1.427235
-1.217084
-0.117486
2.992455
4.765890
3.174811
0.006681
-2.474882
-4.218445
-4.843967
-5.012816
-6.534537
-8.111329
-8.663856
-8.154191
-5.303239
-0.505326
4.107113
6.094597
4.667172
3.517179
3.149607
0.682590
-1.514527
-2.890518
-4.629925
-5.449233
-6.173986
-5.126342
-1.776116
0.820524
2.203008
1.452798
-2.150963
-6.970957
-10.660181
-11.788874
-9.946600
-6.246726
-3.664373
-2.653617
-1.395041
1.263423
6.253824
12.275504
16.054607
15.874068
12.380189
9.458579
10.628573
13.496411
14.743296
13.827614
9.673145
4.276726
1.991807
1.909200
1.645535
0.914028
0.827785
4.073845
8.418463
9.574170
9.136720
9.018006
7.374454
3.507808
-0.097512
-3.299412
-6.299212
-6.726011
-6.092438
-6.448060
-7.116703
-6.671721
-4.002866
-1.602871
0.171863
1.014290
-2.627916
-7.644295
-9.590477
-9.259273
-9.959088
-11.555103
-9.365519
-6.860578
-7.397778
-4.349402
6.458762
19.798364
23.619549
16.244997
9.608446
6.405247
1.616685
-3.525162
-8.215012
-14.709990
-21.444993
-21.888937
-14.778310
-9.684262
-8.431661
-5.818916
-4.934666
-5.951658
-4.791795
-1.110624
4.498544
11.940116
21.588416
27.822066
24.883311
18.278451
12.389252
6.779823
0.373686
-9.079269
-15.244601
-12.606399
-10.215495
-16.138724
-24.166072
-23.632510
-12.744078
1.914886
11.889973
11.843215
2.234659
-9.126812
-14.195923
-13.589366
-7.865640
1.587834
5.362262
0.497068
-3.800793
-2.754967
1.945792
9.366063
13.822121
8.368553
-7.602759
-20.740782
-18.298704
-9.935995
-0.684361
10.854270
15.475281
13.044892
6.878261
-6.194560
-22.438109
-27.866220
-18.353779
-6.314055
0.458873
-1.702137
-4.161360
9.748433
31.953394
41.259060
31.210717
11.522126
-3.602861
-4.124476
1.393774
-4.908196
-18.753048
-18.361059
-1.458220
7.352848
2.569481
-0.698400
2.378031
7.618589
9.930523
10.448240
4.891544
-4.549462
-7.040637
-11.678534
-15.380227
-3.357389
14.364238
21.788145
10.358356
-5.502554
-5.641270
7.429472
29.633135
43.701386
26.559819
-10.275013
-28.815949
-15.384908
1.958497
3.724918
0.739405
3.139660
5.532382
2.354900
-7.350030
-10.314502
-5.677385
-10.549333
-12.404596
-8.211422
-4.568437
-2.996582
-4.980950
-0.950391
-2.137011
-2.948267
7.046044
17.180110
20.115227
9.053789
0.081664
-5.782597
-16.880143
-20.627296
-16.913654
-7.758134
3.859986
9.331997
9.103920
4.261846
-7.621498
-9.782768
4.580839
10.762277
1.622861
-10.328542
-11.934428
-3.718488
1.583635
2.712586
-5.994836
-21.271528
-25.541853
-20.245445
-11.023685
-3.608610
-1.451757
-0.278386
0.424026
-0.921312
-7.971934
-14.620434
-17.453983
-18.159513
-13.356405
-2.794501
8.329800
9.291460
8.202253
12.810276
13.044586
5.174397
-4.305834
-7.497863
-8.318989
-4.841736
-4.838360
-16.870551
-18.742958
-11.173062
-8.472775
-7.463836
-7.173676
-10.213221
-14.071554
-5.541036
10.897857
21.729400
31.971529
37.527185
31.190406
23.634536
18.161485
10.019319
4.863705
3.149496
1.133696
1.289816
0.421672
-0.419977
0.492328
-0.632208
3.073381
8.223280
8.943096
8.466681
0.017729
-7.858435
-1.642449
8.637087
8.505644
-1.909751
-6.410490
-0.891721
3.537062
10.701460
23.118107
25.565380
15.781221
3.405357
-7.662315
-5.707822
5.477005
6.544651
4.110105
-0.571173
-12.905993
-20.815407
-25.040793
-23.915219
-14.658130
-6.463751
0.843001
3.017518
2.733591
5.420630
-0.659758
-9.937110
-9.246388
-6.102677
-10.522888
-12.638698
-3.561369
2.388096
1.180175
3.560168
10.124243
9.223887
-1.921196
-13.754145
-22.861090
-22.167769
-16.611853
-17.790421
-20.615657
-18.097987
-6.317772
7.523442
13.273405
5.961197
-5.893573
-4.853722
3.443785
4.896926
2.494852
9.850699
24.090917
31.461571
27.253331
11.344104
0.362934
-2.675312
-8.979101
-10.235339
-4.618897
3.980460
6.782576
3.205831
1.560201
-1.481942
1.001959
7.212230
6.052885
-1.634947
-4.779438
4.350105
18.300681
22.401897
6.109512
-4.804638
1.966213
4.966012
10.250990
17.618008
15.050462
6.965444
2.352745
4.423355
2.817469
-3.844020
-12.203352
-21.051308
-22.237409
-17.043609
-10.855938
-7.474020
-7.739763
-10.249121
-9.030810
4.748060
21.769872
27.307084
23.769824
20.881724
13.159343
2.278184
-1.069966
-8.540372
-13.960950
-2.728325
5.857524
1.679676
-4.018334
-7.202570
-7.265694
-8.053570
-12.027500
-12.840834
-13.702745
-16.037539
-11.365354
5.130948
22.508383
25.231010
19.324406
12.200271
9.651947
11.180941
8.521176
9.303337
11.784900
7.446515
-0.805793
-6.886700
-5.617215
-5.567080
-12.257403
-13.899657
-10.747893
-12.502106
-14.147736
-9.609591
-2.080738
5.084181
8.619362
2.315573
-5.993364
-6.971131
-8.989528
-9.024857
-7.185181
-9.199162
-10.973897
-12.797988
-5.102623
2.496108
-5.389408
-12.143114
-12.622646
-6.503813
-0.181322
-6.738644
-12.757987
-9.850665
-2.955386
3.422436
5.375111
4.427217
2.841853
2.279715
5.438752
12.522623
15.292009
14.443606
10.067815
-5.251219
-12.870473
-6.193658
0.933854
11.741238
11.496276
-5.851545
-16.458909
-15.771564
-6.526424
0.803707
-6.567987
-10.549191
5.964515
24.597148
25.218513
20.433068
18.751330
14.059661
7.916149
6.653417
9.618927
3.592051
-4.416854
-3.760161
-1.280677
-2.503145
-4.659739
1.726395
4.254196
-2.262862
-1.399653
4.867767
6.228171
-3.014891
-12.421608
-6.296021
2.655581
5.983727
9.528780
13.203716
21.189242
23.343497
14.555028
2.627264
-11.766477
-17.059509
-10.227094
0.217395
4.654750
-3.298825
-7.652795
-3.759134
-4.229834
-5.375411
-5.625308
-7.041563
-4.803144
-0.738296
2.069016
0.126731
-8.080377
-17.200570
-23.068208
-20.010221
-7.130927
0.904214
0.086204
-0.078489
-7.014293
-22.456198
-28.404364
-14.481843
1.618573
1.002143
-6.109264
-11.247474
-9.085426
-0.414114
6.509221
7.519717
-1.659183
-4.092949
-0.323716
-3.260653
-3.560166
-6.441772
-5.650259
7.312160
11.983306
3.204708
-2.300034
4.816308
11.897581
8.576188
3.723722
1.659346
-0.875989
-2.352510
-4.222840
-10.907448
-19.234309
-19.570449
-5.188139
7.484379
6.030717
-0.469976
-4.973572
-0.960158
6.448942
11.723010
11.674952
3.448621
0.091900
4.933194
6.571810
-2.402913
-9.178440
-0.552587
6.710524
-1.971180
-12.759862
-4.762647
13.251998
16.696780
6.646359
-3.550572
-7.503980
-1.951441
8.367839
13.500074
13.185754
11.995237
10.202318
11.808203
15.394039
10.355840
2.434736
-0.035917
-0.462196
2.850624
2.356804
-6.472448
-12.028884
-11.907833
-6.220474
3.834102
1.429950
-11.551953
-8.887254
1.765569
3.471464
-0.371543
-6.587270
-6.523108
-3.956601
0.966260
8.488100
4.547940
-1.565959
-3.805159
-1.219949
8.994905
10.687033
7.116782
4.855502
-2.794924
-3.938942
5.246451
8.652788
1.193032
-9.277694
-12.716243
-9.913607
-10.676805
-7.655185
2.856843
7.098853
3.956699
5.748838
12.585669
11.409700
2.747997
-1.545187
6.030944
19.792409
21.099301
3.521584
-10.193903
-5.238570
6.295125
14.162716
14.012569
6.713090
-2.672585
-4.569670
-0.490275
-0.975782
-2.129412
-2.369438
-9.583973
-20.590600
-17.594957
-5.937352
1.680082
9.025539
10.628047
8.500807
3.880055
-3.286942
-3.444102
-3.003017
-1.729115
7.697083
19.007897
25.094519
19.143755
8.198693
1.322895
1.243146
14.517287
23.098200
14.042170
8.699004
16.694400
17.183543
-0.570297
-11.961900
-8.816370
-5.794750
1.095853
10.028233
14.583263
18.252744
15.820796
7.037523
-1.366230
-5.347693
-1.737958
8.756146
18.725259
11.985580
-4.374085
-11.003623
-11.828386
-5.094423
3.717684
3.365698
2.478590
-0.294952
-4.621387
-2.135928
1.444972
4.057458
11.032745
10.410341
-6.209092
-17.884101
-9.720375
5.134193
8.021253
5.136011
6.077929
1.281314
-9.620108
-13.633003
-2.863285
7.616272
6.627855
1.130646
-7.889796
-15.637115
-12.616014
-0.153389
5.108730
