EVENT_NAME: 202010301151
EVENT_ID: 10614
EVENT_DATE_YYYYMMDD: 2020/10/30
EVENT_TIME_HHMMSS: 11:51:24.00000
EVENT_LATITUDE_DEGREE: 37.879
EVENT_LONGITUDE_DEGREE: 26.703
EVENT_DEPTH_KM: 16.54
HYPOCENTER_REFERENCE: AFAD
MAGNITUDE_W: 6.6
MAGNITUDE_W_REFERENCE: AFAD
MAGNITUDE_L: 
MAGNITUDE_L_REFERENCE: 
FOCAL_MECHANISM: 
NETWORK: TK
STATION_CODE: 3533
STATION_NAME: 
STATION_LATITUDE_DEGREE: 38.25717
STATION_LONGITUDE_DEGREE: 27.13017
STATION_ELEVATION_M: 127.0
LOCATION: -_-_-
SENSOR_DEPTH_M: 
VS30_M/S: 415
SITE_CLASSIFICATION_EC8: B
MORPHOLOGIC_CLASSIFICATION: 
EPICENTRAL_DISTANCE_KM: 56.27
EARTHQUAKE_BACKAZIMUTH_DEGREE: 
DATE_TIME_FIRST_SAMPLE_YYYYMMDD_HHMMSS: 2020/10/30 11:51:08.2953430
DATE_TIME_FIRST_SAMPLE_PRECISION: millisecond
SAMPLING_INTERVAL_S: 0.01
NDATA: 10501
DURATION_S: 
STREAM: HNN
UNITS: cm/s^2
INSTRUMENT: sensor = GMS+/GEOSIG | digitizer = 
INSTRUMENT_ANALOG/DIGITAL: 
INSTRUMENTAL_FREQUENCY_HZ: 
INSTRUMENTAL_DAMPING: 
FULL_SCALE_G: 
N_BIT_DIGITAL_CONVERTER: 
PGA_CM/S^2: 73.916
TIME_PGA_S: 
BASELINE_CORRECTION: BASELINE REMOVED
FILTER_TYPE: BUTTERWORTH
FILTER_ORDER: 
LOW_CUT_FREQUENCY_HZ: 
HIGH_CUT_FREQUENCY_HZ: 
LATE/NORMAL_TRIGGERED: 
DATABASE_VERSION: 
HEADER_FORMAT: DYNA 1.2
DATA_TYPE: Acceleration
PROCESSING: Manual Paolucci et al., 2011
DATA_TIMESTAMP_YYYYMMDD_HHMMSS: 
DATA_LICENSE: U (unknown license)
DATA_CITATION: Turkish Accelerometric Archive v 1.0 - Disaster And Emergency Management Presidency, Earthquake Department
DATA_CREATOR: AFAD
ORIGINAL_DATA_MEDIATOR_CITATION: : AFAD - Disaster And Emergency Management Presidency
ORIGINAL_DATA_MEDIATOR: AFAD PROCESS SERVICE
ORIGINAL_DATA_CREATOR_CITATION: AFAD PROCESS SERVICE
ORIGINAL_DATA_CREATOR: network: TK
USER1: GuestUser
USER2: 
USER3: 
USER4: 
USER5: 
[...]
-0.834736
-0.532110
-0.326377
-0.181689
-0.115451
0.151587
0.450317
0.541233
0.800218
1.259744
1.713556
1.847853
1.667571
1.214532
0.666679
0.333653
0.040632
-0.079384
0.203500
0.781740
1.434534
1.984460
2.437232
2.821166
3.033393
2.898571
2.652827
2.558009
2.174588
1.600238
1.032122
0.002659
-1.224228
-2.641785
-3.976995
-4.473155
-4.530567
-4.425104
-4.050002
-3.161859
-1.799639
-0.441315
0.750237
1.598636
2.298967
3.007871
3.465059
3.536492
3.200869
2.660808
2.155816
1.839416
1.928253
2.315045
2.381542
1.865640
0.972814
0.178961
-0.189134
-0.557488
-0.998317
-1.487463
-2.264172
-2.916972
-2.970228
-2.411990
-1.378116
-0.161886
0.939527
1.715451
1.815458
1.864032
2.035475
1.850777
1.800379
1.481381
1.138484
1.287848
1.208096
1.061843
0.960011
0.655560
0.406440
0.227716
-0.048420
-0.197011
-0.064013
0.144058
0.453699
1.222609
2.068150
2.409482
2.308429
1.866821
1.413782
1.025426
0.689803
0.469257
0.213382
0.113109
0.325336
0.911110
1.571177
1.734308
1.440507
1.091376
1.062798
1.612464
2.264219
2.098484
1.657655
1.897417
2.446564
2.551507
2.069634
1.452942
0.658049
0.002911
0.164484
0.645571
0.506592
-0.060225
-0.223362
-0.115302
0.022372
0.204986
0.548656
0.895183
0.746592
0.547088
0.651251
0.461098
-0.352758
-0.998804
-0.899316
-0.628381
-0.525256
-0.087031
0.811503
1.364806
1.860180
3.052252
3.215643
1.445581
0.440276
1.411026
3.239269
5.576658
7.729871
9.243796
9.722545
9.082474
8.302647
6.849502
4.833181
2.772179
0.298146
-1.963656
-4.302870
-6.672476
-8.506181
-9.860614
-9.887633
-8.581523
-6.588067
-4.389134
-2.918072
-2.024993
-1.399475
-1.489617
-1.431952
0.423048
3.503632
4.978072
3.432710
0.991407
0.627469
2.453115
4.315648
4.240053
2.192299
0.536795
0.103239
-0.259920
0.473662
3.031074
4.767879
4.112482
2.551533
0.487154
-1.650739
-2.105336
-1.478259
-0.954570
-0.302556
1.221500
3.477321
5.289719
6.236570
5.341926
3.034404
0.920150
-1.640385
-4.996850
-8.453325
-11.586389
-13.523222
-11.191028
-4.997645
-1.342453
-1.573390
-1.667689
0.739317
3.786132
4.271635
3.011238
1.158570
0.707091
2.342327
1.600167
-0.801131
-0.023909
3.853644
6.070241
3.465545
-0.469163
-2.988656
-3.531574
-2.267806
-1.985441
-2.706820
-4.123857
-5.235926
-5.279571
-5.456476
-2.707874
3.260810
8.362129
9.184032
6.255146
3.276124
1.464240
1.325780
1.430204
-0.103989
-3.267705
-4.398998
-1.356599
1.472011
0.637633
-3.914283
-6.362599
-4.651771
-3.433202
-4.068078
-5.828269
-6.724471
-6.686289
-6.506272
-5.396027
-1.729926
3.296321
6.465226
7.355708
6.608352
6.320786
6.738750
6.244668
3.402024
-1.280296
-3.901357
-3.367797
-2.116498
-2.039610
-2.712931
-2.952181
-2.609030
-2.273413
-1.841163
-1.502948
-2.557609
-3.294833
-1.854423
-1.029663
-1.987171
-2.185896
-0.768086
2.545770
6.173946
7.724237
7.884251
7.527847
7.347305
7.065194
7.171436
6.438887
2.127776
-3.453861
-6.866955
-7.075811
-6.588230
-6.023757
-5.715416
-8.465842
-11.211332
-10.517495
-7.546013
-5.167841
-4.012916
-2.828117
-0.887654
1.574943
2.685967
3.682953
5.915396
8.601912
9.076505
6.256981
4.292093
2.920776
0.866008
-0.267622
-1.260458
-2.097953
-2.210696
-2.146536
-2.915712
-4.546019
-5.496772
-5.747192
-5.884092
-5.882017
-4.951792
-2.355674
0.003016
1.244703
1.969972
3.075022
5.358638
7.226626
7.696543
5.974019
3.896912
3.649090
3.051621
1.483918
-1.890990
-5.154717
-4.159030
-1.853852
-1.774886
-3.172440
-5.007444
-6.708667
-9.271281
-12.077817
-11.850523
-8.986325
-5.473227
-4.253879
-5.159693
-3.544199
-1.678030
-1.786356
-1.835975
-2.017296
-1.315406
1.310065
4.315057
5.602204
4.888099
3.877859
3.286883
2.414060
2.229622
3.796539
4.123583
2.227794
1.028962
0.889983
1.339119
1.304047
0.933095
1.325082
0.090142
-2.399996
-3.887950
-4.529580
-5.689447
-8.104512
-8.796018
-4.715846
2.957955
9.094709
10.150923
7.804696
5.299231
3.669184
1.938347
-0.668946
-3.787723
-5.697540
-5.837818
-5.347119
-4.981369
-4.351955
-3.044286
-0.451026
2.143273
2.067158
4.012297
9.287141
10.894842
7.617867
2.529270
0.470346
1.105216
-0.824084
-4.259518
-7.403232
-9.167839
-8.793776
-9.360593
-11.708119
-12.950592
-11.311979
-6.703439
-1.968133
-0.893996
-0.511101
1.332729
1.181021
1.246480
2.115920
1.242577
1.624433
2.474910
2.923786
4.550969
5.777849
5.416509
3.150031
1.042790
0.019042
-0.552970
-0.941586
-2.590596
-4.992413
-6.488680
-5.821079
-3.530449
-2.269019
-2.008994
-0.447792
2.556940
6.009253
8.288454
9.330899
9.721067
8.890067
8.906169
9.043324
8.488976
8.579632
7.810456
6.135469
3.492327
0.969718
-1.044526
-4.986767
-7.613543
-6.196512
-3.904843
-2.096601
-0.863226
-0.633075
-0.069642
0.789408
-0.042632
-1.395766
-1.376027
-1.423568
-1.490071
-1.605152
-1.842583
-0.918072
-0.750524
-1.640233
-2.731261
-3.166895
-1.850134
-1.309820
-2.956752
-5.033080
-6.344651
-7.911055
-8.701272
-6.701062
-2.548935
2.278069
6.061586
8.471190
9.966671
11.055355
11.224201
10.375796
9.811837
8.033463
4.282670
1.579522
0.877367
-0.638382
-3.906786
-6.359258
-6.862171
-5.503848
-2.577046
-0.229526
0.776292
1.568841
2.841700
5.017514
7.892102
9.936992
10.770844
10.770581
9.794370
8.024049
6.157094
5.930313
5.194647
1.745186
-1.977811
-3.415630
-1.946645
-0.958751
-3.491231
-8.591258
-12.768070
-13.699860
-14.432149
-16.532896
-16.227152
-12.292450
-7.398166
-3.579840
-0.518998
3.062419
6.700726
9.579730
11.830097
13.824072
15.555163
16.199384
13.910825
7.338954
-0.400055
-5.768163
-9.456351
-11.871936
-12.760345
-11.674259
-8.113623
-5.459837
-5.991325
-7.402128
-7.456682
-5.778844
-4.548846
-4.378182
-3.312617
-1.454760
0.285682
0.616104
-0.978615
-2.327592
-2.020290
-0.502469
0.796367
1.056911
0.986251
-0.606649
-4.165732
-6.006970
-5.490814
-4.832046
-3.606464
-3.372676
-4.920896
-5.448488
-3.670120
-1.354552
-0.576550
0.872692
2.622226
2.359598
1.642116
2.068392
4.620608
6.903446
6.436900
4.512536
3.597890
4.317184
3.258367
-0.653741
-4.720671
-6.399814
-4.134641
-0.781300
0.411292
0.362712
0.751841
2.997272
5.813673
6.577907
7.202646
9.528085
12.051467
12.735173
9.817977
6.287727
4.915890
3.633413
1.703334
-0.540545
-2.513485
-5.209100
-7.732489
-7.730414
-7.017873
-6.870328
-8.243465
-8.818594
-6.900730
-6.060904
-7.090627
-9.078374
-9.733772
-7.484185
-5.206023
-5.833106
-7.828646
-7.229365
-4.876910
-4.516355
-5.907675
-5.732335
-2.319247
1.025522
0.521569
-1.717634
-2.246525
-0.067854
4.337807
7.484632
7.892205
8.209638
7.329282
3.834101
0.272940
-1.887553
-2.949488
-4.517450
-7.482964
-10.164551
-10.954249
-10.908013
-12.464546
-15.215231
-15.516825
-11.963203
-7.943557
-6.427814
-5.537593
-1.888376
3.141767
5.976092
8.115797
11.636688
13.757171
13.476878
12.587949
10.194444
5.945937
2.377761
1.398173
1.584684
1.168273
1.606238
2.292802
1.222035
-0.508802
-0.344372
2.015357
2.972859
1.181756
-1.333840
-2.746201
-3.180796
-4.294424
-4.659661
-3.267048
-1.339574
0.623749
2.124166
4.633001
6.625938
6.631130
7.486802
9.065669
10.479582
9.215289
5.633605
4.368013
4.449057
4.048752
3.176448
1.559909
0.660590
0.986595
2.848349
7.240762
13.110734
21.021703
29.318688
34.722377
36.848055
33.576275
25.463460
15.105730
4.332632
-5.636225
-13.480700
-15.225824
-10.801460
-5.719623
-2.075082
2.892197
7.733229
9.667717
9.602512
8.572530
6.408400
4.288171
5.628570
8.648629
9.443776
7.519412
5.697396
6.299276
4.211777
-2.314375
-9.821931
-17.490803
-23.888111
-28.860072
-31.042645
-27.657872
-20.319172
-11.515899
-5.066644
-3.670655
-4.519579
-5.577617
-5.303565
-3.113465
-0.483318
2.647662
5.686684
8.437103
10.029218
9.755679
8.602826
6.706777
4.950483
2.849477
0.828479
-0.004340
1.694539
6.727280
9.457178
7.409684
4.287011
2.255363
-0.404664
-5.811217
-12.194238
-18.026550
-24.931964
-34.462333
-43.701761
-49.556933
-52.268654
-52.432570
-50.103494
-45.889802
-40.717566
-33.403803
-26.268761
-20.874943
-13.168411
-3.336977
7.980069
20.024725
30.721705
40.132055
43.020671
37.137444
28.519640
20.084453
12.537153
6.929539
4.394981
5.483665
8.091992
9.971669
7.604141
-1.239141
-12.247589
-19.382898
-20.622254
-18.443064
-15.098815
-8.616829
0.929380
9.700181
16.720925
21.383497
23.121081
22.960022
22.892739
24.183523
23.270955
18.977507
14.253625
10.208515
6.472790
2.238829
-2.994199
-9.225515
-16.314325
-22.818657
-27.077036
-30.245688
-32.771934
-33.429150
-30.830694
-24.478593
-15.079413
-3.119441
6.953057
12.106070
14.576200
14.930521
12.978102
9.462659
8.302013
11.303109
14.314076
14.730740
11.348299
7.339558
4.149864
-0.240217
-4.467423
-9.933463
-14.245094
-15.370672
-16.836026
-16.598341
-11.117241
-0.289078
11.908841
21.246456
28.714780
33.194735
32.869502
32.491537
33.432933
32.663757
31.037347
26.887551
18.986707
10.992346
3.744558
-0.704750
-1.205067
-0.256657
2.738724
7.272450
10.195356
9.148748
7.071381
8.100058
10.459787
11.518598
10.012461
7.236577
5.196617
5.169598
8.612299
14.280432
19.545145
21.055433
18.499833
14.287953
6.853652
-4.691997
-15.024269
-21.803695
-27.863824
-31.169634
-32.906705
-33.750435
-30.449047
-24.791045
-15.824639
-6.782380
-0.570553
3.003331
-0.088690
-6.320266
-11.563165
-16.009096
-19.515966
-24.190233
-29.976307
-34.850076
-39.212102
-42.136572
-42.716118
-41.129198
-35.483405
-28.281603
-23.783724
-22.826742
-24.133898
-23.727364
-19.356772
-13.023373
-10.044358
-9.779657
-6.576722
-1.205763
2.120302
1.885988
3.546422
11.066180
21.054774
28.951715
31.444965
31.128305
31.885005
31.014260
25.621995
18.012350
10.116701
2.464454
-4.005329
-9.014437
-10.090658
-6.235965
-0.821626
4.886252
12.156893
19.763934
23.720716
20.836509
14.206450
7.204922
-1.079340
-7.985793
-13.450534
-18.487177
-22.519558
-26.149818
-27.305269
-26.828338
-24.242611
-20.533908
-18.326143
-14.927343
-11.159152
-6.511907
-1.118349
1.892358
6.329451
13.482677
18.787395
18.326823
13.514879
10.650155
10.424414
10.016315
7.605666
4.774712
4.073595
3.480022
3.090108
2.919177
1.003645
-4.569419
-13.027725
-18.110867
-17.917343
-14.936249
-10.170550
-2.930042
5.252644
10.356042
13.378179
16.790747
20.561535
25.010837
30.734820
36.667916
40.028790
39.340143
34.467673
24.973671
12.358299
0.749007
-6.344998
-9.106334
-10.197362
-10.396867
-7.861276
-3.028297
-0.694804
-1.070951
-1.165770
-1.950272
-1.822989
2.202372
8.143261
12.226810
14.505491
16.522066
17.226034
15.296994
11.874289
8.151032
3.366104
0.510732
1.619938
4.517906
7.493025
6.593185
1.171566
-5.149110
-9.382032
-9.829355
-9.605958
-10.263693
-9.842613
-8.890566
-5.566579
0.131427
3.121613
4.386679
6.661724
8.303973
9.167179
9.212635
7.570379
5.429109
3.387071
2.196032
4.199099
8.737501
13.734134
17.157872
17.542845
17.129291
15.816421
11.365035
3.219229
-9.447837
-24.344751
-37.787485
-47.429553
-52.711158
-55.696934
-55.051154
-47.412421
-34.296482
-20.270576
-9.195633
-2.997834
-0.334956
1.266770
2.411824
2.635741
0.969586
-2.967979
-6.657726
-7.261949
-6.244701
-5.202255
-3.557927
-0.665934
3.040691
6.351430
11.485740
18.795347
25.036008
25.586453
17.194128
5.386114
-4.318299
-10.398171
-11.317752
-5.841848
5.586120
18.091085
29.083161
38.111132
43.828362
44.273081
36.660839
24.730474
13.461998
4.039174
-3.253814
-9.346674
-11.805900
-8.923258
-2.458677
4.563886
9.924714
14.535591
18.351319
20.494142
17.705010
9.449842
0.746575
-5.011704
-6.770336
-5.659571
-4.880011
-7.785778
-12.027012
-15.129423
-17.785813
-19.630688
-19.493014
-14.214793
-5.828708
2.933001
14.225110
27.351959
37.674873
40.825336
36.916864
30.061326
23.621416
18.065237
12.473210
6.229425
0.109549
-5.017753
-7.019528
-5.515475
-4.885541
-5.467943
-3.894532
-3.289796
-6.841346
-11.623157
-16.217675
-18.524417
-18.627808
-21.685540
-29.088928
-36.326845
-40.088288
-41.944593
-40.740052
-35.142056
-25.943937
-16.432278
-10.366700
-2.872139
6.842140
12.551576
14.105504
14.734919
17.098284
22.075954
26.969979
30.208243
31.480583
28.482078
23.763131
21.240782
19.900896
18.605690
18.050043
19.313551
19.978034
19.251720
17.095383
12.482162
8.334964
4.525983
2.211448
1.119381
-2.571405
-6.375190
-8.997550
-10.297951
-8.837280
-3.997806
0.644243
1.523035
0.772563
-3.126817
-9.251368
-16.502014
-24.545471
-28.601230
-29.772527
-28.194960
-24.800835
-22.772830
-22.606062
-26.020974
-30.043484
-30.053618
-25.546388
-18.524344
-9.884206
0.365973
12.813010
26.799951
35.750771
38.263763
37.826050
35.391762
33.125544
30.617741
28.752604
28.837026
26.807975
21.475976
12.185893
1.175886
-5.454174
-8.472421
-9.259521
-7.864310
-7.226843
-8.597122
-10.051565
-10.874254
-10.443561
-6.249352
0.381221
7.529512
14.323219
18.355074
19.302705
17.234949
12.933968
10.290307
10.865170
12.012822
11.713566
10.306400
10.137288
10.423809
7.481155
1.272698
-7.496810
-17.964162
-25.872539
-28.029915
-26.155173
-21.643527
-15.767060
-11.646884
-9.791625
-8.522662
-5.536113
-0.163856
5.299840
7.569949
5.688706
2.661887
1.711393
3.037506
4.952512
7.529406
11.854539
17.115096
20.998624
18.607197
8.398314
-3.720642
-14.674538
-25.169166
-35.441172
-44.952837
-53.215538
-61.174311
-68.094532
-72.846469
-73.915937
-71.088107
-66.705565
-60.342033
-49.732335
-36.162322
-22.936761
-9.699510
3.183417
14.567484
23.461155
28.213606
32.108303
36.808541
41.978699
47.940110
52.569431
53.971395
48.783827
35.083144
14.368727
-6.987057
-21.486266
-29.181115
-32.490301
-33.477423
-30.466716
-22.474959
-13.073960
-4.142363
0.113412
-1.119970
-4.180818
-10.463828
-18.995389
-22.856063
-22.447191
-22.025072
-21.107574
-20.279957
-19.110745
-17.104560
-16.012499
-14.347389
-11.280053
-10.233711
-8.980074
-5.436843
-1.376933
5.644071
11.449362
11.591192
7.707139
0.679634
-5.265937
-6.852083
-5.471939
-4.249994
-4.481450
-4.868248
-4.960469
-5.517934
-4.684601
-0.624951
5.956266
14.388589
22.632061
28.820250
30.696550
27.664796
22.060819
17.308882
17.234845
20.713913
24.889939
27.051725
26.103309
23.578102
19.547020
14.638183
10.643728
9.670635
10.392007
11.544334
14.043299
16.301978
18.669759
22.172986
26.088205
27.369897
23.030471
15.574349
8.139268
1.698579
-2.358479
-1.816087
3.346538
10.105436
15.057909
17.863659
21.276487
24.049766
24.185362
23.778042
23.963254
23.289413
19.725134
13.863727
7.956602
2.676816
-1.616112
-3.651397
-3.460990
-1.279982
2.898642
5.614253
3.957190
-0.490300
-5.471353
-8.844183
-11.414849
-15.883380
-19.763277
-21.238502
-20.365165
-19.109710
-20.370107
-20.294518
-16.759339
-12.127940
-8.703423
-8.142067
-8.700831
-7.762293
-6.593080
-7.416028
-8.378731
-8.640061
-7.944665
-4.128678
0.821197
3.422770
1.979236
-2.403052
-5.561313
-7.619977
-9.677602
-11.618331
-15.214562
-16.908252
-14.461501
-10.802673
-6.948759
-4.693197
-3.356175
-1.093599
0.582680
0.948171
1.739680
4.745971
10.534377
17.213527
21.222002
22.560064
19.787817
13.759120
9.762588
6.578090
2.603378
-2.150638
-7.786826
-12.008058
-13.298069
-13.267939
-12.051189
-7.241069
-1.214197
2.600492
2.733230
0.947323
0.469866
-0.238004
-2.470453
-4.642376
-5.473896
-3.709036
0.576872
4.167121
7.298101
11.086553
13.411213
13.562915
11.995212
9.900441
6.570213
2.026869
-3.024062
-8.365933
-13.203334
-17.935270
-20.863117
-20.460999
-14.231248
-2.265821
9.470490
17.510305
22.340686
25.482316
26.520865
24.522467
18.963431
11.688107
5.140654
-0.420981
-4.060852
-6.007036
-6.417992
-6.092246
-5.706494
-4.886670
-4.328951
-2.393683
2.610743
8.111845
11.402842
12.600888
11.574542
9.649919
7.740881
4.978246
2.143136
-0.017357
-1.983803
-5.179731
-7.348537
-5.433271
-0.771219
4.955881
11.172904
16.492948
18.034148
16.251357
13.799924
11.968557
11.027155
9.088244
5.929463
1.610299
-5.765555
-14.954848
-20.736246
-22.016645
-23.051044
-25.922782
-29.661365
-31.149059
-31.826017
-34.014045
-33.324365
-28.208758
-19.814621
-10.854708
-4.712759
0.245688
4.043752
4.459897
2.239657
-0.888211
-2.721397
-1.620243
1.538012
4.937332
6.899875
8.360028
9.717052
9.020092
7.353158
5.053170
1.457199
-2.731562
-7.310494
-11.014788
-12.603791
-12.184529
-9.686863
-5.964912
-3.426203
-3.782608
-6.612263
-9.202931
-9.559076
-7.412877
-4.292807
-2.237267
-0.306415
2.853918
5.678632
5.611608
3.718157
3.971428
7.069936
10.389767
13.111612
15.477056
17.518049
17.807688
14.007540
8.996613
7.728683
10.671850
14.620839
15.837329
14.154290
13.022997
13.383033
13.825154
12.187315
6.165891
-2.717915
-11.366112
-17.303890
-19.746751
-19.005636
-15.140033
-9.336821
-3.915467
-0.642394
1.401716
3.555189
6.628760
10.871806
15.405533
18.830570
19.115532
16.281721
13.338807
12.623663
13.352308
14.911952
16.623819
16.087655
13.672590
8.929744
0.673017
-7.639559
-11.440487
-9.225189
-4.246740
1.681161
7.122257
9.630053
10.622883
10.534040
9.866952
9.619910
9.336760
8.450948
7.653198
9.346882
13.083900
16.472309
17.867520
17.836345
19.291821
21.417239
22.106141
22.216539
21.606601
20.951203
21.602178
21.878568
18.872271
12.190517
3.897943
-5.144582
-13.598992
-19.547680
-23.065720
-24.384825
-22.991693
-18.180274
-11.532297
-6.639051
-4.172038
-2.234433
-1.078209
-3.071671
-7.880238
-12.922596
-15.480534
-13.996223
-9.751619
-3.733059
2.438764
6.942358
7.768936
3.937876
-1.375680
-6.765089
-11.107372
-13.347094
-13.763765
-12.226981
-10.891258
-11.522497
-13.990815
-16.616033
-18.110481
-20.982997
-26.188750
-30.571297
-33.845156
-36.045133
-35.987208
-33.536561
-27.824787
-22.671514
-21.013158
-21.079143
-22.535145
-24.083105
-24.519778
-23.487983
-19.868640
-14.300517
-9.516115
-5.157732
-0.978329
-0.076158
-1.871417
-5.850805
-11.568560
-16.143076
-19.675403
-23.116292
-25.660203
-25.981279
-25.388492
-25.377325
-24.618546
-21.810977
-17.495716
-13.791428
-10.447179
-6.878750
-3.642565
-1.055279
0.118089
0.505660
0.996618
2.963318
6.469663
10.146934
14.132550
17.084810
17.220405
14.551806
10.779973
8.760534
8.421014
8.627527
9.672830
10.547985
10.589804
9.139517
6.170366
2.623752
-2.463027
-9.224529
-16.286843
-20.648090
-20.530678
-18.531767
-15.664971
-10.857449
-4.181416
5.131001
15.669782
23.059397
26.206742
26.479495
25.796303
25.082198
23.726466
22.346316
21.750665
21.155014
19.147524
16.014720
11.698932
6.477334
2.340007
0.394083
1.159096
3.865615
6.432119
7.371437
7.500798
8.193856
9.062776
10.197440
11.313659
11.583295
11.136232
8.964828
6.243756
5.143116
5.000761
5.853835
7.168777
8.460340
9.852434
10.258967
9.384326
8.353304
8.900372
10.550414
10.994355
9.318069
8.261070
9.581987
10.592222
10.924202
10.419729
8.286512
5.937168
3.284415
-0.078284
-3.595285
-7.618574
-13.313729
-20.071075
-25.820522
-28.907347
-29.407403
-28.005179
-24.337259
-19.554935
-15.716088
-14.488687
-15.908582
-17.740468
-18.107523
-17.234706
-15.080454
-10.415545
