EVENT_NAME: 202010301151
EVENT_ID: 10614
EVENT_DATE_YYYYMMDD: 2020/10/30
EVENT_TIME_HHMMSS: 11:51:24.00000
EVENT_LATITUDE_DEGREE: 37.879
EVENT_LONGITUDE_DEGREE: 26.703
EVENT_DEPTH_KM: 16.54
HYPOCENTER_REFERENCE: AFAD
MAGNITUDE_W: 6.6
MAGNITUDE_W_REFERENCE: AFAD
MAGNITUDE_L: 
MAGNITUDE_L_REFERENCE: 
FOCAL_MECHANISM: 
NETWORK: TK
STATION_CODE: 3533
STATION_NAME: 
STATION_LATITUDE_DEGREE: 38.25717
STATION_LONGITUDE_DEGREE: 27.13017
STATION_ELEVATION_M: 127.0
LOCATION: -_-_-
SENSOR_DEPTH_M: 
VS30_M/S: 415
SITE_CLASSIFICATION_EC8: B
MORPHOLOGIC_CLASSIFICATION: 
EPICENTRAL_DISTANCE_KM: 56.27
EARTHQUAKE_BACKAZIMUTH_DEGREE: 
DATE_TIME_FIRST_SAMPLE_YYYYMMDD_HHMMSS: 2020/10/30 11:51:08.2953430
DATE_TIME_FIRST_SAMPLE_PRECISION: millisecond
SAMPLING_INTERVAL_S: 0.01
NDATA: 10501
DURATION_S: 
STREAM: HNE
UNITS: cm/s^2
INSTRUMENT: sensor = GMS+/GEOSIG | digitizer = 
INSTRUMENT_ANALOG/DIGITAL: 
INSTRUMENTAL_FREQUENCY_HZ: 
INSTRUMENTAL_DAMPING: 
FULL_SCALE_G: 
N_BIT_DIGITAL_CONVERTER: 
PGA_CM/S^2: 46.433
TIME_PGA_S: 
BASELINE_CORRECTION: BASELINE REMOVED
FILTER_TYPE: BUTTERWORTH
FILTER_ORDER: 
LOW_CUT_FREQUENCY_HZ: 
HIGH_CUT_FREQUENCY_HZ: 
LATE/NORMAL_TRIGGERED: 
DATABASE_VERSION: 
HEADER_FORMAT: DYNA 1.2
DATA_TYPE: Acceleration
PROCESSING: Manual Paolucci et al., 2011
DATA_TIMESTAMP_YYYYMMDD_HHMMSS: 
DATA_LICENSE: U (unknown license)
DATA_CITATION: Turkish Accelerometric Archive v 1.0 - Disaster And Emergency Management Presidency, Earthquake Department
DATA_CREATOR: AFAD
ORIGINAL_DATA_MEDIATOR_CITATION: : AFAD - Disaster And Emergency Management Presidency
ORIGINAL_DATA_MEDIATOR: AFAD PROCESS SERVICE
ORIGINAL_DATA_CREATOR_CITATION: AFAD PROCESS SERVICE
ORIGINAL_DATA_CREATOR: network: TK
USER1: GuestUser
USER2: 
USER3: 
USER4: 
USER5: 
[...]
-0.007183
-0.402807
-0.514505
-0.690106
-0.983641
-0.865445
-0.524108
0.129211
0.891372
1.350644
1.481570
1.174526
0.617586
0.408735
0.827223
1.377154
1.466517
1.636147
2.470524
3.049030
2.728738
1.571214
0.090280
-0.445879
-0.406652
-0.669535
-0.811626
-1.037362
-1.252967
-1.213999
-1.283095
-1.156846
-0.730824
-0.041398
0.749078
1.508122
1.935702
1.622165
1.609438
2.090011
2.315752
2.322248
2.046377
1.626854
1.354620
1.010429
0.179954
-0.853661
-1.550356
-1.688550
-1.243825
-0.600378
-0.136430
0.002028
-0.126814
-0.176168
-0.146292
-0.304749
-0.366571
-0.411249
-0.685302
-0.782193
-0.798816
-0.764524
-0.485531
-0.307069
-0.200042
-0.049374
0.053496
0.070383
0.050124
0.106496
0.057142
0.078445
0.262363
0.478232
0.816193
1.134930
1.557835
1.822021
1.787474
1.767214
1.294439
0.654373
0.811535
1.530575
2.230132
2.521594
2.083627
1.623061
1.373686
0.541392
-0.653538
-1.678320
-2.099142
-1.430237
-0.355056
0.267610
0.677007
1.107704
1.232135
0.954446
0.709746
0.574929
0.328152
0.170475
-0.147479
-0.654543
-0.532190
0.260883
1.286449
2.075107
2.228372
1.836125
0.972139
0.612363
1.320233
1.799507
1.167234
0.163493
0.121413
0.347413
-0.383831
-1.266780
-1.087279
0.468993
1.467284
0.806696
0.271057
0.377045
0.591875
0.880479
1.092972
0.966986
0.685141
1.288324
2.590803
2.869536
2.207130
2.158296
2.639908
3.146457
3.282058
2.344558
1.852820
3.200758
5.058620
5.703886
4.312312
2.411072
1.788411
1.608654
0.953521
-0.869528
-3.299654
-4.090126
-4.033235
-5.504038
-7.854936
-8.155745
-4.829154
-0.045526
2.931936
2.981294
1.018750
-1.583863
-3.800200
-4.681850
-3.565365
-1.326683
-0.483215
-1.097563
-1.147177
-0.675956
-0.026534
1.208405
2.940540
4.161711
3.191221
0.420019
-1.467453
-0.926354
1.645611
4.537869
5.496155
4.852712
3.798057
1.212329
-1.872413
-3.493622
-4.292666
-3.638049
-1.681215
-1.182458
-1.498853
0.118464
3.518049
6.270033
5.668932
3.660669
3.738341
4.071886
1.922828
-2.319700
-4.769828
-3.266289
-0.587300
0.675434
0.731026
0.821688
-0.269595
-1.700395
-0.407528
1.636848
0.878068
-3.183141
-6.664289
-6.404778
-4.213893
-1.079272
1.794024
2.995972
3.081698
2.004962
-0.055515
-2.226134
-0.376584
4.734352
5.295713
1.243855
-2.359903
-1.054307
4.011430
6.840305
6.892520
5.862802
4.751258
3.338642
0.352872
-2.889549
-3.508574
-2.470279
-0.746457
1.291684
1.381566
1.871750
2.116714
2.325570
3.209302
1.594068
0.708261
0.630853
0.695018
-0.215467
-4.053536
-5.542004
-2.751834
2.479894
5.976632
5.457359
3.100487
0.643864
-0.255451
-1.306989
-3.694514
-5.155706
-3.481500
-1.172680
-2.495676
-5.271034
-5.855250
-3.570329
-0.782757
-0.274909
-1.262284
-2.538002
-2.573848
-1.046930
-0.475698
-1.467230
-2.817501
-2.152753
1.057981
3.867893
3.986869
1.905870
0.044116
-0.944299
-1.090286
-2.325740
-4.503632
-4.481290
-3.348180
-0.919608
0.667577
-0.372532
0.046476
1.291286
1.307914
-0.352001
-3.964591
-7.091935
-7.128041
-4.836366
-3.133845
-2.283362
-1.865134
-2.098403
-2.247767
-0.538752
3.198791
5.632819
6.421736
5.782710
4.124094
4.984188
6.075735
4.733776
3.740166
3.716789
2.703177
-0.110108
-3.367595
-5.767849
-6.218544
-5.098422
-2.951698
-0.375577
-0.117625
-0.645731
-1.458802
-3.899580
-4.907737
-3.203137
-0.379458
1.479704
2.334862
2.231476
1.852737
3.762293
6.369586
6.890683
5.220377
3.975052
4.564208
4.936977
3.661259
0.949025
0.310517
1.935628
0.204796
-4.716245
-8.210901
-8.741864
-7.092335
-6.020531
-7.418080
-7.816302
-5.476830
-4.157466
-3.663905
-0.472913
5.128465
10.174459
12.378852
12.345344
11.259516
8.142563
3.980044
1.517446
1.961912
3.771717
3.142302
0.061456
-2.760141
-4.280820
-5.277287
-7.261393
-9.085221
-9.500068
-9.426811
-8.636595
-6.378950
-4.340549
-3.132106
-1.513749
-0.962779
-0.852376
0.912490
2.799966
3.681880
3.326520
1.894162
-1.043552
-4.989424
-7.620871
-8.316267
-6.134474
-3.034661
-1.713999
-1.376818
-0.747398
2.049785
4.507192
5.025431
5.158435
4.152096
2.925214
0.518986
-4.079423
-8.280128
-9.567276
-8.753681
-7.498220
-5.178750
-4.050316
-2.687051
-0.409404
-1.674212
-3.367377
-2.701330
-0.733845
0.580583
-1.024781
-2.971220
-3.903005
-3.497765
-1.886941
-1.693412
-1.714971
-0.678494
-0.573546
-1.365576
0.011456
3.460917
5.945859
7.353543
6.115232
3.287141
2.644737
2.469136
0.845849
-1.244242
-0.984472
1.237845
2.434338
2.399792
2.564227
4.813040
8.387449
10.561189
9.580568
6.501541
3.591623
2.341362
3.792947
4.877481
3.541237
3.164835
4.005706
3.826728
2.155124
-0.429045
-1.000792
0.153359
-0.520217
-2.861763
-3.999284
-3.173220
-2.609781
-2.967219
-3.244909
-3.140740
-3.929913
-5.753221
-6.528107
-4.948456
-1.414831
0.077019
-0.740728
0.276006
2.805628
4.548933
4.546077
3.524412
3.059170
3.953294
4.299826
3.092427
1.461607
-1.500005
-4.355112
-4.472006
-2.080060
0.516842
-0.307140
-3.231085
-3.279140
-1.045393
-0.117760
-0.777049
-1.380747
-1.174749
-0.791329
-1.272677
-1.742335
-0.656763
0.220736
-0.415434
-1.435280
-0.600384
3.113261
6.601946
8.978565
9.066109
4.978144
0.563390
-3.080632
-6.662830
-8.510037
-9.136076
-8.473405
-6.746985
-5.547115
-5.378524
-4.616102
-1.109493
1.982527
2.626494
3.711027
5.056108
3.792599
-0.839840
-5.099772
-6.139361
-5.888423
-6.530048
-7.730433
-7.193231
-4.458392
-1.422742
-0.069608
-0.887355
-0.914109
1.337821
4.503615
7.987105
10.335150
12.160541
13.906703
13.320669
10.131760
4.759242
0.396183
-0.956427
-0.960581
0.710249
3.461453
6.102516
5.868467
2.481356
0.250211
-1.461138
-3.605779
-6.107083
-7.934028
-4.828500
-0.663899
-1.573863
-5.226458
-7.278363
-4.867194
0.713922
5.704845
8.584634
9.261072
8.516580
6.144641
1.998228
-2.038304
-3.283369
-1.488890
0.197525
0.034913
-1.056370
-2.096998
-2.271040
-0.948559
-0.097298
-0.935566
-2.456765
-4.372032
-5.968044
-6.914116
-6.716690
-6.320282
-5.451616
-2.324008
-0.386657
-0.295216
0.151327
-0.305083
-1.214788
-0.683820
1.524210
2.711092
1.567855
0.436568
0.362537
0.607240
-0.174659
-1.136058
0.495807
2.590058
0.400217
-5.579639
-11.086197
-11.420776
-7.602705
-5.641455
-5.968760
-5.683792
-3.854504
-2.581120
-2.876214
-3.244562
-3.542514
-3.057006
-2.815939
-2.929455
-2.066244
-0.630245
1.433614
1.729492
0.746272
1.197492
1.885359
2.552186
3.581648
4.569548
5.713308
6.479886
5.421853
4.687751
5.227292
3.380863
0.290926
-0.452527
1.675494
4.660489
5.008321
1.795773
-1.441453
-0.444461
3.104750
5.072495
4.050570
1.443282
0.849714
-0.653301
-5.326004
-8.302942
-8.308915
-4.862052
-0.672253
0.240834
0.174076
-0.785245
-3.428901
-7.104355
-9.856074
-7.768317
-4.471081
-4.793191
-5.864731
-5.320515
-3.561365
-2.166668
-3.052734
-4.806166
-4.034393
-2.274463
-3.377176
-5.100474
-3.853845
-0.679479
1.063566
-0.190072
-2.489795
-3.873836
-5.159685
-6.817781
-7.466160
-6.634900
-6.030158
-8.903709
-13.927878
-14.295188
-8.257659
-2.003744
0.657840
1.568848
1.923174
0.527703
-3.353227
-7.456779
-11.646833
-16.212772
-20.669608
-26.602186
-31.550762
-33.448624
-34.346380
-35.553000
-33.631494
-26.727380
-19.225800
-12.867198
-7.241662
-2.044223
3.314012
8.521322
12.281205
13.513287
11.687121
6.815175
1.042615
-4.494076
-8.064324
-7.572841
-4.770463
-1.532193
2.665658
6.896501
9.302214
11.260347
14.628500
18.662178
21.094388
22.726772
25.331727
25.254578
19.998176
11.028911
0.016312
-9.607308
-15.865894
-19.036359
-18.470323
-15.220104
-11.165904
-6.349285
-1.314461
2.976908
7.603636
12.498446
14.307472
12.783935
9.476832
4.347976
0.879297
1.446633
3.792339
5.563439
5.769697
4.528269
3.876773
6.074412
7.297142
6.244564
8.304007
12.981910
16.741014
18.700445
20.519862
26.260476
34.515383
39.190948
38.895334
34.808148
28.715034
23.071059
15.866398
6.098347
-1.195675
-3.826082
-4.805665
-5.556912
-6.119047
-6.819899
-7.985475
-9.016752
-8.115614
-6.563759
-6.477773
-6.920935
-6.126303
-4.243502
-3.370940
-4.275449
-5.597666
-4.471570
0.075410
3.791912
4.776175
6.089564
7.224233
7.141629
8.075496
9.363688
9.071451
5.939432
-1.457198
-9.785875
-12.922311
-9.991607
-3.697947
4.400060
14.230460
24.365827
31.666607
36.180597
37.584645
34.907479
30.579747
26.547892
21.539049
11.980890
-2.784057
-18.911226
-30.035006
-33.131957
-31.157718
-24.764308
-14.044463
-3.184083
4.988997
11.251225
15.681829
17.985972
19.531074
19.197275
14.406637
6.422412
-2.314360
-10.994763
-17.430511
-20.699688
-23.583110
-27.287917
-29.809742
-31.803719
-35.423063
-38.913562
-40.234999
-39.674937
-39.140593
-38.381548
-35.010018
-29.152249
-23.272660
-16.836907
-7.092491
2.490610
7.686230
7.703637
2.598680
-3.376499
-5.875465
-5.253838
-1.200417
5.691748
11.177789
13.423225
11.484060
5.980359
-0.798802
-7.664985
-13.306623
-18.884358
-25.185546
-29.743951
-29.230907
-23.734475
-14.992763
-3.126043
7.063616
13.119848
18.137527
21.933778
24.194021
24.635629
23.823856
22.238755
19.483139
16.625434
13.792667
14.727314
19.240265
22.250198
23.270049
22.141879
21.962122
24.953352
28.370341
29.440068
27.367122
24.848934
21.170363
13.788540
3.277293
-7.509308
-14.115204
-15.242854
-10.622880
-2.130804
4.361058
8.559949
11.317908
10.414177
7.127076
2.879094
-0.184088
-0.828570
0.598857
4.546293
7.233595
6.947073
6.570931
8.103564
11.979823
15.694247
15.020152
10.380699
6.830972
4.519819
1.400009
-1.207799
-0.032087
5.378101
10.652691
14.632598
15.876629
13.310644
12.370805
13.624707
11.817245
7.393659
3.355309
-0.086874
-4.636706
-12.549235
-22.141423
-29.924588
-34.423246
-37.058070
-38.471205
-34.216724
-24.603750
-14.013269
-3.961028
3.029070
6.399041
5.368804
0.554267
-4.040505
-7.076151
-6.607787
-3.540186
-0.294643
3.820343
8.480062
10.938248
8.068854
-0.192803
-10.234129
-18.927521
-26.705749
-31.687836
-32.618842
-30.424580
-23.805172
-12.400318
1.987710
13.892356
19.983657
23.034633
24.556875
23.552355
20.615681
15.470460
9.592953
6.805386
5.304189
4.475012
3.374897
-1.189223
-3.903536
-5.217440
-10.920642
-15.217461
-15.603734
-17.298198
-20.003678
-20.279809
-15.137441
-3.059270
10.012514
17.406811
19.497945
16.966508
10.983276
4.060983
-1.723008
-4.340167
-3.623725
-1.103195
3.071798
7.669952
9.134006
9.425468
10.447397
11.417633
13.095736
12.679330
8.153656
2.701389
-1.043943
-4.063483
-6.975479
-7.484102
-7.529819
-8.901392
-6.295657
-0.698695
4.634342
9.409658
11.450138
11.888368
10.228453
6.233485
1.248541
-5.403075
-12.363294
-17.524880
-19.184016
-18.446792
-16.667380
-13.834349
-12.576290
-12.525633
-10.915070
-7.205062
-0.717876
5.530325
8.476355
12.182986
19.021898
26.915988
32.916109
34.246903
30.833035
21.607899
8.155300
-4.132760
-14.062127
-20.943896
-25.313970
-27.822806
-26.344205
-21.211708
-14.743744
-10.642786
-9.310174
-9.249386
-9.818535
-9.617213
-9.865029
-9.686307
-6.650397
-1.625184
4.248690
9.743823
14.417570
19.113397
22.662349
25.295618
27.695876
27.028535
22.328816
15.835919
9.841516
5.637954
3.443956
1.557784
0.846282
4.424847
8.175378
7.662859
5.173765
1.974985
-3.198032
-10.203970
-16.134729
-19.575353
-20.343225
-16.581524
-11.943625
-10.955985
-12.039994
-12.767082
-11.377322
-9.413993
-8.483243
-7.374551
-5.706579
-2.797436
1.108177
6.516288
12.094287
14.557668
14.995639
13.677579
13.239093
15.435173
14.510142
9.997975
7.110917
5.369435
-0.347275
-8.905847
-15.772810
-19.875842
-21.211306
-20.909194
-20.352509
-19.394223
-15.100517
-8.083923
-4.798636
-7.675823
-12.286182
-13.869725
-11.169955
-4.982281
1.027193
5.430781
11.112427
13.661532
8.939992
0.551049
-9.666920
-17.653742
-20.426503
-19.311057
-16.061358
-13.200012
-9.239328
-5.054465
-2.692652
-0.053668
3.042768
5.723835
5.938146
5.554990
7.953949
9.378779
9.556202
9.477495
5.517335
-0.186127
-4.699073
-8.146451
-9.219810
-9.365537
-9.487366
-8.970685
-8.520505
-7.242964
-5.890870
-5.915546
-5.439908
-3.032377
1.425502
7.474201
14.940193
22.130571
23.611511
19.950603
14.716022
8.621869
3.752522
0.251631
1.034055
8.402374
17.280205
23.420861
25.600576
24.841796
23.091742
20.740585
17.517387
11.958355
3.956986
-3.085320
-7.831538
-10.360636
-10.115673
-7.934659
-3.969039
0.968372
4.305093
3.896480
0.441050
-3.271551
-5.257735
-4.729624
-1.115731
4.629819
8.174614
7.708333
3.527890
-1.325612
-1.243523
4.039639
12.680302
19.139693
17.306254
7.386758
-5.533577
-12.940337
-14.997957
-16.787496
-18.672369
-21.634761
-21.570596
-16.413421
-12.834596
-12.508845
-12.591449
-10.767356
-5.381845
2.435353
10.143709
17.571255
23.306154
25.694203
26.434544
25.450545
22.981193
18.946480
12.304476
3.736034
-4.414442
-10.079459
-15.630957
-22.258674
-25.931790
-24.182251
-20.462112
-15.345721
-8.457193
-5.102028
-4.559370
-3.654337
-4.051260
-6.164210
-7.181978
-6.036400
-6.184725
-5.954308
-2.355222
0.976824
3.365132
4.627867
2.294893
-1.023640
-4.521673
-10.247994
-17.363815
-25.013718
-30.033471
-31.086308
-30.390128
-26.819356
-20.789101
-13.764195
-5.147171
4.081606
12.922030
20.566223
26.147859
28.261593
25.759251
20.896657
17.142493
15.381529
13.026215
7.941001
2.188182
0.778164
4.298282
8.386512
12.717365
19.155715
26.823547
34.509562
40.911285
44.790402
46.432917
43.901740
38.009687
33.373091
29.153163
24.938431
20.969180
16.912386
14.230544
11.321406
8.268875
3.108328
-7.209912
-18.271867
-28.166684
-35.546949
-35.199377
-26.249590
-14.236880
-7.785801
-8.580689
-12.705282
-19.035304
-25.183489
-27.486849
-24.435873
-17.134054
-8.453387
0.764480
8.740397
14.422043
20.997551
27.918550
32.438254
34.183897
34.637454
34.021546
30.413372
23.551605
13.631589
2.561062
-7.441040
-16.100401
-23.902529
-31.592436
-38.829568
-43.190290
-42.257721
-37.345767
-32.548371
-30.704276
-29.666761
-27.452237
-25.023665
-24.122527
-26.995558
-32.021286
-36.858163
-38.501972
-34.432445
-28.688455
-23.074608
-16.156466
-9.092075
-4.095697
-3.777998
-7.901033
-11.806381
-10.835886
-6.696742
-2.737357
2.046272
7.897027
13.378912
16.912797
16.788110
13.852475
11.978512
12.575201
13.657137
12.341934
7.300880
-0.872196
-10.156299
-15.267491
-16.855190
-18.866831
-20.179176
-19.511830
-16.343958
-12.499650
-9.022135
-3.559992
4.939616
15.130314
25.653515
34.684609
40.361320
43.392034
44.442798
44.088996
40.975420
33.030161
23.099755
14.352072
7.416790
0.337857
-7.854442
-14.338767
-18.286977
-21.265214
-26.348091
-33.155047
-37.179369
-38.294031
-37.753972
-36.912321
-34.821447
-28.080987
-19.619044
-12.675186
-6.835341
-1.277864
5.531175
12.406196
17.118648
19.043530
19.537092
20.583179
19.996626
16.973189
15.648375
19.125630
25.304732
31.038592
35.301126
35.935741
34.778218
32.058969
25.008091
16.360938
8.865857
6.122190
8.630252
12.002042
15.145755
17.309624
18.441176
20.102134
19.794311
15.845322
12.792791
12.660831
12.569915
11.242243
9.940548
10.233828
11.045605
11.057817
11.566185
13.254679
16.465412
19.631206
19.795642
18.621233
19.521851
22.021340
23.768022
23.701004
22.605825
23.914018
25.484837
22.383730
16.701568
10.270756
3.513675
-3.979069
-12.072136
-17.587007
-19.413693
-18.230447
-16.247637
-16.367907
-16.134893
-13.120544
-12.242526
-16.424268
-23.402411
-29.921545
-33.676747
-36.417037
-38.731307
-37.820299
-32.532461
-25.736670
-20.724705
-18.211708
-17.764126
-17.279137
-16.135376
-14.186335
-10.202013
-5.807776
-4.374634
-7.150772
-9.553363
-8.109051
-4.779084
-1.474834
0.350298
-0.412898
-3.132146
-5.680727
-7.080355
-7.296999
-7.440388
-7.574686
-7.495974
-8.938723
-9.814658
-9.170172
-8.206431
-6.950450
-6.209070
-5.225067
-3.959736
-2.043425
0.595040
2.330032
5.080717
9.375202
11.599337
11.324505
11.539595
13.047291
14.442766
16.581698
20.494844
24.682305
28.835737
31.655520
30.067301
25.385506
21.178307
18.073822
15.191700
13.436190
13.968197
15.439785
16.282474
15.279253
10.617720
3.320321
-3.166601
-6.784127
-7.651750
-8.224016
-9.540518
-10.063948
-8.740688
-6.881526
-6.762031
-7.565231
-8.441166
-9.224884
-10.484236
-13.724579
-17.378213
-19.599486
-21.037040
-24.003847
-28.007648
-28.585369
-23.101406
-14.252669
-6.666145
-0.916699
3.396749
5.533343
6.514748
7.099228
8.394693
11.902342
14.507037
14.244933
14.728364
16.601552
17.034588
16.195540
16.236845
16.980563
15.634967
9.635889
0.774168
-5.693531
-7.593731
-8.782167
-11.847686
-14.440687
-16.377255
-19.425110
-23.623736
-25.977491
-24.146905
-20.742384
-18.069630
-15.819518
-13.469135
-11.251234
-10.273206
-11.571264
-13.887093
-14.753416
-13.363656
-10.340215
-6.617998
-3.277640
-2.602761
-5.274731
-9.564796
-15.117593
-21.534638
-26.926638
-29.889549
-29.335462
-25.100203
-19.599875
-14.996266
-10.531113
-5.942830
-2.535711
0.049761
1.794105
2.275977
3.823417
5.946762
6.087299
7.138582
9.274136
9.579625
11.202917
15.296862
18.876206
19.883069
18.023653
15.196341
11.521926
6.461649
0.861055
-3.518890
-4.597704
-3.839699
-4.889159
-8.358098
-11.767809
-13.888812
-15.193364
-15.934220
-14.825528
-9.437420
-1.779199
4.883330
9.554220
10.092461
7.375031
4.919187
2.907807
0.204144
-2.829943
-6.330833
-9.153469
-8.849798
-5.754921
-0.593330
6.209475
12.088285
14.151624
13.155676
11.933210
11.063510
12.283642
16.481753
20.420877
22.356150
22.921927
22.282640
19.182312
15.076682
10.909747
3.958360
-3.923776
-10.814897
-14.936113
-13.508686
-10.582918
-8.450221
-6.916289
-7.260219
-8.231489
-9.222502
-8.812066
-5.817719
-1.438030
3.139863
5.265026
3.595240
0.420359
-2.346946
-4.472365
-6.271775
-8.206525
-10.035029
-12.825973
-16.906146
-20.835653
-24.349531
-26.036981
-26.166863
-26.515729
-26.452603
-26.081652
-26.646386
-28.164987
-30.294042
-32.652993
-33.107844
-29.431346
-21.801441
-13.955148
-9.337771
-7.199100
-4.837028
0.158312
6.854092
13.626244
20.931180
27.919719
31.892612
31.207606
28.452509
26.242926
23.966582
21.084978
18.055307
16.322138
16.155889
16.026527
15.662854
16.110696
16.566071
14.218291
9.296211
3.922394
-0.007633
-0.052311
2.440685
5.388793
8.959565
11.356186
12.173938
13.221065
14.620956
17.022253
20.122586
20.924751
19.568765
18.560608
16.973168
13.363955
9.288718
6.094354
3.836713
2.437865
1.409706
2.331105
7.272673
13.479829
17.719504
20.506556
23.153074
25.427085
26.293673
25.718809
24.694286
24.294506
23.234655
21.167943
19.054214
14.495809
7.043329
-0.600859
-7.251176
-13.151542
-18.119342
-21.990920
-24.413514
-23.301445
-18.751348
-14.086174
-11.261195
-9.193180
-6.412622
-2.911208
0.718012
3.046574
3.142950
0.988956
-2.981334
-7.933548
-13.447899
-16.427695
-14.950392
-12.233737
-9.883095
-7.178649
-3.796728
-0.787834
1.121723
3.294424
5.244244
6.627251
7.929470
7.480853
5.472589
3.807479
1.858962
-1.673100
-6.208126
-11.001622
-14.746953
-15.430400
-13.310432
-9.170249
-3.445741
0.890048
1.016038
-0.861563
-2.372890
-4.434926
-5.134738
