EVENT_NAME: 202010301151
EVENT_ID: 10614
EVENT_DATE_YYYYMMDD: 2020/10/30
EVENT_TIME_HHMMSS: 11:51:24.00000
EVENT_LATITUDE_DEGREE: 37.879
EVENT_LONGITUDE_DEGREE: 26.703
EVENT_DEPTH_KM: 16.54
HYPOCENTER_REFERENCE: AFAD
MAGNITUDE_W: 6.6
MAGNITUDE_W_REFERENCE: AFAD
MAGNITUDE_L: 
MAGNITUDE_L_REFERENCE: 
FOCAL_MECHANISM: 
NETWORK: TK
STATION_CODE: 3513
STATION_NAME: 
STATION_LATITUDE_DEGREE: 38.4584
STATION_LONGITUDE_DEGREE: 27.1671
STATION_ELEVATION_M: 2.0
LOCATION: -_-_-
SENSOR_DEPTH_M: 
VS30_M/S: 196
SITE_CLASSIFICATION_EC8: C
MORPHOLOGIC_CLASSIFICATION: 
EPICENTRAL_DISTANCE_KM: 76.14
EARTHQUAKE_BACKAZIMUTH_DEGREE: 
DATE_TIME_FIRST_SAMPLE_YYYYMMDD_HHMMSS: 2020/10/30 11:51:11.7217310
DATE_TIME_FIRST_SAMPLE_PRECISION: millisecond
SAMPLING_INTERVAL_S: 0.01
NDATA: 10501
DURATION_S: 
STREAM: HNZ
UNITS: cm/s^2
INSTRUMENT: sensor = CMG-5T/GURALP | digitizer = 
INSTRUMENT_ANALOG/DIGITAL: 
INSTRUMENTAL_FREQUENCY_HZ: 
INSTRUMENTAL_DAMPING: 
FULL_SCALE_G: 
N_BIT_DIGITAL_CONVERTER: 
PGA_CM/S^2: 44.299
TIME_PGA_S: 
BASELINE_CORRECTION: BASELINE REMOVED
FILTER_TYPE: BUTTERWORTH
FILTER_ORDER: 
LOW_CUT_FREQUENCY_HZ: 
HIGH_CUT_FREQUENCY_HZ: 
LATE/NORMAL_TRIGGERED: 
DATABASE_VERSION: 
HEADER_FORMAT: DYNA 1.2
DATA_TYPE: Acceleration
PROCESSING: Manual Paolucci et al., 2011
DATA_TIMESTAMP_YYYYMMDD_HHMMSS: 
DATA_LICENSE: U (unknown license)
DATA_CITATION: Turkish Accelerometric Archive v 1.0 - Disaster And Emergency Management Presidency, Earthquake Department
DATA_CREATOR: AFAD
ORIGINAL_DATA_MEDIATOR_CITATION: : AFAD - Disaster And Emergency Management Presidency
ORIGINAL_DATA_MEDIATOR: AFAD PROCESS SERVICE
ORIGINAL_DATA_CREATOR_CITATION: AFAD PROCESS SERVICE
ORIGINAL_DATA_CREATOR: network: TK
USER1: GuestUser
USER2: 
USER3: 
USER4: 
USER5: 
[...]
-4.019826
-11.656198
-15.459505
-14.879860
-10.976200
-5.709060
-0.360877
4.489020
7.894078
8.782698
6.897823
3.057477
-0.475160
-1.777225
-0.238364
4.142055
10.774891
18.724036
26.712120
33.497861
37.245767
37.089380
33.957524
29.400457
24.675606
20.772262
18.264372
16.885063
15.597245
13.302724
9.593123
4.465591
-1.453689
-7.274515
-11.841713
-14.348021
-14.691819
-13.548358
-11.956629
-10.577954
-9.895106
-10.443727
-11.917374
-13.465099
-14.466420
-14.643384
-14.495228
-13.775974
-11.868306
-8.730119
-4.997408
-2.613614
-2.895997
-5.154112
-7.092804
-5.539065
0.378949
7.396737
10.243677
6.214021
-3.378772
-15.066327
-25.591743
-33.494353
-37.010211
-34.578298
-27.418369
-18.405222
-9.628555
-3.136911
-0.051591
0.590735
-0.856953
-2.960263
-3.070747
-0.545445
3.173653
5.814504
6.365657
5.758154
5.251637
5.893330
8.393940
12.230170
16.525748
20.319241
22.651750
22.667578
19.866858
14.032736
5.653051
-3.486726
-11.004383
-15.185994
-15.661804
-12.683169
-8.179920
-3.741884
-0.150365
0.380528
-3.390489
-10.784682
-19.232114
-23.626779
-20.557605
-10.663118
2.415458
12.942457
16.565634
14.066924
9.306933
4.650146
1.432182
1.032667
3.203724
6.507795
10.411772
13.727240
14.527536
11.830335
6.177293
0.573635
-2.571516
-3.596896
-3.259113
-1.338782
2.801359
9.367397
17.039858
22.224689
22.408301
17.799000
11.057579
5.475133
2.426535
1.882663
3.018843
4.734668
5.932580
5.488745
2.292941
-4.142670
-12.898760
-20.809600
-25.213763
-26.165064
-24.974750
-22.209803
-17.841097
-12.735725
-9.318637
-9.812175
-14.001068
-18.946253
-21.208483
-19.159307
-12.822150
-4.510212
3.655786
10.374413
14.575968
16.153451
16.140471
16.667565
18.699646
21.763122
25.125760
28.294338
29.651169
26.097322
16.157882
1.719308
-13.425856
-25.354957
-32.026414
-32.712111
-27.453836
-18.699962
-9.167002
-0.552420
5.218704
7.814285
7.888363
5.532111
1.944707
-0.742364
-1.575268
-1.215008
-0.025960
1.501188
3.248354
5.059467
6.330507
6.129167
4.097718
1.159922
-1.386908
-1.655995
0.542288
4.176861
7.666444
9.490221
9.476608
8.175493
6.129482
3.335093
-0.378624
-4.330720
-7.394513
-8.880506
-9.159407
-9.353466
-10.087915
-11.052513
-11.227578
-9.491809
-5.648297
-0.764211
4.270881
8.725062
11.004070
9.514278
4.736243
-1.091548
-6.164945
-9.874863
-11.878453
-11.792979
-10.054044
-7.294161
-3.492754
0.736660
4.541866
7.942809
10.530159
11.613788
11.604291
11.355781
11.710976
12.222558
11.067700
7.873162
3.843189
-0.361532
-4.162940
-6.266250
-5.662863
-2.370504
2.275520
6.436554
9.253419
9.959693
7.099457
2.128313
-2.852329
-6.815189
-8.217607
-7.477459
-6.302024
-4.770761
-2.543988
0.161761
3.633616
6.612884
7.209623
5.118659
1.751273
-1.248888
-3.482310
-4.028399
-2.764323
-1.518609
-1.618963
-3.064751
-4.590000
-4.124954
-0.343174
5.740091
12.005385
15.545936
13.790856
6.947816
-1.634159
-8.875448
-13.673110
-14.905529
-13.432199
-10.556767
-7.050722
-3.683969
-0.547998
1.571141
1.113376
-2.123582
-5.987987
-8.808652
-10.042970
-9.919507
-9.403176
-9.177776
-8.932433
-7.310946
-3.653580
1.947545
7.881071
11.980057
13.771226
13.366013
11.388698
7.757607
2.153317
-4.113877
-8.927685
-10.935074
-9.374686
-4.687191
1.043728
6.275728
9.915367
10.947395
8.953618
5.080665
1.169407
-1.163102
-1.046287
0.564752
2.882066
5.230087
6.731909
7.156116
5.920532
2.362886
-3.360752
-9.765656
-14.439222
-15.739070
-14.173934
-11.292804
-7.832345
-4.395313
-2.113772
-1.338169
-1.053887
0.675868
4.874258
9.593726
11.960109
11.607446
10.220540
9.237265
9.259425
8.277732
4.232880
-1.154558
-4.710305
-4.489337
-0.151655
5.412747
7.924753
5.710642
-0.272903
-6.078850
-8.431303
-7.147284
-4.168333
-1.288153
1.129198
3.246121
4.259154
3.840328
2.448040
-0.284934
-2.795673
-3.176194
-1.258079
1.717073
3.561427
3.014705
0.955398
-2.288841
-6.477101
-10.287689
-12.463494
-11.843645
-7.987470
-2.048879
3.286324
5.602055
4.417439
1.149140
-2.552231
-5.553025
-7.571811
-8.207489
-7.176411
-4.689415
-1.295437
2.553457
5.821122
6.606223
3.998928
-0.820894
-5.076584
-7.012111
-6.347625
-3.691261
-0.011101
4.199002
8.314449
11.779973
13.741142
12.637252
8.300836
1.911445
-4.952489
-10.467822
-13.698765
-15.183809
-15.947383
-16.683415
-17.987379
-19.485718
-19.476538
-16.722037
-10.913874
-2.784598
5.539370
12.030697
15.154638
13.936149
9.241373
3.726989
1.095319
2.562001
5.489667
7.942157
10.030905
11.793899
12.812314
12.750266
10.918259
7.516683
3.404717
-1.106764
-4.604578
-5.929752
-5.297873
-2.729517
0.877515
4.512088
7.314075
8.482546
8.428728
7.242846
5.372533
3.800432
2.724084
2.430621
2.736113
2.783599
2.908012
3.499687
3.521847
2.930489
2.875088
3.432257
4.198996
4.545327
3.535776
1.156097
-1.524959
-3.941993
-5.297559
-4.800539
-2.767191
0.016751
2.487602
4.394954
5.886645
6.579623
6.232659
5.279141
3.913446
1.969688
0.117737
-1.158369
-2.326207
-3.445608
-4.320616
-4.504545
-4.347525
-5.038920
-7.145713
-10.410530
-14.419926
-17.994667
-19.557271
-19.391703
-18.699358
-18.492320
-19.132430
-19.574050
-18.356510
-15.025530
-9.777701
-3.462388
3.027673
7.795894
8.756692
6.058858
1.129818
-3.063507
-4.073058
-1.516099
3.585473
8.930807
12.691060
13.214355
10.910653
7.673379
5.023980
5.013533
7.886116
12.759439
18.847452
24.018038
25.381834
22.875842
19.062405
15.672542
12.610965
9.470562
7.000027
6.075951
6.209861
6.800902
7.342242
7.957026
7.667995
4.281931
-2.103661
-9.804613
-16.116444
-20.182507
-21.667550
-20.072023
-16.474172
-12.315987
-8.009962
-3.488985
0.354843
3.154614
4.703605
5.172133
6.708461
10.283519
14.742448
19.450204
22.044836
20.929866
16.480433
8.534137
-2.425934
-14.280956
-23.167791
-26.041007
-22.754980
-15.747006
-8.828938
-4.692913
-4.561536
-7.713019
-11.525190
-14.238220
-14.878964
-12.829154
-7.941269
-1.653814
2.916865
3.912170
2.529063
1.327986
2.280237
5.419374
9.881785
15.122017
19.628432
20.074483
14.613917
4.598816
-6.225128
-12.933308
-14.097663
-11.492585
-7.600005
-3.285433
1.396047
5.534922
8.078268
8.784859
7.730671
5.666299
4.501311
4.237922
3.460419
1.905729
0.407389
-0.170989
0.297538
-0.122237
-3.590294
-9.593782
-15.023958
-16.143993
-11.655939
-4.181652
2.060532
4.830228
4.425965
2.112450
0.081318
-0.121922
1.212749
4.826112
10.605467
16.200577
20.074163
20.267589
17.027782
11.757792
4.360116
-3.988544
-12.162140
-18.299856
-20.741900
-19.704174
-16.514385
-12.548993
-9.096449
-7.830474
-8.917585
-10.069594
-9.300006
-6.510998
-2.704209
0.601761
2.541404
3.056151
3.059317
3.789967
6.039217
8.770608
10.093883
9.209695
6.909159
5.453240
5.771713
7.047818
7.544204
6.281711
4.445905
3.620283
4.004285
5.140149
6.658116
8.749080
11.131924
12.876874
12.987041
10.838144
6.962975
1.852222
-3.625439
-8.365802
-11.065219
-10.792017
-7.455339
-2.363580
2.935850
7.458094
10.057158
9.539244
6.209214
1.684121
-3.228774
-7.928932
-12.177341
-15.079048
-15.055622
-12.114343
-8.369286
-5.864561
-5.587243
-5.979161
-4.547935
-1.384738
2.556911
6.125004
7.051296
4.452866
-0.422041
-5.530261
-8.622545
-8.740944
-6.393872
-2.198332
2.663278
6.848689
9.367659
9.269522
7.964291
6.890793
5.297481
2.445476
-0.516064
-2.050176
-1.575001
0.313990
1.866463
2.516387
1.795234
-0.723103
-3.101516
-3.267717
-1.570886
0.398514
2.426480
4.900814
7.871217
10.652943
11.414934
9.617750
6.700214
4.238226
2.588881
1.678101
1.358362
1.398883
1.293781
0.207303
-2.183456
-4.911681
-6.781044
-6.933633
-5.565405
-3.551051
-1.181820
1.239646
2.208676
0.510895
-2.285393
-4.329821
-5.837658
-6.800673
-5.887993
-2.222079
4.268615
11.054039
15.235967
15.001069
10.737149
4.764684
-1.228358
-6.453393
-10.662230
-12.357795
-11.985505
-11.147220
-10.323181
-9.936329
-9.207895
-6.942499
-3.879340
-1.371133
0.042682
0.132272
-0.976367
-2.268617
-3.123998
-3.615952
-3.674518
-3.300329
-1.474020
2.255842
7.012350
10.786215
11.457666
9.850109
8.191900
7.641696
9.478136
13.610045
18.010092
20.789919
20.089659
15.305609
8.122570
1.773700
-1.258435
-1.445530
-0.031082
1.991185
2.827254
2.171315
-0.026018
-3.488059
-6.922559
-10.210801
-11.762009
-11.230166
-9.476036
-6.106434
-0.354621
6.283913
8.712660
6.277265
1.052545
-4.433663
-7.656692
-7.378741
-3.690984
1.353289
6.349443
10.522190
12.983544
12.783470
9.757350
2.762988
-6.231165
-12.832977
-14.206903
-10.312424
-4.111710
1.909823
5.758400
6.474488
4.771958
0.414965
-6.012098
-12.675325
-17.828815
-19.597824
-17.847176
-13.569327
-8.662130
-3.951842
-0.488218
1.755651
3.108683
3.684846
3.046635
1.465986
-0.411291
-1.863095
-2.084063
-2.047024
-2.151493
-2.941659
-2.970784
-3.642868
-4.100000
-3.453558
-2.497824
0.020513
2.687956
3.377769
1.095278
-3.238922
-7.060274
-7.917553
-6.398636
-2.753616
2.177957
6.736606
9.639263
10.397772
10.098927
9.284701
8.596155
9.138128
10.815015
13.005699
14.613256
14.068434
11.735292
9.017513
6.284856
2.711064
-2.039113
-6.536980
-8.898298
-8.138840
-4.381436
0.928125
5.803664
8.588873
7.816118
3.510093
-2.684606
-8.451298
-10.745185
-9.341818
-5.680652
-1.846321
-0.581929
-2.889746
-8.980292
-16.989586
-22.423244
-21.605220
-14.414899
-3.478888
7.137384
14.116234
16.168576
13.172530
5.879640
-3.452297
-11.969374
-17.062399
-17.324522
-13.604474
-8.171766
-3.993320
-2.580139
-3.350678
-5.383709
-6.602831
-5.401121
-3.495985
-1.777311
-0.014316
2.679719
6.233567
8.832947
9.442666
7.238052
3.569605
0.343727
-1.892227
-1.908373
0.580207
4.039082
6.832838
6.735017
3.228972
-3.091406
-10.715115
-17.995976
-24.126727
-27.496012
-26.733072
-21.039191
-11.462861
-0.107391
10.780818
17.539649
18.105048
14.178911
9.085886
6.081926
5.185708
5.553249
7.105722
9.100448
10.507298
9.463873
5.215465
-0.413518
-5.196302
-7.805812
-8.322459
-8.186966
-7.643094
-6.541737
-6.307157
-7.097006
-6.914344
-5.763601
-3.822693
-0.880781
1.362771
1.331430
0.110092
-0.283725
1.348842
5.830564
12.155691
18.334244
22.433863
23.281962
19.730014
13.240269
6.518793
1.929119
2.491669
8.730371
17.389273
23.740675
24.182295
16.874842
5.179372
-6.009264
-13.417387
-16.054756
-14.752691
-10.856312
-5.521109
-0.039016
4.279988
6.717599
6.421604
4.720024
3.240046
2.224163
1.150031
0.082864
-1.019443
-1.823855
-2.773890
-4.036700
-4.433682
-4.375117
-3.968637
-2.345251
0.315861
3.185910
4.848551
5.367414
6.108828
8.979511
14.810467
20.630343
25.152271
27.365115
25.080725
17.722304
7.344728
-3.501693
-13.097335
-19.737135
-23.051970
-24.172322
-23.172901
-20.463987
-16.693604
-11.815215
-8.439282
-7.210346
-7.161910
-7.433847
-6.678187
-4.801543
-2.135683
0.086976
0.318390
-1.203376
-3.439014
-5.573032
-6.065303
-3.855624
0.463380
5.205009
8.593922
9.179582
6.918935
4.270169
2.186169
0.375689
-0.420809
0.031574
1.606207
3.990001
6.540946
7.995282
7.259249
3.547432
-2.678924
-9.251927
-14.636200
-18.314144
-20.186356
-20.841662
-20.550098
-18.981480
-15.957259
-12.774752
-11.175742
-11.266282
-11.194420
-9.660941
-7.132473
-4.894303
-3.307639
-2.458907
-2.630174
-3.070843
-3.528291
-3.592872
-3.377919
-3.249707
-2.972073
-2.009691
-0.943157
-0.515467
-2.347475
-6.158380
-11.843079
-19.256900
-24.242291
-24.945399
-21.112335
-14.647283
-8.662155
-4.185181
-1.109043
-0.265059
-1.361668
-3.231031
-4.290601
-3.124030
0.441531
5.859360
12.567223
19.690746
24.921164
27.453114
27.319520
24.873994
20.818379
16.590864
13.307370
11.726404
12.890759
16.810882
21.903590
26.488199
29.037877
29.006536
26.129521
21.278675
14.872505
8.128236
3.212492
-1.322732
-4.244383
-6.175162
-7.242646
-8.046741
-9.408954
-9.465304
-10.102882
-9.433331
-6.646223
-3.367477
-0.867818
-1.001728
-2.078076
-2.657405
-3.323791
-4.008221
-5.761719
-10.538488
-15.960748
-17.929832
-16.856017
-13.190419
-7.883708
-1.869772
5.778946
13.327627
18.586536
19.651170
18.750837
15.265052
9.167858
3.644611
-0.013073
-1.186609
-1.915043
-1.221115
0.642549
1.836662
0.957539
-2.734018
-8.878065
-14.515912
-18.042218
-20.119253
-19.795715
-17.668345
-15.575798
-13.513009
-9.432701
-3.823346
0.978115
4.210008
6.102797
7.122162
8.498304
10.424017
13.212708
17.173035
22.263527
26.605324
28.220163
25.589125
19.885114
13.135463
5.748234
-0.670281
-5.707906
-8.271514
-8.327547
-7.625072
-7.911887
-8.529521
-9.092071
-9.207937
-9.570413
-10.294415
-10.639163
-11.085215
-11.255214
-11.172906
-10.483410
-10.129798
-10.703745
-12.256218
-13.842565
-15.573269
-16.347923
-13.764689
-8.994885
-3.809104
0.772656
4.414194
7.532753
9.365394
10.302133
11.122690
11.880882
13.087024
14.800317
16.090668
15.272010
13.477359
12.161365
12.316802
13.666036
14.032944
13.096837
10.858350
6.438992
0.303176
-5.577166
-8.336415
-8.485521
-8.772020
-9.024962
-8.830586
-8.551685
-8.500717
-9.132913
-9.837921
-11.201401
-14.345920
-17.883622
-19.901458
-19.399690
-16.771818
-12.273950
-7.612731
-5.819029
-8.201240
-13.741899
-20.713785
-27.321928
-30.759276
-28.993749
-21.937972
-10.365650
3.403055
15.252379
22.109665
23.410463
20.440059
16.095413
12.714730
11.066335
12.167376
16.586100
24.212025
32.809828
39.981471
44.056081
44.298892
40.105567
32.031059
23.813776
16.884628
12.408920
10.270153
8.685706
6.048337
1.838867
-2.527624
-5.064956
-5.195700
-4.385274
-3.314624
-3.032558
-3.416244
-4.084213
-3.901867
-1.215746
3.473331
7.931311
11.131863
11.739683
9.483784
4.321113
-3.605239
-12.410715
-18.817201
-20.137310
-17.553442
-12.501572
-8.161674
-7.689347
-12.130232
-20.430140
-30.449357
-38.463716
-43.629237
-42.578531
-34.504972
-24.674434
-16.325773
-9.757202
-5.578440
-7.131863
-11.996323
-17.359068
-22.724979
-26.313016
-27.284262
-25.741919
-20.073998
-10.559399
1.074022
12.390870
20.315640
24.103435
24.882837
23.971740
22.629788
21.072249
20.871541
22.793455
24.266153
24.664718
23.945781
20.681914
15.666449
10.906142
8.026278
7.400730
9.048492
13.298483
18.611526
24.526374
28.920723
29.086607
24.294010
16.664919
6.523822
-3.855970
-10.029775
-11.417314
-9.030988
-5.753192
-3.409603
-2.980014
-4.755354
-7.390507
-10.054785
-12.291056
-13.842897
-14.353529
-13.852711
-11.978916
-7.766913
-2.982547
0.927445
2.834480
3.217850
1.882545
0.049904
-1.734934
-3.031933
-3.888263
-5.521779
-5.978911
-6.353733
-6.480046
-6.409767
-6.685502
-7.136302
-7.042280
-5.535076
-1.557971
3.811739
8.188359
11.358837
13.512799
15.118140
14.995310
13.041422
10.482879
7.882549
6.117655
5.144193
4.334400
4.342314
5.556371
6.982215
8.325118
10.694032
12.806523
13.681531
12.640956
10.001371
6.598212
3.311868
1.693231
2.744253
6.222756
10.944124
16.096032
19.566620
21.207418
20.680324
19.502989
18.082210
14.692663
10.057086
4.750374
0.038820
-2.894545
-3.516927
-1.558924
1.526395
4.018141
5.396499
5.638044
5.337933
4.008960
0.712486
-3.925624
-8.968947
-14.188918
-19.631756
-24.392696
-28.001311
-30.750113
-31.702681
-30.566501
-27.986432
-25.089473
-22.606909
-20.561215
-19.223694
-17.982729
-15.403293
-11.762388
-7.581093
-3.847116
-1.415836
0.135055
1.296877
2.240581
2.474528
3.084564
4.157430
4.592401
4.007374
2.403299
-0.164740
-3.836670
-8.428243
-13.236036
-17.624686
-20.522278
-21.292817
-20.239579
-18.134369
-15.765771
-13.217992
-10.435316
-7.495304
-4.863000
-1.753938
1.372853
3.096276
4.018452
5.603849
7.363995
8.190566
9.499595
11.712123
11.806145
8.550193
3.067467
-4.237770
-11.009265
-15.344414
-15.247543
-10.802859
-4.796838
1.450728
5.851408
7.566600
6.822653
4.661410
3.112102
3.134579
5.276511
6.498799
5.218261
2.758173
-1.098951
-2.611220
-1.325618
0.699499
3.505285
7.177847
12.472529
18.838493
24.767587
27.631306
26.887359
22.664277
15.801926
7.760974
0.377544
-3.770828
-2.909750
3.176998
11.771635
20.275733
26.131066
27.234322
22.800402
14.284591
5.675707
-0.750407
-4.946897
-7.767879
-11.395488
-18.059031
-27.875324
-35.093819
-33.912369
-30.285077
-27.687596
-21.763568
-14.025576
-7.479798
-2.100908
1.783758
3.970011
4.998239
6.034382
8.291864
11.068841
13.745781
15.409055
15.705368
14.743936
12.608651
11.093217
11.671279
13.638146
15.775330
17.129628
17.286649
16.944117
16.830783
16.574359
15.871567
14.800918
13.250660
11.628224
9.508768
6.526018
3.303622
0.636495
-2.086348
-4.847181
-6.674440
-6.729840
-5.686416
-3.558729
-0.722869
2.314014
4.598088
6.702031
10.057704
12.047681
12.397178
11.920102
10.130199
6.533614
2.622989
-1.802384
-7.157531
-12.830201
-17.534475
-19.911938
-19.944545
-17.770955
-14.375711
-10.628437
-8.498218
-9.337770
-12.760240
-16.919058
-20.407375
-22.903869
-23.662378
-22.145361
-18.905870
-14.616940
-9.258944
-4.654708
-2.451044
-1.150246
0.018541
1.347514
2.899354
3.283357
2.310845
0.940084
-0.086245
-0.236301
-0.021664
0.052414
-0.525332
-1.828979
-3.907281
-7.419974
-12.736183
-17.834906
-21.291249
-24.603868
-27.806003
-29.463896
-28.441049
-25.245878
-21.838288
-19.625126
-18.672875
-19.735927
-21.565086
-22.786424
-22.596164
-20.539390
-16.963699
-11.653505
-5.752902
-0.468984
3.245682
5.361339
5.498415
3.957021
3.151343
4.623724
7.413364
10.162167
11.791567
12.283838
12.082814
11.192928
10.366039
10.551551
12.346519
15.597089
19.788831
23.053331
24.670069
24.988541
24.395916
23.106515
21.664209
20.721454
20.328904
21.056705
22.167243
23.109997
23.375285
22.847874
21.643314
20.276036
18.757435
17.060288
15.820905
15.096902
14.973755
15.093736
15.925057
16.120066
13.331375
7.892336
1.934750
-3.748367
-8.256049
-8.949660
-6.076761
-1.895466
1.053727
2.957596
4.666457
5.662079
5.968521
5.547795
5.956174
7.825537
12.472194
18.546279
23.753270
27.292871
28.416072
27.806353
25.424141
21.182064
14.835094
7.572911
0.333205
-6.296781
-10.753811
-13.069226
-14.939538
-17.943499
-22.172596
-27.170650
-31.780584
-34.347358
-35.270168
-33.683188
-28.792136
-21.505261
-13.879653
-7.673558
-4.826301
-5.664587
-7.640318
-10.401784
-13.548835
-15.680321
-16.427116
-16.617693
-15.812015
-15.145313
-16.024119
-18.597541
-22.901349
-28.047242
-32.972483
-35.980243
-35.686463
-32.274757
-26.795197
-20.392826
-14.621069
-10.733870
-8.369071
-6.800136
-6.365481
-5.623434
-3.623960
-0.896051
1.757463
3.842728
5.022279
5.630099
6.080265
5.961234
6.005237
6.300916
6.822629
8.180726
10.627202
13.806860
16.759852
18.652641
18.669736
16.312534
12.744441
9.333051
6.820095
6.123635
6.924880
7.830912
8.015157
7.224991
5.127379
1.852749
-1.508306
-4.177649
-5.852636
-6.553212
-5.988446
-4.072230
-1.710913
0.795711
3.146265
4.226412
4.097883
3.722111
3.207680
3.213061
4.537919
7.210427
11.619021
17.327464
22.412258
25.819216
27.485339
27.237462
25.694169
23.589909
21.404606
18.670682
15.310894
11.255595
5.931155
0.745057
-3.594524
-7.285448
-11.500300
-16.346081
-20.949051
-24.498783
-26.242151
