EVENT_NAME: 202010301151
EVENT_ID: 10614
EVENT_DATE_YYYYMMDD: 2020/10/30
EVENT_TIME_HHMMSS: 11:51:24.00000
EVENT_LATITUDE_DEGREE: 37.879
EVENT_LONGITUDE_DEGREE: 26.703
EVENT_DEPTH_KM: 16.54
HYPOCENTER_REFERENCE: AFAD
MAGNITUDE_W: 6.6
MAGNITUDE_W_REFERENCE: AFAD
MAGNITUDE_L: 
MAGNITUDE_L_REFERENCE: 
FOCAL_MECHANISM: 
NETWORK: TK
STATION_CODE: 3513
STATION_NAME: 
STATION_LATITUDE_DEGREE: 38.4584
STATION_LONGITUDE_DEGREE: 27.1671
STATION_ELEVATION_M: 2.0
LOCATION: -_-_-
SENSOR_DEPTH_M: 
VS30_M/S: 196
SITE_CLASSIFICATION_EC8: C
MORPHOLOGIC_CLASSIFICATION: 
EPICENTRAL_DISTANCE_KM: 76.14
EARTHQUAKE_BACKAZIMUTH_DEGREE: 
DATE_TIME_FIRST_SAMPLE_YYYYMMDD_HHMMSS: 2020/10/30 11:51:11.7217310
DATE_TIME_FIRST_SAMPLE_PRECISION: millisecond
SAMPLING_INTERVAL_S: 0.01
NDATA: 10501
DURATION_S: 
STREAM: HNN
UNITS: cm/s^2
INSTRUMENT: sensor = CMG-5T/GURALP | digitizer = 
INSTRUMENT_ANALOG/DIGITAL: 
INSTRUMENTAL_FREQUENCY_HZ: 
INSTRUMENTAL_DAMPING: 
FULL_SCALE_G: 
N_BIT_DIGITAL_CONVERTER: 
PGA_CM/S^2: 106.643
TIME_PGA_S: 
BASELINE_CORRECTION: BASELINE REMOVED
FILTER_TYPE: BUTTERWORTH
FILTER_ORDER: 
LOW_CUT_FREQUENCY_HZ: 
HIGH_CUT_FREQUENCY_HZ: 
LATE/NORMAL_TRIGGERED: 
DATABASE_VERSION: 
HEADER_FORMAT: DYNA 1.2
DATA_TYPE: Acceleration
PROCESSING: Manual Paolucci et al., 2011
DATA_TIMESTAMP_YYYYMMDD_HHMMSS: 
DATA_LICENSE: U (unknown license)
DATA_CITATION: Turkish Accelerometric Archive v 1.0 - Disaster And Emergency Management Presidency, Earthquake Department
DATA_CREATOR: AFAD
ORIGINAL_DATA_MEDIATOR_CITATION: : AFAD - Disaster And Emergency Management Presidency
ORIGINAL_DATA_MEDIATOR: AFAD PROCESS SERVICE
ORIGINAL_DATA_CREATOR_CITATION: AFAD PROCESS SERVICE
ORIGINAL_DATA_CREATOR: network: TK
USER1: GuestUser
USER2: 
USER3: 
USER4: 
USER5: 
[...]
1.266191
-0.185147
-2.348095
-2.290307
0.741062
5.235638
9.355353
11.180922
10.610193
7.688152
2.928044
-2.464016
-7.592112
-11.540646
-13.500233
-13.001983
-10.640989
-7.822978
-5.343590
-4.135605
-5.211457
-6.912078
-6.588451
-3.987859
-1.498162
0.131854
1.397630
2.281673
2.166713
1.901184
1.515700
1.008698
1.440409
2.925792
4.803840
7.083615
9.411808
10.903438
11.218631
9.163142
6.347624
3.797632
2.686480
3.175045
3.570208
4.304932
5.802185
7.081393
7.095760
4.800049
0.600045
-3.786139
-5.473015
-3.668689
0.568795
4.530444
7.049192
8.540510
7.558372
5.018688
1.511865
-1.594483
-3.959856
-4.915441
-3.941119
-1.050009
1.306924
1.680219
0.547513
-1.065015
-3.145807
-5.274393
-6.610462
-7.590100
-7.846570
-7.542936
-5.774534
-4.810208
-5.000453
-6.412431
-8.585063
-11.554274
-13.826245
-14.690926
-14.613458
-13.575409
-11.548978
-9.139252
-7.833178
-6.822307
-6.810752
-5.762707
-4.116447
-3.078398
-1.860417
0.392493
3.872446
8.422313
12.303680
14.199847
13.312049
10.420934
7.565430
5.348752
4.532490
4.760527
6.264028
7.325817
7.708797
7.110579
6.504239
5.516166
3.562827
1.542013
0.993465
3.541577
7.381083
10.597697
10.783875
8.650915
4.381250
-0.306072
-5.040565
-9.679155
-12.704595
-13.290318
-11.513169
-8.944440
-6.239511
-4.605122
-3.537084
-3.194402
-3.241262
-3.505542
-3.404020
-2.762387
-1.502858
-0.300183
0.261480
-0.844986
-2.433148
-3.302203
-3.921038
-4.268412
-4.680762
-3.553371
-2.645274
-1.850260
-1.049623
-0.696633
-1.034010
-1.696267
-2.508155
-3.702401
-4.820738
-5.418644
-5.164054
-5.535169
-5.749779
-5.933152
-5.750410
-5.454898
-5.167507
-4.218176
-2.569729
-0.144384
2.893233
6.397865
8.687011
9.879377
10.272665
10.106474
9.114965
7.812634
7.054475
6.950449
6.913897
6.454690
6.094508
5.294491
4.335782
4.188334
4.789045
3.770983
1.941348
0.361620
-0.445895
-1.159070
-2.505447
-3.707815
-4.438484
-5.204140
-6.328724
-6.663915
-5.894517
-4.002411
-1.605180
2.080634
6.206909
10.070782
11.586778
10.604015
8.372342
5.719264
3.821529
1.962842
0.058548
-1.439023
-3.202121
-5.559997
-6.760491
-6.805477
-6.243501
-5.298543
-3.613860
-1.460913
0.570828
2.394835
4.594639
6.900028
8.134254
7.649744
5.830418
3.499719
2.660341
2.694075
3.567810
5.046632
4.000143
1.631646
-2.197558
-6.423489
-9.549829
-11.333231
-11.579393
-10.832486
-8.914452
-6.064890
-2.228507
1.139925
2.254820
1.083378
-1.085818
-3.055713
-4.341176
-4.985002
-4.840371
-4.599213
-4.917223
-5.661324
-6.490394
-6.629720
-6.073679
-4.331830
-0.962461
3.121330
6.578791
8.578670
8.893550
8.402792
7.572160
6.370105
5.902776
5.656614
5.444503
5.355158
4.966237
4.285238
2.467473
0.253606
-1.407342
-2.089278
-2.626581
-3.530935
-3.826766
-3.415672
-1.980583
0.573464
3.484566
5.195802
4.616327
2.684230
0.540337
-1.196520
-2.044020
-1.406448
0.507525
2.981602
4.743444
4.522274
3.460478
3.192762
4.466348
6.001712
7.255305
7.040070
5.421607
3.890923
2.708547
0.987310
-2.271794
-6.054453
-9.133935
-10.370353
-9.191420
-5.813929
-3.515724
-3.969933
-6.080088
-8.202739
-9.386364
-9.556304
-8.670386
-7.587042
-6.908547
-6.820146
-7.360885
-7.984718
-9.121798
-11.502478
-13.293065
-13.141875
-11.073584
-8.307116
-4.549453
1.189972
6.939393
10.221295
10.950708
10.536797
8.510985
6.132179
4.787364
4.170403
4.517146
5.459293
6.246810
6.258990
4.754546
1.229292
-2.142582
-4.109666
-4.821592
-5.270178
-5.255498
-4.111552
-2.978226
-2.883889
-3.746384
-4.481738
-4.544530
-3.741082
-2.395335
-0.816862
-0.186475
-0.206158
-0.593204
-0.477000
0.867184
2.160138
2.811456
2.976079
2.316634
1.235471
0.472939
0.384531
1.016481
1.299498
0.821860
-0.738500
-1.805919
-1.743757
-0.861588
0.229253
1.195141
2.643350
3.073500
1.185136
-1.746276
-4.503066
-6.478272
-8.127974
-9.927620
-10.365585
-9.475607
-7.811853
-5.447423
-2.923052
-0.406178
0.962372
1.494984
1.633679
2.075075
3.759446
5.596572
8.757894
11.342242
12.787639
12.729221
11.580895
10.212026
8.267746
6.756743
5.389436
4.894304
4.194249
3.219609
2.335247
2.077528
2.131567
2.078147
2.260576
2.811931
3.691288
4.656239
5.581830
6.542407
7.356789
7.417076
6.555206
5.480603
4.287919
3.407306
2.451408
1.159073
0.225355
-0.794268
-1.990389
-3.179325
-3.668833
-4.343897
-5.281052
-6.858593
-8.446755
-9.837179
-11.128576
-11.448773
-10.272338
-8.361801
-6.427836
-4.826559
-3.017235
-1.264765
-0.841487
-0.057094
1.561676
3.116407
3.096724
1.497628
-1.071419
-4.470783
-8.557391
-11.232961
-11.761830
-9.956879
-7.426261
-5.629744
-4.062830
-3.899768
-4.487677
-5.140250
-5.504493
-4.716039
-3.439329
-2.295382
-1.729033
-2.362550
-3.542427
-5.519195
-7.622790
-9.577691
-9.769810
-7.863334
-4.784795
-2.080178
-0.238054
1.171419
1.721212
1.136739
-0.497344
-1.100248
-1.058079
-1.092756
-0.641989
1.422240
4.784737
8.139424
9.350846
9.403636
8.734194
7.106984
5.086795
3.441154
2.431214
0.478500
-1.867505
-3.940487
-4.482164
-4.343468
-4.460303
-4.624307
-4.211026
-3.095194
-1.566078
0.011457
2.315910
5.609682
8.877839
11.309432
12.228775
11.397206
8.725697
6.130721
5.124530
5.729302
7.574863
9.720312
11.197573
11.489336
10.231676
8.216798
5.865482
4.239208
4.822739
7.233714
10.389725
12.173434
11.766083
10.186979
7.814109
4.867077
1.182819
-1.691427
-2.065666
0.404975
3.103656
3.266093
1.702921
-1.004513
-3.365200
-5.379454
-7.052897
-7.561461
-6.957626
-5.042716
-1.969799
1.454550
4.718646
7.203969
8.497547
9.026410
8.227017
6.914065
6.199328
6.500463
7.112732
7.242994
6.176825
2.611898
-3.223748
-10.079014
-15.417344
-17.623401
-16.844631
-14.806017
-13.198493
-12.325071
-12.149826
-12.608096
-13.053246
-13.366258
-12.992025
-10.205876
-5.751286
-1.293884
1.589104
3.146022
5.123097
6.181762
5.649458
3.730168
1.341366
-0.900303
-2.934862
-3.403128
-2.736504
-2.580939
-4.362467
-7.006799
-9.398725
-11.123712
-11.492015
-10.190939
-7.109276
-3.354737
-0.610760
0.927102
1.010506
0.632206
-0.302762
-1.251162
-1.525750
-2.580985
-3.098608
-2.299846
0.163298
2.742961
3.487368
2.336544
0.267310
-1.561075
-2.356720
-1.986860
-0.910076
-0.235017
0.065181
-0.141620
-1.259020
-2.891229
-4.293523
-4.816144
-5.337203
-5.235993
-4.116412
-2.184009
0.381909
3.749716
7.322135
10.703062
13.544190
15.354764
16.034508
15.472839
13.513565
10.619951
8.553841
8.101507
8.538529
8.781561
8.566325
6.925995
4.848015
4.157956
5.326893
7.899371
10.920120
12.963732
13.046199
11.834771
9.284154
6.155003
3.924579
2.766570
2.463242
2.444808
2.590689
2.368581
1.597927
1.407058
2.057126
2.720938
2.886499
3.165143
3.110160
2.500696
2.122709
2.692807
3.472826
2.978945
0.824118
-1.260735
-1.792727
-1.670588
-1.588746
-0.493219
1.758753
4.107877
5.816301
6.194595
5.666976
3.967917
1.552250
-0.731903
-2.766150
-3.238165
-2.489383
-1.636578
-1.305454
-1.918667
-2.696505
-3.511518
-3.896377
-3.913249
-3.274427
-2.025207
-1.228006
-2.575321
-5.712907
-9.192865
-12.483520
-15.576435
-18.496602
-18.957371
-16.712271
-12.952110
-8.709940
-4.420913
-0.740722
1.841440
3.263096
3.592970
3.090967
1.788011
0.401961
-1.092486
-2.774051
-4.162288
-5.989424
-7.959632
-9.032048
-9.499065
-10.066669
-10.940097
-11.458657
-11.532383
-11.017577
-9.998271
-9.257925
-9.357266
-9.697454
-9.404129
-9.059885
-8.629110
-7.965298
-7.726327
-8.121495
-9.339795
-11.325310
-12.532364
-11.836375
-9.014303
-3.813115
1.636106
6.273753
9.480683
12.043789
15.888607
21.160081
26.370016
31.226332
36.103578
39.361738
41.345060
40.856489
39.531354
36.214460
30.859573
25.785520
19.202965
14.043630
10.233482
8.088964
6.234338
3.601252
-0.604999
-6.123262
-10.776535
-13.190952
-12.332837
-9.527008
-3.963142
2.261415
9.767058
15.732962
19.400033
21.117204
20.564906
18.964874
17.109311
16.491100
16.652287
17.596621
18.247001
17.287355
14.917921
11.874987
8.821745
5.625430
2.067063
-1.162988
-4.588592
-6.963650
-8.748614
-9.006958
-10.149973
-10.862524
-11.904327
-11.191782
-9.566764
-7.233260
-4.732630
-2.343521
0.093382
-0.649782
0.245195
-1.370145
-2.472550
-4.711408
-8.058604
-11.192129
-14.063252
-16.224326
-17.784061
-19.249769
-21.072531
-22.435153
-23.874620
-23.324828
-21.109404
-17.056852
-11.922202
-6.486413
-2.045568
1.583705
3.453944
3.291189
0.542521
-3.291994
-7.247088
-10.470580
-14.234183
-18.215518
-21.361226
-23.223349
-24.731853
-27.656706
-31.405940
-35.597196
-38.749152
-40.454146
-39.458894
-35.883039
-30.503480
-25.879577
-23.838464
-24.218326
-25.815235
-27.323427
-28.500492
-28.419275
-26.884849
-23.559838
-19.479796
-15.922371
-14.088056
-14.652849
-14.348903
-12.065692
-7.771979
-2.098779
4.372561
10.910127
16.540843
20.828308
22.467696
20.279756
15.713639
11.102538
6.638883
3.714343
3.498483
5.756390
8.720910
11.280892
12.498249
12.724100
12.879352
13.430706
14.566219
15.730783
18.054603
20.676438
23.007131
25.405923
26.358066
25.559923
23.597525
21.304624
19.280999
18.173283
18.415378
20.240634
21.881583
22.846846
21.574192
18.182325
13.767714
8.431570
4.905691
2.047064
1.347946
2.861755
6.111169
10.069069
12.117992
11.768431
10.316156
9.345577
9.942539
12.038944
15.569504
21.110877
27.113330
32.761851
35.841641
36.810653
36.209311
35.100345
32.785578
29.431823
26.333909
24.484282
22.385997
18.926343
15.013108
10.199582
6.370378
2.613335
0.202042
-1.344886
-2.380441
-2.937112
-2.385445
-0.627977
2.286874
6.399092
10.725293
14.864688
18.205005
19.551064
17.574609
14.932776
12.107574
9.449497
8.861900
11.627431
16.893595
22.048863
24.974647
26.577485
25.554738
24.250532
21.174798
16.488101
11.722058
6.418090
2.649488
-1.628299
-6.838864
-13.858756
-20.710899
-28.115960
-35.031829
-43.638319
-51.706259
-58.023912
-63.805203
-68.099234
-71.878456
-75.140059
-74.928578
-75.196293
-74.293195
-68.646547
-63.902689
-56.578853
-48.124188
-38.164145
-28.687047
-19.768804
-11.555298
-2.698282
3.608432
7.771568
10.983184
11.264951
10.424636
9.750508
9.168534
8.385073
7.779045
5.489894
2.363241
-5.851207
-14.889099
-23.325964
-30.088140
-36.768784
-43.654351
-49.833931
-55.695816
-58.496965
-59.709954
-59.284178
-56.942864
-53.744056
-51.015699
-48.072109
-45.306578
-42.289265
-38.589394
-34.690534
-30.323411
-26.268984
-22.134587
-17.312633
-13.321933
-8.509662
-3.340962
1.692163
8.325318
15.855015
24.021038
30.820382
34.498386
35.761039
34.297830
31.568842
27.305112
23.092613
18.596782
14.994369
12.210402
10.232072
10.118986
9.523267
8.174079
6.287590
6.152012
5.922720
6.542174
8.277151
12.039499
17.331591
23.334043
30.175871
35.691942
40.700701
46.311112
48.684601
49.675480
51.064023
50.614812
50.169350
50.651356
49.100992
46.098043
43.941030
40.119948
37.565895
33.901317
31.519075
28.592348
27.061352
25.484436
21.368776
17.211881
12.183436
8.836865
5.722708
3.995222
2.269611
3.300787
5.669903
9.675911
13.713469
17.525174
20.415658
20.909847
19.334492
18.742834
18.055275
17.625432
18.098378
18.378896
18.450741
17.701017
18.205514
15.297218
14.758353
11.161562
10.482437
9.625565
6.993416
7.275808
2.011201
1.743172
0.554237
-2.338440
-2.497134
-4.531693
-2.102287
0.296193
3.948582
8.591228
8.770221
9.603658
9.492759
9.036363
6.803753
4.801370
0.066878
-4.124379
-7.105148
-11.345450
-14.516773
-17.050209
-16.742514
-14.075071
-6.746549
-3.640832
-0.103400
3.608966
2.201362
3.050418
1.628132
-0.096855
-3.913876
-7.399457
-11.965575
-17.671581
-21.772871
-29.744909
-36.309346
-45.237279
-53.281165
-62.079146
-71.846454
-79.473621
-86.253602
-90.249307
-92.619366
-91.931187
-89.080063
-85.836272
-84.568934
-83.654589
-81.646901
-79.249983
-74.969390
-71.138630
-66.193909
-59.193390
-53.801024
-45.167362
-38.676966
-29.972393
-20.586824
-12.413616
-1.157493
7.129735
15.407904
22.508385
27.298476
30.824350
34.586385
36.579079
38.458690
39.087828
39.404582
39.313988
38.317168
38.342156
37.684273
38.096304
37.547443
37.749552
36.624655
35.485389
33.411469
30.066461
30.579704
29.109623
27.884138
26.715508
23.487643
18.832808
11.939119
7.280224
3.917721
3.103021
5.409348
10.722057
18.192401
25.171990
32.557054
39.882452
46.236961
52.327193
57.319396
62.066378
66.938001
70.322989
75.808134
80.019378
83.460595
85.936859
86.308905
85.880936
82.393793
77.171669
69.985276
63.588590
58.372402
54.540074
51.373749
49.130517
45.921083
43.044650
41.194710
39.512833
38.222997
34.806452
29.215716
19.990393
8.664915
-4.518935
-16.019037
-25.582671
-33.127993
-37.001243
-38.350744
-39.411290
-40.950720
-45.300043
-52.104703
-57.105971
-59.889001
-58.472344
-55.385994
-50.158566
-41.336849
-34.836457
-27.108396
-21.143118
-17.819044
-14.022646
-9.412801
-5.190936
-2.432902
1.298520
-1.687873
-3.804901
-9.439996
-15.945704
-22.188386
-29.842417
-34.155191
-39.411052
-42.804480
-45.207652
-46.291939
-47.203478
-47.975382
-47.254403
-46.523740
-44.544479
-42.178486
-40.798377
-39.024040
-39.318309
-33.765689
-29.436052
-22.649828
-14.823991
-8.322350
-2.061243
1.498992
2.399592
-1.825402
-9.113007
-18.207441
-26.677106
-39.863456
-49.483319
-60.765064
-67.177369
-72.119597
-78.973926
-83.585651
-91.725752
-99.416332
-103.325194
-106.642713
-106.378440
-102.776032
-100.123584
-89.751819
-76.737286
-62.962724
-47.297303
-30.559155
-16.576858
-2.650477
7.889663
16.251551
24.250761
31.911971
43.047515
50.477561
55.402602
60.247360
64.524204
70.891833
76.790262
82.544057
87.492214
91.604119
95.797245
97.999548
102.392911
102.223909
100.772883
98.624929
93.448101
86.115513
77.155717
70.099275
62.704835
59.030573
58.008450
57.040995
57.931598
58.178066
57.628268
54.794006
51.121619
46.786354
40.159440
32.253627
24.679566
18.954192
13.348461
7.922351
-0.452662
-6.462305
-15.002257
-26.502983
-31.345873
-33.908985
-37.635102
-38.570695
-36.425558
-33.512269
-27.514815
-18.275441
-11.676648
-4.696434
3.139399
7.664901
13.924758
19.902532
22.871425
24.418659
27.177630
27.949840
28.719551
28.134141
26.430397
27.480316
30.737852
33.659262
35.623217
35.644143
34.316509
31.884286
27.467488
22.530883
16.379418
11.925447
7.583933
6.343142
4.314831
3.091845
1.393724
0.450634
-1.622973
-5.075754
-7.204028
-12.988130
-14.977705
-19.597865
-24.213027
-27.165369
-31.096098
-33.670768
-36.087060
-39.621999
-42.477190
-43.510246
-41.536608
-37.659302
-31.965485
-26.069556
-24.326144
-17.339370
-12.617692
-7.755440
-3.020017
-1.219127
1.532035
0.956621
0.779184
-1.626799
-5.208907
-8.895039
-12.162890
-15.821844
-19.160606
-23.712041
-28.442160
-33.160408
-37.846168
-41.511058
-43.997012
-43.545932
-41.927787
-38.833003
-36.704110
-34.568033
-31.525105
-28.444378
-25.478921
-22.691836
-19.947546
-17.166084
-16.630661
-16.751556
-20.357718
-24.370291
-28.328197
-33.750559
-38.582515
-44.181998
-49.538446
-56.484616
-61.737041
-66.509019
-69.826226
-72.235957
-71.486864
-68.759756
-66.187278
-63.256496
-57.964716
-49.822435
-41.165657
-30.259403
-21.683532
-13.612162
-7.840873
-2.648745
1.921740
4.154969
7.227574
9.470799
12.506230
18.132885
24.504887
31.340468
37.711533
44.373428
49.553374
50.223122
52.559125
49.506820
47.625641
44.592704
37.156716
31.544738
23.816047
18.607356
12.836686
9.206159
6.147918
6.107930
8.791929
14.272388
22.229114
29.387386
35.738772
42.384110
48.742055
53.488100
60.713847
65.955333
71.798782
77.999598
83.899901
90.240665
96.219377
101.839471
104.795557
105.723958
104.407258
98.248295
90.339671
87.303609
82.410114
71.943066
63.474025
50.124611
35.525662
22.750723
8.258297
-1.993519
-13.594520
-22.544944
-28.717027
-34.206551
-35.160262
-35.460153
-34.836950
-33.547745
-33.197566
-33.379688
-33.574931
-34.135975
-35.081252
-35.151228
-34.544270
-33.352528
-31.563509
-28.568063
-25.853450
-22.139522
-17.026739
-10.715026
-2.427486
4.574907
10.046619
12.411675
13.990460
14.120408
13.195749
11.442024
6.582890
2.180150
-5.373294
-11.499457
-18.096069
-23.528426
-23.839564
-25.552992
-26.595107
-26.192447
-23.632152
-21.403609
-19.199744
-17.429780
-16.807202
-18.195751
-20.254363
-23.665285
-27.912771
-33.717178
-39.406627
-43.775318
-48.239598
-49.707493
-51.238177
-50.905491
-49.712187
-48.756608
-48.677265
-49.203947
-50.124858
-51.940123
-53.659487
-55.621885
-60.875871
-64.741624
-66.406320
-70.265513
-71.654375
-70.744091
-68.092892
-62.515907
-54.694755
-46.365356
-34.837458
-19.721520
-5.313443
7.350595
17.219734
23.941294
31.106127
38.005746
43.954468
49.990970
53.602437
55.215584
56.265503
60.668863
64.782955
68.328509
71.737238
71.531687
71.114027
66.694417
62.790241
56.834641
47.804246
41.012706
33.580780
26.261624
19.029623
12.175606
7.655097
4.057994
0.317195
-1.007940
-1.850755
-3.428608
-5.678087
-6.776119
-6.903575
-6.748010
-7.946630
-8.887533
-10.232661
-12.469644
-13.875374
-15.130848
-15.802788
-16.444115
-14.720384
-11.043629
-6.833635
-0.703418
5.161898
10.582067
14.977305
19.888288
26.568614
30.366261
35.880770
41.706413
47.730732
52.459908
56.296916
59.848405
62.201277
63.481423
61.149787
57.528319
50.062967
40.955726
33.776518
25.799169
16.205859
7.028019
-5.829078
-19.979756
-32.722832
-43.282971
-51.959747
-60.108282
-67.192526
-73.289636
-77.381867
-79.326459
-78.002892
-73.286836
-65.599073
-58.519209
-50.109526
-39.286367
-26.792578
-12.207067
1.113601
11.906147
19.069106
24.303094
29.425249
34.124123
38.900469
39.725160
39.702040
39.876035
37.468803
33.463414
26.327315
18.741696
10.113964
4.760327
0.052075
-4.524664
-5.126005
-6.319315
-3.856483
0.329770
3.782545
6.904506
10.138926
12.149738
14.223339
15.719967
16.953567
19.604454
20.736842
23.253091
24.588217
26.708363
28.349000
27.737350
26.532170
22.608938
17.677020
11.560229
6.044152
1.236250
-3.932768
-6.312823
-8.380495
-11.402499
-11.316284
-10.360392
-9.895568
-6.566496
-2.791965
-1.250979
-0.151391
-1.496831
-4.701267
-7.853535
-13.138135
-17.753297
-20.973977
-25.170544
-28.479317
-29.797579
-29.303391
-27.102650
-23.015423
-19.469557
-16.396952
-12.391257
-9.194949
-6.476587
-3.635772
-0.630642
2.595343
5.179379
6.563861
6.731921
5.519869
2.430702
-2.069190
-7.469372
-13.177877
-18.630227
-24.142868
-28.593091
-32.011822
-35.540825
-38.486920
-40.463688
-42.142754
-42.144319
-40.547728
-37.690043
-32.054017
-25.189385
-15.847550
-4.263110
8.261917
19.466497
29.063238
37.653166
44.274763
50.198494
52.296774
53.352941
51.548609
47.090264
40.334023
30.970315
16.506941
1.867694
-8.071737
-19.689920
-31.913189
-44.464775
-55.156427
-63.804151
-67.282548
-66.918936
-60.864940
-52.384347
-45.967986
-41.469974
-32.908473
-21.745127
-12.591659
-2.854970
7.711722
18.015700
25.486981
31.003677
35.581347
41.944915
46.676278
50.995606
54.157240
55.327427
55.217152
52.838347
47.121095
44.155945
37.061705
31.298533
25.818380
