EVENT_NAME: 202010301151
EVENT_ID: 10614
EVENT_DATE_YYYYMMDD: 2020/10/30
EVENT_TIME_HHMMSS: 11:51:24.00000
EVENT_LATITUDE_DEGREE: 37.879
EVENT_LONGITUDE_DEGREE: 26.703
EVENT_DEPTH_KM: 16.54
HYPOCENTER_REFERENCE: AFAD
MAGNITUDE_W: 6.6
MAGNITUDE_W_REFERENCE: AFAD
MAGNITUDE_L: 
MAGNITUDE_L_REFERENCE: 
FOCAL_MECHANISM: 
NETWORK: TK
STATION_CODE: 3513
STATION_NAME: 
STATION_LATITUDE_DEGREE: 38.4584
STATION_LONGITUDE_DEGREE: 27.1671
STATION_ELEVATION_M: 2.0
LOCATION: -_-_-
SENSOR_DEPTH_M: 
VS30_M/S: 196
SITE_CLASSIFICATION_EC8: C
MORPHOLOGIC_CLASSIFICATION: 
EPICENTRAL_DISTANCE_KM: 76.14
EARTHQUAKE_BACKAZIMUTH_DEGREE: 
DATE_TIME_FIRST_SAMPLE_YYYYMMDD_HHMMSS: 2020/10/30 11:51:11.7217310
DATE_TIME_FIRST_SAMPLE_PRECISION: millisecond
SAMPLING_INTERVAL_S: 0.01
NDATA: 10501
DURATION_S: 
STREAM: HNE
UNITS: cm/s^2
INSTRUMENT: sensor = CMG-5T/GURALP | digitizer = 
INSTRUMENT_ANALOG/DIGITAL: 
INSTRUMENTAL_FREQUENCY_HZ: 
INSTRUMENTAL_DAMPING: 
FULL_SCALE_G: 
N_BIT_DIGITAL_CONVERTER: 
PGA_CM/S^2: 95.051
TIME_PGA_S: 
BASELINE_CORRECTION: BASELINE REMOVED
FILTER_TYPE: BUTTERWORTH
FILTER_ORDER: 
LOW_CUT_FREQUENCY_HZ: 
HIGH_CUT_FREQUENCY_HZ: 
LATE/NORMAL_TRIGGERED: 
DATABASE_VERSION: 
HEADER_FORMAT: DYNA 1.2
DATA_TYPE: Acceleration
PROCESSING: Manual Paolucci et al., 2011
DATA_TIMESTAMP_YYYYMMDD_HHMMSS: 
DATA_LICENSE: U (unknown license)
DATA_CITATION: Turkish Accelerometric Archive v 1.0 - Disaster And Emergency Management Presidency, Earthquake Department
DATA_CREATOR: AFAD
ORIGINAL_DATA_MEDIATOR_CITATION: : AFAD - Disaster And Emergency Management Presidency
ORIGINAL_DATA_MEDIATOR: AFAD PROCESS SERVICE
ORIGINAL_DATA_CREATOR_CITATION: AFAD PROCESS SERVICE
ORIGINAL_DATA_CREATOR: network: TK
USER1: GuestUser
USER2: 
USER3: 
USER4: 
USER5: 
[...]
5.321635
4.867596
4.130334
2.764450
1.198865
0.173353
-0.580238
-0.896432
-0.940704
-0.291987
-0.061513
-0.330294
-1.040239
-1.114027
-1.228007
-1.249987
-0.808193
-0.236091
0.117156
0.071627
-0.074381
-0.989366
-2.309092
-4.056481
-5.758341
-7.174778
-7.660530
-6.765640
-5.575593
-5.028297
-4.673166
-4.407210
-3.725524
-3.098158
-2.765635
-2.830004
-3.058279
-2.938018
-2.099961
-0.671590
0.345130
0.667291
1.198260
2.076508
1.814322
0.406363
-1.536332
-2.220530
-1.712169
-0.780541
0.992911
3.637703
6.450798
8.421126
9.035931
9.346160
9.337683
8.092374
6.220014
4.869830
3.984675
3.683867
3.868183
3.954847
4.558977
4.382825
3.335648
2.205262
1.604587
1.339889
1.321992
1.216803
1.319481
1.593914
1.244123
0.651612
-0.735623
-1.706813
-2.005423
-2.686167
-2.664500
-2.461972
-2.450040
-2.370912
-2.639692
-2.823379
-2.975667
-2.792921
-2.395401
-1.432687
-0.633252
-0.393672
-0.807518
-1.870709
-3.016482
-4.097571
-4.656798
-4.195536
-3.456388
-3.503173
-4.066482
-4.859322
-5.830512
-6.878632
-7.279291
-6.820855
-5.846838
-5.573974
-5.780269
-6.209816
-6.586925
-6.834353
-6.704358
-5.933496
-5.302363
-5.132804
-4.624130
-3.733949
-3.002023
-2.351108
-2.137590
-1.368612
-0.549081
0.216129
1.170365
1.835410
1.988640
1.760994
0.760602
0.202317
-0.183270
-0.900751
-1.250543
-1.673495
-0.853964
0.088968
1.177594
2.392761
3.809827
5.215275
5.159071
3.923809
2.471891
1.344958
0.537674
0.154599
0.453838
1.594902
2.803789
3.501803
3.516248
3.246839
3.081992
2.419774
1.628190
2.307679
3.659120
4.789193
4.727965
4.681180
5.932456
7.033014
6.563590
4.991411
4.509427
5.579841
6.204380
5.889757
5.856160
5.531488
4.708190
3.389720
2.217572
0.899102
-0.471806
-2.287960
-4.392049
-5.106077
-4.989897
-5.741918
-7.244076
-8.256086
-7.922307
-7.050025
-6.189360
-4.737754
-3.251922
-1.587427
-0.715458
-0.201446
0.073302
0.483696
1.007442
1.005559
1.028481
0.570047
-0.109440
-1.122392
-2.277584
-3.054725
-3.160855
-3.023324
-2.331903
-0.761607
1.676576
4.207701
5.691335
5.890723
5.855870
6.041129
6.375222
6.389038
6.245228
6.221679
5.950701
6.209749
6.133134
5.913337
5.901406
6.096084
5.757911
4.412123
1.802186
-0.814660
-3.600749
-5.302609
-5.466200
-5.646748
-5.435428
-3.642508
-1.219083
0.009586
0.746536
0.487175
0.901337
0.904478
1.195553
1.867192
2.578708
1.886975
-0.192936
-2.437382
-4.711971
-5.880665
-6.482596
-6.286975
-5.486598
-3.862608
-2.122439
-0.262324
0.330816
0.236617
0.043510
-0.286499
-0.140176
-0.354321
-1.167571
-2.440198
-4.337992
-6.090719
-7.111207
-6.891409
-6.534394
-5.820052
-4.070777
-2.080353
0.009293
1.080963
1.977738
3.029626
4.620647
6.540107
7.928914
9.182702
10.223287
11.302807
11.978528
12.173520
13.075632
13.659666
13.039838
11.083641
8.285934
5.634549
3.564685
1.840846
0.609981
-0.650400
-2.234511
-4.103417
-5.939982
-6.925302
-7.284199
-6.826078
-6.240788
-5.241965
-3.806686
-2.695139
-1.382633
0.055785
0.626003
0.352513
-0.386320
-0.976319
-1.620953
-2.121148
-2.506107
-2.772376
-2.548496
-3.138808
-4.208907
-4.394793
-3.765857
-2.766720
-1.561601
-0.916966
-0.914453
-1.729273
-3.555162
-4.766559
-4.661998
-3.451855
-1.804944
-0.353024
0.953202
2.065692
2.399157
1.989392
1.643682
0.921177
0.944728
1.088853
1.058082
1.379615
2.149220
2.614878
2.353947
2.211079
2.206056
2.918201
3.102831
3.233140
3.733023
4.291623
4.138394
3.284010
2.829030
2.277653
1.121833
0.364160
0.615358
2.166501
3.718271
4.064610
4.212817
4.528070
5.196255
5.672902
6.154887
6.842226
7.414642
7.676515
7.025915
5.895529
5.273189
5.184328
5.734137
6.264791
6.412370
6.648496
7.396436
7.256080
6.148930
5.262519
5.425483
6.043743
6.251609
5.510578
4.027888
2.717895
1.612001
1.368026
0.930630
0.816650
1.277597
2.039667
2.075777
1.345736
0.809431
-0.133500
-1.871469
-3.651514
-5.643506
-8.035844
-10.349055
-12.748301
-13.900981
-13.911028
-13.301875
-12.835589
-12.443721
-11.721215
-10.854898
-10.241035
-10.308229
-10.642949
-11.199036
-11.024767
-11.084740
-11.449917
-11.147852
-10.160647
-8.809834
-7.386173
-6.418750
-5.957175
-5.754960
-6.359403
-6.533042
-7.800017
-8.703698
-8.949871
-9.237491
-8.735410
-8.616091
-7.860929
-7.745691
-8.474790
-9.165896
-9.962504
-10.417798
-10.149645
-9.640656
-8.233009
-6.905746
-5.820574
-4.105211
-3.695445
-4.084172
-5.541743
-6.601794
-7.289759
-7.355070
-6.493777
-5.541740
-4.910606
-3.782731
-2.239438
-1.352083
-0.106459
0.884514
2.044731
2.565024
3.113890
3.588968
4.177711
4.742277
5.335417
5.012002
4.609773
4.410700
5.581907
6.380086
8.171750
10.062009
13.773447
17.406386
19.876596
22.556242
24.199700
26.192007
26.585760
29.347044
30.678704
33.606721
33.877700
36.870714
35.579876
38.080544
38.258580
34.929277
36.530659
33.007620
33.686481
31.007151
29.893092
26.548403
23.758860
19.355689
15.505466
10.606181
5.510020
2.269892
-1.401981
-4.527815
-7.498220
-8.975258
-11.414068
-11.734343
-11.952256
-9.101482
-5.516585
-1.942363
0.971210
4.061249
6.086526
6.869948
5.697486
4.665066
3.618203
1.742389
-1.146063
-3.749720
-6.375986
-9.531335
-12.444279
-16.078786
-18.812752
-20.170786
-19.176045
-18.343640
-16.650257
-15.983328
-15.859298
-16.205008
-16.528423
-16.211915
-15.569163
-14.906630
-15.524261
-18.663596
-22.440972
-24.842102
-25.659434
-25.848459
-26.672699
-27.737774
-28.538464
-28.073749
-27.753158
-27.549060
-28.681016
-29.712493
-31.090623
-33.085127
-34.643491
-36.038576
-37.284199
-37.064715
-36.081906
-33.794442
-29.757075
-24.753542
-21.118406
-20.226969
-17.293928
-14.396055
-10.459796
-6.362456
-1.945468
3.461550
8.504019
13.008926
16.039619
18.214673
18.167260
17.419321
15.375833
14.664318
13.432197
12.564940
11.928156
10.493821
10.502927
7.365790
4.792590
2.036016
0.354252
0.991038
2.047950
4.209502
6.015296
8.441232
10.738745
12.067578
12.503092
12.241533
11.986255
11.137523
8.706564
5.082418
2.117351
1.278981
2.209981
4.447206
6.361328
9.156211
11.831461
13.097809
12.353638
11.437083
10.683492
9.153388
8.654763
9.202687
10.929668
12.719762
14.071831
14.739388
15.611671
16.864203
17.545261
18.209678
19.440859
21.013981
22.946630
24.162110
25.700379
27.939174
32.129143
34.726521
33.628791
28.564030
23.344154
19.059046
14.529649
12.845059
10.378618
9.216832
7.606031
6.121143
5.645753
4.949937
3.486715
0.795138
-0.186414
2.178922
7.142263
12.603917
17.818770
20.683673
22.470627
22.721197
20.496533
18.752912
16.229010
10.710210
5.347780
2.497007
0.175947
0.158677
-1.122741
-4.311060
-7.694998
-12.119207
-14.774674
-17.044553
-18.356743
-20.170386
-20.325186
-18.652526
-16.528968
-16.365375
-20.590196
-26.150757
-33.416633
-40.368199
-45.126499
-51.581323
-55.016128
-55.103105
-54.330045
-51.284907
-50.820506
-50.761474
-51.244714
-50.850648
-49.873491
-49.361676
-49.163544
-48.811553
-49.038886
-50.419527
-50.851586
-51.049717
-49.916817
-47.812727
-44.414971
-40.606508
-35.245647
-29.699843
-24.293452
-19.012660
-13.470623
-7.559641
-2.144458
3.776258
9.000531
13.423798
16.070161
17.122363
17.754438
17.911123
16.535192
14.146308
11.605450
10.974945
10.096070
8.849505
7.411088
5.570756
3.562122
2.698318
5.874706
10.354493
16.363129
23.547053
31.825568
39.952110
46.819211
52.994893
58.534418
63.142001
65.034772
67.850378
69.562287
70.902739
74.361095
73.052987
73.040114
66.290134
57.772041
52.888141
43.589139
36.760660
27.507501
21.730282
17.266196
14.305211
13.294457
8.892542
5.098211
-2.753583
-10.181795
-16.560631
-24.025580
-29.980521
-36.571933
-41.865283
-45.902648
-48.642894
-49.989310
-50.050539
-48.966622
-45.902645
-40.606153
-33.620361
-27.729788
-20.777593
-13.181078
-5.535266
3.342355
12.038800
24.601482
30.879840
38.839335
44.398956
46.559566
50.220450
48.313865
52.070518
56.472434
57.867835
60.559726
60.562867
56.885342
52.489707
44.811868
39.584143
33.058042
25.876318
21.835499
15.803629
10.956467
8.700090
4.964475
-1.557229
-5.090630
-9.592082
-14.659355
-20.754024
-29.874677
-40.121320
-43.110565
-42.161981
-49.073355
-54.258063
-56.025862
-59.553297
-62.355714
-60.974443
-58.377065
-54.035750
-47.599451
-39.189999
-34.699222
-31.123431
-26.284746
-26.636107
-24.355237
-24.055998
-26.324307
-27.715311
-28.055054
-28.314728
-29.200198
-29.999004
-30.515841
-32.153018
-33.581701
-35.008500
-37.451077
-37.929607
-36.676133
-33.040682
-26.657135
-20.089900
-13.859269
-5.101281
1.618557
7.731125
12.412498
15.976357
18.761506
20.053288
19.548382
20.669978
22.586926
25.056509
28.138384
29.650591
33.771480
36.350647
38.254722
37.595330
36.498855
33.168924
30.813952
27.468007
23.941514
21.654679
17.903051
16.745033
13.232984
9.645262
3.517623
-3.486066
-9.747467
-16.142945
-22.433862
-23.249938
-23.033280
-22.777373
-21.057928
-19.503959
-15.313363
-14.861207
-12.380635
-12.913172
-15.051173
-14.246714
-15.296089
-9.774148
-3.894251
-0.677985
3.989572
5.787830
9.437096
12.445182
13.975287
17.005353
18.831871
20.605009
23.406799
26.887764
32.188965
38.277042
43.734300
48.841138
52.128367
54.003868
53.526280
52.564195
50.071693
46.016116
42.467957
37.497709
33.120914
29.846560
27.735563
27.411834
27.218412
26.633124
25.259390
22.311907
18.759980
15.080257
10.776623
7.893823
2.731723
-2.851446
-6.023123
-9.772553
-12.455024
-18.020295
-25.143617
-29.992348
-32.941402
-36.371184
-39.099498
-39.754494
-40.813289
-38.944696
-35.062444
-32.164885
-25.983237
-21.780709
-17.709117
-9.115977
-5.335460
1.331940
6.591694
9.547657
12.984348
12.382731
9.446552
6.490590
1.932305
-2.674963
-3.824189
-4.820499
-2.276500
-1.606117
-0.747022
-4.016038
-6.588296
-8.319043
-13.993899
-18.063606
-20.956454
-24.016348
-23.028515
-21.854482
-12.705882
-6.994288
-3.762636
6.096537
7.175743
11.863082
10.828779
24.726259
30.613692
30.036882
39.554113
37.676729
38.859554
39.536217
38.137991
36.191214
32.464706
23.533079
10.912937
3.980839
-2.875585
-13.103703
-15.130863
-20.975591
-24.697076
-27.572968
-35.003378
-40.572103
-46.904782
-53.906273
-57.547374
-62.874009
-72.932882
-78.437866
-81.474839
-83.120807
-81.104636
-80.073157
-79.244206
-75.203072
-71.209979
-66.519500
-59.490063
-53.224892
-51.603100
-47.189880
-42.738039
-38.106905
-31.820383
-26.480246
-22.511959
-18.581980
-15.858688
-12.540688
-8.968664
-6.097795
-3.279362
-2.905078
-3.035072
-2.887807
-0.251179
3.937534
10.924582
20.465677
32.382468
42.365042
54.556267
63.879134
70.041000
72.189992
74.181043
78.912970
78.568202
81.679907
84.246514
86.748438
88.846248
87.132143
80.267240
75.176103
70.149650
64.470712
65.769715
67.068091
69.196045
71.831418
72.853162
73.955604
73.843508
71.122730
64.994777
54.692870
43.878207
33.695619
21.327302
10.913612
6.441676
3.233576
2.875935
5.743350
6.151232
6.324245
5.329191
2.059233
-2.317562
-7.186389
-10.004506
-9.127514
-7.241965
-4.713351
-1.597565
1.183502
3.385245
4.672317
4.421121
2.692571
-0.688855
-4.861239
-7.691602
-8.424155
-8.280658
-9.177431
-8.939735
-12.628878
-20.207494
-35.150268
-42.545510
-46.004180
-53.270369
-56.110152
-65.509633
-71.030003
-74.896868
-78.781945
-78.626830
-79.266126
-81.341956
-82.549899
-83.532707
-83.683739
-83.644175
-81.772128
-79.119799
-78.258193
-76.280643
-74.277659
-71.078349
-66.397919
-60.001498
-52.298852
-42.050009
-30.700923
-20.341867
-12.674703
-8.987757
-7.822829
-6.499962
-6.892457
-6.695895
-6.794489
-7.070491
-5.030770
-1.809794
1.634119
6.180787
10.690090
14.977397
20.348934
23.650293
27.707755
32.634045
37.753442
43.144133
49.453891
55.513080
60.915702
65.182914
69.744026
74.305138
76.524779
78.184251
80.483647
80.545191
79.780610
80.361818
79.327515
78.897968
77.085582
74.316448
72.358053
67.929449
63.099871
58.193992
52.764367
48.997353
45.911083
44.291176
45.327365
47.323755
49.043828
51.836826
52.712249
51.125626
50.188033
47.350762
43.144153
38.399668
32.304371
26.689802
21.059848
15.071309
9.567581
4.221165
-0.630078
-5.955457
-11.753399
-17.414126
-23.251632
-29.399681
-36.557228
-41.970211
-47.506594
-53.598124
-55.894693
-56.168497
-56.018092
-54.373378
-54.437119
-57.438296
-59.444418
-52.664608
-44.808417
-47.442532
-44.205229
-39.456033
-40.644823
-37.317716
-33.753543
-33.803154
-32.824426
-33.694510
-37.435148
-40.504462
-44.414659
-47.270769
-48.388910
-47.310331
-45.153804
-44.131431
-43.964384
-44.336783
-45.553205
-44.856132
-42.700860
-38.702743
-32.843256
-25.085033
-17.982748
-12.232845
-7.294938
-4.696617
-3.926383
-5.639547
-7.724482
-8.979839
-9.240142
-9.453344
-7.170276
-4.132046
0.002031
2.535668
5.807197
8.617779
9.002112
6.013181
0.632225
-2.597855
-10.081016
-14.452788
-20.187617
-26.257795
-28.401447
-30.784051
-30.995370
-31.129760
-30.581836
-29.118612
-28.451369
-28.588271
-28.127952
-29.062718
-29.849907
-31.891824
-34.858148
-36.599885
-38.985629
-40.686861
-41.641409
-41.147178
-40.348371
-39.092385
-36.103452
-33.154712
-30.622644
-22.981542
-12.564397
-4.028404
8.020266
18.522190
27.175931
38.040834
45.966104
52.259534
59.425560
65.004335
69.090056
74.432078
78.219817
82.612627
88.956296
92.065175
95.012660
95.050968
89.971763
85.514899
80.720803
75.113456
69.039510
61.701415
54.618285
46.997908
40.730854
36.251696
34.850017
36.018084
36.526131
38.093288
37.360107
34.610755
31.206721
26.398181
20.187019
13.081281
6.111504
2.019504
0.483434
-0.959065
1.348495
4.228471
7.038111
11.442853
15.797355
19.287426
21.948546
24.382019
25.809133
25.743194
23.181612
19.399526
15.681810
10.732285
5.031053
-0.423691
-8.323840
-16.262924
-24.266691
-31.577469
-35.450613
-39.298325
-43.857866
-45.794909
-46.033545
-46.279090
-44.251301
-39.780305
-33.202394
-29.243213
-24.553363
-17.614670
-13.528006
-8.535777
-1.024669
5.438320
9.925957
14.543274
19.375365
23.310368
23.476159
21.751064
20.210912
16.409986
12.788039
8.448295
3.401432
-1.537103
-4.632165
-5.149316
-6.574859
-6.147195
-7.959268
-10.717726
-11.317458
-12.185029
-11.599426
-11.526264
-11.829584
-12.510327
-12.244372
-10.730909
-10.466523
-12.099304
-13.632233
-14.860587
-17.508204
-19.383075
-21.914514
-24.254414
-25.976998
-26.912706
-28.372475
-30.253941
-31.703033
-35.472873
-37.645414
-38.693847
-41.310064
-45.068915
-48.303391
-53.557178
-58.147176
-61.054154
-63.765826
-63.491393
-62.859004
-58.155337
-53.677748
-51.032328
-46.030679
-43.155099
-39.950451
-35.916539
-31.826422
-29.004221
-25.328579
-19.875403
-16.649090
-13.383213
-11.024157
-8.098338
-6.407781
-7.435491
-7.963946
-9.276764
-9.964416
-7.935998
-4.670121
-0.328493
5.022948
8.987467
12.272498
14.464508
14.426201
15.522991
16.821366
17.108360
18.451637
19.428794
20.013770
21.716259
24.615702
27.836678
31.512948
34.871454
37.184980
38.445363
38.852930
38.805518
38.658568
38.758733
37.888336
37.022021
36.760462
37.132235
39.093143
41.252182
42.829701
44.833940
45.834962
45.360828
44.916523
43.987409
42.497810
41.702772
41.168979
40.239864
38.789201
36.413819
32.626710
26.771620
20.311458
16.087894
13.966535
13.373396
14.470186
16.620748
20.908055
26.701917
34.443499
42.819981
48.656547
51.507006
53.087351
52.674446
56.357938
60.470350
59.983028
61.946762
62.728300
62.276459
62.993000
63.312021
60.738193
56.494218
41.139796
36.353235
34.543361
18.477736
11.382046
-1.706265
-13.306233
-17.756189
-24.893012
-34.342419
-41.231813
-45.969390
-51.432612
-57.026771
-64.428608
-69.636551
-74.461419
-73.876443
-66.058875
-56.660334
-52.185571
-49.585680
-45.600751
-45.271997
-47.050785
-46.554985
-47.153461
-49.425538
-49.070094
-49.974089
-53.376553
-54.441314
-56.400023
-60.271912
-61.976284
-62.940566
-63.456147
-63.058313
-61.450965
-59.659301
-57.327249
-54.666443
-52.018825
-49.051873
-46.421524
-43.182651
-39.854603
-35.563841
-31.442952
-29.048415
-26.894713
-26.479609
-28.216951
-30.906015
-34.976664
-38.357462
-38.320096
-36.098257
-33.950835
-31.067092
-26.114112
-20.009080
-12.410680
-4.769578
1.091480
5.943038
10.108829
14.221868
16.879534
18.557532
22.557846
27.726542
32.943278
38.025938
40.700560
41.830006
41.493402
40.364272
39.243933
38.220620
37.131053
36.418282
36.684865
34.959456
33.022099
31.716188
29.696564
28.569004
25.856389
23.736286
23.557937
23.761721
24.352977
26.910792
31.234209
30.626941
31.541927
32.200064
30.957895
31.932854
31.044245
30.496008
30.121411
28.963079
28.318445
28.623650
28.983491
30.639194
33.667062
36.755217
39.169222
41.247879
42.172913
40.726332
38.578283
36.239325
33.619967
31.381174
29.921405
27.903979
24.972195
21.670838
17.810567
14.319870
10.328034
5.440367
0.540140
-4.319896
-8.404046
-12.046089
-15.748106
-19.746850
-24.471553
-29.961779
-35.234092
-39.412127
-42.429632
-43.720470
-43.471157
-41.616379
-37.207555
-32.462441
-27.841356
-23.411808
-19.672739
-16.404350
-14.688987
-13.485124
-13.280712
-13.943871
-15.160607
-15.254177
-14.276392
-13.940729
-13.451836
-12.595567
-11.988612
-12.487237
-13.069386
-14.334477
-16.530881
-18.753661
-20.571385
-22.584729
-24.060826
-23.887813
-23.976674
-24.096306
-23.652628
-24.686304
-25.065925
-25.389026
-25.989387
-26.691168
-28.219702
-28.674996
-29.071887
-29.099832
-28.611567
-26.956177
-24.255808
-21.506769
-18.841253
-15.690926
-12.418769
-7.382581
-2.813933
3.382473
9.733992
14.266217
20.919801
25.221866
28.138265
30.249263
31.006937
30.023815
28.536101
27.360813
26.291342
25.934015
26.730938
28.213316
29.417493
30.712100
31.252489
30.729057
29.874360
29.205234
28.714772
29.395831
29.955059
31.094239
32.870203
34.629211
36.447565
37.569161
38.161359
38.337197
38.875702
39.697745
40.365616
40.478969
40.215213
39.608258
39.045263
38.048639
36.753091
36.396392
36.686839
37.234763
37.737158
37.850511
36.906325
35.581889
33.420338
30.101397
26.349455
22.484160
18.080675
13.004924
8.140179
3.022980
-1.983692
-7.233083
-13.626991
-20.333953
-26.549825
-31.149871
-34.342586
-36.900400
-38.178051
-38.204112
-37.482547
-37.176086
-37.344074
-37.114856
-36.679028
-36.827862
-36.771656
-36.026228
-34.795675
-33.929987
-33.711445
-33.754148
-34.900862
-36.204574
-36.221215
-35.986659
-36.030618
-35.301204
-34.088235
-32.997097
-31.743937
-29.598399
-28.179449
-25.934374
-21.750686
-17.328988
-12.311953
-6.857207
-1.379539
4.645110
9.961383
14.580585
19.298695
22.825817
26.073797
28.191389
29.391170
30.777464
32.715451
34.114619
34.813890
34.730367
33.730917
31.612698
28.720792
27.982901
26.076630
24.154031
23.016422
19.666082
15.922931
11.942400
6.890826
1.114235
-4.370967
-9.961358
-16.187592
-21.564151
-24.140491
-25.366646
-24.727035
-23.189708
-21.188295
-19.469792
-18.384306
-16.730800
-14.255566
-9.209957
-8.270794
-7.280134
-5.266161
-4.676161
-2.852783
-2.646173
-3.308705
