EVENT_NAME: 202010301151
EVENT_ID: 10614
EVENT_DATE_YYYYMMDD: 2020/10/30
EVENT_TIME_HHMMSS: 11:51:24.00000
EVENT_LATITUDE_DEGREE: 37.879
EVENT_LONGITUDE_DEGREE: 26.703
EVENT_DEPTH_KM: 16.54
HYPOCENTER_REFERENCE: AFAD
MAGNITUDE_W: 6.6
MAGNITUDE_W_REFERENCE: AFAD
MAGNITUDE_L: 
MAGNITUDE_L_REFERENCE: 
FOCAL_MECHANISM: 
NETWORK: TK
STATION_CODE: 3522
STATION_NAME: 
STATION_LATITUDE_DEGREE: 38.4357
STATION_LONGITUDE_DEGREE: 27.1987
STATION_ELEVATION_M: 68.0
LOCATION: -_-_-
SENSOR_DEPTH_M: 
VS30_M/S: 249
SITE_CLASSIFICATION_EC8: C
MORPHOLOGIC_CLASSIFICATION: 
EPICENTRAL_DISTANCE_KM: 75.57
EARTHQUAKE_BACKAZIMUTH_DEGREE: 
DATE_TIME_FIRST_SAMPLE_YYYYMMDD_HHMMSS: 2020/10/30 11:51:11.5842780
DATE_TIME_FIRST_SAMPLE_PRECISION: millisecond
SAMPLING_INTERVAL_S: 0.01
NDATA: 9842
DURATION_S: 
STREAM: HNN
UNITS: cm/s^2
INSTRUMENT: sensor = CMG-5T/GURALP | digitizer = 
INSTRUMENT_ANALOG/DIGITAL: 
INSTRUMENTAL_FREQUENCY_HZ: 
INSTRUMENTAL_DAMPING: 
FULL_SCALE_G: 
N_BIT_DIGITAL_CONVERTER: 
PGA_CM/S^2: 73.866
TIME_PGA_S: 
BASELINE_CORRECTION: BASELINE REMOVED
FILTER_TYPE: BUTTERWORTH
FILTER_ORDER: 
LOW_CUT_FREQUENCY_HZ: 
HIGH_CUT_FREQUENCY_HZ: 
LATE/NORMAL_TRIGGERED: 
DATABASE_VERSION: 
HEADER_FORMAT: DYNA 1.2
DATA_TYPE: Acceleration
PROCESSING: Manual Paolucci et al., 2011
DATA_TIMESTAMP_YYYYMMDD_HHMMSS: 
DATA_LICENSE: U (unknown license)
DATA_CITATION: Turkish Accelerometric Archive v 1.0 - Disaster And Emergency Management Presidency, Earthquake Department
DATA_CREATOR: AFAD
ORIGINAL_DATA_MEDIATOR_CITATION: : AFAD - Disaster And Emergency Management Presidency
ORIGINAL_DATA_MEDIATOR: AFAD PROCESS SERVICE
ORIGINAL_DATA_CREATOR_CITATION: AFAD PROCESS SERVICE
ORIGINAL_DATA_CREATOR: network: TK
USER1: GuestUser
USER2: 
USER3: 
USER4: 
USER5: 
[...]
11.663364
12.233872
11.597378
9.998161
7.523173
4.668474
1.820344
-0.685922
-2.180047
-2.225707
-0.392524
3.189075
6.288373
8.364583
9.285399
9.290721
8.624201
6.990891
5.008837
4.010149
4.022352
3.505965
2.037175
-0.671770
-3.833927
-6.905066
-9.381618
-9.961187
-8.449537
-5.709618
-2.609068
0.079243
1.751972
2.369396
1.330986
-0.228508
-1.092390
-1.282240
-0.590375
1.012605
3.613339
6.737660
9.482896
10.767783
10.913229
10.968282
10.624547
9.529211
8.489550
7.278800
5.637671
3.897705
2.391383
1.382686
-0.315993
-3.278912
-7.611475
-12.007532
-14.975768
-15.421156
-12.740351
-8.449377
-3.844689
0.056253
2.252568
1.901326
-0.605253
-3.624158
-5.652816
-6.736266
-6.717182
-5.567101
-4.098928
-2.315476
-1.170087
-1.467532
-2.769299
-4.050110
-4.711313
-4.277801
-2.678262
-0.631453
1.695290
3.690803
4.573148
3.821240
1.329049
-2.128681
-5.648653
-7.453051
-6.684556
-4.310897
-1.510299
0.310685
0.744197
0.821770
1.040093
1.208683
1.241530
1.523658
2.835131
5.091187
7.730080
9.399368
9.228285
7.912755
6.147142
4.834740
4.298647
4.474119
5.594174
6.933484
7.654749
6.534705
3.474513
-0.613460
-4.850627
-8.100674
-9.598551
-8.861960
-6.785750
-3.658927
0.269852
4.103548
7.053340
9.026333
10.307154
10.548935
9.291894
6.475980
3.104577
-0.081664
-2.159115
-2.454057
-1.588602
-0.187363
1.837864
4.344453
5.578045
5.233997
3.897199
2.744312
2.937300
4.191222
6.251167
8.009910
8.866607
8.592933
7.395633
6.104187
5.504914
5.155861
4.427411
2.716221
-0.084055
-3.122040
-5.258605
-6.202244
-6.928192
-7.741091
-8.904924
-10.302401
-11.257925
-11.562251
-11.332043
-9.978971
-6.666047
-1.662570
3.733753
8.414132
11.451814
12.240326
11.703608
11.473723
11.368322
11.226014
9.858251
6.648240
2.402941
-1.697230
-4.535977
-7.038490
-9.759633
-12.964015
-16.185286
-18.369393
-18.953966
-18.366569
-17.239946
-15.889376
-14.671423
-13.341183
-11.363811
-9.110258
-7.778454
-7.605797
-7.553871
-7.026840
-5.799503
-3.614448
-1.315855
-0.548299
-0.075377
1.320546
3.879993
7.278306
11.554579
15.922495
18.785961
20.856541
21.859304
21.167449
17.911460
13.604857
8.966712
4.716722
0.905868
-2.613791
-4.768185
-6.013653
-5.924507
-5.323660
-4.918611
-5.146306
-5.562919
-5.657372
-5.510050
-4.116317
-0.850622
3.369352
7.389149
10.330809
12.012608
13.544901
15.135057
16.494072
17.546880
17.641656
16.005531
13.287516
11.028968
9.482923
8.139869
6.700480
5.271726
4.974907
6.216631
8.032298
9.181441
9.077604
8.302551
6.938854
5.961122
6.684577
8.336976
9.971859
10.783204
10.348138
9.680679
9.846143
10.115760
9.473949
7.992023
5.771634
3.661967
2.139380
0.770053
-0.396908
-1.229512
-1.713684
-1.728692
-1.326458
-0.997726
-1.824700
-4.118278
-6.886025
-10.032543
-13.014541
-15.377244
-17.450628
-18.910973
-19.424546
-18.748945
-17.711151
-16.973621
-16.660215
-16.519774
-16.476293
-16.044033
-14.423225
-11.314230
-7.024820
-2.685679
1.119867
4.334267
6.850865
7.416681
6.326037
4.567930
2.961519
1.766721
1.370752
2.145189
3.370336
4.463179
4.254876
2.126755
-1.128609
-4.421506
-7.061640
-8.422209
-8.323367
-6.768868
-4.773042
-2.630836
-0.688182
1.037719
2.955038
4.661234
5.735311
5.896708
5.738448
5.806638
5.218937
3.140235
-0.038499
-3.941621
-8.571634
-12.795351
-16.022565
-18.810330
-21.912746
-25.914393
-29.602951
-32.899914
-34.954845
-35.585083
-35.305144
-33.406904
-29.776512
-25.474591
-21.568644
-17.585442
-12.730846
-6.199148
2.459112
12.223972
21.300100
28.431389
33.105513
35.248970
35.204560
33.431127
29.932111
25.789090
22.201871
19.785371
18.085441
17.129916
17.164013
17.776120
18.047301
17.396733
15.170714
11.006111
5.804657
0.000797
-6.266909
-11.777072
-15.688640
-19.098202
-22.530284
-25.653031
-27.378297
-27.673865
-27.073956
-26.196303
-25.746840
-25.404345
-23.296546
-18.805395
-11.941529
-2.598291
7.394896
16.269909
23.191326
28.719640
33.624592
38.757871
43.726004
47.662916
50.370619
52.378018
52.623552
50.470409
47.279790
43.331002
39.224576
33.761641
26.863693
18.661469
9.728915
0.684074
-8.941592
-18.636380
-27.301824
-33.370605
-37.462018
-40.175968
-41.614418
-41.361378
-40.247891
-38.094114
-34.060867
-27.907940
-19.983764
-12.073976
-4.761590
2.989933
10.838104
17.029816
20.112224
19.950837
18.796387
17.051417
14.489163
11.517487
9.078780
7.232158
5.644201
4.168217
2.531467
1.071748
-0.805526
-3.713084
-7.631219
-12.170840
-16.248178
-18.780405
-19.170119
-17.864275
-16.138062
-15.053351
-14.322702
-13.214221
-11.503959
-8.869445
-6.831394
-6.366604
-7.376552
-9.439302
-11.968714
-14.581011
-16.459224
-17.993071
-19.297341
-21.250307
-23.349965
-25.552526
-28.165136
-29.944512
-32.557434
-34.878225
-35.265749
-33.504505
-30.099624
-25.299764
-19.582534
-13.013928
-5.655876
0.652188
6.256193
11.112666
16.655680
23.391934
31.166915
39.762933
47.909492
55.041407
59.185063
59.936355
58.558583
55.463673
51.245273
46.093551
40.806083
35.441986
28.698548
20.148831
9.517279
-2.256529
-14.168271
-23.546844
-28.852452
-30.827625
-29.312848
-25.948628
-22.594730
-20.069062
-18.490792
-17.122393
-15.425894
-13.620548
-11.630977
-9.583230
-7.688118
-5.838983
-4.598510
-4.004232
-3.701773
-4.577853
-7.009991
-10.238456
-13.744979
-16.831757
-19.427477
-21.860554
-23.778176
-25.357689
-26.822099
-28.081955
-29.176352
-29.825669
-31.041736
-33.201760
-35.561960
-37.133027
-37.276899
-35.178169
-30.704847
-24.832793
-18.386795
-12.246066
-7.464347
-5.065666
-3.631585
-2.709830
-1.754609
0.172094
3.414644
8.892914
16.935319
26.191606
35.672465
44.298509
51.380380
57.505783
62.112973
65.917268
67.963451
68.459205
66.940371
63.520488
59.426885
54.969524
51.651605
47.980250
43.004307
35.486749
25.629317
14.451972
2.384780
-9.473165
-21.068065
-31.041537
-38.930985
-45.156466
-49.428664
-51.589626
-52.336842
-52.561097
-52.156048
-51.333130
-49.315723
-44.763894
-37.047401
-27.130532
-16.392002
-5.919643
3.055771
10.616502
16.498565
21.159865
24.427124
26.380100
27.514855
28.783165
30.256030
31.217820
31.511521
29.648322
26.877760
20.954733
11.188318
0.206145
-10.619953
-18.799344
-23.787485
-24.439304
-20.794525
-14.339456
-6.569792
-1.073694
0.625621
-2.368575
-8.853973
-12.662637
-13.394527
-10.112255
-2.712917
6.247797
15.447784
22.759232
26.883809
27.464639
25.523245
22.217837
19.903615
19.135756
20.832568
23.672889
25.254287
25.101658
22.863127
18.358850
11.345487
2.557748
-6.612829
-13.824492
-18.688774
-21.966658
-23.601531
-25.138818
-27.399869
-31.194145
-36.708375
-42.628900
-47.919495
-51.221149
-52.109427
-50.410112
-47.783105
-45.946794
-45.838882
-47.437473
-49.586237
-51.646798
-53.077116
-53.423667
-51.580475
-46.442192
-37.856496
-26.848040
-14.070838
-0.328410
12.325559
22.487331
29.922013
36.032715
41.696774
46.940149
52.524763
58.167240
63.110351
66.668805
68.033450
67.209916
63.871979
57.877014
50.052311
41.875422
34.805134
28.569018
23.012251
17.969061
13.507947
10.142799
7.626837
5.865915
4.858782
4.647976
4.423721
3.045636
0.585661
-2.705360
-6.189050
-8.273382
-8.669664
-8.073508
-7.256846
-7.300317
-8.456018
-9.825658
-10.971976
-11.085509
-10.578807
-10.252577
-8.952364
-7.831684
-6.505198
-4.915042
-3.782476
-3.350528
-4.227234
-5.853662
-7.963329
-8.245760
-5.496458
0.046244
7.633560
16.659332
26.774500
36.458352
45.042797
52.633240
58.618207
63.604168
66.964947
67.700288
65.530881
60.192744
52.902574
45.130730
38.636887
32.809569
27.490825
21.975657
16.053568
9.999800
3.820922
-1.377717
-6.696461
-12.171281
-17.189449
-21.475096
-24.651015
-26.721584
-27.475056
-27.878845
-29.031731
-30.885860
-33.849091
-38.052791
-42.702196
-46.403578
-48.070980
-46.921212
-42.244899
-34.935014
-26.359014
-18.646275
-13.808882
-12.469572
-12.619074
-11.504963
-8.498558
-3.552320
2.039175
6.763969
8.920874
7.198737
1.738930
-6.614989
-16.487435
-26.584766
-35.620849
-42.636714
-47.132546
-48.821217
-47.655185
-44.306604
-40.766292
-38.328514
-37.072715
-36.077145
-34.294006
-30.734615
-24.067797
-14.766783
-3.433041
8.155927
18.649242
27.654995
33.938350
37.264724
37.422680
35.178833
32.831769
32.535263
34.662767
38.974072
44.439205
48.608196
49.539647
46.073159
38.981290
29.507008
18.941452
8.081887
-3.138622
-12.770855
-19.366663
-23.592882
-26.067246
-27.961097
-30.402932
-33.687071
-37.407845
-41.120174
-43.233282
-42.441329
-39.748326
-35.579022
-31.482282
-28.162476
-25.678407
-25.285556
-27.182223
-30.436649
-33.144655
-33.774580
-31.406864
-25.495712
-16.349210
-4.574141
8.163652
19.875228
29.302290
36.189302
40.783355
43.785068
45.814361
47.192455
49.058166
50.993627
52.581906
53.034810
50.801597
45.888210
39.438468
32.771348
26.973431
22.285554
20.112081
21.180840
24.951668
29.799383
34.212652
38.299070
41.806228
45.359051
48.146200
49.687250
49.027299
45.103846
37.360777
26.960679
16.503657
7.367172
1.020021
-2.163404
-3.197123
-4.070388
-5.474745
-8.631272
-13.696669
-18.929713
-24.090819
-27.454090
-27.521332
-25.606202
-21.504145
-15.535755
-10.297072
-7.284412
-6.662609
-7.227477
-8.232107
-9.744998
-11.572542
-13.502050
-15.401218
-17.854313
-21.058382
-25.504170
-30.491059
-34.894623
-38.376749
-40.888645
-42.855374
-43.682660
-44.215625
-44.068616
-42.707099
-39.844258
-34.571169
-27.244082
-18.712496
-9.692355
-0.572125
8.307267
16.914232
24.672323
30.601303
33.931743
34.772489
33.220501
30.722054
28.564220
26.815496
24.718027
21.552117
16.457632
9.652891
2.315179
-4.919629
-10.309061
-12.417790
-12.331772
-12.047767
-12.830326
-15.726311
-19.838680
-24.841522
-29.366129
-32.878907
-35.578156
-37.713783
-40.190023
-41.011367
-39.198828
-35.220629
-30.018540
-24.296618
-18.068937
-11.549750
-5.029312
1.032598
6.250326
9.475673
9.947343
7.929633
4.546343
1.127085
-2.145794
-4.724312
-6.742335
-8.144816
-9.023711
-8.997746
-7.323766
-3.860709
0.520031
4.304934
8.185546
11.927911
16.116608
20.474203
24.419559
28.250440
31.327532
34.139389
36.746379
39.308955
41.537799
42.533368
41.180306
36.514949
28.658656
19.404568
10.051018
1.372124
-5.134230
-9.298520
-11.770068
-13.776519
-15.866481
-17.876685
-19.662629
-20.470523
-20.069853
-18.015225
-13.832472
-7.753360
0.135472
8.723045
17.408516
25.707084
33.195563
39.082319
42.094665
42.863473
41.533868
38.788954
35.390339
32.209416
29.928974
28.866167
29.390696
30.799130
32.525969
33.796156
33.831817
32.339569
29.584334
26.471283
24.745391
25.252093
27.322985
29.851468
32.064048
33.149384
32.263608
28.091499
20.474479
10.446584
-0.160258
-10.358303
-19.762523
-27.754874
-34.548669
-39.824563
-43.419601
-44.940937
-44.796117
-42.840326
-39.597464
-35.794733
-32.434892
-30.177585
-28.853914
-28.972451
-30.923228
-34.650883
-38.953733
-42.905648
-45.933937
-48.137436
-49.482992
-49.631243
-48.791123
-47.310125
-46.055890
-45.597356
-46.016158
-47.081467
-48.336631
-49.526424
-50.356839
-50.758125
-50.710891
-50.686490
-50.798146
-51.384283
-51.695177
-51.008942
-48.690019
-44.681794
-39.497533
-33.455329
-27.369961
-21.605814
-16.541659
-11.712086
-7.565927
-4.032183
-1.363576
0.243782
1.218083
1.485511
1.822063
2.831395
5.047415
8.642776
12.820212
16.666106
18.906210
19.311572
18.412660
17.420227
17.282924
17.666704
18.373269
18.451468
17.434952
15.818845
13.972535
12.149997
11.122221
11.591389
13.545303
16.606756
19.988178
23.196948
26.247454
28.569818
30.288525
31.786412
32.798872
32.624973
31.060475
27.862974
24.134381
21.238083
19.098390
18.283614
18.070306
18.346179
18.949841
19.781516
21.031372
22.756022
25.083078
27.789217
30.976406
33.858951
36.204460
37.779290
38.651939
38.830852
38.412988
37.536283
35.519823
32.579737
29.078219
25.915749
23.478919
21.840918
21.760227
23.040735
25.268015
27.886578
29.944646
31.083467
31.441287
30.793534
29.236229
27.314540
25.462913
24.619675
23.984745
22.591647
19.965901
15.206399
10.414056
6.533140
3.024428
0.510968
-1.591192
-3.472533
-5.045477
-6.668465
-8.087523
-9.436832
-10.897489
-12.783522
-14.983893
-17.060093
-18.146045
-17.448864
-15.393610
-12.595827
-10.555587
-9.935661
-10.822375
-12.727173
-14.977277
-16.948696
-18.403098
-19.710496
-20.702615
-22.048484
-23.480053
-24.504076
-25.232838
-25.937204
-26.679103
-27.175160
-26.889278
-25.358550
-22.983952
-19.926253
-16.268962
-12.513460
-9.534893
-8.343839
-9.315002
-11.615775
-14.503315
-17.275128
-19.804852
-21.494774
-22.213840
-22.626699
-22.921329
-23.945352
-25.681252
-27.923535
-30.276541
-31.998366
-32.236697
-30.869550
-28.003894
-24.330965
-20.652406
-17.024829
-13.499843
-10.640444
-8.950199
-8.054718
-7.902078
-8.830392
-10.991666
-13.515761
-15.364573
-15.753974
-14.590756
-12.082291
-8.448771
-4.007978
0.393093
3.795784
5.721861
6.134730
5.120090
2.894696
-0.621210
-4.867447
-9.041120
-12.978022
-16.174584
-18.236396
-18.588889
-17.363742
-15.142718
-12.973614
-11.766608
-11.760035
-11.933933
-11.468831
-9.765137
-6.330856
-1.358031
5.132381
12.421622
19.759343
26.476830
32.760810
39.085138
45.401021
51.445415
57.258355
62.440740
66.783322
70.389317
72.782993
73.866140
73.469858
71.910677
68.759154
64.181375
58.979921
53.009665
46.246209
38.517215
29.932155
20.761578
11.188146
1.495234
-8.047858
-17.123977
-24.950870
-31.176976
-35.244306
-37.284537
-37.965131
-38.240682
-39.606568
-42.760906
-47.118178
-50.974697
-53.166624
-53.408082
-51.454793
-47.201978
-41.764681
-35.364662
-28.099191
-20.070862
-11.516756
-3.339858
4.023824
9.865852
13.957275
16.282141
17.617385
18.987034
20.813336
23.871348
27.972467
32.231538
36.155313
38.669409
39.829811
39.946168
39.237424
38.331005
37.166859
36.013972
34.740042
32.880283
29.709056
24.804113
17.800759
8.795328
-1.312325
-11.806568
-21.611141
-29.460866
-34.469025
-36.368506
-35.545276
-33.041815
-29.795512
-27.190399
-25.522049
-24.566202
-23.710443
-22.011441
-19.518927
-16.007077
-11.940363
-7.811720
-4.127218
-1.180554
0.871572
2.072948
2.951226
3.703769
4.418154
5.601076
8.117361
12.071475
16.911370
21.441305
24.323224
24.537793
22.593585
19.584062
16.017799
13.209392
11.904497
12.386489
13.881874
14.859928
14.359179
11.810376
7.667042
2.851866
-1.452861
-4.481775
-5.972146
-6.580490
-7.068728
-7.889446
-9.540271
-11.664638
-14.412993
-17.720278
-21.051333
-23.669886
-24.951323
-24.853419
-23.752132
-22.581720
-21.350943
-20.562118
-20.542721
-21.392841
-23.117481
-24.825544
-26.096346
-26.365954
-25.473913
-23.554091
-20.867656
-18.080508
-15.902021
-14.934288
-15.107248
-15.964249
-16.911016
-17.370791
-16.856270
-15.485057
-13.569927
-11.394255
-9.832874
-8.883908
-8.302453
-7.579624
-6.436737
-4.893810
-3.161028
-1.204299
1.378607
4.402527
8.050121
11.531319
13.864317
14.757922
14.258737
12.749912
11.135682
10.003439
9.682536
10.034726
10.569578
11.017164
11.228918
11.395320
10.954311
9.968760
8.438041
6.738736
5.434779
4.728536
4.993149
5.711913
6.753460
7.518202
7.288629
5.875201
3.456512
0.451056
-2.581299
-4.863618
-5.922046
-5.729059
-4.841709
-3.857087
-3.270941
-3.340685
-4.412562
-6.382731
-8.582790
-10.209218
-10.776901
-9.964305
-7.455840
-3.146099
2.310902
7.629344
12.142388
15.304555
16.970402
17.752346
18.262176
19.224904
20.875113
22.848419
24.727893
25.945533
26.501340
26.183252
25.068212
23.271321
20.858575
18.036405
15.121966
12.906269
11.714286
11.778097
12.867812
14.536162
15.990886
16.602367
16.774712
16.883875
16.830708
16.497920
15.260271
12.897569
9.611866
5.643686
1.382436
-2.848475
-6.881087
-10.769821
-14.329829
-17.622100
-20.498380
-22.689368
-23.555752
-22.925192
-21.089819
-18.822817
-16.844193
-15.677535
-15.355059
-15.198353
-14.769846
-13.777404
-12.512534
-11.020902
-9.357244
-7.286664
-4.667789
-2.008566
-0.149110
0.663486
0.623456
0.493033
0.374496
0.379192
0.833973
1.318780
1.450776
0.464599
-1.377957
-3.672474
-5.559445
-6.476185
-5.773374
-3.637111
-1.252818
0.654180
1.650688
2.031654
1.914055
1.550927
0.828733
0.095905
-0.274729
-0.225619
-0.006045
0.099990
-0.135838
-0.930596
-2.121953
-3.847219
-5.674136
-7.237697
-8.203543
-8.594508
-8.663314
-8.109696
-7.340889
-6.626817
-6.395984
-6.851693
-7.795019
-9.184364
-10.559321
-11.201444
-10.528659
-8.677648
-6.061275
-3.426448
-1.010564
1.046566
2.895700
4.550601
6.057559
7.719028
9.582237
11.516134
12.749413
12.803215
11.338492
8.725256
5.655368
2.471317
-0.849417
-4.044728
-6.838435
-8.897745
-9.406939
-8.303462
-6.220997
-4.047514
-2.826433
-2.707261
-3.242415
-4.165724
-5.436526
-7.026047
-8.849212
-10.708032
-12.000729
-12.124583
-10.973251
-9.029346
-6.814890
-5.124020
-4.497838
-5.361094
-7.262140
-9.151925
-10.004859
-9.229796
-6.861455
-3.789055
-1.307801
0.645175
2.533719
5.015599
8.309444
12.487506
16.884823
20.792960
23.591994
24.662629
24.565048
23.647057
22.653999
22.081937
21.701294
21.367880
21.004439
20.356686
19.348615
17.923927
15.812696
13.146602
9.884982
6.488244
3.681087
1.835716
0.982469
0.993108
1.638994
2.351189
2.688679
2.120996
0.379153
-2.336360
-5.553565
-9.071661
-12.435870
-15.282124
-17.289200
-18.393919
-18.869959
-18.912178
-18.720442
-18.364186
-18.406406
-18.733251
-19.271221
-19.528630
-19.323757
-18.934347
-18.568394
-18.463297
-18.429199
-18.228080
-17.298506
-15.484402
-12.620311
-9.128166
-5.279457
-1.323466
2.606565
6.588516
10.267701
13.243140
15.029094
15.498888
15.120121
14.635949
14.599359
15.263387
16.357794
17.456579
18.069937
17.875083
16.610223
14.655693
12.611084
10.866113
9.494597
8.317314
7.252318
6.294604
5.538004
5.147040
5.184890
5.404464
5.559605
5.440443
5.408857
5.893039
7.186996
9.357039
12.153258
14.628569
16.019800
16.165871
15.529377
14.732742
13.929852
13.479147
13.400020
13.062227
11.623151
8.527616
4.064000
-0.553189
-4.994286
-8.943386
-12.068635
-13.982192
-14.597730
-14.908624
-15.375906
-16.171289
-17.325114
-18.790775
-20.521045
-22.307302
-23.503039
-23.609065
-22.906566
-21.962291
-21.005193
-19.834782
-18.140158
-15.776195
-12.847047
-9.748374
-6.895542
-4.693284
-3.080608
-1.906131
-0.898050
0.029960
0.653327
1.020217
1.079962
0.841945
0.083156
-0.962448
-2.204788
-3.453383
-4.658190
-5.949010
-7.105337
-7.717747
-7.484411
-6.231740
-3.979125
-1.429373
0.933651
2.571037
3.395518
3.872818
4.589705
5.652834
6.956488
8.193208
9.157813
10.102713
11.248727
12.972126
15.360173
18.266489
21.436162
24.340289
26.175035
26.426199
25.628626
24.565819
23.816414
23.789833
24.295596
25.086297
25.971770
26.675833
27.178781
27.640755
27.804029
27.750236
27.426831
26.722465
25.862024
25.061636
24.216209
23.059882
21.283947
18.619416
15.317449
11.698014
8.117989
4.750338
2.036389
0.198212
-0.869912
-1.618380
-2.334944
-3.067459
-4.103993
