EVENT_NAME: 202010301151
EVENT_ID: 10614
EVENT_DATE_YYYYMMDD: 2020/10/30
EVENT_TIME_HHMMSS: 11:51:24.00000
EVENT_LATITUDE_DEGREE: 37.879
EVENT_LONGITUDE_DEGREE: 26.703
EVENT_DEPTH_KM: 16.54
HYPOCENTER_REFERENCE: AFAD
MAGNITUDE_W: 6.6
MAGNITUDE_W_REFERENCE: AFAD
MAGNITUDE_L: 
MAGNITUDE_L_REFERENCE: 
FOCAL_MECHANISM: 
NETWORK: TK
STATION_CODE: 3522
STATION_NAME: 
STATION_LATITUDE_DEGREE: 38.4357
STATION_LONGITUDE_DEGREE: 27.1987
STATION_ELEVATION_M: 68.0
LOCATION: -_-_-
SENSOR_DEPTH_M: 
VS30_M/S: 249
SITE_CLASSIFICATION_EC8: C
MORPHOLOGIC_CLASSIFICATION: 
EPICENTRAL_DISTANCE_KM: 75.57
EARTHQUAKE_BACKAZIMUTH_DEGREE: 
DATE_TIME_FIRST_SAMPLE_YYYYMMDD_HHMMSS: 2020/10/30 11:51:11.5842780
DATE_TIME_FIRST_SAMPLE_PRECISION: millisecond
SAMPLING_INTERVAL_S: 0.01
NDATA: 9842
DURATION_S: 
STREAM: HNZ
UNITS: cm/s^2
INSTRUMENT: sensor = CMG-5T/GURALP | digitizer = 
INSTRUMENT_ANALOG/DIGITAL: 
INSTRUMENTAL_FREQUENCY_HZ: 
INSTRUMENTAL_DAMPING: 
FULL_SCALE_G: 
N_BIT_DIGITAL_CONVERTER: 
PGA_CM/S^2: 25.738
TIME_PGA_S: 
BASELINE_CORRECTION: BASELINE REMOVED
FILTER_TYPE: BUTTERWORTH
FILTER_ORDER: 
LOW_CUT_FREQUENCY_HZ: 
HIGH_CUT_FREQUENCY_HZ: 
LATE/NORMAL_TRIGGERED: 
DATABASE_VERSION: 
HEADER_FORMAT: DYNA 1.2
DATA_TYPE: Acceleration
PROCESSING: Manual Paolucci et al., 2011
DATA_TIMESTAMP_YYYYMMDD_HHMMSS: 
DATA_LICENSE: U (unknown license)
DATA_CITATION: Turkish Accelerometric Archive v 1.0 - Disaster And Emergency Management Presidency, Earthquake Department
DATA_CREATOR: AFAD
ORIGINAL_DATA_MEDIATOR_CITATION: : AFAD - Disaster And Emergency Management Presidency
ORIGINAL_DATA_MEDIATOR: AFAD PROCESS SERVICE
ORIGINAL_DATA_CREATOR_CITATION: AFAD PROCESS SERVICE
ORIGINAL_DATA_CREATOR: network: TK
USER1: GuestUser
USER2: 
USER3: 
USER4: 
USER5: 
[...]
-5.231011
-6.248579
-7.166095
-7.240896
-6.870667
-7.167666
-8.745151
-10.636051
-10.726001
-9.017844
-7.502532
-7.733566
-8.368283
-6.379221
-1.531554
3.936629
7.836161
8.366411
5.395448
1.375351
-1.282198
-2.200029
-2.724278
-3.262099
-2.975510
-2.245470
-2.248624
-2.517533
-3.367506
-5.378026
-7.566243
-9.973819
-11.783603
-10.551721
-5.806317
-1.124353
0.480280
0.178231
0.520685
1.308484
1.223583
0.667456
0.005280
-1.579148
-4.439012
-8.080045
-10.959478
-11.060475
-9.158525
-7.892240
-8.636794
-8.580927
-5.821742
-3.910954
-4.539043
-5.490015
-6.381334
-7.496430
-7.853398
-6.981328
-4.295368
-0.434341
2.461824
4.319903
5.876246
6.252156
5.746213
5.876252
6.647954
6.377152
4.451218
2.007346
0.391039
-0.386024
-1.507433
-2.626316
-1.963504
0.985054
5.497213
10.441776
13.465768
13.455040
12.411274
11.310697
8.716588
4.622635
1.073449
-0.625235
-0.704455
0.753413
2.281034
1.758679
0.378143
1.158052
4.483150
7.401093
8.103989
7.879583
7.239816
4.988474
1.863802
0.152493
-0.208579
-0.663706
-0.718622
0.205211
1.067181
0.504742
-0.711669
-1.065481
-1.763323
-4.155433
-7.505460
-9.502725
-9.266952
-7.610872
-4.668941
-1.056626
2.423443
6.660378
11.622615
13.680169
11.633982
7.288162
1.312145
-4.403166
-7.489332
-8.055559
-6.859974
-4.655025
-3.134032
-2.371167
-1.079317
0.646515
2.741943
5.164988
6.274723
4.800763
2.600237
2.052001
1.618967
-0.412384
-2.948103
-4.284767
-4.682451
-5.518851
-6.389339
-5.638468
-3.398169
-2.252453
-3.560079
-5.639722
-6.319888
-5.694636
-5.127773
-5.207308
-5.712304
-6.427821
-6.505777
-5.136284
-2.317762
0.654468
0.910126
-1.239901
-1.338689
0.736224
0.748851
-0.890181
-0.616217
0.841335
0.573373
-1.002218
-2.077861
-1.251241
0.855865
1.907841
1.230831
-0.045549
-0.827978
-1.884684
-3.823243
-5.731186
-6.701411
-6.714664
-5.706560
-3.916656
-1.671622
1.081881
3.218655
4.724498
6.239810
6.886209
6.044443
5.288842
6.324090
8.228881
8.140825
5.506947
4.254239
6.616053
10.161141
11.813749
11.032582
9.044787
6.634371
4.528532
3.074140
2.545788
3.580720
4.805027
4.579674
3.801032
4.427232
5.967162
6.073530
4.500148
3.066272
2.215352
1.451545
0.972115
0.338976
-1.198109
-4.254606
-8.497533
-11.596009
-11.412629
-8.816938
-6.324771
-5.405357
-5.594413
-5.680261
-4.411136
-2.413235
-1.402291
-1.152630
-0.981560
-0.702230
-0.660566
-0.795335
-0.418162
-1.407956
-5.886970
-11.072033
-13.166510
-11.669189
-8.070130
-4.382065
-1.941660
0.565341
3.113058
3.657511
3.029738
3.358620
3.885713
2.676877
0.411648
-1.725438
-3.190876
-4.181301
-3.915228
-2.293236
-1.805595
-2.982554
-2.586759
0.287628
1.178320
-1.059134
-1.668917
1.425460
4.264498
3.284488
0.316681
-0.765275
0.030730
0.727945
1.124055
1.799177
2.396023
1.523326
-0.766837
-3.662051
-7.004819
-8.657423
-7.049949
-3.898444
-1.346940
-0.248252
0.042440
-0.124207
-1.305585
-2.891591
-3.147560
-1.570071
0.814153
3.015630
4.158822
2.462031
-1.678318
-4.279055
-3.226132
-0.233702
3.339160
7.903081
12.435124
15.126449
15.404832
12.541180
7.485522
4.662586
5.781159
6.396312
4.482056
2.489210
1.802100
2.018620
2.524567
2.645453
1.427148
-0.040184
0.510897
1.976655
0.991596
-1.801356
-3.790098
-4.065951
-3.107084
-1.089615
1.817281
4.097349
4.691670
3.375522
0.875785
-1.868561
-4.302333
-6.445731
-7.751464
-7.457932
-5.903799
-3.344720
-0.208365
2.005106
3.042563
4.319895
4.612165
2.942202
1.380182
0.217743
-1.554167
-2.485885
-1.198770
-0.074516
-1.271990
-3.735431
-3.932693
-1.051994
0.575364
-0.056512
-0.417583
-1.026735
-4.402959
-8.964666
-11.101752
-11.239677
-11.370343
-11.744355
-11.244405
-9.651765
-8.174960
-7.367592
-6.039446
-3.195043
0.271770
2.798024
4.040953
5.594455
7.418762
6.616133
1.990355
-3.147366
-6.043842
-7.899391
-9.400495
-9.712329
-8.487076
-6.308323
-3.997325
-2.826358
-2.763863
-1.125774
2.870025
5.795227
4.825633
2.514639
3.241207
6.897394
9.559998
8.880778
6.441640
5.646271
7.073523
6.613662
2.524759
-0.853043
-0.789601
0.957378
2.860276
4.076692
3.646815
2.287426
2.787691
5.485329
7.635991
8.151407
7.762561
7.365509
7.128793
6.893024
6.815699
6.627905
5.175407
1.826957
-1.960525
-3.868152
-3.541479
-1.825115
0.459056
2.622027
4.477581
5.068431
3.672114
1.645496
0.871905
1.071066
1.103261
0.813205
0.914207
2.674443
4.849408
4.685286
3.223635
2.229738
0.104646
-3.037070
-4.302088
-3.836225
-3.353634
-2.337323
0.234381
3.027968
2.792831
-0.515535
-2.680080
-2.528262
-2.715109
-3.717212
-4.066605
-3.851032
-4.804529
-6.652504
-8.794639
-10.813998
-10.396110
-6.893316
-3.276266
-2.028603
-1.855008
-1.107924
0.507440
2.101973
2.698820
2.751215
2.631912
1.353007
-1.526110
-4.248994
-5.285184
-5.280763
-5.914217
-7.063717
-6.772394
-5.396588
-4.881803
-4.923148
-4.250552
-1.350914
3.007535
5.417009
5.513276
6.188713
8.544215
10.335066
9.893195
9.077626
9.693410
9.902039
7.575264
4.199355
1.942648
0.872686
0.669111
0.576951
0.589894
0.635346
0.582323
0.978749
1.130250
-0.109517
-2.584636
-5.193579
-6.195051
-4.257751
-1.561060
-0.692777
-0.501822
1.059886
1.870410
0.446318
-0.325064
0.740484
1.396668
0.575417
0.481364
2.144387
3.264853
3.208675
3.937136
5.930933
7.495482
6.787541
5.076231
3.922629
2.145985
-0.252752
-1.218243
-0.925342
-1.241279
-1.813187
-1.590986
-1.918917
-3.354055
-3.614443
-1.233060
2.281728
4.123710
3.915401
2.624502
0.368111
-2.270501
-2.451036
1.057755
5.457236
9.025364
11.457878
12.130159
10.667876
7.151515
2.123001
-2.774846
-6.272585
-7.881001
-6.785153
-4.648379
-4.139907
-4.240904
-2.566518
-0.469512
-0.745050
-2.424481
-2.151464
0.187310
2.042232
1.865170
-1.201112
-5.817422
-8.756192
-8.687068
-6.690431
-4.931142
-4.205836
-2.951861
-1.127554
-0.794885
-1.883153
-1.932703
-0.378886
0.465725
0.127379
0.991559
3.024178
3.263738
1.254165
-0.826740
-1.669453
-2.067768
-2.565504
-1.661240
-0.041773
-1.276175
-4.968654
-6.340668
-4.425146
-1.866698
0.114790
0.855245
-0.224186
-1.682996
-1.779575
-0.630702
0.629901
2.002866
4.030120
4.936909
3.698404
2.667894
4.373843
8.492418
11.577642
10.501368
6.839819
4.124827
2.349446
-0.317572
-2.998478
-4.579434
-5.858655
-6.173645
-4.021721
-1.129343
-0.232338
-1.073789
-0.544170
3.148945
8.010183
11.629442
12.355695
8.910349
2.511081
-2.016223
-1.958777
0.096251
1.482472
2.675848
2.870905
1.108465
-0.961393
-2.185695
-2.637982
-2.775276
-1.976114
-0.431765
0.738569
1.400119
0.816849
-1.584730
-3.950012
-4.630810
-3.587987
-1.695820
-0.023328
0.662209
-0.190604
-0.749887
0.706718
1.728394
-0.008796
-2.080232
-1.792381
-0.719258
-0.115152
0.278117
-0.386584
-0.361648
1.931676
3.724737
2.952723
1.274870
0.200489
-1.392461
-3.274208
-3.478414
-1.561313
0.618386
0.932434
0.185986
-1.045260
-2.104175
0.103615
6.165170
12.033248
13.829149
11.540880
7.396111
4.568757
3.811578
3.538250
3.323944
3.196118
3.308798
3.305960
2.525109
0.804646
-0.633017
-1.333068
-3.539591
-5.457319
-3.989666
-0.479929
2.928494
4.965531
4.778684
2.345859
0.315139
0.185735
0.047810
-0.663604
-0.487799
0.282641
0.722307
2.135987
4.072025
2.878023
-1.632237
-4.973743
-4.716192
-2.838860
-1.963633
-2.845168
-3.429701
-2.102816
-1.231377
-2.868515
-5.987822
-7.531219
-5.789921
-2.852725
-1.755615
-2.810742
-3.803061
-4.976548
-7.299851
-8.966974
-8.926256
-7.478172
-4.433664
-0.188523
2.214638
1.644624
-0.232072
-1.912766
-2.147904
-1.503082
-0.844058
-0.401867
-0.104547
0.754899
2.308716
3.426342
3.283998
2.926083
4.745340
7.658864
8.157868
6.323465
5.593745
5.178702
1.123572
-3.999314
-5.652549
-4.789632
-4.424768
-4.135655
-2.499459
-0.888829
-0.364892
-0.144584
0.338953
1.616285
1.978307
-0.514802
-5.383611
-8.821382
-7.969196
-6.279344
-5.978868
-5.550880
-3.790329
-2.481751
-2.570123
-2.465334
-1.751075
-0.309304
3.026209
7.984344
11.796765
13.323754
14.633279
16.438965
16.883996
15.354170
13.065585
11.313561
10.549438
11.409515
13.626142
15.251291
13.445294
9.079589
7.232877
7.491376
6.530935
4.791219
3.647717
3.183437
1.822785
-1.725454
-5.923247
-7.380164
-5.511669
-3.924711
-4.259901
-4.798668
-4.551533
-4.209395
-4.597609
-4.973831
-5.068200
-4.843158
-5.074192
-6.588237
-8.561514
-9.389393
-8.299542
-6.592647
-5.161291
-5.533094
-9.120155
-13.192013
-13.188855
-8.279011
-3.590103
-3.534235
-4.737706
-3.964426
-2.106663
-0.882041
-0.334431
1.420439
5.071576
7.366162
4.833284
-0.092968
-3.435105
-4.846887
-5.309905
-4.828892
-4.419842
-3.840039
-2.464864
-1.165439
-1.259177
-2.957862
-5.399524
-8.637821
-10.754076
-9.213199
-5.723661
-4.118712
-4.887569
-5.171944
-3.396874
-1.379090
-1.801392
-3.966884
-5.661781
-7.284400
-9.503864
-11.123327
-10.488605
-7.141414
-3.015579
-0.113101
2.223464
4.688171
6.760243
7.580867
6.554145
4.096070
2.629369
2.709855
1.896180
-0.716867
-2.448060
-2.016916
-2.666152
-5.690771
-8.382092
-7.210179
-2.821745
0.216135
0.704723
1.394363
2.894209
3.983428
4.645925
6.256870
7.882966
7.219527
5.179653
4.406062
4.195227
3.065928
2.262668
1.279818
-0.863896
-2.045589
-0.626858
0.814913
1.103711
1.264997
1.749797
2.079311
1.850170
0.952539
-1.002432
-1.423788
1.884898
6.533721
10.158661
12.905852
15.574768
16.883346
16.125852
14.848209
14.179405
15.614548
18.559951
20.822028
19.703775
14.035807
6.801083
2.271886
-0.345895
-3.255943
-5.028799
-4.779454
-3.596810
-3.396071
-4.668348
-7.077501
-9.564929
-10.462245
-8.721263
-6.337355
-4.795531
-1.914516
2.395644
5.391546
5.080343
2.718218
0.178396
-2.781205
-4.911662
-4.517762
-2.951319
-2.854421
-4.875988
-6.515967
-5.606021
-3.513118
-1.983919
-1.175920
-1.352983
-2.465554
-3.018525
-2.829780
-3.475228
-4.167704
-3.431667
-3.696789
-6.683849
-9.310783
-9.677536
-7.661960
-4.928341
-3.709716
-2.832280
-0.036799
4.256001
7.231704
6.789517
4.131021
1.572893
0.156376
0.944491
3.901571
7.452971
8.492638
5.012258
-0.905053
-4.557763
-5.031512
-5.654236
-7.155024
-6.695158
-4.097257
-2.062745
-0.784782
0.846994
2.549786
3.028590
1.558417
-0.411704
-1.146474
-1.224746
-0.931214
-0.843153
-2.070295
-4.386340
-6.690390
-7.670400
-7.438730
-6.289857
-3.621257
-0.952340
-1.061860
-4.652392
-8.900685
-10.718991
-9.803049
-7.601887
-5.751067
-3.587149
-0.745902
2.370568
4.309131
4.150375
4.467894
6.652959
9.339866
9.909569
8.055282
5.815618
4.993421
6.358496
7.582802
7.062657
5.606371
4.001111
3.408372
4.525998
6.077606
6.331686
5.839315
4.942315
2.793235
0.641315
-0.666312
-1.760892
-2.002342
-0.754995
0.902031
2.613030
5.018400
6.904569
7.575903
7.248604
5.312255
2.380428
-0.304580
-2.935301
-5.434092
-6.284064
-5.822305
-6.235454
-7.423775
-8.311622
-8.629453
-8.368745
-8.756013
-10.963483
-13.656698
-14.520873
-13.738124
-12.601561
-10.390299
-7.421856
-5.375981
-4.128950
-3.253092
-1.805955
-0.207635
0.960175
1.153971
-0.839506
-2.987639
-2.790056
-2.076429
-2.400572
-0.400463
4.854990
10.501184
13.548848
13.363895
11.762423
11.068369
10.914031
9.017450
6.272473
5.247014
6.313509
6.477004
3.620612
-0.716371
-3.299748
-3.306059
-2.723415
-3.735618
-6.622941
-8.628096
-7.516152
-5.479114
-4.477954
-3.445546
-3.106564
-4.073318
-4.130128
-3.096773
-3.128334
-4.543272
-4.866153
-2.491398
0.088512
0.540803
-0.013746
-0.344201
-0.395330
-0.085701
-0.315788
-0.311368
1.373434
2.407419
0.266546
-3.237190
-4.912203
-4.262963
-3.000466
-1.514823
0.684445
2.159673
1.099179
-1.740485
-3.328701
-2.829382
-2.176986
-3.279141
-4.769199
-3.729216
0.342963
4.784737
6.342027
6.108152
7.061969
8.430831
7.103636
4.843772
5.954454
8.115216
8.043256
7.433789
6.852097
5.090288
4.116907
5.705443
7.217914
7.113445
6.487249
4.690090
0.750162
-3.534743
-6.274354
-6.410070
-4.153990
-1.446568
1.094521
4.007414
5.690953
3.994478
0.344292
-2.662021
-3.488637
-2.321143
-0.380686
1.746935
4.021953
5.604177
5.250049
3.828482
3.690873
4.660471
4.293087
2.584934
0.135065
-2.726693
-3.923535
-3.105437
-2.152251
-1.680076
-1.666186
-2.772445
-5.249457
-7.155506
-6.826309
-5.094795
-3.597158
-3.821249
-5.300890
-5.909095
-5.443864
-5.250384
-5.248804
-5.442279
-6.557375
-8.114344
-8.488987
-6.665943
-3.684244
-1.483082
-1.677819
-4.805648
-8.730111
-11.103283
-11.005122
-8.699804
-5.677389
-2.959551
-1.864335
-2.969331
-3.294737
-1.596364
-1.552174
-4.073374
-5.106724
-2.910296
-0.595826
0.767671
2.835640
5.094876
6.146221
6.126970
5.797461
4.673843
3.393044
3.714036
5.278269
6.584322
7.958550
8.889642
7.159080
4.065023
1.749294
0.177175
-1.146864
-1.868693
-1.672058
-0.233127
2.694916
5.628009
6.868413
5.912706
3.008971
0.360890
1.027174
4.010767
7.171425
9.870010
10.746814
9.610571
7.933034
6.416464
5.548817
4.751238
3.497267
2.202266
1.134513
-0.234976
-1.996154
-1.831081
0.434784
2.332000
2.437421
2.453520
3.746632
3.792084
1.622489
0.035220
-0.593184
-2.717014
-5.824643
-8.035269
-9.264936
-9.453677
-8.690181
-7.674186
-7.334889
-8.436413
-10.263241
-11.797485
-12.948247
-12.129517
-8.089216
-4.661225
-5.279214
-7.542864
-8.790838
-8.604302
-7.468371
-5.417446
-2.199660
1.487143
5.056849
8.499674
12.919039
17.282539
19.456873
21.061506
24.015430
25.738422
22.856465
16.363772
10.776288
8.112426
6.074762
3.201957
0.236044
-1.262220
0.660562
6.963885
13.561054
14.994619
13.285203
13.425342
14.719402
14.426505
14.242499
16.757706
19.583803
18.827571
14.786958
9.892900
5.170225
1.060807
-2.301846
-5.204319
-7.690485
-9.886592
-11.880069
-13.352136
-14.178436
-15.278383
-16.284589
-16.251130
-16.309834
-17.161069
-17.965907
-17.682475
-16.020714
-13.788937
-12.171679
-10.983669
-9.496132
-7.479295
-3.911798
1.081056
4.850236
7.164075
10.138831
13.015112
14.068666
13.271087
11.613118
10.137264
8.475823
5.258042
1.506225
-1.355533
-3.741330
-6.115133
-7.282623
-6.300084
-4.061994
-1.706493
-1.179399
-1.108066
0.814716
2.786104
2.768116
1.836081
1.477850
1.996738
2.554132
1.995480
1.003161
0.644615
0.948247
0.043356
-1.721293
-2.610403
-2.668791
-2.543171
-2.922864
-3.895930
-5.408712
-6.430383
-5.725278
-3.943264
-3.040263
-3.381765
-4.607014
-6.536735
-7.739259
-8.012587
-7.634468
-5.385015
-2.196898
-0.614674
-1.321669
-2.707886
-2.906096
-2.597413
-3.276318
-4.666638
-5.887784
-7.120292
-8.660218
-10.186256
-11.955009
-13.988570
-16.041700
-18.371947
-20.545961
-21.573314
-20.776362
-18.444848
-16.140477
-14.001808
-9.980129
-3.170546
4.092589
8.196330
9.066822
8.712695
7.827688
6.476506
4.608647
3.024534
3.169407
4.936902
6.188352
5.885671
4.957109
4.311345
3.562688
2.731968
3.007510
4.174689
5.343761
5.831718
5.559652
4.908207
3.958498
3.519467
4.614999
6.339885
8.163245
11.394603
15.576303
17.993668
16.889618
14.065735
12.581990
13.123919
13.791149
12.964217
11.392098
10.586944
9.900149
8.272796
6.777689
6.218090
6.213989
6.395791
6.682695
7.241667
8.165499
9.118685
9.550145
9.169505
8.412326
7.126162
4.634946
0.955408
-2.608297
-3.552957
-0.817444
3.309022
5.946061
7.868527
10.790573
12.757226
10.562066
5.161116
0.423291
-1.128944
0.196993
1.408990
0.494315
-2.298637
-5.304950
-7.208790
-7.926516
-7.047502
-4.467276
-1.198044
1.450357
2.848572
2.652572
0.950100
-1.860211
-5.517340
-10.099563
-14.274946
-15.808244
-15.012870
-13.613708
-12.203499
-11.332060
-12.201917
-14.688398
-16.825168
-16.870931
-16.116904
-16.309117
-17.290073
-18.065558
-17.676392
-15.968550
-12.674699
-7.312250
-0.685728
5.684507
10.327965
11.786780
10.589306
9.257691
8.800986
8.293150
7.379422
6.110301
4.539760
2.658014
1.549545
1.803309
2.835716
4.709892
7.120628
8.573130
8.465821
8.362298
8.673506
8.902019
9.630165
10.889506
11.836379
12.467629
12.698037
12.099932
10.342226
7.772736
5.955061
5.633758
5.753382
5.323189
4.288892
3.177268
3.301626
4.307205
4.624725
4.371281
4.008632
3.578755
3.596116
3.567397
2.345304
-0.390520
-3.714666
-6.297097
-8.301305
-9.879106
-10.661535
-10.929497
-11.728969
-12.678679
-12.575783
-12.177464
-12.773991
-14.639324
-15.662890
-14.903497
-13.304229
-10.455723
-6.383229
-3.160709
-2.300632
-2.124827
-1.387212
-0.722822
-0.834867
-1.434865
-1.809192
-2.330916
-2.673366
-1.982779
0.305811
4.390299
8.405666
10.851752
12.304886
12.935504
12.226931
10.479325
8.310361
6.025248
3.614201
1.662386
-0.180854
-3.829777
-8.666708
-11.868077
-12.638196
-12.994849
-13.935721
-14.455551
-14.272803
-14.846604
-17.193264
-19.715095
-20.551180
-20.656281
-20.325505
-18.244595
-15.426074
-13.480251
-12.160627
-11.518014
-11.847523
-12.931689
-15.074140
-17.639211
-18.807017
-17.448570
-14.313793
-10.971652
-8.812153
-7.955548
-6.819300
-4.386470
-0.756165
3.789766
7.592718
8.804399
7.771050
6.191671
5.646275
7.048909
8.888051
8.718247
6.897417
5.616934
6.696053
9.001686
11.004005
12.508901
12.422423
10.517952
8.704380
8.720795
10.012645
11.396657
12.224540
12.546163
13.109238
14.071261
13.989517
11.806034
9.082835
7.405929
6.397513
5.400145
5.283051
6.566379
8.301049
9.530405
10.160708
10.448243
9.936620
8.824680
9.168080
11.949674
14.386291
13.928324
12.464148
12.981457
14.077936
13.523387
12.922758
13.513607
14.035336
13.852592
13.767376
14.398625
15.836609
17.594320
18.438615
18.319943
18.391907
18.650721
17.972448
15.864084
12.889017
9.653245
6.868815
4.952982
3.548143
1.697959
-0.423977
-1.913087
-2.969793
-4.257851
-5.982416
-7.442174
-9.628181
-13.580734
-17.323082
-18.651540
-18.694778
-19.636597
-20.870052
-21.028809
-20.582199
-20.334432
-20.175987
-20.157363
-20.129901
-19.691813
-18.154093
-16.261926
-15.353559
-15.203004
-14.951134
-14.672437
-15.048026
-15.358598
-14.046232
-11.138389
-8.492514
-6.567522
-5.096714
-4.300709
-4.776983
-7.264095
-10.244843
-10.847051
-8.911328
-6.918478
-6.252194
-5.856084
-4.691746
-2.723199
-1.099944
-1.223035
-2.531609
-3.718667
-3.923189
-3.272055
-2.379785
-1.960319
-1.748217
-0.656157
1.028329
2.394666
3.727547
5.737756
7.168796
7.411829
7.579743
7.652654
7.420989
7.080749
7.059920
7.931043
10.145777
13.353463
16.260675
18.053104
19.104764
19.973994
20.425654
20.043120
18.804299
17.798093
18.251962
18.572638
16.742654
13.983159
11.728030
9.983580
7.791260
3.830501
-1.709009
-7.433473
-12.911436
-18.002759
-21.204759
-22.168987
-21.674718
-19.231789
-15.187700
-11.388220
-9.071856
-7.787896
-6.331291
-4.550855
-3.444908
-3.373259
-3.876045
-5.496139
-7.751268
-9.144745
-9.547478
-9.573673
-9.430693
-8.971774
-7.973138
-6.078763
-3.652246
-1.848770
-1.541981
-1.843715
-0.815095
2.050139
6.067715
9.663302
10.761990
9.735900
8.898237
8.862258
9.177253
10.218498
11.792200
12.217663
11.085838
9.970742
9.329713
8.426084
7.041445
5.938027
5.402732
4.866173
3.918042
2.564019
1.364020
0.258708
-1.730666
-4.559599
-6.149393
-5.603362
-5.385264
-6.283211
-5.979263
-4.196303
-3.017762
-3.090668
