EVENT_NAME: 202010301151
EVENT_ID: 10614
EVENT_DATE_YYYYMMDD: 2020/10/30
EVENT_TIME_HHMMSS: 11:51:24.00000
EVENT_LATITUDE_DEGREE: 37.879
EVENT_LONGITUDE_DEGREE: 26.703
EVENT_DEPTH_KM: 16.54
HYPOCENTER_REFERENCE: AFAD
MAGNITUDE_W: 6.6
MAGNITUDE_W_REFERENCE: AFAD
MAGNITUDE_L: 
MAGNITUDE_L_REFERENCE: 
FOCAL_MECHANISM: 
NETWORK: TK
STATION_CODE: 3522
STATION_NAME: 
STATION_LATITUDE_DEGREE: 38.4357
STATION_LONGITUDE_DEGREE: 27.1987
STATION_ELEVATION_M: 68.0
LOCATION: -_-_-
SENSOR_DEPTH_M: 
VS30_M/S: 249
SITE_CLASSIFICATION_EC8: C
MORPHOLOGIC_CLASSIFICATION: 
EPICENTRAL_DISTANCE_KM: 75.57
EARTHQUAKE_BACKAZIMUTH_DEGREE: 
DATE_TIME_FIRST_SAMPLE_YYYYMMDD_HHMMSS: 2020/10/30 11:51:11.5842780
DATE_TIME_FIRST_SAMPLE_PRECISION: millisecond
SAMPLING_INTERVAL_S: 0.01
NDATA: 9842
DURATION_S: 
STREAM: HNE
UNITS: cm/s^2
INSTRUMENT: sensor = CMG-5T/GURALP | digitizer = 
INSTRUMENT_ANALOG/DIGITAL: 
INSTRUMENTAL_FREQUENCY_HZ: 
INSTRUMENTAL_DAMPING: 
FULL_SCALE_G: 
N_BIT_DIGITAL_CONVERTER: 
PGA_CM/S^2: 64.067
TIME_PGA_S: 
BASELINE_CORRECTION: BASELINE REMOVED
FILTER_TYPE: BUTTERWORTH
FILTER_ORDER: 
LOW_CUT_FREQUENCY_HZ: 
HIGH_CUT_FREQUENCY_HZ: 
LATE/NORMAL_TRIGGERED: 
DATABASE_VERSION: 
HEADER_FORMAT: DYNA 1.2
DATA_TYPE: Acceleration
PROCESSING: Manual Paolucci et al., 2011
DATA_TIMESTAMP_YYYYMMDD_HHMMSS: 
DATA_LICENSE: U (unknown license)
DATA_CITATION: Turkish Accelerometric Archive v 1.0 - Disaster And Emergency Management Presidency, Earthquake Department
DATA_CREATOR: AFAD
ORIGINAL_DATA_MEDIATOR_CITATION: : AFAD - Disaster And Emergency Management Presidency
ORIGINAL_DATA_MEDIATOR: AFAD PROCESS SERVICE
ORIGINAL_DATA_CREATOR_CITATION: AFAD PROCESS SERVICE
ORIGINAL_DATA_CREATOR: network: TK
USER1: GuestUser
USER2: 
USER3: 
USER4: 
USER5: 
[...]
7.006008
5.783991
5.120327
4.895368
4.939615
4.952081
5.349973
5.335331
5.329725
5.227841
4.380967
2.202085
-1.611038
-6.063526
-9.388402
-9.737681
-7.391163
-4.557333
-2.470985
-1.019950
-0.175563
0.449471
0.428909
-0.002628
-1.897036
-6.215544
-10.749666
-14.130938
-14.913003
-13.060964
-11.047214
-9.828307
-8.935002
-8.426188
-8.585091
-8.012403
-6.204297
-4.033199
-2.955438
-3.219967
-3.601028
-3.427163
-3.096261
-3.798250
-4.694665
-4.904045
-4.147836
-1.729342
1.306392
2.895769
2.154209
-0.265213
-2.312919
-2.674039
-1.157572
1.587458
5.302439
8.889049
10.356597
9.978029
9.040485
8.040002
7.118348
6.209470
5.621520
6.393308
8.489004
11.291364
13.358394
14.212440
14.436781
14.356708
13.830762
12.297475
10.424566
10.344492
12.579464
15.378086
17.166563
17.144132
15.322322
12.327098
9.238711
6.561300
4.315740
3.025486
2.917059
2.819848
2.049312
0.175779
-2.953113
-6.086991
-7.748025
-8.001338
-7.759548
-7.152274
-6.528798
-6.449342
-6.556212
-7.118924
-8.019702
-8.301991
-7.723071
-7.315832
-8.334699
-10.061165
-11.577938
-12.196112
-12.393651
-13.004347
-13.917899
-14.166850
-12.713011
-10.416657
-8.735676
-7.948931
-7.322963
-5.720811
-4.029548
-3.851944
-5.270257
-7.402090
-8.641556
-7.971655
-6.576081
-5.956656
-6.025201
-6.845279
-7.732347
-7.631703
-6.659880
-5.264307
-2.793468
0.294924
3.912692
7.705880
10.050217
10.463376
9.747677
8.671168
7.241327
6.330578
5.828625
5.683119
6.202839
7.311134
9.045396
10.763767
11.559547
11.262614
11.101529
11.555194
11.121164
9.149172
5.861997
2.005875
-1.201847
-2.226633
-0.790243
1.980960
4.835978
6.160822
5.405865
3.317652
1.054644
-0.848801
-2.255274
-3.146393
-3.119594
-1.892274
-0.278283
1.273081
2.653387
3.429538
2.589207
-0.329991
-4.036866
-6.449745
-5.518115
-2.267078
0.931613
2.807021
4.940418
7.348317
8.117302
7.055125
4.447508
1.485623
-1.435756
-3.434232
-4.355263
-3.814667
-2.360205
-1.876629
-2.872438
-3.641106
-2.496043
0.149281
2.507327
2.331598
-0.450816
-3.324835
-4.153637
-4.054551
-4.715100
-5.937740
-6.334692
-5.008601
-2.713494
-1.683716
-2.904799
-5.251311
-7.633344
-9.027665
-8.942913
-7.579121
-5.420174
-2.827819
-0.594093
0.425402
0.827656
0.494579
-0.912829
-2.792905
-4.193458
-4.876752
-4.736538
-4.916941
-6.705412
-8.656840
-9.538300
-8.900802
-6.506612
-3.297327
-0.790033
0.600866
1.418457
1.739700
1.495112
1.556184
1.946909
2.162838
1.623805
1.089759
1.509461
2.915005
4.064118
3.485203
1.535021
-0.870380
-2.568493
-3.002210
-2.890662
-3.305061
-3.140544
-1.903254
0.151313
3.153397
7.247884
11.868630
15.765263
17.120954
14.488722
9.284390
4.878328
2.754284
1.850079
1.151829
0.302151
-0.480849
-1.714083
-3.515017
-5.719137
-7.611053
-8.290608
-7.563688
-5.765863
-2.813944
0.408428
2.515652
3.245065
2.893917
3.651995
6.460588
10.108267
13.098823
14.634608
14.392201
11.288858
6.015667
1.180558
-2.481760
-4.687438
-5.156053
-3.965811
-1.171552
1.939897
4.261177
4.775289
3.042902
0.258307
-2.033991
-2.580189
-1.364710
-0.478571
-1.150025
-2.760272
-3.847998
-3.933368
-3.197723
-1.660692
-0.390686
-0.195322
-1.231637
-2.527811
-3.558517
-3.881001
-2.594792
0.219409
3.188465
5.614748
6.726160
6.177157
3.693860
-0.543948
-4.422503
-7.404641
-9.654252
-11.876443
-13.091606
-12.602421
-10.953533
-8.931993
-6.339015
-3.477454
-1.541599
-0.683814
-0.882912
-0.313651
0.902763
1.666451
1.205626
-0.742687
-3.256207
-4.608776
-4.631830
-4.514985
-4.608456
-4.430541
-3.725119
-3.159286
-2.744569
-2.543596
-1.814183
-0.422348
1.546222
4.463245
8.049854
10.573662
10.568991
9.310519
7.886597
6.791082
6.603201
6.627507
5.207013
2.717796
1.575544
2.267879
3.614223
4.682948
6.080390
8.718860
11.981114
13.235853
10.510146
6.232767
3.512358
3.054960
3.627337
4.563017
5.202695
5.069341
4.364236
2.785459
1.062420
-0.141214
-0.679312
-0.643477
-0.678060
-1.036998
-1.356054
-1.386275
-1.574155
-2.200430
-2.684935
-2.540982
-1.262563
0.734984
1.757907
0.245808
-3.730273
-7.030846
-6.801831
-3.101494
2.104713
6.124732
7.710992
6.996540
4.629463
1.901576
0.318436
0.114977
0.052975
-1.046903
-2.912334
-5.172227
-5.990747
-5.270681
-5.309003
-7.080649
-9.094393
-9.487917
-7.967400
-5.159119
-4.561504
-5.492816
-6.642858
-6.642856
-4.957824
-2.291001
0.869990
1.779497
0.788049
-0.930939
-1.970682
-2.639643
-3.828010
-5.596228
-8.141841
-10.423856
-10.468098
-8.622913
-7.057840
-6.336216
-5.765086
-3.481818
0.357172
4.016068
6.690369
6.951165
5.492347
5.113467
6.598464
9.304546
11.881634
12.413817
10.107187
6.753957
4.895380
5.024377
6.631825
7.947634
6.984229
4.535829
2.238547
0.407077
-1.303499
-2.319873
-2.030100
0.040046
2.069375
2.187467
1.341839
0.247570
-0.178358
0.489985
1.799562
3.533824
4.713160
5.054967
3.787459
0.900665
-2.422965
-5.214103
-6.729941
-7.918308
-8.732154
-9.360298
-9.196092
-8.735885
-8.056324
-8.161324
-8.934665
-8.172536
-5.830068
-2.900894
-0.715775
1.045906
2.027077
2.545862
2.587928
2.336797
1.441628
0.129252
-1.617468
-4.493668
-7.586105
-9.097269
-9.955983
-11.385513
-13.532614
-16.025569
-17.387175
-17.548571
-15.171206
-11.564032
-7.835342
-5.013351
-3.872339
-3.780109
-4.401710
-5.551440
-7.561757
-9.726306
-11.154590
-10.352267
-7.516567
-4.553430
-2.071686
0.459911
2.186695
1.790055
-0.565182
-3.946766
-6.728557
-7.667970
-6.872813
-5.037911
-2.514103
0.586129
3.207461
5.187560
6.361288
6.732383
6.255356
5.899533
6.805301
7.982768
8.570412
8.304014
7.759061
7.777759
8.796631
9.038109
8.202140
7.321304
6.720891
5.664946
4.253488
4.060310
5.790833
9.229753
13.667914
18.358454
22.040408
24.549259
25.595862
25.545077
24.951207
24.487889
25.145950
26.623470
27.647639
27.441686
25.556313
21.023438
14.733247
7.874732
1.229028
-4.457632
-8.983340
-11.880105
-12.573992
-11.009231
-8.404412
-6.837158
-7.002605
-6.722802
-4.455426
0.129178
6.099381
11.813153
16.926820
20.803512
22.567374
22.685154
22.154535
20.534940
18.801307
17.974998
16.685056
14.101430
10.470270
6.464901
3.099207
0.120497
-3.182568
-7.496714
-12.325279
-15.986974
-18.450330
-20.097967
-21.479202
-22.566304
-22.764155
-21.986447
-20.563766
-18.967223
-17.911896
-18.059271
-19.147932
-19.771091
-18.986216
-17.035717
-13.721429
-9.565249
-6.325741
-5.206228
-6.350973
-8.416128
-9.859991
-10.696894
-10.798155
-9.346497
-6.486806
-3.673851
-2.624756
-4.216308
-6.354684
-6.458750
-3.036343
2.511980
6.640429
8.588435
8.483123
6.565346
3.583208
0.652170
-1.031921
-1.007304
-0.190336
0.269248
0.130286
0.174845
0.604518
1.256971
1.843680
0.936983
-2.270116
-5.213618
-5.933366
-4.805753
-2.624061
-1.137506
0.245916
2.195791
4.965436
7.489244
8.477892
7.250890
4.592173
2.710228
1.923801
2.497735
4.076207
6.784158
10.218405
12.516940
11.942387
8.873007
5.394210
1.547436
-2.926239
-6.610991
-9.093665
-10.521014
-11.373808
-12.447201
-14.017566
-16.415177
-19.520389
-22.800086
-26.087261
-28.369277
-28.509174
-27.800948
-27.564455
-27.309891
-26.291642
-24.352360
-21.419135
-18.844852
-17.134893
-14.938869
-10.928509
-5.479581
0.694708
6.669585
10.679321
11.630892
9.983878
8.027154
6.941609
7.490617
9.890415
12.637626
14.352258
14.792525
14.175286
13.377019
11.899817
10.129729
9.027982
7.815623
6.862189
7.127658
8.047136
9.451745
11.052027
11.585145
10.598994
8.964132
7.572615
5.879799
3.912481
1.811182
0.588542
0.907915
1.834559
2.156736
1.354107
-0.038968
-1.678816
-2.846306
-3.428025
-4.487708
-5.645540
-5.849934
-4.196061
-1.105799
2.611675
5.994822
8.521122
10.480969
11.275191
10.408064
8.350387
5.903857
3.496586
2.414157
2.710473
3.378194
3.489119
2.462775
-0.244237
-3.176210
-5.168766
-7.808788
-10.947027
-12.975416
-14.571953
-17.394561
-20.836904
-23.346061
-23.578498
-21.035372
-16.936524
-12.441656
-8.388298
-4.685469
-0.747396
2.282108
3.742178
3.802316
3.549315
3.783004
3.621919
1.777986
-0.719331
-2.251371
-2.284396
-1.145254
0.289579
1.539644
2.064037
3.297900
6.030778
9.231339
12.191048
14.506720
16.698694
19.746269
23.719862
27.778205
30.270543
31.490385
32.026930
31.717844
31.462974
31.634346
32.326370
34.024488
35.918591
36.774506
35.116899
30.975992
25.425182
18.291230
11.787918
6.128678
1.630077
-2.176192
-6.551096
-11.638585
-17.888271
-23.504824
-26.956202
-27.131620
-24.182504
-19.375121
-13.877274
-8.731514
-4.899690
-2.481508
-0.177054
3.847639
9.171623
13.534381
15.294815
14.875119
12.611175
10.004181
6.859710
3.670683
1.804940
1.126943
2.589194
3.929618
5.227355
4.604819
1.521729
-2.847566
-8.477829
-14.097498
-19.180002
-22.155596
-22.543823
-19.888217
-16.268268
-14.102779
-13.572777
-15.164017
-18.848146
-22.487408
-25.023362
-26.208301
-26.396181
-25.346151
-23.387240
-21.558569
-18.663980
-16.073806
-14.954293
-15.076118
-14.557645
-12.246336
-9.592287
-5.151011
0.901137
6.493393
11.508601
15.539525
18.136554
18.820477
18.640386
17.346705
14.401334
11.813035
10.426191
10.177552
10.901358
12.049224
13.077444
13.582207
12.377327
9.077065
4.361915
0.062414
-2.625279
-4.141117
-5.621124
-7.033517
-7.683472
-7.321723
-5.262795
-1.782122
2.842363
8.222121
14.330666
20.041945
23.989054
26.380440
27.527995
26.857787
24.139559
20.365071
16.326986
12.269272
8.433403
4.131409
-1.405380
-7.486812
-12.795835
-17.127117
-21.893366
-27.190238
-32.557215
-37.784916
-42.150160
-44.794544
-45.153483
-42.596024
-37.037108
-30.141821
-23.199174
-16.364646
-9.962592
-4.866684
-2.695898
-2.813361
-2.993140
-1.379460
2.232699
6.283253
10.048087
11.807898
10.168674
6.438119
2.351739
-1.413401
-4.346932
-6.615549
-8.806271
-10.412779
-10.133288
-8.289662
-6.743595
-5.829102
-5.439000
-5.784852
-5.366085
-3.846191
-1.643935
0.967739
4.051457
7.005558
9.503816
13.087310
17.557874
21.996657
24.579977
24.440391
21.828412
18.399156
15.079888
11.020304
7.180073
3.426150
-0.875844
-5.944015
-11.498564
-16.806340
-21.124537
-22.446571
-20.266749
-15.371500
-9.293178
-3.308331
1.159430
4.015694
7.098478
10.166617
13.616131
17.146656
20.472161
23.899865
27.238768
29.977566
31.379994
31.801566
30.634699
28.190661
25.768435
23.408212
20.910583
18.643835
17.031407
15.799731
15.012369
14.051768
10.823793
4.873848
-2.483819
-8.879947
-11.458899
-9.284997
-3.749761
2.210160
5.652197
5.411971
2.479375
-1.634736
-5.582151
-8.586722
-10.344035
-11.889473
-13.900725
-15.966192
-18.553556
-21.592713
-24.727213
-27.378763
-29.780426
-31.353595
-30.991535
-28.327516
-25.193010
-22.942459
-20.458222
-17.722228
-14.043079
-9.055290
-3.565545
1.266142
6.201585
13.055432
21.179905
29.189716
35.630407
38.032074
35.825773
29.317164
19.279902
7.698756
-4.095199
-15.142295
-25.054301
-33.710014
-41.096970
-46.760572
-50.564660
-52.246259
-51.991695
-49.121409
-43.521676
-37.328381
-31.606507
-27.127842
-24.092107
-21.432762
-18.145581
-13.747615
-8.152866
-0.998033
8.221958
18.615986
28.601843
36.787386
41.932523
43.622540
43.083820
42.051244
41.873334
43.072300
44.965468
45.502947
43.399156
38.141544
30.164143
21.329894
13.576519
8.491211
6.064622
5.927841
7.570498
10.381895
12.547696
13.460630
13.643220
12.018328
8.204582
3.350466
-1.736088
-6.937616
-10.529517
-10.723006
-8.682772
-6.067048
-4.291346
-4.646234
-7.380976
-11.655239
-16.882005
-21.951422
-25.526810
-27.321512
-26.077367
-20.832524
-11.519994
0.155255
10.248607
15.955213
16.627295
13.004859
8.658621
5.946936
6.409013
10.627509
18.392106
25.575916
30.356504
32.364022
30.952252
29.602798
27.428278
23.935148
18.350065
12.458697
7.123501
2.791284
-0.050954
-2.526772
-4.899458
-8.324352
-12.528509
-17.530937
-21.959432
-24.551471
-24.240199
-21.586150
-18.054379
-14.699585
-13.219885
-13.871398
-15.552373
-16.974426
-18.231963
-19.033969
-19.323737
-20.158771
-21.804850
-24.140457
-26.638086
-28.527198
-28.713832
-27.474049
-25.511087
-22.456346
-18.750401
-15.726194
-14.173896
-15.016719
-17.090910
-18.955719
-19.756167
-18.593656
-15.909073
-12.815696
-11.145931
-11.034382
-11.959775
-12.865226
-12.846528
-11.276158
-7.933516
-3.032658
2.957174
9.156701
14.479751
18.467054
20.774001
21.334226
20.142744
17.805267
15.966631
15.231615
15.308890
14.661427
12.399665
7.802915
0.809486
-7.109026
-14.351720
-19.259427
-20.499516
-17.847960
-11.734430
-4.889931
-0.065411
1.642678
0.207851
-2.049861
-3.607762
-3.952679
-2.410351
0.357735
4.273686
7.232461
7.855937
6.722720
3.369178
-0.881717
-4.916997
-5.813412
-3.197689
2.287695
9.572146
16.298556
21.666162
26.178166
30.835991
35.173199
38.793148
41.317890
43.044363
43.832042
43.903708
42.799780
41.134383
39.653442
38.488756
37.736914
37.585488
37.985249
38.789754
39.943540
40.123014
39.486768
38.378478
36.896602
34.936762
32.512977
30.146523
28.893971
29.866418
33.488859
38.973308
44.923882
50.418612
54.700047
57.095484
57.690606
57.096424
55.727964
53.941673
51.436255
48.699955
46.094207
43.104591
39.272773
33.697971
26.154291
16.663541
5.616757
-6.961136
-20.474082
-32.645362
-42.062578
-48.452787
-52.622670
-55.273909
-56.986666
-58.403733
-59.609548
-60.743076
-61.891872
-62.908869
-63.666631
-64.051742
-64.067007
-63.100169
-60.956178
-58.340454
-56.080867
-54.959485
-54.760382
-55.216534
-55.926312
-56.989735
-58.336384
-59.385163
-59.897710
-59.453082
-58.016380
-55.539309
-52.029037
-47.832040
-43.650311
-40.422643
-38.294543
-36.305408
-33.897197
-30.771727
-26.947692
-22.789020
-17.974782
-12.411192
-6.061795
0.460530
5.257008
7.351769
7.570190
6.587466
5.001211
3.618107
2.436283
1.281879
0.054253
-1.474983
-3.338857
-5.277821
-6.954124
-8.315417
-9.096859
-9.503781
-9.571703
-9.002442
-7.552654
-4.822891
-1.402666
2.369646
5.724751
8.734937
11.830807
14.796747
17.558914
20.108583
22.714336
24.693189
25.916458
27.233825
28.905770
30.967815
33.268530
34.990952
35.042989
33.069439
30.074838
26.761490
24.289722
22.903813
22.441430
23.124730
24.561120
25.759463
25.635145
23.529173
19.162993
13.769220
8.366099
3.998674
0.948612
-0.905915
-2.138837
-3.160508
-4.505600
-6.643042
-8.779237
-10.708543
-12.003782
-12.250551
-11.060621
-8.272281
-4.256002
0.135110
3.624195
5.405817
5.646672
4.800421
3.422613
1.836669
0.457927
0.635842
3.382430
7.633019
12.750425
17.952582
21.750443
23.837414
24.505135
24.256496
22.520682
19.891877
16.462933
12.458810
8.452507
4.785515
1.303601
-2.778105
-7.610098
-12.934077
-17.183102
-19.894164
-20.052133
-17.726179
-13.661916
-8.678489
-4.250299
-0.767758
1.519872
3.261300
4.932934
6.346579
7.766144
8.832688
9.536240
10.480021
11.644401
13.007570
14.762085
17.294617
19.941499
22.204825
23.209052
23.219337
23.477329
23.942210
24.474082
25.383589
26.456676
26.767013
26.597828
25.838508
24.215798
22.254087
20.273994
17.872332
14.819154
11.438193
7.923564
4.440404
1.139208
-2.234898
-5.934918
-10.140321
-14.889122
-19.139394
-21.786893
-22.338389
-21.579063
-20.287558
-19.440990
-19.844173
-20.956202
-22.935984
-25.627417
-29.256396
-33.847225
-38.934714
-43.592533
-46.061497
-45.984534
-44.509819
-42.727574
-40.276988
-36.724029
-32.299890
-27.401525
-22.709115
-20.093079
-20.440489
-23.025361
-27.207084
-32.025368
-36.665738
-40.504412
-43.361917
-45.169706
-45.885716
-45.800340
-45.026059
-44.266422
-43.966679
-43.277147
-41.301722
-37.535642
-32.189223
-25.574671
-18.579990
-11.836755
-5.125924
1.349975
7.307092
12.626714
17.351840
21.141912
23.645155
24.931675
25.078744
24.433152
23.439211
22.255830
21.163742
20.214358
19.398019
18.453309
17.306382
16.053519
14.638944
13.084470
11.262037
10.040019
10.442896
12.537657
15.744450
19.592476
23.827797
27.752160
31.205725
34.591988
37.555748
39.707216
41.163236
41.964002
41.821924
40.509548
38.732917
37.279084
36.328453
36.451530
37.824047
40.001688
42.461933
43.893026
43.500437
41.568016
38.543192
35.129515
32.434032
30.791692
29.874712
29.210425
28.208695
26.605303
24.182765
21.393184
18.325050
14.922591
11.385216
7.210659
2.275844
-3.678151
-10.833914
-18.841539
-27.024583
-34.049482
-39.507753
-43.478224
-46.104848
-47.869951
-48.678500
-48.702178
-48.518342
-47.628776
-45.513140
-42.568698
-38.968690
-35.270223
-32.549185
-31.166698
-29.521237
-27.054137
-24.335591
-21.116024
-17.705457
-14.370916
-11.719672
-9.852054
-9.163457
-9.845817
-11.453259
-14.014763
-16.866659
-19.748156
-22.739329
-25.645441
-28.434710
-31.170699
-33.496647
-34.851709
-34.902494
-33.307197
-29.594397
-24.397226
-18.577205
-12.447472
-6.691637
-1.688892
2.469780
5.889071
8.477064
10.332531
11.674512
12.629198
13.430587
13.816639
13.770527
13.260784
12.122893
11.013045
10.236589
10.007579
10.986881
13.477661
17.009121
20.502568
23.493123
25.767043
27.065715
27.751819
27.711316
26.481197
23.967678
20.395718
16.223030
11.850307
7.622781
3.632368
0.375728
-1.840544
-2.768117
-2.521031
-1.737091
-1.230146
-1.813734
-3.903504
-7.344288
-11.374272
-15.631710
-19.994774
-23.910719
-26.725849
-27.879630
-26.993180
-24.748549
-22.246863
-20.244642
-18.217183
-15.699295
-11.668371
-5.526487
2.005982
9.884618
16.549958
21.774237
25.395432
27.436912
28.338318
28.362313
27.322259
25.480819
23.494805
21.989873
21.594479
22.269989
23.794246
25.107250
25.265847
23.900503
20.735779
16.116284
10.569525
4.628616
-0.746151
-4.427787
-6.367063
-7.251639
-8.011581
-9.475385
-11.664861
-13.824425
-15.452744
-16.348225
-16.047546
-14.608663
-12.244073
-9.329232
-5.733586
-1.435638
3.305379
8.392251
13.357917
18.058740
22.363855
26.248959
30.278014
34.369696
37.860651
40.496004
42.364869
43.604029
44.404794
44.438136
43.062821
40.654304
37.683695
34.296502
30.275243
25.595302
20.694449
15.898288
11.485683
7.375935
3.015987
-1.581074
-6.018917
-10.299100
-14.228132
-17.562979
-20.037551
-21.154877
-20.767891
-19.467662
-17.936862
-16.879666
-16.995571
-17.928130
-18.644140
-18.598334
-17.154778
-14.576755
-11.767228
-9.057095
-7.020911
-5.765238
-4.785002
-3.502221
-1.837442
-0.229370
1.000442
0.954019
-0.695487
-3.772968
-8.334509
-13.028160
-16.739396
-19.384715
-21.471992
-23.083174
-24.259077
-25.232141
-25.257377
-24.414859
-22.974107
-21.214919
-19.083391
-16.205940
-12.621511
-8.598999
-5.057569
-2.521610
-0.845614
0.375786
1.569455
2.646593
3.647393
4.872843
6.124155
7.329352
8.338877
9.207567
9.823565
10.045725
9.884952
9.031535
7.730376
5.730030
2.942942
-0.395956
-4.188515
-7.999146
-11.318102
-13.512875
-14.588137
-14.490298
-13.490433
-12.389303
-11.326498
-9.999161
-8.105681
-5.409881
-1.590521
2.589962
6.263815
9.290514
11.044716
11.249428
10.352701
8.512507
5.819517
3.246485
1.736567
1.217476
1.572370
2.524563
3.537204
4.635217
5.745383
6.304361
5.989044
4.953353
3.378626
1.702635
0.466597
-0.267797
-0.571274
-0.491818
-0.298635
