EVENT_NAME: 202010301151
EVENT_ID: 10614
EVENT_DATE_YYYYMMDD: 2020/10/30
EVENT_TIME_HHMMSS: 11:51:24.00000
EVENT_LATITUDE_DEGREE: 37.879
EVENT_LONGITUDE_DEGREE: 26.703
EVENT_DEPTH_KM: 16.54
HYPOCENTER_REFERENCE: AFAD
MAGNITUDE_W: 6.6
MAGNITUDE_W_REFERENCE: AFAD
MAGNITUDE_L: 
MAGNITUDE_L_REFERENCE: 
FOCAL_MECHANISM: 
NETWORK: TK
STATION_CODE: 3534
STATION_NAME: 
STATION_LATITUDE_DEGREE: 38.66241
STATION_LONGITUDE_DEGREE: 26.75856
STATION_ELEVATION_M: 13.0
LOCATION: -_-_-
SENSOR_DEPTH_M: 
VS30_M/S: 328
SITE_CLASSIFICATION_EC8: C
MORPHOLOGIC_CLASSIFICATION: 
EPICENTRAL_DISTANCE_KM: 87.25
EARTHQUAKE_BACKAZIMUTH_DEGREE: 
DATE_TIME_FIRST_SAMPLE_YYYYMMDD_HHMMSS: 2020/10/30 11:51:16.5998310
DATE_TIME_FIRST_SAMPLE_PRECISION: millisecond
SAMPLING_INTERVAL_S: 0.01
NDATA: 11251
DURATION_S: 
STREAM: HNZ
UNITS: cm/s^2
INSTRUMENT: sensor = GMS+/GEOSIG | digitizer = 
INSTRUMENT_ANALOG/DIGITAL: 
INSTRUMENTAL_FREQUENCY_HZ: 
INSTRUMENTAL_DAMPING: 
FULL_SCALE_G: 
N_BIT_DIGITAL_CONVERTER: 
PGA_CM/S^2: 38.740
TIME_PGA_S: 
BASELINE_CORRECTION: BASELINE REMOVED
FILTER_TYPE: BUTTERWORTH
FILTER_ORDER: 
LOW_CUT_FREQUENCY_HZ: 
HIGH_CUT_FREQUENCY_HZ: 
LATE/NORMAL_TRIGGERED: 
DATABASE_VERSION: 
HEADER_FORMAT: DYNA 1.2
DATA_TYPE: Acceleration
PROCESSING: Manual Paolucci et al., 2011
DATA_TIMESTAMP_YYYYMMDD_HHMMSS: 
DATA_LICENSE: U (unknown license)
DATA_CITATION: Turkish Accelerometric Archive v 1.0 - Disaster And Emergency Management Presidency, Earthquake Department
DATA_CREATOR: AFAD
ORIGINAL_DATA_MEDIATOR_CITATION: : AFAD - Disaster And Emergency Management Presidency
ORIGINAL_DATA_MEDIATOR: AFAD PROCESS SERVICE
ORIGINAL_DATA_CREATOR_CITATION: AFAD PROCESS SERVICE
ORIGINAL_DATA_CREATOR: network: TK
USER1: GuestUser
USER2: 
USER3: 
USER4: 
USER5: 
[...]
5.983171
2.397335
-0.767418
-2.479028
-3.825665
-3.733187
-1.614260
0.253991
0.426217
-1.388002
-4.385204
-5.699110
-4.761867
-4.827588
-6.035249
-4.937989
-1.434498
1.732592
3.230934
3.667344
4.025045
3.719298
2.230049
1.213318
1.553614
1.405806
-0.133318
-0.748968
0.708330
2.200177
2.996107
3.587598
2.690620
0.392973
-1.273958
-2.170157
-2.721644
-2.457200
-1.920259
-2.136646
-2.337966
-1.213949
0.234517
0.531432
-0.457245
-1.691402
-0.749743
2.528528
5.240766
5.931489
4.921771
2.482810
-0.560111
-2.060530
-1.113936
-0.216697
-1.285902
-2.838015
-2.926595
-2.339520
-2.523695
-2.508368
-1.801540
-1.221478
-0.557770
0.802375
2.513726
3.431227
3.406549
2.840775
1.295935
-1.279144
-3.299099
-2.514080
0.801338
3.963233
5.655102
6.413625
6.232047
4.458092
2.668551
2.078878
0.424157
-2.617985
-5.345548
-7.669172
-9.823427
-11.174740
-9.754588
-5.449194
-0.257732
5.737192
11.430007
12.561816
7.855081
1.635717
-1.751136
-1.612160
-0.305787
-0.483209
-1.864394
-3.272076
-4.429862
-4.568058
-3.387153
-1.965703
-0.683228
1.285293
2.889880
3.091460
3.396948
4.425109
5.023615
4.046108
2.006151
1.071247
1.466873
0.802127
-1.894523
-5.150194
-7.148069
-5.529715
0.533269
6.645868
8.111998
5.803701
2.619726
-0.350720
-2.088827
-1.273156
0.286491
-0.603733
-2.725258
-2.436655
0.356370
2.018365
1.049431
0.370658
1.507402
3.075102
4.232888
4.804897
4.843862
3.961691
1.528705
-1.181194
-2.589396
-3.001128
-3.558849
-5.024200
-6.124317
-5.958325
-5.194867
-2.843707
0.523145
2.375811
2.942624
3.469434
3.219018
1.784580
0.862664
1.276214
2.340224
2.489851
0.444958
-1.816582
-2.343910
-2.196362
-1.917111
-0.956749
-0.045483
-0.021064
-0.192511
0.887345
3.233828
4.686191
4.234975
3.638028
4.688010
6.092316
5.379773
2.508298
-0.977527
-3.211531
-4.196311
-4.497642
-3.108662
-1.627985
-1.830604
-1.955552
-1.123515
0.301053
2.579477
4.189779
2.197359
-2.019713
-4.149810
-4.573231
-4.715064
-3.168666
-1.060908
-1.187155
-3.403235
-5.082375
-4.749872
-3.763533
-3.768988
-4.592971
-5.204724
-5.978833
-6.489536
-4.993013
-3.233345
-2.808624
-1.617848
0.920085
3.555431
5.616430
6.121419
4.636586
2.896141
3.285274
5.293020
5.342636
2.150089
-1.170265
-2.185697
-1.222478
-0.170417
-1.198579
-3.958872
-6.985688
-9.747800
-10.458005
-8.621706
-7.179734
-6.870869
-6.472125
-4.385669
0.930742
5.631502
5.964525
4.199922
2.807825
1.948513
1.907990
3.465559
5.426807
5.317964
2.603130
-0.604484
-2.167767
-3.504273
-6.288466
-7.781611
-5.662165
-2.470656
-1.008422
-1.364823
-2.059183
-1.957094
-2.046973
-2.384411
-1.038034
2.115029
4.781807
5.510716
4.972997
4.826228
6.595248
9.039664
9.616090
8.181392
6.673439
6.532126
5.423956
2.033205
-0.408353
-0.752286
-0.696955
-1.115960
-1.361700
-0.906327
-1.016468
-2.212180
-2.334530
0.588119
4.719208
6.103252
4.000691
1.632127
1.098044
0.763983
-0.826576
-2.660277
-3.839623
-4.063803
-2.427265
0.309391
0.547338
-2.450903
-4.555802
-3.520627
-1.372086
-1.611592
-5.338482
-9.112130
-9.696088
-7.401298
-3.724023
-0.537190
0.371219
-0.025187
0.960113
3.572859
5.163938
4.312419
3.057480
3.138788
3.998100
4.677394
3.880686
1.718897
0.180032
-0.033237
0.489156
0.604753
0.967909
2.379748
3.254127
3.835488
4.340997
4.729610
4.860013
2.699264
-0.773053
-2.922373
-2.521031
-0.764740
0.362913
2.166741
5.040035
6.608773
5.568922
3.648458
3.223478
3.588712
3.477012
2.749662
0.541895
-2.094230
-1.862516
0.492800
1.486672
0.190430
-2.346983
-2.964970
-0.233770
3.091260
5.315393
5.299807
2.322607
-0.754344
-1.346614
-1.153347
-2.562068
-3.931824
-3.538275
-2.514010
-1.401944
-0.105442
1.857625
3.409479
2.632513
0.796474
-1.196725
-2.514268
-1.806660
-1.218286
-2.215534
-3.097706
-2.092923
0.590220
1.910880
-0.075565
-2.546217
-1.741456
1.065077
2.277414
1.751904
0.154591
-1.581698
-0.699785
2.360801
4.518433
4.806256
4.262043
3.479622
0.861421
-3.704000
-7.469336
-9.154710
-9.654243
-10.625775
-12.228543
-11.997609
-8.833376
-4.163268
0.097706
1.469021
0.126800
-0.265449
0.998062
0.764012
-1.045272
-1.630788
-1.592083
-2.026934
-1.419336
1.000142
3.809273
4.620009
4.417130
5.782730
6.847260
5.351776
3.749528
5.000051
6.847001
5.778835
3.527427
3.048935
3.896558
3.869802
0.909227
-3.376164
-4.247685
-1.557528
0.267601
-0.815631
-2.420217
-0.740298
3.691084
6.374487
6.693482
6.704912
5.533359
2.673314
-0.038403
-1.168393
-1.319058
-1.787939
-1.918862
-0.664183
0.322156
-0.681067
-1.879636
-1.698578
-0.567028
1.588526
2.870221
1.924666
0.863515
-1.162935
-5.071922
-7.606997
-7.599723
-6.392582
-4.726430
-3.205489
-2.266167
-0.605211
3.599393
8.647983
10.353879
7.118989
2.466026
-0.083336
-2.216030
-5.183099
-6.833405
-5.728092
-2.741800
-0.233480
1.616587
2.530970
0.803514
-0.484155
1.237587
3.241956
3.451070
3.000372
2.990501
1.381499
-1.422436
-0.557668
2.832823
2.024686
-2.311360
-4.653688
-4.025049
-2.764135
-2.360456
-1.411523
-0.640272
-2.624119
-4.737591
-4.259098
-3.412255
-3.816453
-3.564738
-1.495686
-0.068521
0.056428
1.455278
4.369355
7.401366
8.325361
5.133593
1.023545
0.115397
0.245800
-1.566860
-2.498647
-0.943676
-1.142918
-3.755144
-4.945920
-5.175554
-6.602979
-8.168860
-7.794274
-4.771095
-0.330362
3.630580
5.741194
5.571566
3.164297
0.308928
0.190734
2.080546
2.459547
0.411278
-2.143020
-3.821380
-4.108424
-1.810776
1.152916
1.092391
-0.444656
0.937310
4.921630
7.168363
6.851966
5.998369
3.777094
0.276461
-0.512713
2.787379
5.412334
3.716309
0.793661
-0.231643
-0.186443
0.534413
2.124712
3.641497
4.003614
2.876222
0.586887
-1.869998
-2.911147
-2.277313
-0.709094
1.346969
2.618274
2.495404
2.027562
1.786498
1.518937
1.151625
0.638584
-0.306711
-2.200419
-4.521445
-5.378679
-4.559111
-3.758766
-3.261310
-0.550632
4.905274
8.809846
8.297324
5.364544
3.941017
4.404962
4.078174
2.484239
-0.312163
-3.033751
-3.477694
-1.844793
1.562843
5.094388
5.141147
1.619473
-1.265249
-2.009484
-3.156619
-4.922002
-5.629869
-5.097085
-4.222186
-3.158177
-1.220308
0.912128
1.683379
0.234393
-1.786081
-1.241867
1.005905
1.656364
0.989020
1.624153
4.001550
5.115954
2.591530
-2.091047
-5.989643
-6.579057
-4.965378
-4.883031
-5.709353
-4.189191
-0.455286
2.223701
2.746094
2.761421
2.841689
3.298621
3.360186
1.205671
-2.027400
-3.605750
-2.746957
-1.747369
-2.716044
-4.708204
-7.206132
-9.537289
-9.259857
-6.171216
-2.506669
-0.245649
-0.007961
0.675748
3.785950
6.163086
6.209845
6.914855
8.093942
5.975015
0.822519
-2.180398
-0.980530
0.885124
1.378943
3.049770
7.282948
9.625016
6.617423
2.254102
0.643541
0.914219
1.075276
0.485603
-0.852721
-3.580024
-7.003506
-8.611469
-8.171422
-5.949367
-1.666833
1.407521
1.844711
1.567539
-0.054712
-3.276613
-5.608809
-4.699362
-1.005202
2.727404
3.834795
3.120953
4.261334
6.672240
6.972013
4.576693
1.588323
0.569514
1.610404
2.871577
3.205639
2.296452
0.093360
-2.320923
-3.928886
-4.737283
-4.706631
-4.413612
-5.286172
-7.073895
-7.586936
-7.587196
-8.280516
-6.650472
-2.217013
1.015799
1.367785
0.858120
0.722262
-1.357699
-5.442290
-7.085062
-5.675561
-3.898748
-2.930073
-3.685219
-5.564639
-6.105216
-3.946285
-0.126397
4.071193
7.966933
11.090123
13.353481
13.452713
11.010375
7.717037
4.819067
2.475181
-0.166399
-2.336500
-2.424561
-1.146243
0.464318
1.330125
1.113739
1.947594
3.858447
3.993267
1.862131
-0.382264
-1.603692
-2.633152
-4.123181
-5.246417
-4.246830
-1.617978
0.404835
2.218275
4.661652
6.695635
6.647838
4.767898
4.074578
5.167681
5.199373
2.722227
-0.487206
-1.806307
-1.567060
-2.648214
-5.056263
-6.060525
-4.921962
-3.465184
-3.690922
-3.829637
-0.764376
2.573902
2.097748
-0.021179
-1.239231
-1.013492
0.364058
-0.400959
-4.681674
-10.063286
-12.910862
-11.262894
-8.080477
-5.609824
-2.936552
-0.273671
0.984386
-0.756838
-3.750144
-2.705097
1.910719
4.539051
4.117188
3.629344
5.780223
9.461654
10.349541
7.984874
6.025185
6.378470
7.225054
4.761415
-0.656045
-3.936914
-4.795706
-6.355612
-7.816287
-7.517554
-6.318724
-5.164835
-2.838353
0.506678
2.335964
2.797832
3.923926
5.955831
7.306884
6.530958
4.769732
3.952242
3.950164
4.094076
4.311502
3.561552
2.049703
1.174545
-0.197289
-1.638741
-2.326606
-4.662699
-8.208791
-10.303819
-10.481240
-9.121095
-5.542532
-0.299376
2.369220
0.276530
-2.735738
-2.538055
-0.768775
-1.352214
-3.270859
-2.675731
0.049755
2.494950
4.423468
5.013920
4.962486
6.376144
6.940620
3.561819
-1.093222
-3.738699
-5.033901
-4.674382
-1.575351
3.664948
7.600432
6.897760
3.773272
1.987887
1.676426
1.312751
0.766719
-1.214011
-4.572291
-6.115312
-4.991296
-2.202947
-0.786172
-1.795890
-0.745648
3.355568
6.074819
4.923268
1.329119
-1.134260
0.668270
5.146929
7.989570
7.030507
4.193062
3.382586
3.823932
3.607286
3.512211
2.892925
1.826318
1.528624
2.169731
3.702362
4.924571
5.205120
5.370853
4.298791
1.647080
-1.192443
-4.443958
-7.304262
-7.621179
-4.726325
-0.376771
2.866432
4.199302
3.636645
3.156594
4.321393
4.118255
2.170515
1.014289
0.756599
0.629313
0.216282
-0.171291
-1.322842
-3.370593
-4.681381
-3.371112
-0.332866
1.728912
3.447018
4.055654
2.298065
-0.693942
-3.687248
-5.171301
-5.204292
-4.240553
-2.342948
-0.332084
1.459795
3.937722
6.234330
4.720143
0.107704
-2.667136
-3.156799
-4.592276
-6.807577
-7.525055
-6.946552
-5.373657
-3.939478
-2.865078
-1.029817
-0.119590
1.147039
3.049839
2.119091
-1.304390
-4.087544
-3.720751
-0.724848
2.418864
3.734589
3.327533
3.007499
4.351798
7.013900
8.892022
8.846563
5.761040
1.286798
-0.799398
-0.311034
-0.340648
-2.999372
-5.094920
-5.158822
-5.833699
-6.055541
-3.884920
-1.037863
0.972481
1.898294
1.648917
0.682841
-1.555060
-4.617204
-5.905653
-4.926587
-4.482384
-4.963733
-4.253268
-1.350881
1.400062
-1.080981
-7.338531
-10.817602
-8.585416
-4.147541
-2.790253
-4.268592
-4.366784
-0.815497
3.167265
3.890200
2.718127
1.980906
1.860634
1.926615
1.257973
0.961837
2.411602
3.325207
4.257774
7.313424
9.636529
9.596525
6.894419
2.527720
-0.388954
-2.905585
-3.467463
-0.861990
0.775587
1.667370
3.018943
3.993852
4.766662
5.101244
5.029288
5.042017
4.064511
2.538634
2.822820
2.953484
-0.890562
-8.090029
-13.483850
-13.383580
-10.908251
-10.067382
-9.668118
-7.850262
-5.359347
-3.157035
-0.714956
2.047936
2.559939
0.438414
-2.052240
-3.725405
-2.494365
0.266189
0.316324
-2.310708
-5.854722
-6.537392
-1.750648
4.168424
6.829227
5.261788
1.664522
-0.208664
-0.688456
-3.293668
-6.803392
-5.542738
-1.271893
1.199799
1.521392
1.191746
2.965961
6.820918
10.690681
12.202270
11.931333
11.508171
8.437195
2.762305
-1.794024
-2.077690
1.476714
5.536887
8.762426
11.438555
14.151572
16.402721
15.648874
12.134215
8.149375
4.949554
3.066237
1.381902
-1.880783
-7.297464
-11.981079
-13.806468
-12.647643
-10.784328
-10.057497
-8.234705
-6.860792
-6.184616
-4.309091
-2.562931
-1.705957
-1.036534
0.691442
3.328347
5.770165
7.644651
9.643305
11.507920
10.289868
5.826796
2.279925
0.031114
-2.037418
-5.248149
-10.651581
-14.683439
-15.417543
-14.039993
-12.969230
-11.934834
-9.893317
-6.967811
-1.808300
4.907480
12.329830
16.421434
13.908180
8.973109
5.387533
1.474649
-5.910293
-13.853736
-18.487996
-20.816555
-19.522131
-13.781260
-6.828312
-0.267873
2.226679
1.012524
2.354485
5.134522
6.679362
8.186536
9.015715
8.309147
7.858190
6.488694
2.386439
-2.640070
-6.114726
-6.254741
-5.744037
-5.760402
-5.393090
-6.080435
-6.160703
-4.560013
-0.637517
5.958770
9.958157
9.363808
7.143832
4.447701
1.525312
-0.747657
-1.736334
-0.634917
1.938863
3.450973
5.318704
7.099414
6.110218
5.259218
5.966826
7.186956
7.804685
4.630581
-1.484096
-4.090867
-1.721264
1.254118
3.777244
6.605857
7.052399
3.843486
2.084078
3.106005
0.731207
-6.968314
-14.101021
-15.081905
-13.145594
-11.521785
-7.695143
-4.860556
-6.380717
-9.000996
-6.706466
-0.929746
-0.784016
-4.963682
-8.745643
-11.126416
-11.009260
-10.074875
-10.486866
-11.937670
-11.300199
-6.132636
1.905363
9.436555
16.342486
21.177546
21.356267
19.619199
19.172918
19.126160
17.490661
12.598192
5.823705
0.384944
-5.010435
-10.491278
-13.984897
-13.202995
-6.928820
-0.487615
3.166281
5.598488
5.241827
1.054109
-5.323713
-10.668178
-10.269954
-5.297995
-0.954675
1.859651
4.944655
11.473662
19.671678
22.737199
19.471657
13.378281
6.856548
0.066734
-6.197569
-9.776391
-12.460833
-16.666995
-20.620403
-19.358190
-12.635396
-5.583736
-0.161600
0.650175
-1.812424
-4.451147
-4.961590
-1.312370
2.665976
5.792543
5.994902
5.175075
7.289326
10.977252
13.447385
10.464470
4.480716
-0.340316
-1.478619
0.695898
2.151118
0.969175
-1.839436
-1.972437
1.465592
5.632789
7.266470
5.982437
3.944039
2.490118
2.311138
4.057818
6.927214
8.051490
7.931478
7.232183
5.833333
2.542333
-2.389101
-7.618749
-11.741265
-10.659851
-6.054166
-1.335221
1.805113
4.420197
8.941458
12.245706
12.405724
8.241904
-0.014040
-6.994523
-9.052664
-5.877001
-2.459754
-1.028173
-0.626831
-1.396523
-1.141431
-2.735367
-8.120875
-14.556625
-20.244503
-22.887901
-22.061579
-21.541524
-18.471586
-12.699803
-8.457273
0.237680
12.767845
25.691300
35.765360
38.739963
37.374882
33.913215
29.020746
19.271657
6.592125
-4.307737
-14.388551
-22.347320
-28.846973
-33.031574
-35.299348
-37.189160
-35.976303
-33.841270
-31.906778
-29.432488
-24.733286
-17.302365
-11.560455
-8.827956
-7.221550
-5.241599
-5.642161
-8.294911
-9.319175
-7.520023
-4.332150
-0.449139
6.160656
13.086329
16.552153
18.597046
22.209119
24.076071
21.566973
17.817743
14.911979
13.139843
11.766970
9.906512
9.349829
7.830187
5.091714
5.514097
8.634170
12.561861
14.537656
14.845741
13.016715
7.949942
1.545624
-3.336454
-5.809185
-8.745081
-9.961315
-8.340622
-5.855682
-4.273435
-3.614924
-1.459369
0.671507
3.048644
8.927972
16.238101
20.152544
21.126154
20.727930
18.116224
13.384551
6.407445
0.460318
-0.110391
2.075816
2.396110
-1.448196
-8.811057
-16.679687
-21.618914
-21.878162
-20.592311
-20.219804
-20.261366
-19.968867
-17.968394
-16.345104
-17.674077
-18.530012
-13.884062
-2.471418
11.502538
22.136917
28.280429
31.392968
30.735236
26.260734
18.996065
10.607120
2.761349
-5.427575
-12.637693
-15.810498
-14.744410
-11.368466
-7.618716
-5.246515
-4.504618
-5.245995
-7.416875
-10.873347
-15.576445
-17.864740
-17.310395
-15.621384
-11.488216
-4.493965
3.180619
8.138290
14.245954
22.991820
30.153362
34.887113
35.324823
32.876250
29.541610
25.080356
20.189965
16.566463
14.478968
8.439624
-1.900958
-11.609264
-18.348943
-20.346818
-17.269087
-12.299207
-9.133675
-8.486073
-10.916721
-16.580181
-23.320120
-27.304440
-26.586181
-23.686392
-20.944022
-16.936582
-11.483273
-7.776125
-7.409852
-8.987942
-9.871153
-8.715705
-5.694863
-2.166435
-1.180616
-2.424384
-1.495714
1.202496
2.833319
3.843817
4.345429
3.152834
0.431766
-0.798755
0.659842
1.019881
0.894413
4.706508
7.897757
8.514186
11.929875
16.617907
19.418725
19.008032
15.027349
12.075606
13.202739
15.326862
15.118528
14.152971
13.274176
12.341870
12.479287
12.194322
9.729384
4.415312
-0.739262
-4.058317
-5.989951
-6.644826
-6.206597
-5.469635
-8.317990
-13.089667
-15.530186
-14.981816
-13.418273
-12.522593
-9.579941
-2.638163
5.507900
12.819328
17.230447
18.378362
18.231074
14.165966
8.139090
4.189060
2.029090
0.755967
-1.495181
-5.012179
-8.621135
-10.016348
-8.873369
-7.356064
-7.297616
-8.597235
-7.745975
-4.905672
-2.349296
-0.732240
-1.058768
-1.501413
-3.627093
-7.777405
-8.690489
-6.489735
-4.020641
-1.070456
3.044268
7.736976
12.194074
14.954628
17.282408
20.344293
22.735457
23.202001
20.214929
13.644360
5.669225
1.478649
1.275771
0.373857
-2.630359
-4.988532
-5.305189
-5.303630
-5.418447
-5.591193
-5.656135
-6.711831
-9.001945
-11.792112
-13.889997
-14.423041
-13.240058
-8.694379
-2.929349
-0.009557
0.427113
0.196959
1.973512
4.967597
4.677697
2.418755
1.356045
2.443174
3.177538
0.968212
-2.133937
-2.562034
0.693898
2.854388
1.780248
1.772714
2.033262
0.581159
0.376722
1.308250
2.121584
1.433459
-1.317483
-5.191921
-9.007133
-9.554723
-8.062876
-7.577889
-5.260239
0.538560
5.913938
7.088869
5.752103
6.964960
9.541598
9.824746
9.214551
10.052303
10.731336
7.869473
3.261450
0.935229
1.827012
3.386919
3.183261
2.867384
3.037012
0.646368
-2.719704
-2.936091
-3.287816
-5.892249
-6.720649
-4.226876
-0.766508
-0.738972
-4.521193
-7.362534
-7.353702
-5.068783
-3.380031
-5.009296
-6.876507
-6.016415
-4.944613
-3.602911
0.850031
8.446944
16.330381
18.872730
18.119923
16.676912
12.602193
5.487410
-2.667225
-7.391104
-8.379001
-7.419159
-8.467322
-9.545619
-8.385235
-6.991320
-4.096206
-1.023931
2.766603
5.913692
5.847711
2.483457
-1.642437
-3.064147
-2.812172
-1.383188
-1.177452
-1.504759
-0.214491
1.815076
5.584308
7.714925
6.677932
3.746451
1.729353
2.703224
3.104565
2.857786
1.487770
-1.803749
-5.977700
-9.593929
-10.677420
-10.791199
-11.054343
-9.702251
-6.024976
0.474937
7.437757
10.462495
11.760555
13.029262
13.020950
9.994913
3.839973
-3.581857
-10.004358
-13.769694
-16.328668
-17.289030
-16.830279
-13.081308
-6.343188
-2.574215
-2.777873
-3.909941
-2.261194
3.102235
7.343206
8.599184
8.604380
7.234624
5.860452
5.178821
4.587849
2.593871
0.661717
0.538847
1.471934
4.140270
5.628221
5.794992
6.472727
5.643288
2.506851
-1.260823
-3.092187
-3.769142
-4.838346
-6.038474
-8.096095
-10.982376
-12.009499
-8.897219
-3.477161
1.230354
5.087648
9.428890
13.365153
14.400848
14.119520
14.123936
11.537687
5.795257
0.590807
-0.455538
2.028104
3.526705
1.828602
-0.166415
-0.636855
-0.980527
-2.842544
-6.593073
-9.174646
-9.057490
-7.889574
-6.032233
-3.567035
-1.296403
0.647440
3.068997
4.834640
2.968987
-1.674105
-4.289708
-3.253493
-0.702052
1.828088
5.421457
10.758130
15.457592
18.065402
17.447414
15.678655
16.111428
17.670036
18.616891
17.108159
12.685610
6.751732
1.658722
-3.288818
-9.809772
-14.300379
-14.161144
-12.416802
-12.471613
-14.428704
-17.181205
-18.756437
-17.733990
-14.801730
-11.731792
-9.963032
-9.582472
-8.028280
-3.798739
-0.187704
0.636280
-0.363307
-1.726829
-2.999691
-3.746524
-3.271408
-2.198826
-0.928041
0.638879
2.623247
5.517581
8.628302
9.462157
6.608347
2.353869
-1.117930
-4.497770
-7.352879
-8.953049
-9.212297
-8.711205
-8.757703
-9.481416
-9.493105
-6.912311
-3.658977
-1.956977
-2.373385
-3.181263
-1.462378
1.065164
2.209182
0.723050
-2.574444
-4.528418
-3.126970
0.379638
4.405781
8.522583
11.237937
14.024728
16.964782
17.929560
17.374436
16.764241
15.897396
13.325694
10.632940
8.916394
6.778764
3.211891
-1.056096
-3.962120
-5.984413
-8.339988
-9.889244
-9.184493
-7.082711
-5.644375
-4.820391
-3.495575
-1.083110
1.340525
2.102685
1.259478
1.314289
3.296059
4.258500
3.202024
1.729399
1.137389
0.511088
