EVENT_NAME: 202010301151
EVENT_ID: 10614
EVENT_DATE_YYYYMMDD: 2020/10/30
EVENT_TIME_HHMMSS: 11:51:24.00000
EVENT_LATITUDE_DEGREE: 37.879
EVENT_LONGITUDE_DEGREE: 26.703
EVENT_DEPTH_KM: 16.54
HYPOCENTER_REFERENCE: AFAD
MAGNITUDE_W: 6.6
MAGNITUDE_W_REFERENCE: AFAD
MAGNITUDE_L: 
MAGNITUDE_L_REFERENCE: 
FOCAL_MECHANISM: 
NETWORK: TK
STATION_CODE: 3534
STATION_NAME: 
STATION_LATITUDE_DEGREE: 38.66241
STATION_LONGITUDE_DEGREE: 26.75856
STATION_ELEVATION_M: 13.0
LOCATION: -_-_-
SENSOR_DEPTH_M: 
VS30_M/S: 328
SITE_CLASSIFICATION_EC8: C
MORPHOLOGIC_CLASSIFICATION: 
EPICENTRAL_DISTANCE_KM: 87.25
EARTHQUAKE_BACKAZIMUTH_DEGREE: 
DATE_TIME_FIRST_SAMPLE_YYYYMMDD_HHMMSS: 2020/10/30 11:51:16.5998310
DATE_TIME_FIRST_SAMPLE_PRECISION: millisecond
SAMPLING_INTERVAL_S: 0.01
NDATA: 11251
DURATION_S: 
STREAM: HNN
UNITS: cm/s^2
INSTRUMENT: sensor = GMS+/GEOSIG | digitizer = 
INSTRUMENT_ANALOG/DIGITAL: 
INSTRUMENTAL_FREQUENCY_HZ: 
INSTRUMENTAL_DAMPING: 
FULL_SCALE_G: 
N_BIT_DIGITAL_CONVERTER: 
PGA_CM/S^2: 73.259
TIME_PGA_S: 
BASELINE_CORRECTION: BASELINE REMOVED
FILTER_TYPE: BUTTERWORTH
FILTER_ORDER: 
LOW_CUT_FREQUENCY_HZ: 
HIGH_CUT_FREQUENCY_HZ: 
LATE/NORMAL_TRIGGERED: 
DATABASE_VERSION: 
HEADER_FORMAT: DYNA 1.2
DATA_TYPE: Acceleration
PROCESSING: Manual Paolucci et al., 2011
DATA_TIMESTAMP_YYYYMMDD_HHMMSS: 
DATA_LICENSE: U (unknown license)
DATA_CITATION: Turkish Accelerometric Archive v 1.0 - Disaster And Emergency Management Presidency, Earthquake Department
DATA_CREATOR: AFAD
ORIGINAL_DATA_MEDIATOR_CITATION: : AFAD - Disaster And Emergency Management Presidency
ORIGINAL_DATA_MEDIATOR: AFAD PROCESS SERVICE
ORIGINAL_DATA_CREATOR_CITATION: AFAD PROCESS SERVICE
ORIGINAL_DATA_CREATOR: network: TK
USER1: GuestUser
USER2: 
USER3: 
USER4: 
USER5: 
[...]
6.755327
7.583986
7.400330
6.484387
5.082679
3.193127
1.553731
0.840408
1.059911
1.494502
1.657116
1.293441
0.085519
-1.304759
-1.213322
1.341236
5.220090
7.995709
8.114163
6.442816
4.877194
3.816041
2.430439
0.531535
-1.280087
-2.644649
-3.665278
-4.483807
-5.141020
-5.873047
-6.371022
-5.789922
-4.466665
-3.718534
-3.996746
-4.582783
-4.612917
-3.787634
-2.601535
-1.701959
-1.168136
-0.530926
0.938580
2.999059
4.757168
6.096011
6.982079
7.071439
5.884299
3.811610
1.791134
-0.546777
-3.616975
-7.169822
-10.109875
-10.918014
-8.939103
-4.260943
1.864644
8.162457
13.827476
17.846604
20.003717
20.972650
21.406462
21.233197
19.594580
15.948477
10.703502
4.832746
-0.749927
-5.659281
-9.522810
-11.787207
-12.572486
-12.876935
-12.878234
-11.737854
-9.542556
-7.069566
-4.606706
-1.887456
0.855173
2.714591
3.372323
3.124764
2.236097
0.929464
-0.109868
-0.450425
-0.176370
1.258587
3.500124
4.684406
3.520905
0.387324
-3.194357
-6.330016
-8.461413
-8.784564
-7.701333
-6.836046
-7.452736
-9.141748
-10.169910
-9.120448
-6.122986
-2.389862
1.285334
4.688293
7.569119
9.548550
10.344738
10.362402
10.533329
11.005067
10.823748
9.076549
5.937772
2.161525
-1.659402
-4.579713
-5.527607
-4.688557
-3.512328
-2.904732
-3.146057
-4.289816
-5.431496
-5.484230
-4.470096
-3.051504
-1.076749
1.432869
3.131490
2.854058
1.292332
0.300538
0.808903
2.824702
5.655132
8.107081
9.106408
8.035644
5.375100
1.870831
-1.861256
-4.786763
-6.122490
-5.722448
-3.808219
-1.445110
0.090897
0.299490
-0.655417
-1.326918
-0.585281
0.527564
0.964233
0.991508
1.104507
1.432593
1.638589
1.559099
1.381158
1.152301
1.191266
1.626637
2.045122
2.118116
1.851334
1.295171
-0.305260
-3.160630
-5.635180
-6.549563
-6.053147
-4.595330
-2.665515
-0.639845
1.002927
2.248253
3.473838
4.428225
4.320161
2.608290
-0.349429
-3.725633
-6.549830
-7.560588
-5.958080
-2.778002
-0.378526
0.085159
-0.805326
-2.324189
-3.973197
-4.933299
-4.470134
-3.065829
-1.820242
-0.263454
2.352149
5.064126
7.164608
8.834136
9.692149
8.982982
6.933673
4.902027
3.441352
2.035487
1.185526
2.280187
5.180496
7.852728
9.021423
9.368213
9.372109
8.386289
6.025517
2.254985
-2.960895
-8.795803
-13.465132
-15.705371
-15.983843
-15.844608
-15.796551
-14.918017
-12.176686
-7.094587
-0.535967
5.589360
9.460681
10.547029
10.184393
9.791104
9.761749
9.749280
8.914385
6.893650
4.306101
1.933380
0.126694
-1.224100
-2.296682
-3.082481
-3.506422
-2.960910
-0.722491
3.015829
7.040153
9.989298
10.863416
9.466124
7.233418
5.443617
3.743955
1.491766
-1.177610
-3.588516
-5.826677
-8.459945
-11.141010
-13.312671
-14.906348
-15.764362
-15.103253
-12.510250
-8.993772
-5.752908
-3.401230
-1.950686
-0.601452
1.980121
6.017434
9.728478
11.434373
11.350467
10.915875
10.837425
11.072254
11.686865
12.598130
13.401072
13.700064
13.642655
12.991676
10.618696
6.462408
2.017519
-1.825748
-4.996996
-7.126054
-8.175517
-8.982357
-9.997530
-10.785927
-11.116352
-11.394304
-11.665762
-10.872172
-8.751427
-6.323117
-4.184968
-1.961874
0.954799
4.204236
6.992324
8.473520
8.158941
6.677744
4.683505
2.192330
-0.785131
-3.244614
-3.419438
-0.808511
3.554550
7.986970
10.658163
11.044437
9.789757
8.081263
6.959325
6.132743
4.969242
3.300752
1.524198
0.152623
-0.461988
-0.125589
0.709045
1.590437
2.117505
1.890467
0.608512
-1.736673
-4.387605
-6.776951
-9.001345
-11.118194
-12.776553
-13.845239
-14.775728
-15.510872
-15.211360
-13.743931
-11.841132
-9.659082
-6.657204
-2.989022
0.440693
3.554791
6.812280
10.120164
12.797851
14.042399
13.812763
12.761482
11.814368
11.247034
9.902215
7.037494
3.440487
0.211311
-2.205570
-4.095902
-6.149368
-8.967331
-12.368473
-15.657655
-17.729045
-17.631892
-15.896124
-13.423393
-10.063556
-5.627759
-0.912193
3.028746
5.565379
6.337669
5.281452
3.546461
3.258118
5.087404
7.555458
9.042889
9.029640
7.435703
4.032743
-0.740493
-4.883532
-6.393304
-5.439956
-3.446758
-1.835418
-1.670725
-2.624853
-3.336099
-2.741490
-1.015853
0.930068
2.620897
3.974547
5.226368
6.288299
6.750945
6.607033
5.923583
5.240913
5.133888
4.884510
3.012362
-0.740246
-4.792626
-7.327702
-7.136773
-4.498830
-1.046775
1.905487
3.526178
3.265111
1.324644
-1.430455
-4.153603
-6.024971
-6.794404
-6.866361
-6.915198
-7.618650
-8.619796
-9.023736
-8.292489
-6.602440
-4.765621
-3.200001
-2.103781
-2.013901
-2.982836
-4.385843
-5.634029
-6.625564
-7.676066
-8.684485
-9.117519
-8.939319
-8.569150
-8.200800
-7.861543
-7.699189
-7.191603
-5.298934
-2.062746
1.366709
3.977377
5.329208
4.659006
1.650634
-1.755704
-2.901021
-0.993546
2.505528
5.729767
7.813624
8.686444
8.901271
8.943613
8.690858
7.798295
6.158639
3.687726
-0.000719
-4.652903
-8.693074
-10.511190
-9.235730
-5.330120
-0.969397
2.255881
4.088543
4.886550
5.400890
6.353718
8.182743
10.221661
11.478678
11.562063
10.358038
7.696455
3.824354
-0.152953
-3.457721
-5.377926
-5.130888
-2.761285
0.532571
3.053619
4.730160
6.574252
8.745392
10.548960
11.477890
11.303065
9.023601
4.382067
-0.983959
-5.695890
-9.508764
-12.661049
-14.924927
-15.379261
-14.453449
-12.967577
-10.443932
-6.868227
-3.110165
0.134595
3.305322
6.886482
10.390751
12.998560
13.778383
12.487336
9.794062
6.833746
4.542852
2.726554
0.884539
-0.892014
-2.713767
-4.455771
-5.624987
-5.712270
-5.003104
-4.783341
-5.057656
-5.398732
-6.099067
-7.217369
-8.140844
-8.257480
-7.907574
-7.150091
-5.628111
-3.379041
0.087302
5.446313
11.671911
16.300195
17.613062
16.486188
14.864976
13.219865
11.034177
7.762400
3.651831
-0.410160
-3.351773
-5.064943
-6.428205
-8.381920
-11.560961
-14.559462
-15.820636
-14.739483
-11.669806
-8.033055
-4.538918
-1.750569
0.573054
3.378547
7.308316
12.169353
16.884659
20.635967
22.440055
21.216288
17.456147
13.119840
9.132662
5.806073
3.182676
0.967375
-1.112068
-3.576487
-5.829714
-7.414039
-8.672616
-9.431398
-9.182541
-8.299331
-7.320526
-5.805300
-3.735729
-1.992428
-1.670576
-2.418968
-2.848884
-2.968378
-3.730278
-5.404482
-7.347028
-8.967980
-10.204216
-10.767653
-10.337478
-8.924601
-6.744369
-3.807434
-0.361873
2.545190
4.240954
4.223549
3.163696
1.874207
0.293519
-0.778284
-1.039871
-0.496178
0.330663
0.724471
0.576922
-1.053642
-4.417377
-9.243866
-14.961098
-20.562475
-25.749002
-29.996208
-33.079913
-33.831163
-30.804607
-24.037653
-15.738328
-8.511845
-2.375348
3.280578
9.570339
15.884777
20.891543
23.178280
21.371853
16.939692
11.375722
6.428442
2.842605
0.888110
0.757446
1.531035
3.545794
6.627940
9.341215
10.026483
8.229148
5.071928
1.944841
-0.054853
-1.086132
-2.020518
-3.219607
-4.028265
-3.218309
-1.111073
1.422443
3.661383
4.852938
5.087248
4.479130
3.954918
4.794488
6.598056
7.519192
6.887176
4.441980
-0.538291
-7.042880
-13.299131
-17.685573
-20.141939
-21.198935
-20.965405
-20.652385
-20.661477
-19.725014
-16.004359
-9.249614
-0.559858
8.158992
15.318195
20.876968
24.972988
28.746117
31.809560
33.886923
35.585545
35.562165
33.137491
28.083446
21.116989
13.626580
6.321646
0.159431
-4.746027
-9.728117
-14.771252
-18.864415
-21.501060
-22.530262
-22.355178
-20.487448
-17.732350
-15.351577
-13.273175
-11.653003
-10.416768
-9.637724
-8.779971
-6.498690
-3.334457
-0.615727
1.927141
4.560668
7.543063
10.820814
13.148334
14.475747
15.035547
14.457303
13.496680
11.247869
7.205100
2.678124
-1.375035
-2.767132
-1.066952
3.051928
7.896859
11.288129
13.429655
14.152588
12.986490
8.601866
2.333925
-1.949648
-3.029764
-1.634811
1.215622
5.863130
11.463206
16.246312
19.795781
23.309401
27.280992
29.301207
27.655317
22.865975
16.316965
9.019824
2.450812
-1.193213
-0.407156
3.750429
8.382091
11.706860
12.623580
11.341885
9.782757
9.181394
9.402456
10.009014
9.454149
6.186527
1.022081
-4.932060
-10.529800
-14.148108
-16.143646
-16.461602
-14.949234
-13.304384
-11.357683
-10.026893
-11.400806
-16.351464
-24.463757
-32.954791
-40.295054
-45.517949
-47.926517
-47.031358
-42.961834
-37.532685
-31.312542
-24.231269
-15.691919
-5.504341
5.284859
16.216153
27.432671
37.203581
42.866781
44.017812
42.552461
40.043102
34.837872
25.206456
12.299367
-0.506413
-10.522026
-17.254691
-22.054943
-26.504508
-29.898377
-31.189944
-30.411679
-29.609776
-30.350635
-31.823000
-32.909870
-32.793235
-31.295673
-28.404716
-24.350519
-19.735223
-15.238381
-10.266164
-3.455049
4.730757
12.218567
16.704758
17.223514
15.323311
12.919159
11.938015
12.484046
13.030598
14.264235
16.112743
18.386231
20.160186
19.996012
17.865395
13.413751
8.004344
2.367379
-3.101775
-7.399117
-10.352159
-11.042363
-8.308826
-1.651754
8.506471
19.812869
28.171681
32.533183
34.294669
34.490274
34.069449
31.579054
24.627144
12.628463
-3.496891
-19.081149
-29.105074
-32.690132
-29.546680
-22.278115
-13.967620
-5.887539
-0.128485
3.080947
2.325542
-3.110882
-11.073029
-19.539906
-26.131517
-29.253149
-26.999663
-19.578353
-9.970578
-0.100696
7.689744
12.767946
15.782812
17.779128
20.443827
22.822261
22.813429
17.662490
6.953557
-5.438672
-14.894225
-18.920109
-17.226683
-9.824336
0.990061
12.577529
23.112676
31.180548
36.482151
38.250650
36.893102
33.005675
26.696171
18.721295
9.871261
1.779490
-4.318043
-8.393283
-9.930330
-9.081929
-6.580104
-3.582903
-0.864951
2.010679
4.560820
6.559734
8.225365
8.443829
5.776272
0.623515
-5.246202
-11.520117
-18.555412
-25.682146
-31.643820
-33.503499
-31.344828
-28.629735
-28.152282
-32.496381
-40.351764
-47.249642
-49.768352
-46.885708
-39.131376
-29.191357
-18.521131
-7.154726
2.903228
12.318516
21.027754
28.316582
35.677365
44.002407
52.931409
59.886695
61.708187
56.662195
46.725032
35.389538
25.394448
18.217579
13.892183
12.239538
11.361782
10.322710
10.119051
11.543618
14.538222
17.213571
17.963001
15.297522
8.596808
-0.012161
-9.652929
-19.652955
-27.743168
-31.353423
-30.381632
-27.296369
-24.628033
-24.660505
-26.901004
-30.334097
-33.004512
-33.028152
-29.058898
-20.575917
-10.284952
-0.465725
7.321078
13.831121
18.203534
18.337314
14.423130
7.737223
0.691537
-6.386100
-13.305539
-20.545531
-28.232324
-35.335679
-39.594834
-37.971805
-30.312548
-17.733807
-4.445379
5.405280
8.237009
2.652518
-7.715340
-17.456897
-21.143264
-15.762432
-1.069180
17.335377
34.802691
47.858627
54.026296
56.045211
55.218629
52.274159
47.545084
41.877727
35.550559
28.260431
21.234747
14.329336
8.475206
5.484497
5.489951
7.899039
12.408609
17.059234
19.890444
18.381451
9.333994
-1.066595
-9.765963
-19.082021
-27.531233
-36.543362
-44.473558
-52.090993
-58.857688
-63.466231
-68.475597
-70.060701
-67.797863
-61.601100
-52.010209
-41.192174
-28.712664
-16.263287
-3.246317
9.636093
23.398338
38.910898
52.704055
61.487327
59.801953
46.985522
27.237185
7.964223
-5.032487
-12.022063
-12.778507
-11.543311
-11.294195
-11.284843
-10.514372
-6.984906
-0.911533
8.779369
20.880917
32.264466
41.641828
47.001619
49.210165
50.377042
48.633220
43.495529
33.659156
20.691801
8.508165
-2.037374
-8.273104
-13.044002
-19.132962
-26.193195
-32.727139
-37.301392
-40.428999
-41.365463
-39.544230
-35.220394
-30.319613
-25.147114
-21.439707
-19.586264
-20.640402
-25.529495
-31.193216
-36.053214
-38.565430
-39.887130
-39.327850
-35.223518
-27.269424
-15.585324
-1.839704
12.623134
25.265778
34.318690
37.513315
35.480111
31.391623
26.950371
24.151630
22.303121
20.289660
17.835891
14.451374
12.109306
13.904302
21.472120
33.405079
45.532604
53.952201
56.597158
54.114555
49.965801
46.876380
45.910563
46.315800
46.184097
43.915803
37.606040
26.480699
10.237670
-8.812412
-26.480008
-41.692538
-54.183479
-64.388982
-71.459346
-71.943034
-64.791364
-51.237454
-35.997649
-22.406592
-10.793148
-3.006605
1.028110
1.838585
0.549096
-1.571130
-3.978400
-6.147203
-7.900897
-8.711113
-8.520444
-7.623726
-7.214332
-7.895444
-10.249202
-12.356959
-11.191901
-6.210851
2.800497
12.304366
19.549553
24.261223
25.893344
25.248080
22.327768
18.388907
14.391338
9.163508
3.003371
-2.499034
-6.188778
-8.034690
-9.699023
-12.263972
-16.106460
-21.421832
-25.898413
-28.505185
-28.283603
-24.430206
-18.683881
-11.798213
-5.818875
-1.457892
3.438473
10.454284
20.037123
31.794218
44.438421
55.140340
61.631160
62.603211
59.485736
54.361553
47.153253
38.038255
26.627689
13.389655
-0.242706
-13.495287
-26.190146
-38.673554
-49.314428
-56.925368
-61.202448
-63.301373
-65.696694
-66.271041
-62.684946
-53.782699
-39.351293
-21.518226
-2.924038
13.721110
27.987564
40.362908
52.728639
64.834603
72.455934
72.000300
62.671514
50.070172
38.628953
29.657088
24.269241
19.421191
11.718812
-0.500931
-15.309522
-29.760412
-42.273953
-51.524289
-57.757681
-61.572633
-63.063442
-61.829805
-57.481550
-50.941114
-44.236504
-37.613202
-30.150590
-19.112012
-4.083399
12.502263
29.121954
42.867833
52.514314
56.912185
54.996655
48.579348
40.826834
35.011409
31.894713
29.985678
26.804299
20.840806
11.034307
-3.525166
-21.252769
-39.892676
-55.208334
-63.856269
-66.420178
-64.636093
-61.834756
-58.513104
-54.041720
-49.581505
-44.435503
-37.218631
-26.486839
-11.273791
7.862792
28.773849
48.267613
62.844749
70.999123
73.258584
71.735045
69.226985
65.482170
58.523766
47.004357
32.663349
18.833823
6.983990
-3.075264
-11.356666
-17.510309
-21.609188
-23.659017
-23.443410
-19.467662
-13.105427
-7.936306
-5.551117
-7.085307
-9.066298
-6.252752
1.788623
13.304914
24.905889
35.132952
41.391540
41.881202
38.308613
30.994847
23.667572
16.562399
8.072664
-1.374057
-11.798025
-19.833167
-24.675242
-28.042614
-30.525996
-32.343852
-32.457371
-30.410920
-27.214217
-23.020004
-18.925543
-16.114075
-14.537284
-13.439506
-10.348787
-5.482036
-1.844506
-1.515641
-5.549577
-13.054273
-20.777174
-25.691464
-26.679622
-24.463802
-20.743147
-16.503995
-12.819966
-10.902880
-10.530113
-10.472965
-9.435452
-6.453577
-1.038715
5.859422
10.862551
11.342602
8.802590
6.062818
5.026603
6.696391
11.272462
19.311239
29.267104
38.348071
44.297275
45.381546
42.074959
35.407236
27.229221
19.405271
12.679099
7.431267
3.691908
-0.741292
-6.757258
-12.898952
-18.125743
-20.954616
-22.817153
-24.313936
-27.155538
-31.843830
-35.921407
-38.658323
-39.304886
-39.017843
-36.396785
-31.481457
-25.495106
-17.903389
-9.282211
-0.075517
8.861278
18.175776
27.762511
38.490406
49.874215
58.953623
62.650380
56.186054
40.327742
22.367387
8.996612
1.588030
-1.533342
-2.817116
-4.035947
-5.159184
-7.561519
-9.666419
-9.295471
-6.622719
-2.960771
-1.653879
-1.536465
-1.266307
-1.142398
0.016426
1.722841
3.403539
4.554570
4.355587
3.337816
2.783731
3.280666
4.485729
5.495187
7.115878
9.599259
12.200834
13.444343
11.338663
6.129277
-1.422437
-9.706437
-16.679907
-21.328714
-23.345034
-22.973047
-20.603184
-16.051012
-9.926984
-3.234843
2.903992
7.683202
11.172664
13.788007
17.566590
22.688434
28.434500
34.412279
39.567892
43.244907
43.514285
39.520873
32.899388
25.908772
18.913482
10.566099
-0.089063
-13.419054
-28.372855
-43.136246
-55.059854
-60.731887
-58.613480
-50.909544
-42.860895
-39.336104
-41.380219
-46.273987
-49.550960
-47.525810
-39.469628
-27.352494
-14.355526
-2.281254
8.884091
19.923967
31.945766
43.001748
49.418795
48.824705
42.135680
33.630618
25.353373
18.884112
14.540532
10.485554
5.480085
-1.507932
-8.891316
-15.162115
-20.604513
-26.280702
-31.362283
-33.125069
-30.957046
-26.557358
-22.188841
-18.410777
-16.006106
-14.853776
-12.930455
-8.090199
-0.668371
6.145341
11.752951
17.087025
23.161178
30.422990
38.092377
44.927390
49.764528
52.480921
52.327138
49.419815
44.054827
34.831507
20.997825
3.742480
-14.452964
-30.171002
-40.696280
-45.662783
-46.554047
-45.973986
-45.192605
-44.119764
-41.619758
-36.397904
-28.893469
-20.555438
-12.695641
-5.113535
2.418955
10.085225
18.305321
25.664805
30.232564
30.938612
28.043239
23.822009
20.012252
16.787233
14.078632
11.839952
10.700090
11.030514
11.963600
11.645383
8.784559
2.233471
-7.820328
-18.563810
-26.996916
-29.709154
-26.967823
-21.426455
-14.822895
-8.494689
-1.466928
6.582240
15.289920
23.791085
30.719095
34.892785
35.116445
30.943792
23.484556
15.398759
7.912247
0.394303
-8.225836
-16.225390
-20.719636
-21.756110
-21.000965
-20.170228
-19.281822
-18.088189
-16.859747
-15.394137
-13.986975
-12.216138
-9.213221
-3.949804
3.307072
10.428869
15.743980
17.474294
16.448989
14.319151
10.252484
3.901158
-4.027220
-12.136655
-18.762816
-23.459161
-25.579127
-24.245739
-20.100103
-14.517691
-9.114779
-4.870691
-3.297797
-4.087752
-5.577002
-6.583083
-6.400207
-5.388412
-2.532524
1.506607
5.592236
9.027926
11.402464
13.350204
15.475884
17.924456
20.117676
22.449093
24.625947
26.787995
29.098371
30.180563
29.783377
26.782538
18.839613
6.884574
-7.860634
-23.179149
-36.692277
-47.770600
-54.429491
-57.594504
-57.113934
-52.550332
-44.288673
-31.994897
-17.864042
-4.487293
5.515849
11.381928
14.103256
16.954988
20.955413
25.547590
30.659043
34.711422
38.545856
41.717362
43.344288
42.417695
38.052814
30.348616
20.396387
11.672600
5.099173
0.869371
-1.290080
-2.184981
-2.686594
-4.961382
-8.662556
-12.859107
-16.806801
-20.232621
-23.495566
-25.327191
-25.048460
-22.538323
-18.494517
-14.300044
-9.842168
-4.082334
2.426930
9.958900
18.289657
24.580976
28.330206
27.655848
22.219424
15.051907
6.982476
-0.388440
-5.720696
-9.904519
-13.129798
-15.918927
-19.333317
-22.816806
-26.621367
-30.090568
-32.068702
-31.344989
-26.278735
-17.528194
-6.310896
4.981735
14.117253
20.447017
23.694635
23.789450
20.426234
14.792127
9.364276
3.959284
-1.755091
-6.869663
-10.569018
-12.633654
-14.377737
-14.445277
-11.437165
-5.377299
2.959172
11.579311
18.280543
20.910953
20.355828
18.317429
16.026015
13.134278
8.743680
3.769384
-1.143868
-4.971808
-6.911236
-7.201917
-6.413782
-5.920223
-6.655627
-7.921476
-8.605965
-8.361524
-7.974211
-7.924855
-8.810665
-9.838567
-9.414366
-6.864485
-1.354029
4.296702
7.581208
7.787463
5.224852
2.384549
0.818667
2.737312
7.996573
14.147617
18.688620
19.785619
17.995558
15.175517
13.654315
12.596020
9.706361
4.839349
-0.555772
-4.830513
-7.546907
-8.794833
-9.010960
-9.232023
-10.290318
-11.856460
-12.751620
-11.596953
-8.203345
-2.880960
3.722080
9.571014
13.266472
13.541565
10.328755
5.877112
2.231528
-0.313159
-2.121664
-3.272177
-3.928870
-3.392190
-1.484455
1.282592
3.575303
3.009268
-0.879718
-6.674881
-12.301455
-16.257721
-19.123221
-20.053451
-18.195331
-13.963972
-6.689172
1.052691
6.781352
9.349417
8.103830
5.773711
5.076233
7.085797
10.325103
12.571056
12.271543
9.450982
6.311167
3.554769
0.810580
-2.387683
-6.809973
-11.624772
-15.605976
-18.334319
-18.969971
-18.372246
-17.868297
-16.364761
-12.655275
-7.672667
-3.513783
-1.860621
-3.476638
-6.466047
