EVENT_NAME: 202010301151
EVENT_ID: 10614
EVENT_DATE_YYYYMMDD: 2020/10/30
EVENT_TIME_HHMMSS: 11:51:24.00000
EVENT_LATITUDE_DEGREE: 37.879
EVENT_LONGITUDE_DEGREE: 26.703
EVENT_DEPTH_KM: 16.54
HYPOCENTER_REFERENCE: AFAD
MAGNITUDE_W: 6.6
MAGNITUDE_W_REFERENCE: AFAD
MAGNITUDE_L: 
MAGNITUDE_L_REFERENCE: 
FOCAL_MECHANISM: 
NETWORK: TK
STATION_CODE: 3534
STATION_NAME: 
STATION_LATITUDE_DEGREE: 38.66241
STATION_LONGITUDE_DEGREE: 26.75856
STATION_ELEVATION_M: 13.0
LOCATION: -_-_-
SENSOR_DEPTH_M: 
VS30_M/S: 328
SITE_CLASSIFICATION_EC8: C
MORPHOLOGIC_CLASSIFICATION: 
EPICENTRAL_DISTANCE_KM: 87.25
EARTHQUAKE_BACKAZIMUTH_DEGREE: 
DATE_TIME_FIRST_SAMPLE_YYYYMMDD_HHMMSS: 2020/10/30 11:51:16.5998310
DATE_TIME_FIRST_SAMPLE_PRECISION: millisecond
SAMPLING_INTERVAL_S: 0.01
NDATA: 11251
DURATION_S: 
STREAM: HNE
UNITS: cm/s^2
INSTRUMENT: sensor = GMS+/GEOSIG | digitizer = 
INSTRUMENT_ANALOG/DIGITAL: 
INSTRUMENTAL_FREQUENCY_HZ: 
INSTRUMENTAL_DAMPING: 
FULL_SCALE_G: 
N_BIT_DIGITAL_CONVERTER: 
PGA_CM/S^2: 93.255
TIME_PGA_S: 
BASELINE_CORRECTION: BASELINE REMOVED
FILTER_TYPE: BUTTERWORTH
FILTER_ORDER: 
LOW_CUT_FREQUENCY_HZ: 
HIGH_CUT_FREQUENCY_HZ: 
LATE/NORMAL_TRIGGERED: 
DATABASE_VERSION: 
HEADER_FORMAT: DYNA 1.2
DATA_TYPE: Acceleration
PROCESSING: Manual Paolucci et al., 2011
DATA_TIMESTAMP_YYYYMMDD_HHMMSS: 
DATA_LICENSE: U (unknown license)
DATA_CITATION: Turkish Accelerometric Archive v 1.0 - Disaster And Emergency Management Presidency, Earthquake Department
DATA_CREATOR: AFAD
ORIGINAL_DATA_MEDIATOR_CITATION: : AFAD - Disaster And Emergency Management Presidency
ORIGINAL_DATA_MEDIATOR: AFAD PROCESS SERVICE
ORIGINAL_DATA_CREATOR_CITATION: AFAD PROCESS SERVICE
ORIGINAL_DATA_CREATOR: network: TK
USER1: GuestUser
USER2: 
USER3: 
USER4: 
USER5: 
[...]
-5.608828
-3.936963
-1.466832
0.978621
3.095987
5.093601
6.370618
6.156048
4.947865
3.895284
3.093119
1.873766
0.545571
-0.315042
-0.863155
-1.605314
-2.867008
-4.428215
-5.760307
-6.432069
-6.246597
-4.912171
-2.606732
-0.418709
1.200682
2.370935
2.595113
1.616045
0.194074
-0.749665
-1.125551
-0.890203
-0.028035
0.343950
-0.490166
-1.682763
-2.268022
-2.612216
-3.273328
-3.291254
-2.185164
-0.921135
0.200801
1.671345
2.923944
2.830426
1.934225
1.660947
2.568314
4.299925
6.468726
8.806635
10.455900
10.526814
8.730258
5.540565
1.804062
-1.849576
-4.788592
-6.645935
-7.782681
-8.691611
-9.403377
-9.394547
-8.017259
-5.243459
-1.658924
1.484006
2.540481
1.263460
-0.770525
-2.528896
-3.895018
-4.217911
-3.016227
-0.678057
2.228744
5.369596
8.087546
9.501201
9.633161
8.790472
6.838314
4.371036
2.536294
1.270702
-0.753671
-3.735809
-6.250884
-7.589989
-8.356566
-9.108077
-9.012484
-6.827578
-3.033150
0.533202
2.744864
3.698730
3.757436
3.373497
2.969815
3.376610
4.791824
5.945711
6.237948
5.950123
5.472928
4.656215
3.469594
2.473641
1.353520
0.202227
-0.529282
-0.808794
-0.901793
-1.606285
-2.725108
-4.060576
-5.812713
-7.291833
-7.542511
-5.947278
-3.036321
0.306111
3.682832
6.317137
7.426084
6.797963
5.074661
3.402533
1.959520
0.412341
-0.975342
-1.676717
-1.313563
-0.829098
-1.600351
-3.342357
-5.454531
-7.446953
-8.458751
-7.778681
-5.156066
-1.383458
2.529424
5.250491
5.910560
5.254644
3.336256
0.260861
-2.305388
-3.043650
-2.205121
-0.907323
0.670246
2.916717
5.406850
7.632800
9.726527
12.070152
13.772149
13.279627
10.952884
7.664740
3.329990
-1.579885
-5.573559
-7.626507
-8.422957
-9.165636
-10.328359
-11.726172
-12.908637
-13.717557
-14.290087
-14.436338
-13.360381
-10.674903
-7.394555
-4.566724
-1.866178
1.327926
4.720753
7.151660
8.389452
8.930546
8.241900
6.608737
5.337691
4.924658
5.140783
5.341062
5.097917
4.625657
4.278086
3.542421
1.590263
-1.120157
-3.614711
-5.056165
-4.875108
-3.089206
0.317649
3.993103
5.344674
4.291832
3.062608
2.579178
2.197577
1.434377
0.480508
-0.686632
-2.828940
-5.538581
-7.301628
-7.597505
-6.952503
-5.590282
-3.216265
-0.730548
0.541014
0.263061
-1.256064
-3.094444
-4.100527
-3.379932
-1.791453
-0.926688
-0.222459
1.048584
1.733070
0.902330
-0.329751
-0.590820
-0.462756
-1.129322
-2.213596
-2.084233
-0.190007
2.397279
4.733111
6.378998
6.974125
6.134813
4.015364
2.157242
2.062165
3.329051
4.624772
5.090274
4.411758
3.300469
3.378658
5.046885
6.658483
6.107254
3.126675
0.015952
-1.522136
-2.313131
-3.316097
-4.017472
-4.616239
-6.316422
-8.558741
-10.129040
-11.001342
-11.753113
-12.161989
-11.195914
-9.312859
-7.590859
-5.844181
-3.237672
0.630530
5.148672
9.207284
11.461288
11.751707
10.454164
7.181866
3.090259
-0.323872
-2.066917
-2.017044
-1.315412
-0.039954
1.460724
2.929190
4.120743
3.991897
2.783454
0.850519
-1.744305
-4.951141
-7.785471
-7.834829
-5.068303
-1.647680
1.635784
5.296172
9.014488
11.335513
11.687496
10.795192
9.330618
7.634851
6.241454
5.213291
3.782227
1.796819
-0.329903
-2.347003
-3.812615
-4.367741
-4.548282
-5.514620
-6.719945
-6.438359
-4.787016
-2.770440
-1.015190
0.477695
1.894467
2.810407
3.578019
3.926106
2.977172
1.121648
-1.325628
-3.929803
-5.940409
-6.225896
-4.482076
-2.378737
-0.804285
0.535076
2.000945
3.213540
2.950652
1.617262
0.457916
-0.657270
-1.672965
-2.230428
-2.421620
-2.135097
-1.233705
0.445693
2.048199
2.497076
2.087940
0.974053
-0.983560
-3.164833
-4.051942
-3.078594
-1.380233
0.347482
2.122214
3.784467
4.876010
5.074211
4.196193
1.701900
-1.824452
-4.012998
-3.939226
-2.596747
-0.438338
2.054913
3.680019
3.718982
3.496879
4.742464
6.640067
7.064266
5.405386
3.115530
1.022838
-1.297931
-3.390104
-4.525811
-4.572831
-4.174349
-4.000046
-3.391932
-1.871252
-0.125094
0.808250
0.070767
-1.947891
-3.494292
-3.939536
-3.975905
-3.299991
-0.730628
4.143395
9.207309
11.908114
12.038776
10.337294
7.303203
3.571894
0.234654
-2.384069
-5.164626
-7.752696
-8.265220
-6.289687
-3.031420
-0.087472
1.600498
2.456951
1.857405
-0.706507
-3.430954
-4.789283
-5.238683
-6.119298
-7.151878
-7.314495
-7.050832
-6.643778
-5.855903
-4.841252
-3.928429
-3.074834
-1.930038
-1.160868
-1.224253
-1.021636
0.808947
4.410627
8.553144
12.036111
13.515227
11.696071
6.707745
0.457987
-4.763350
-7.987592
-9.256560
-9.140446
-8.694426
-8.599613
-7.859795
-6.057528
-4.229023
-2.246996
0.563691
3.484000
4.339154
2.656895
0.713570
-0.383432
-1.733448
-3.459088
-3.799126
-1.998417
0.523148
2.956652
5.858518
8.369952
8.842468
7.164625
4.511354
2.531401
1.766902
1.690788
1.844049
1.815473
1.034089
-1.217582
-3.713953
-4.207774
-3.108178
-2.026247
-0.932886
0.450636
1.457755
1.801945
2.077297
3.315090
5.747555
8.325230
9.957609
10.314269
9.364555
7.277058
5.276584
4.635475
5.297881
6.265514
6.608146
5.907031
3.436116
-0.507942
-4.183920
-7.346596
-10.071304
-11.394044
-10.995822
-9.800112
-8.928073
-7.666642
-5.668509
-3.998203
-2.888736
-1.636137
0.128984
0.992711
0.975304
1.382618
1.352483
-0.205866
-2.844071
-4.601143
-4.473859
-3.383615
-2.154135
-0.527990
1.768876
3.848056
5.479917
7.045536
7.955501
7.825615
7.199053
6.287785
4.845812
3.002756
1.376867
0.109198
-1.470713
-3.293766
-4.883288
-6.822717
-9.571324
-11.957294
-12.521512
-10.990441
-8.215083
-5.264900
-2.319394
0.316989
1.830135
2.077432
2.036127
3.099875
5.560135
8.189504
8.973482
7.623466
5.452324
3.277285
1.541514
0.012258
-1.334900
-3.377977
-6.598841
-8.474887
-7.402827
-3.941941
-0.048281
2.706296
4.860030
6.521244
7.446015
8.014386
8.898114
9.745735
8.958117
6.411090
3.374401
1.119094
-0.245468
-1.352082
-1.975267
-1.977087
-1.297017
-0.372245
-0.103647
0.163393
1.413134
3.045254
3.279823
1.811093
0.131692
-1.775007
-4.034990
-5.620875
-6.311859
-6.524352
-6.810618
-7.273526
-7.815144
-8.338059
-8.100633
-6.926224
-5.674145
-4.890686
-4.507271
-4.225944
-3.920979
-3.714985
-3.018549
-0.998855
1.189428
1.674153
1.011483
0.809642
1.236179
1.696485
2.406689
4.059590
6.148382
7.350846
8.375888
10.792767
12.846750
12.188756
9.621468
6.790515
3.855136
0.302548
-3.476298
-6.192693
-7.642460
-8.987540
-10.252612
-11.020488
-10.573689
-8.672449
-6.990714
-5.579397
-3.597889
-1.756396
-1.124383
-1.763933
-2.327631
-1.705229
-0.060121
2.282464
5.401496
9.204496
12.946451
15.434506
16.472537
16.413308
15.306955
12.896566
9.100056
5.079106
2.092293
0.734744
0.468220
0.288199
-0.088207
-1.166246
-2.744597
-3.369601
-1.876717
1.685479
5.402496
7.646370
9.322390
11.233241
12.634947
12.657805
10.982560
7.842483
3.177049
-2.183783
-6.073290
-7.781266
-8.171440
-8.338732
-8.689940
-8.650198
-8.013249
-7.061721
-5.973295
-4.390012
-2.358888
-1.018228
-0.656113
-0.646764
-0.478176
-0.090864
0.422435
1.374743
2.109365
1.787770
0.927936
0.096417
-0.484686
-0.545473
0.176420
1.462789
1.797368
-0.668351
-5.733828
-11.028679
-14.035235
-14.034977
-11.850591
-8.764030
-6.215968
-4.932977
-5.461087
-7.050868
-8.142935
-8.995495
-10.512801
-12.966831
-15.023415
-14.995622
-11.895554
-5.514356
2.769900
11.091564
17.159481
19.160731
17.025437
12.959547
9.937146
8.374120
6.959422
5.193778
3.581656
1.847443
-0.685556
-3.315967
-5.428922
-7.228076
-8.225587
-7.561622
-5.201113
-2.702927
-1.516309
-1.222773
-0.874426
0.427529
3.357709
8.411752
14.093914
17.263340
17.212164
15.363913
13.221865
10.964999
8.531751
6.881444
5.749893
3.586544
-0.115411
-4.147790
-7.193571
-8.585929
-8.161730
-6.441809
-3.831922
-0.167898
4.027872
7.422777
9.733151
11.110698
10.709355
7.766182
4.143717
2.322222
1.504731
0.281741
-1.247514
-2.207878
-2.426865
-2.885617
-3.531661
-4.040808
-4.635679
-5.121707
-5.114695
-4.524244
-3.216574
-0.970363
0.396274
-0.763332
-2.943566
-4.744279
-5.875311
-6.604481
-7.674207
-9.006819
-9.458038
-7.992429
-5.412676
-3.138929
-1.584479
-0.355000
0.875519
1.619233
1.875881
2.097981
2.008099
1.392707
0.733414
0.013595
-0.968329
-1.555407
-1.950775
-2.747745
-3.212992
-2.622541
-1.877528
-2.150287
-2.695801
-2.400967
-1.805061
-2.337587
-3.993350
-5.519748
-6.859893
-8.517733
-9.505633
-8.297194
-4.836828
-0.464416
2.988417
5.171245
6.865710
9.002039
13.284311
19.194030
23.816858
24.623175
20.804325
14.263627
7.476668
2.491720
0.319279
-0.072713
0.196665
0.244979
-1.054382
-4.285637
-8.717020
-12.992542
-15.910517
-16.982061
-16.477854
-14.265153
-10.853882
-6.446142
-0.242886
7.546773
15.413583
20.762462
21.622292
18.269985
12.891488
7.929659
4.081975
1.119320
-0.961683
-2.459247
-3.682496
-5.466324
-8.661731
-12.028845
-13.104546
-11.943385
-11.143562
-12.081586
-13.747220
-14.888642
-15.799130
-16.081760
-14.649921
-11.638953
-7.778024
-3.067135
3.437972
11.526883
20.256902
28.848724
35.573075
39.040715
39.019672
35.644765
30.084690
23.431252
16.682220
10.785227
5.360231
-0.316999
-6.268024
-11.506246
-15.983868
-19.676730
-21.590443
-21.843199
-21.657986
-21.733061
-21.633572
-21.110661
-20.104582
-17.710043
-13.266455
-8.123311
-3.816101
-0.486398
3.103853
8.002035
13.694067
19.654181
24.187908
24.793945
20.902100
13.636389
4.458267
-4.847401
-11.360045
-14.068647
-14.667414
-14.824835
-16.369417
-20.013184
-23.320551
-23.468880
-21.372035
-19.017761
-16.382157
-12.833989
-8.036077
-2.122982
4.297700
9.929466
12.890819
12.418039
10.277809
8.480993
7.594403
7.212023
7.386585
8.440461
9.048057
7.576210
4.273518
0.541690
-3.587842
-8.211453
-12.622575
-15.820320
-16.095156
-12.571406
-6.208652
0.763257
6.734800
11.371396
15.009444
17.580105
18.365122
18.888033
19.660581
18.825425
16.854304
13.711889
9.230112
3.357017
-4.091311
-9.779971
-12.044370
-13.298271
-15.568645
-18.656248
-20.797777
-20.338509
-16.932954
-11.284302
-5.292757
-0.834881
2.175307
3.950300
4.907023
6.168454
8.804837
12.057129
13.746398
13.607420
13.198544
13.694699
13.072552
10.519292
8.068379
6.679398
6.544317
7.028523
7.917706
8.343464
6.477809
1.820947
-4.452450
-10.400878
-14.445206
-16.059926
-16.277353
-15.933422
-15.048655
-14.102322
-14.429372
-17.066538
-21.567019
-25.851633
-28.144087
-27.349978
-23.066147
-17.545042
-12.189149
-6.169289
0.661307
6.579078
10.614051
13.485524
15.176351
15.540284
14.377561
12.239669
9.304290
5.145403
-0.560661
-7.167081
-12.192553
-14.584238
-14.768675
-14.358244
-13.544133
-10.923076
-7.661173
-6.111399
-6.328047
-5.651614
-1.977718
4.555963
12.349259
19.477808
24.463532
26.860928
25.764186
21.728949
17.390303
13.643928
9.934700
5.737628
1.024657
-4.858309
-10.402538
-14.631302
-18.801618
-22.402004
-24.180117
-21.961701
-16.605288
-10.937673
-5.825443
-2.390014
-1.688383
-4.817289
-11.663475
-19.850063
-26.919389
-29.950623
-27.593231
-20.807315
-11.549968
-3.487033
1.430632
2.874680
2.405537
2.722452
4.628107
8.985193
15.193904
20.060135
20.306912
15.784870
8.925956
1.544389
-4.447940
-6.512577
-3.262622
3.303270
8.623834
11.437898
14.367559
18.512934
23.100693
27.336986
31.863960
36.421846
39.577505
40.559945
38.423612
33.241240
23.736330
10.339317
-3.136925
-13.746888
-18.845096
-17.435337
-10.364456
-0.258187
8.299346
12.593048
12.284701
9.302824
6.633446
5.528392
5.876739
6.417054
7.201032
7.264153
5.563711
2.219716
-4.375793
-12.650183
-21.250321
-29.595628
-34.153777
-33.066131
-27.768426
-21.609590
-18.072332
-17.082099
-16.231880
-15.159560
-12.084689
-5.910267
2.221246
10.587330
16.720708
20.420581
19.512950
12.637670
2.191621
-9.253756
-18.475259
-24.801649
-26.114778
-19.792288
-8.647727
3.305752
11.102165
13.980911
13.234076
10.206739
10.524693
15.151677
20.742660
24.842056
27.417134
28.923786
29.262002
28.884037
27.581039
25.755908
22.554267
15.933560
4.965896
-8.660492
-20.103271
-27.179871
-31.817509
-35.362824
-39.146346
-43.258214
-46.923541
-49.361725
-48.566058
-44.035967
-38.227818
-34.176739
-31.715180
-28.483149
-21.901931
-12.925393
-3.551929
7.402742
19.619886
30.944207
38.355643
42.561024
46.394677
49.570338
50.606811
47.531936
41.691312
35.453762
29.136984
22.676814
16.140271
10.892178
6.372994
1.391682
-2.793701
-5.154214
-4.298280
-1.677744
0.916557
4.171447
7.337756
10.874754
13.291114
12.687931
7.917031
-1.148612
-11.185527
-19.884117
-25.407045
-26.490019
-22.844958
-15.607566
-6.584788
1.165905
4.304419
2.808933
-1.927677
-7.956632
-15.424443
-24.213432
-31.918930
-36.998694
-37.454848
-33.055421
-26.234956
-20.221590
-18.683766
-22.960327
-31.027422
-39.976949
-46.844695
-49.367823
-45.292326
-34.222317
-18.804314
-1.605082
13.740447
27.145249
39.437725
49.897538
58.066978
61.452531
60.189538
55.711916
48.638174
39.611237
29.376119
17.894894
5.345764
-5.624498
-15.085247
-24.409879
-30.276479
-33.321221
-35.926695
-36.776658
-36.022034
-30.585613
-19.861096
-7.444451
6.135435
18.149699
27.027786
33.191817
33.150512
28.372079
21.194949
11.501188
1.998096
-5.682464
-7.248087
-1.562549
9.877369
24.631665
36.874006
44.919536
46.205126
41.364608
35.667636
32.489374
32.877985
32.926040
30.572800
23.829483
10.795885
-6.310874
-27.025289
-48.547064
-67.198403
-81.013642
-89.818218
-93.254690
-90.062404
-82.904241
-72.717963
-61.378835
-51.561688
-42.479943
-31.555145
-15.464603
5.167982
27.173700
46.538098
59.264906
65.758323
68.423021
68.965414
67.015075
62.591225
57.324169
50.133791
41.039833
28.593571
12.849295
-4.033284
-20.280991
-33.256660
-41.058791
-41.728995
-37.555825
-30.040481
-21.022120
-10.724402
-0.887252
3.793504
2.823269
-3.318946
-9.296467
-11.734391
-9.819124
-5.284098
-2.582253
-2.090255
-3.472222
-5.023298
-4.573902
0.163224
7.811829
13.621017
16.051664
14.988691
12.690263
11.414281
10.248700
9.118188
7.808956
4.914101
0.298542
-5.080994
-9.578358
-11.668972
-12.626478
-13.841675
-13.981432
-12.904955
-10.791226
-6.356989
0.024208
6.200448
9.536646
8.152081
3.282729
-2.144344
-7.056558
-10.269109
-9.485651
-5.165453
0.070947
2.869165
1.839183
0.129129
0.995713
5.087316
10.832861
15.258785
16.756605
15.412563
11.937906
8.317259
6.424328
6.976852
9.252677
12.174804
15.018482
17.625251
20.691290
22.028314
20.164217
15.932336
7.863163
-2.758749
-11.287452
-13.378845
-7.798513
1.488708
11.078039
19.124349
25.267079
28.561194
26.979465
22.624454
15.950754
5.728105
-7.789180
-22.924820
-37.910833
-53.168564
-65.093732
-71.646120
-74.454992
-72.059415
-65.701856
-58.070396
-49.387396
-39.421921
-27.163994
-13.277842
1.099532
16.229453
31.708502
46.086654
56.984696
62.740892
64.053497
61.803126
55.599866
46.120673
32.898483
17.329551
4.071773
-5.352089
-10.605378
-13.352945
-15.149502
-15.788014
-17.927984
-21.163395
-23.493775
-23.682369
-19.151758
-10.555260
-0.121943
9.306332
16.600873
21.899877
25.229061
27.318632
28.774889
31.233850
33.271468
34.343009
36.592077
39.545637
42.539980
43.443450
40.102054
32.775817
22.062466
10.158859
-1.436403
-11.491762
-20.367514
-29.306390
-37.635851
-44.948320
-49.775849
-51.439924
-50.449171
-47.932281
-45.701137
-43.068131
-37.913038
-30.596677
-21.812367
-13.777747
-7.427722
-0.058367
9.455371
20.975297
31.066760
39.074883
47.019104
55.015798
62.832992
67.095522
66.305566
60.030350
48.135055
32.833684
14.851767
-3.412518
-19.130038
-31.932182
-41.980007
-49.784996
-54.674870
-56.452463
-56.556372
-56.298685
-55.153889
-51.592733
-44.293776
-32.749431
-19.059923
-5.643172
4.909638
10.721164
11.757117
11.904923
15.511799
21.969368
28.951927
33.286933
34.408089
33.292903
31.854307
30.360380
27.611513
25.023963
21.543331
16.372908
9.639982
1.595746
-6.987507
-16.978443
-28.732165
-40.598885
-49.167851
-51.008049
-46.213514
-39.493060
-34.845554
-32.263723
-30.349235
-26.856138
-20.699120
-11.488791
0.640811
14.550342
29.196575
41.237336
50.966162
59.495380
65.542776
69.556448
70.566683
66.474038
57.873380
46.645169
32.141285
15.099988
-2.397202
-18.710110
-32.498853
-42.670588
-47.631378
-47.627743
-44.370515
-39.839125
-36.047814
-33.166990
-29.154876
-23.023316
-16.221555
-11.131404
-9.014038
-9.319007
-10.034410
-9.688141
-7.147093
-1.447527
6.453052
15.273470
23.072481
30.194276
37.047991
40.119225
39.065605
37.216575
36.736522
36.733922
34.479394
27.839465
16.064443
0.278604
-17.677856
-33.975957
-44.513964
-48.594661
-46.225319
-37.445685
-23.911518
-8.418442
5.473945
14.059533
17.054655
15.174712
9.652304
3.062510
-2.822535
-5.957676
-6.944536
-6.250698
-4.889256
-2.514200
-0.508274
-0.850390
-0.392161
2.305786
9.942442
19.068607
25.170813
27.895517
25.874001
20.223267
11.084370
0.883801
-8.276397
-15.809409
-22.337379
-28.868466
-33.147105
-34.661554
-33.163474
-29.094212
-25.308356
-23.358800
-21.665374
-18.518028
-15.400815
-12.418941
-9.721513
-7.464911
-4.941267
-3.010154
-0.407022
3.200373
7.181315
10.648176
13.644597
17.055348
20.104761
23.044553
26.566225
31.209834
36.425972
40.632652
42.240873
39.843993
33.818674
27.245504
20.965873
14.542849
6.433412
-3.617790
-12.110385
-17.670199
-18.864355
-17.042084
-14.409858
-11.769839
-10.784281
-11.286414
-13.749536
-17.384470
-18.763580
-18.204042
-16.294749
-12.176650
-6.753737
-0.011722
6.831602
14.452671
22.799013
29.402831
33.239341
33.116989
30.221094
24.953778
18.249945
11.894461
6.323736
2.075230
-1.905975
-5.557015
-8.380175
-10.452346
-11.738199
-13.118088
-14.467584
-15.016736
-14.746579
-13.739201
-13.018087
-13.982088
-16.754852
-20.358095
-23.552203
-26.238725
-27.326895
-24.706358
-19.509183
-13.540238
-8.000689
-3.108222
3.228296
10.802866
18.926067
27.653748
35.842410
41.147129
39.839456
31.454665
18.721878
4.306055
-9.384755
-21.013268
-29.704585
-35.237904
-38.911284
-41.529487
-42.734552
-41.780686
-38.897524
-35.209601
-30.141011
-24.224019
-18.192729
-11.690480
-6.208340
-0.741786
6.083615
13.311915
20.653474
28.463654
36.575166
43.352509
47.648809
47.624908
42.203550
32.130007
18.835603
5.376765
-4.996030
-9.463780
-8.225209
-4.166857
-0.079410
0.941476
-2.544352
-8.531745
-13.936738
-16.584814
-16.478051
-14.387181
-11.834703
-10.606782
-10.386501
-10.483656
-8.394345
-2.477093
6.337350
17.436712
28.797400
38.373743
45.257591
48.430654
47.310793
41.849690
32.759369
21.115270
8.038291
-4.902829
-16.373923
-25.242661
-31.460988
-34.060228
-32.442655
-28.230779
-23.614965
-22.204947
-24.266727
-28.071030
-31.738435
-33.427708
-32.182642
-27.317451
-20.465035
-12.637450
-5.634628
0.100266
5.925560
12.951501
20.825325
27.322119
33.118578
38.821262
44.423674
47.678824
46.490124
41.361524
33.177015
24.878467
16.328203
6.546640
-3.579115
-12.863742
-19.714344
-24.666562
-28.369295
-32.169183
-36.474578
-39.579326
-39.748437
-35.499935
-28.220200
-19.640327
-9.718493
1.570239
12.515819
21.004253
24.669577
23.246826
19.625399
16.253090
