EVENT_NAME: 202010301151
EVENT_ID: 10614
EVENT_DATE_YYYYMMDD: 2020/10/30
EVENT_TIME_HHMMSS: 11:51:24.00000
EVENT_LATITUDE_DEGREE: 37.879
EVENT_LONGITUDE_DEGREE: 26.703
EVENT_DEPTH_KM: 16.54
HYPOCENTER_REFERENCE: AFAD
MAGNITUDE_W: 6.6
MAGNITUDE_W_REFERENCE: AFAD
MAGNITUDE_L: 
MAGNITUDE_L_REFERENCE: 
FOCAL_MECHANISM: 
NETWORK: TK
STATION_CODE: 3512
STATION_NAME: 
STATION_LATITUDE_DEGREE: 38.4009
STATION_LONGITUDE_DEGREE: 27.1516
STATION_ELEVATION_M: 79.0
LOCATION: -_-_-
SENSOR_DEPTH_M: 
VS30_M/S: 468
SITE_CLASSIFICATION_EC8: B
MORPHOLOGIC_CLASSIFICATION: 
EPICENTRAL_DISTANCE_KM: 70.05
EARTHQUAKE_BACKAZIMUTH_DEGREE: 
DATE_TIME_FIRST_SAMPLE_YYYYMMDD_HHMMSS: 2020/10/30 11:51:10.6769200
DATE_TIME_FIRST_SAMPLE_PRECISION: millisecond
SAMPLING_INTERVAL_S: 0.01
NDATA: 10501
DURATION_S: 
STREAM: HNE
UNITS: cm/s^2
INSTRUMENT: sensor = CMG-5T/GURALP | digitizer = 
INSTRUMENT_ANALOG/DIGITAL: 
INSTRUMENTAL_FREQUENCY_HZ: 
INSTRUMENTAL_DAMPING: 
FULL_SCALE_G: 
N_BIT_DIGITAL_CONVERTER: 
PGA_CM/S^2: 59.568
TIME_PGA_S: 
BASELINE_CORRECTION: BASELINE REMOVED
FILTER_TYPE: BUTTERWORTH
FILTER_ORDER: 
LOW_CUT_FREQUENCY_HZ: 
HIGH_CUT_FREQUENCY_HZ: 
LATE/NORMAL_TRIGGERED: 
DATABASE_VERSION: 
HEADER_FORMAT: DYNA 1.2
DATA_TYPE: Acceleration
PROCESSING: Manual Paolucci et al., 2011
DATA_TIMESTAMP_YYYYMMDD_HHMMSS: 
DATA_LICENSE: U (unknown license)
DATA_CITATION: Turkish Accelerometric Archive v 1.0 - Disaster And Emergency Management Presidency, Earthquake Department
DATA_CREATOR: AFAD
ORIGINAL_DATA_MEDIATOR_CITATION: : AFAD - Disaster And Emergency Management Presidency
ORIGINAL_DATA_MEDIATOR: AFAD PROCESS SERVICE
ORIGINAL_DATA_CREATOR_CITATION: AFAD PROCESS SERVICE
ORIGINAL_DATA_CREATOR: network: TK
USER1: GuestUser
USER2: 
USER3: 
USER4: 
USER5: 
[...]
-0.666489
-1.036396
-0.811552
-0.265365
0.122831
-0.148372
-0.317401
0.234778
0.712218
0.543504
0.313612
0.555170
0.542555
-0.181491
-0.927613
-0.793905
0.639995
1.763274
1.709664
1.249881
0.560838
-0.105815
-0.442295
-0.511673
0.097268
1.043951
1.330919
0.616964
-0.658632
-1.057867
-0.865504
-0.796443
-0.266024
0.595199
0.918117
0.634931
0.195016
-0.073349
-0.250892
-0.678509
-1.216184
-1.222492
0.018729
1.296845
1.968857
2.496439
1.893171
0.152748
-1.281784
-1.704040
-1.065140
0.075484
0.999146
1.789414
1.306611
-0.189100
-1.104249
-1.384597
-0.584237
0.998193
2.336857
3.078561
2.439029
0.102592
-2.245827
-3.725455
-2.864548
0.606204
2.873892
2.600482
0.700491
-2.349269
-4.029775
-2.951591
-1.354024
0.271294
2.056495
1.876113
-0.053836
-1.812234
-3.388674
-4.162547
-3.326868
-1.456522
1.290815
3.741722
4.660338
3.308112
0.837967
-0.106825
-0.396949
-0.741314
-0.608552
-0.039344
0.600502
0.779620
0.803586
0.700150
0.240052
-0.248112
-0.150985
-0.061742
-0.554636
-1.360359
-1.087581
0.898498
1.894060
0.863177
-0.834674
-2.986945
-3.643191
-1.003389
2.508043
4.031818
3.525048
1.725970
-0.349356
-1.420920
-1.887640
-1.471378
0.551283
2.466093
2.973807
2.026807
-0.851718
-3.477331
-2.587411
0.740171
3.309650
4.092665
3.154495
1.103136
-0.385006
-1.243077
-2.375818
-2.361944
-1.296059
-0.352529
0.788409
1.070332
1.045734
1.765364
2.020166
1.706707
1.040369
-0.461964
-1.493162
-1.046311
0.360153
1.673274
1.034687
-0.141258
0.346905
0.568911
0.656262
0.845472
0.565754
0.401140
-1.090786
-2.204607
0.047629
3.580190
5.504460
4.244948
-0.522845
-5.089443
-6.047796
-3.829618
-0.106585
3.038094
3.157295
1.455345
-0.856809
-3.035254
-2.344006
0.270883
2.113478
1.528816
-0.796267
-2.784241
-4.490290
-5.131715
-3.094234
0.725296
3.391588
3.668780
2.794311
1.039067
-0.160845
-0.704826
-1.569204
-0.844213
1.510827
3.671926
4.720152
2.939364
-1.010723
-4.201130
-4.407370
-1.350359
2.072144
2.874396
0.480566
-1.461051
-1.606429
-1.618413
-1.783658
-2.321647
-2.361383
-1.373704
-0.000036
0.607329
0.801268
1.556848
0.958627
-1.035969
-1.281629
0.494427
2.873434
4.684494
4.296611
2.946277
2.380221
2.262594
2.601911
2.653312
1.935257
1.248737
1.305815
1.717347
1.453397
1.316219
1.294143
-0.390463
-2.403349
-2.512461
-0.895658
0.960812
1.469788
0.255686
-0.422951
1.325039
2.590857
1.494380
0.019798
-2.163693
-2.994643
1.250295
5.963845
6.747176
4.020966
-1.643054
-6.674480
-7.606343
-4.264254
2.610711
8.413168
7.191182
2.347075
-1.282300
-3.536114
-2.313815
-0.750621
-0.526092
1.859537
2.861091
0.794910
-0.200339
-0.571508
-1.821560
-3.512788
-5.306505
-4.540203
-0.115199
5.264056
7.947377
6.319534
2.054096
-2.239093
-4.791860
-3.833194
0.969285
6.282317
7.456999
4.619785
1.382706
-0.689466
-1.917759
-1.545646
1.435681
5.490463
7.671430
6.771732
5.329316
2.963867
-3.696661
-12.555502
-16.652227
-12.144601
-1.272878
6.924039
8.080746
5.610285
1.809359
-0.464007
-3.018982
-8.103071
-9.677304
-4.572088
1.227215
3.221179
-1.051828
-8.472353
-9.489676
-2.597681
3.078951
4.911139
3.371594
-2.297471
-5.207531
-8.913536
-16.829162
-19.552534
-10.429431
5.185487
17.304108
20.356704
9.415602
-7.563211
-16.749701
-15.204798
-5.668270
6.538335
11.517410
6.795028
1.256518
-3.124969
-4.353577
2.715960
10.998021
14.147431
11.640074
2.187743
-8.085446
-9.791181
-2.691685
8.529447
20.096835
19.481900
3.516625
-8.111312
-2.848736
5.106307
4.946108
4.813344
5.608027
5.888373
6.586875
3.110129
-0.100460
2.574977
2.702378
-1.328755
-0.825771
4.143844
8.176552
11.120037
8.548348
2.353278
-0.295671
-2.146152
-2.885336
-2.425239
-4.259952
-8.830335
-10.923005
-9.574880
-6.612790
-0.725819
3.376581
2.064089
1.482897
-1.203264
-9.326075
-12.512382
-13.117542
-13.130157
-2.982794
9.006533
11.204213
10.727086
6.834708
-1.661478
-8.460762
-16.545415
-21.073856
-12.940640
-2.311737
2.757529
5.456302
2.962505
-0.012832
0.016495
-4.598037
-12.524385
-16.056947
-10.474921
2.183897
16.944529
26.208593
17.285422
-0.170202
-9.822780
-9.576808
0.395220
17.877015
26.355540
16.520689
4.794047
-7.033508
-20.145487
-21.319224
-10.339966
5.250670
20.788327
18.302414
-3.774047
-16.932382
-10.970673
-2.947830
0.292400
2.406827
-0.225408
-2.091341
-0.199551
-1.066767
0.338436
3.682416
-0.543603
-5.087181
-6.279839
-8.830714
-4.217761
4.716447
4.455966
0.383522
-3.014070
-11.233063
-15.071832
-8.791303
0.145112
9.716013
10.037040
-1.964273
-6.754771
-1.820475
-2.085686
0.795675
12.971375
14.655979
5.974996
-0.805997
-9.162483
-16.822359
-14.510837
-6.380144
0.979516
10.958165
12.432115
-0.904394
-13.820224
-13.038786
-1.233938
9.854747
11.892544
4.765611
0.200905
-0.582428
-5.390901
-10.500218
-3.384640
12.598293
25.313558
28.813322
17.827439
2.871919
-3.691167
-5.226611
-0.686504
11.665792
16.850161
8.049030
-1.824610
-4.877208
-2.481488
1.472697
-0.377153
-10.498028
-15.624689
-3.896157
8.604039
7.697404
2.851405
-3.376147
-10.782481
-10.973585
-10.687562
-14.023976
-6.495919
4.487124
3.939358
4.431620
7.261894
0.080721
-6.568140
-7.174246
-10.899488
-10.906742
-4.115659
-2.451238
-1.302731
8.604019
10.598613
-2.787406
-11.055279
-9.206692
-5.793334
0.841334
2.125442
-6.511076
-5.970250
5.098568
8.501520
-0.302765
-12.055581
-15.440875
-7.959489
2.702841
8.139491
4.407627
-1.713652
-1.485654
0.708557
3.824539
8.694188
7.105449
0.686163
-0.746162
3.168289
6.792301
7.878369
6.354592
3.800248
1.926117
-0.316030
-7.362233
-15.146988
-10.522682
-0.028118
5.961657
8.737691
6.195330
2.494055
0.069951
-10.143952
-20.862733
-13.657595
2.449271
10.772012
10.078239
0.677311
-9.164163
-7.678546
-2.916432
-2.897512
-4.651495
-10.207980
-11.539077
-1.278819
7.399008
9.545286
11.864376
6.878676
-3.449700
-4.256369
1.315882
6.504981
16.034887
20.728254
12.708563
6.815598
4.367212
1.291278
5.641859
15.399763
15.069590
3.607212
-7.692130
-10.209578
0.754544
12.437666
12.596286
3.163507
-10.558045
-18.613371
-15.634567
-10.603774
-2.979219
8.369000
11.117913
6.770484
0.640376
-11.125370
-20.147562
-15.204437
-3.845496
5.796359
13.068036
12.594063
8.174418
9.996830
8.649650
0.424350
-5.583718
-7.792122
-4.232441
5.166594
8.908547
-0.619152
-8.068689
-5.248506
-1.296529
0.470381
-2.786564
-11.512957
-12.835225
-8.072480
-12.862662
-18.910149
-14.565244
-10.856402
-7.487193
-0.594568
-0.227501
2.085282
13.334166
16.086548
6.351032
-0.130693
0.216823
3.252075
7.899402
10.670074
6.867887
3.735504
4.075137
-1.510045
-8.246889
-3.894731
2.887521
-0.347981
-4.530482
-5.025584
-4.009839
1.057535
2.271319
-4.856875
-12.398810
-16.620729
-9.628138
8.148826
24.539507
27.497183
16.705872
3.448201
-7.573632
-12.134554
-4.519775
8.555937
13.249304
8.324152
3.343813
-0.912165
-8.863110
-11.179994
-0.448286
9.188208
1.044268
-14.193177
-23.043187
-20.678686
-4.109832
12.560250
10.057939
-4.640255
-12.725855
-13.405122
-7.593205
0.887843
0.837071
-1.266006
5.045428
9.480838
5.067500
-0.418661
0.116804
-0.193503
-3.157803
-2.400331
-2.408846
-2.485162
4.542433
10.055398
7.512722
2.762905
-5.744950
-9.834107
1.226512
11.310805
5.781440
-3.298462
-4.435934
-0.085668
3.257682
5.219164
5.271196
1.667995
-1.487408
-2.890720
-2.791070
-0.044680
3.668892
6.646751
10.537550
9.453057
-0.398193
-4.682868
2.312877
6.606065
3.680553
-3.760785
-10.555653
-4.689811
9.093233
12.349546
4.721520
-8.014245
-22.422947
-29.464420
-25.660657
-13.409904
2.461079
10.040854
1.541514
-7.915863
-8.487280
-4.580398
-1.807517
-1.959833
0.775836
2.763807
-3.314899
-7.887489
-4.981846
-1.594978
-1.059828
-5.457398
-11.996517
-11.378745
-1.897719
9.960422
17.117627
11.842435
-0.803455
-7.116152
-5.796724
-5.211749
-2.920725
3.549960
10.087816
12.465246
9.379220
7.792688
8.903038
10.543493
12.439697
11.531486
8.236382
5.642304
0.637368
-4.822619
-5.545405
-2.779147
1.707350
2.821169
-2.573226
-6.992240
-4.455873
3.709509
10.481985
7.333205
0.460760
-2.360370
-3.529062
-2.012856
0.207530
-0.573280
-1.510189
0.396737
1.233678
0.980135
3.273681
1.782386
-5.611334
-9.550069
-6.822914
-1.954212
3.975962
5.254079
-1.899343
-7.570932
-8.024723
-7.464030
-0.863104
10.518858
17.197675
13.511221
-1.148185
-17.668162
-18.707560
-5.887598
1.331416
0.920513
-2.419055
-8.151821
-13.727543
-10.859427
-0.618720
8.481677
10.566146
3.860837
-0.201199
1.222609
0.409949
-3.873464
-5.650468
-4.633462
-3.417785
-0.146020
6.609428
14.659707
20.837746
17.463490
3.137095
-12.921524
-22.778135
-15.642374
2.887648
19.402262
21.369421
9.016807
-6.568470
-15.429833
-9.467809
2.404524
9.024370
7.803331
0.978819
-5.964264
-5.740050
-2.436435
-2.075674
-3.624994
-2.724353
3.026071
4.927952
-1.232115
-3.920798
-4.519651
-8.754815
-3.535127
6.758558
6.040503
3.385878
3.048451
-1.290463
-0.616875
-0.889654
-7.128243
-1.845800
7.942377
3.098586
-1.947346
-1.541806
-6.293200
-2.948273
3.916601
-3.242813
-11.682236
-14.469940
-14.573691
-2.766637
11.671076
13.732524
12.489094
6.021876
-11.767704
-22.224743
-15.637693
-4.960541
6.859759
19.751621
22.763537
14.336727
3.635291
-3.849565
-9.407942
-5.542056
8.489169
20.487011
22.050205
11.806974
-2.491355
-6.514604
2.271073
6.159350
2.881591
2.232282
2.119386
-0.803919
-2.237190
-1.097197
-1.761012
-8.702834
-13.802060
-5.360115
6.788780
15.866157
16.441040
2.760484
-8.839072
-6.323203
-0.935117
3.176113
7.744601
5.573724
1.244270
1.766490
-1.661061
-8.998017
-7.715486
0.570360
6.534907
4.734252
0.195405
0.255951
3.210789
7.869152
10.561933
4.151478
-6.112251
-6.687768
0.077771
0.977151
-1.764196
-4.266507
-9.905298
-8.014770
6.135342
14.444209
7.849904
-1.598958
-10.682329
-19.371195
-17.710873
-7.851741
1.993200
6.185475
-0.439735
-11.654247
-21.427921
-22.564131
-10.846321
0.226912
4.480996
5.081739
1.282074
-1.142030
3.209812
2.077701
-5.346923
-2.439388
7.912953
15.247385
14.333497
2.574058
-7.904425
-10.531615
-10.702536
-4.814934
6.237486
10.821111
3.919339
-10.081615
-26.104598
-33.103183
-22.933116
-6.189872
-0.307631
-9.704776
-18.218938
-12.849142
-0.429676
1.174198
-11.113138
-15.546028
-6.685928
-0.107392
5.495448
16.086509
25.689891
26.743478
16.888128
3.574640
-4.818112
-6.904790
-7.090217
-8.441812
-10.419379
-9.666953
-2.690129
9.704109
19.734161
14.733009
-0.238279
-14.025424
-22.413761
-17.268180
-3.405668
6.536086
7.154488
3.937277
0.379486
-5.014278
-1.661152
10.906845
19.718696
22.543609
23.273645
22.862427
21.560342
17.136597
10.433181
6.917647
4.373710
-1.304816
-5.539350
-4.744035
-2.164465
0.407221
2.853713
6.339601
13.522980
18.409658
17.483156
13.919689
5.118558
-5.558281
-7.881473
-2.900190
2.794102
7.344615
5.535761
1.852461
5.327312
11.828902
17.288573
20.496637
17.255774
7.362583
0.095949
-1.375795
-5.421118
-10.252926
-8.630446
-4.335367
1.552550
9.393120
6.684570
-3.669034
-3.617002
2.633253
8.061704
11.493667
11.157817
11.633050
13.652557
10.769618
-0.612346
-13.500741
-15.374242
-7.891595
-6.658574
-10.029992
-11.093672
-12.463557
-12.232721
-11.125525
-14.246555
-21.759477
-27.027101
-23.241944
-13.013536
0.991830
13.295878
9.947796
1.188291
-2.459375
-14.814511
-29.718314
-32.805286
-26.782714
-15.278081
-1.901524
4.373644
1.660363
-3.552390
-8.895697
-10.033169
-4.625217
0.599833
4.246866
10.068244
15.199003
10.844005
-0.130840
-7.686020
-12.119855
-10.362721
-1.593442
1.887717
-5.726434
-10.028452
-4.188469
2.245952
5.856719
7.281474
7.288095
6.085346
1.270251
-2.624650
4.930843
18.427233
24.026919
19.945961
14.101561
8.271351
0.125519
-2.066802
5.342684
10.880246
12.536153
10.098174
1.396693
-2.886405
3.266407
14.857447
21.649159
19.204242
10.674313
-4.925470
-21.478243
-21.149333
-12.198727
-9.313898
-3.847920
4.962039
10.734853
16.171187
13.526968
-0.045423
-7.452703
-10.467774
-15.359184
-14.033450
-5.296652
3.290669
3.161375
-5.379907
-11.465867
-11.672107
-6.029849
7.470010
17.179665
12.516254
1.449957
-13.515655
-30.618400
-30.794367
-14.260832
0.108449
7.157804
7.383279
1.876935
-1.395463
-2.674212
-5.123229
-5.394747
-2.808239
5.438503
20.367217
31.014726
25.481892
15.500718
12.946059
5.953465
-3.913237
3.394706
16.541371
18.636562
17.597480
9.320777
-9.246143
-17.814229
-10.020647
-6.413663
-4.068714
2.505722
-2.648375
-8.916292
-4.652117
-4.594409
-5.101494
2.719839
10.112296
13.631612
13.772573
5.038927
-11.183990
-21.395686
-19.447448
-13.835148
-12.496484
-14.621635
-17.883311
-19.909442
-19.323206
-18.851126
-19.037500
-13.740235
-3.268376
4.954399
1.897386
-10.919740
-15.956842
-7.807228
-1.136609
-3.355104
-7.425340
-8.781351
-2.267146
14.127319
31.694259
36.607426
25.095538
8.784954
-6.374914
-14.972013
-14.560166
-15.057160
-18.699780
-18.023983
-14.670227
-16.162469
-16.090885
-7.653986
5.827582
20.436846
26.666603
17.843082
6.009536
-3.723773
-8.583332
1.565292
17.370682
25.370819
24.783320
21.913310
21.359552
23.790277
25.834381
23.080735
20.097829
18.999146
12.967742
1.215241
-10.563434
-13.249279
-1.916197
10.130524
15.967670
17.844638
9.255107
-6.759362
-25.288440
-44.459257
-59.568038
-57.444466
-36.902820
-20.209717
-12.678822
-5.329253
-1.284562
-5.652490
-10.422174
-12.374828
-13.090045
-14.091601
-11.991049
-0.245803
16.399051
27.952879
32.602413
33.343487
29.913098
23.480252
11.727436
-3.122442
-9.590922
-4.932874
-3.334991
-7.739815
-4.775201
5.987726
16.134143
18.427374
11.552092
2.721633
-5.693194
-11.198907
-11.174626
-7.985167
-2.557347
1.021885
-3.679999
-9.514308
-7.412179
-6.882075
-12.387473
-13.072101
-5.818084
1.212034
5.544956
6.225797
3.287356
0.074560
-3.595181
-5.406873
0.506903
11.208337
18.526055
19.557883
16.425185
12.873386
9.585221
6.924604
6.605783
7.948231
6.128340
4.331154
8.900273
16.290522
19.679282
15.649727
6.356964
-3.981504
-10.694065
-8.542427
-4.760108
-9.567004
-14.798677
-11.479294
-3.210477
7.091092
19.438658
30.234067
29.807396
20.925535
15.414145
9.346792
1.584742
-2.617626
-5.827900
-9.455383
-6.605557
0.072945
1.147660
2.357030
6.436409
2.861590
-5.187114
-8.181057
-9.170630
-9.009486
-1.454939
9.546709
13.186489
12.972049
13.363714
12.107355
6.806935
-6.006091
-18.641259
-16.290319
-4.474434
-2.200755
-10.157376
-17.817883
-24.451291
-33.200390
-39.699459
-38.781473
-37.066595
-32.346108
-19.009916
-8.679965
-6.165988
-4.380157
-4.209237
-4.444806
1.423560
4.401103
0.669554
2.109445
8.519583
6.558415
0.438082
-1.710090
-8.935412
-22.310078
-28.689314
-25.278163
-19.881563
-9.631081
6.370772
10.148676
-2.150328
-13.226086
-22.002935
-30.407355
-31.255334
-26.257338
-16.124166
6.337021
32.253509
45.090500
45.725616
40.867318
31.862785
23.150583
20.876271
25.432146
32.851092
38.360272
35.341101
23.465613
10.446032
-1.648309
-8.200673
-3.067706
7.570343
12.271909
15.890561
19.848845
10.671500
-5.128215
-15.440192
-25.129667
-35.544765
-37.078633
-27.108813
-12.189244
5.163257
16.404573
12.421058
4.086646
-4.319035
-20.896721
-35.524592
-35.046521
-28.848614
-21.919723
-8.516992
3.337996
9.672134
18.599719
30.944132
34.181524
30.001231
32.321267
30.851100
20.108037
13.234331
11.152068
7.697712
5.973057
5.364429
0.131809
-2.188860
2.824274
4.005577
-0.484075
-4.161699
-9.921901
-20.293795
-30.204647
-32.187574
-23.960699
-6.851333
15.248777
31.975307
29.322574
15.046950
4.045299
-10.255553
-26.312594
-30.353818
-24.714713
-18.848240
-6.553337
9.224932
15.231421
11.977629
2.090744
-12.844909
-22.791080
-23.061021
-22.094471
-21.397231
-17.306815
-11.118999
-3.458809
1.543917
4.975881
11.599196
15.051658
11.471477
7.507830
6.510059
8.867622
12.296747
12.628811
15.927696
26.590658
36.761672
32.513262
13.329516
-7.331650
-21.977811
-30.310331
-34.040934
-30.469900
-17.560694
0.471704
13.916376
11.767889
2.562163
-2.282260
-7.377702
-15.171917
-22.869635
-27.718788
-25.183367
-12.929145
7.717828
30.365703
44.724263
43.960166
28.115671
8.335281
-6.796206
-15.289554
-16.535507
-11.470025
-2.002875
13.692142
29.945015
35.397117
34.280773
27.111583
5.438456
-24.838076
-47.490368
-51.283095
-40.375421
-22.751087
4.247685
30.718245
35.758498
19.238206
-3.142253
-28.714380
-41.763288
-28.406599
-9.788594
5.478492
26.366708
37.998112
28.072440
22.179790
20.788461
8.521623
5.184893
13.756447
10.495402
-0.668970
-2.781822
-0.575312
1.392477
2.856966
-0.873953
-1.655709
4.895391
3.660791
-5.669499
-10.946583
-8.776023
-4.635781
-4.976676
-9.958277
-17.199051
-17.758800
-5.375284
8.303064
16.846866
27.150643
39.707918
45.144252
38.038763
27.398190
16.353336
3.545356
-7.938466
-16.525789
-18.180121
-10.488712
-1.953424
1.865476
6.784950
10.633177
6.343772
-1.298129
-8.560348
-19.617500
-30.162522
-34.167165
-29.081185
-16.309156
-1.204792
5.658821
-1.064778
-8.423809
-5.288591
5.336528
19.189265
29.782849
24.874095
8.858995
-7.096188
-22.665697
-31.139179
-23.163008
-13.940570
-16.727327
-19.897236
-20.512171
-20.420405
-15.450475
-8.841665
-1.966069
7.676101
11.655199
4.755949
0.875870
1.766420
-5.868543
-16.027260
-12.739727
-1.191891
7.982298
12.228814
6.801622
-0.412663
-5.092787
-10.279996
-10.726219
-5.687857
0.197852
0.058781
-5.487928
-7.311603
-6.666396
-7.384136
-3.392109
4.827828
7.820193
5.586876
4.389488
7.273687
17.582824
27.599316
24.733406
18.494501
18.288261
15.036676
6.784255
4.328932
8.223831
10.350241
10.173328
6.597247
-5.637110
-24.555961
-38.211605
-42.069925
-38.076322
-27.899632
-14.595606
-2.627722
6.477090
14.772396
17.481576
10.773429
-2.192858
-16.486141
-21.044856
-12.634131
-5.686004
-2.991331
4.551232
15.223024
16.650301
6.808196
2.347556
7.517419
12.336296
18.259848
28.458928
37.325019
36.544209
28.457664
22.625877
19.638556
16.467386
21.242430
34.594704
45.324520
43.928775
27.732979
9.586107
-2.250277
-7.294632
-9.112947
-8.408454
-2.512969
2.610538
-1.025460
-9.749961
-15.850426
-16.135820
-11.533589
-8.007020
-6.104508
-1.380867
8.443891
19.684576
27.259305
30.630406
31.909153
28.088991
16.987690
5.432914
0.707694
2.271203
3.236176
-1.226357
-12.243144
-27.547127
-38.514719
-43.190429
-48.353356
-53.092452
-49.515111
-43.620887
-43.762481
-43.118535
-39.983632
-36.788497
-29.853615
-18.386824
-8.361186
-1.869372
3.968719
6.620189
2.484045
-2.031467
-0.375875
4.708528
9.777478
11.095329
6.615768
1.872573
2.013534
5.865860
9.005178
9.613174
5.043737
-5.609765
-15.668516
-17.022319
-12.714626
-8.838017
0.687158
14.719329
23.834233
24.003891
17.043463
6.341711
-4.739092
-8.571868
-5.885710
-4.405769
-2.684584
-0.361710
0.699445
2.307104
2.453425
0.732239
0.411526
-0.832534
-2.276212
5.293787
19.058856
27.037550
29.126434
27.376865
19.375149
5.894525
-8.144586
-15.513708
-12.510937
-3.798106
4.673796
