EVENT_NAME: 202010301151
EVENT_ID: 10614
EVENT_DATE_YYYYMMDD: 2020/10/30
EVENT_TIME_HHMMSS: 11:51:24.00000
EVENT_LATITUDE_DEGREE: 37.879
EVENT_LONGITUDE_DEGREE: 26.703
EVENT_DEPTH_KM: 16.54
HYPOCENTER_REFERENCE: AFAD
MAGNITUDE_W: 6.6
MAGNITUDE_W_REFERENCE: AFAD
MAGNITUDE_L: 
MAGNITUDE_L_REFERENCE: 
FOCAL_MECHANISM: 
NETWORK: TK
STATION_CODE: 3512
STATION_NAME: 
STATION_LATITUDE_DEGREE: 38.4009
STATION_LONGITUDE_DEGREE: 27.1516
STATION_ELEVATION_M: 79.0
LOCATION: -_-_-
SENSOR_DEPTH_M: 
VS30_M/S: 468
SITE_CLASSIFICATION_EC8: B
MORPHOLOGIC_CLASSIFICATION: 
EPICENTRAL_DISTANCE_KM: 70.05
EARTHQUAKE_BACKAZIMUTH_DEGREE: 
DATE_TIME_FIRST_SAMPLE_YYYYMMDD_HHMMSS: 2020/10/30 11:51:10.6769200
DATE_TIME_FIRST_SAMPLE_PRECISION: millisecond
SAMPLING_INTERVAL_S: 0.01
NDATA: 10501
DURATION_S: 
STREAM: HNN
UNITS: cm/s^2
INSTRUMENT: sensor = CMG-5T/GURALP | digitizer = 
INSTRUMENT_ANALOG/DIGITAL: 
INSTRUMENTAL_FREQUENCY_HZ: 
INSTRUMENTAL_DAMPING: 
FULL_SCALE_G: 
N_BIT_DIGITAL_CONVERTER: 
PGA_CM/S^2: 62.696
TIME_PGA_S: 
BASELINE_CORRECTION: BASELINE REMOVED
FILTER_TYPE: BUTTERWORTH
FILTER_ORDER: 
LOW_CUT_FREQUENCY_HZ: 
HIGH_CUT_FREQUENCY_HZ: 
LATE/NORMAL_TRIGGERED: 
DATABASE_VERSION: 
HEADER_FORMAT: DYNA 1.2
DATA_TYPE: Acceleration
PROCESSING: Manual Paolucci et al., 2011
DATA_TIMESTAMP_YYYYMMDD_HHMMSS: 
DATA_LICENSE: U (unknown license)
DATA_CITATION: Turkish Accelerometric Archive v 1.0 - Disaster And Emergency Management Presidency, Earthquake Department
DATA_CREATOR: AFAD
ORIGINAL_DATA_MEDIATOR_CITATION: : AFAD - Disaster And Emergency Management Presidency
ORIGINAL_DATA_MEDIATOR: AFAD PROCESS SERVICE
ORIGINAL_DATA_CREATOR_CITATION: AFAD PROCESS SERVICE
ORIGINAL_DATA_CREATOR: network: TK
USER1: GuestUser
USER2: 
USER3: 
USER4: 
USER5: 
[...]
2.539621
6.731737
2.058065
-7.312977
-8.113041
-0.293151
5.549647
9.291490
-0.096298
-19.302240
-18.941707
-2.040531
11.826598
17.898799
6.691593
-7.012492
-4.399648
0.866169
-2.037695
-13.518855
-25.205087
-20.640431
-7.735779
-0.054289
1.542045
-7.662159
-18.299967
-17.502433
-11.863442
-7.782552
-0.538695
3.351343
-2.475975
-6.842197
-1.949553
6.940248
10.680195
6.602778
0.534999
-3.333554
-5.512874
-1.638003
6.251718
7.128248
-0.625288
-11.357259
-13.942614
-3.926658
6.817949
7.071997
0.074287
0.304004
6.629937
5.643444
-3.500092
-8.477105
-0.641100
12.694233
15.432205
0.173179
-15.769314
-10.320227
6.893138
15.712791
14.294668
6.068425
-2.028266
1.700621
13.588763
15.108945
6.195760
-2.435571
-4.977953
4.789011
12.968802
5.641208
0.207287
4.722334
7.299472
5.375780
0.473970
-5.731576
-8.878429
-3.566478
9.415589
16.245511
11.645146
6.163512
5.259806
7.378456
4.938767
-5.139439
-11.243556
-7.149710
1.504053
4.120056
-1.965102
-10.690279
-14.651414
-7.590510
1.017752
0.400640
-4.667375
-3.427468
2.691497
5.396607
2.951548
-7.841723
-21.686420
-19.703642
-3.412309
6.303150
0.264757
-9.755309
-6.948769
4.825304
12.186074
2.376767
-19.529862
-26.309861
-13.356233
1.806101
7.865663
2.061096
-0.736915
9.725522
19.301633
15.330070
-0.616846
-14.197699
-10.934883
-0.460755
-4.114441
-16.166579
-16.971383
-6.680524
2.926869
1.588690
-7.244869
-7.572542
-2.670102
-0.092648
6.496813
11.155948
3.866271
-4.021557
-3.514725
-0.867439
8.348138
17.646501
10.155861
-4.428546
-7.722646
1.885063
14.822576
16.808830
4.195510
-9.440007
-10.579118
0.415430
13.126069
15.123698
2.541977
-11.822508
-20.147337
-15.917304
-1.920623
5.127010
8.056150
12.319361
9.733058
5.683764
2.913560
-3.768802
-3.363084
7.575852
15.518658
13.648367
6.003529
-4.280697
-5.918426
1.674590
0.541798
-6.652453
-7.990632
-7.786510
-5.800256
-1.694719
-3.200368
-12.067105
-17.522829
-11.392172
-5.953197
-6.422113
-6.380721
-5.933609
-2.587058
5.167108
6.333075
4.054537
4.676070
-0.925321
-2.941911
3.538536
-0.420387
-6.128264
2.098609
11.350208
12.149322
4.553460
-7.566614
-12.079135
-5.137988
3.612781
7.169459
3.268360
0.256115
-0.524991
-7.541976
-9.703917
-0.553432
8.094327
12.143935
6.683155
-8.416301
-12.792003
-1.439132
11.552414
18.877794
10.514415
-6.813653
-7.066438
6.989015
12.711741
4.140447
-9.445146
-17.320650
-10.871801
2.509350
6.171882
3.237052
-2.455974
-16.380298
-22.249957
-13.302016
-3.876312
0.009618
-5.331721
-7.664608
1.624908
5.514630
-5.186690
-18.010453
-15.861153
0.299364
11.810225
8.354026
-3.975227
-8.234648
3.445579
18.861961
18.993092
1.052969
-16.585708
-17.825617
-7.439648
-1.476145
-0.308281
2.643294
7.898684
10.063151
3.618407
-7.693388
-11.289881
-7.194140
-7.894671
-8.251414
-1.580430
7.957763
16.749610
17.841954
8.404241
-1.027469
-2.280966
0.564756
4.536000
7.668948
6.020476
3.790599
3.815244
4.080035
5.694063
5.012492
0.879463
0.553686
2.327284
2.550366
2.449251
-0.567734
-0.058058
9.758514
18.869501
18.289675
11.053084
5.779996
6.993993
11.638277
8.288880
-6.487960
-19.780954
-19.710175
-9.259114
0.381773
5.513615
6.595532
0.862061
-6.136598
-11.549032
-19.927262
-17.528338
-5.363713
0.594735
1.205524
-0.682778
-5.776388
-11.564524
-10.860520
-7.966454
-7.458990
-11.508284
-16.276118
-9.441772
3.171230
10.230554
8.682247
1.811877
-2.723395
-3.890945
-5.874989
-4.002172
5.753732
16.497707
18.151865
10.169875
-1.100843
-4.031881
2.612245
8.704668
14.393584
10.415386
-7.291543
-22.495905
-16.263502
1.823550
8.999471
5.057294
-6.499070
-17.586519
-12.260981
4.025929
8.415848
4.297038
-1.574517
-10.553742
-5.275917
9.170721
6.890603
-3.907408
-6.467169
-4.340620
2.039978
9.028839
3.964299
-5.135631
-3.215101
6.597679
18.118967
16.722331
1.283196
-7.073863
-2.341737
3.840741
2.407451
-1.274989
0.759609
3.442285
4.766875
10.747125
10.591661
-2.987611
-13.086672
-11.377534
-4.018976
9.438326
12.817423
1.252528
-9.832393
-14.054213
-4.290093
8.537775
12.338074
4.023672
-7.526372
-5.817234
1.329933
-0.115996
-1.887069
1.515095
3.922867
9.572917
11.274156
1.286637
-7.119084
-5.932577
-1.583104
1.893315
6.847260
7.811632
2.057622
-0.513198
2.196651
6.569824
12.312772
7.852387
-5.622928
-8.123916
1.562788
4.162044
-7.096034
-17.470314
-16.443378
-4.403882
11.450766
19.265284
10.823542
-3.194312
-7.188941
-2.105760
1.276496
0.003409
-0.094230
3.281075
5.352012
2.851023
0.721312
0.222377
4.663801
8.065017
-1.239669
-10.877714
-9.015956
-1.538590
6.742632
10.245909
3.635907
-2.623356
-0.889255
-0.603925
-2.010040
-0.298690
-0.978049
-3.799758
-3.956170
0.321260
2.799180
-2.540895
-9.982559
-10.034380
-1.240638
8.178114
9.569693
3.652320
3.992315
9.775077
8.448905
1.353872
-5.078232
-10.447378
-14.022385
-10.655927
-8.360960
-11.886358
-9.811314
-4.391930
-1.304167
1.393991
4.591399
8.197686
6.492337
-0.354334
-2.236001
-0.061106
-1.737701
-7.960627
-16.919945
-13.460589
4.547151
13.151305
8.040948
3.110068
7.276588
22.482528
35.867154
26.484106
4.821730
2.044890
12.869125
16.499742
14.372875
7.491762
-2.700198
-4.542050
0.660255
4.228309
10.030030
14.352961
11.419395
7.641212
1.948186
-3.745787
-5.725724
-8.997705
-11.357766
-9.143690
-7.147641
-6.722964
-4.667827
-4.011536
-4.463073
1.686859
10.095105
14.713478
15.419062
8.484232
3.390621
8.127487
11.664574
5.342431
-5.926075
-11.299960
-8.462138
-5.662234
-4.012816
-0.339541
1.878959
0.225747
-2.557729
-0.426756
6.416754
6.944441
-1.860995
-10.087871
-14.186142
-11.713594
-3.215609
1.871996
2.163645
4.005811
5.034328
1.777829
1.958253
4.982819
3.893317
5.199264
11.049646
12.835884
9.968042
5.622674
-1.152270
-6.387123
-3.039625
6.722599
10.980438
1.821420
-12.643231
-20.351582
-19.366987
-17.190829
-19.177401
-19.838750
-16.022335
-10.026918
-5.623728
-11.129061
-16.328525
-8.845155
5.404627
17.094649
13.706071
-0.067214
-5.120695
-3.263993
-7.126543
-15.459272
-21.710951
-16.255861
-0.036888
8.639626
1.926931
-9.339363
-11.681098
-3.152779
6.910258
7.417090
-7.261795
-22.992265
-25.518848
-21.206660
-10.765710
1.087358
2.506426
7.115636
20.286660
22.563932
17.655170
13.313910
4.288551
2.925725
12.250947
14.204655
13.143591
16.480662
13.059854
8.087264
9.803354
8.362165
4.025645
6.368957
7.492267
-5.280623
-22.796067
-30.510106
-27.849549
-16.015440
-2.848209
-0.286238
1.416897
8.694564
9.960382
7.005645
10.752859
19.835408
30.262455
34.770867
20.633256
6.557262
12.199097
19.519105
19.795271
22.258340
27.200278
31.730492
28.947649
17.213388
4.208568
-2.081346
0.380775
3.418297
2.461506
-3.028028
-7.294085
-0.796574
7.685295
0.849999
-17.632663
-38.172991
-50.643803
-45.768853
-37.014609
-39.825890
-38.154669
-23.206886
-10.506042
-1.156489
1.280353
-3.915635
-5.214001
-4.439533
-3.641683
1.198825
7.412901
10.216913
5.835207
5.425063
14.311072
15.420479
7.269123
7.006226
15.347484
19.338004
16.617093
3.755096
-15.397761
-22.871022
-12.635143
3.034656
15.813231
25.151724
32.003765
31.983226
17.643387
-5.321461
-21.348004
-23.988972
-22.097829
-19.960220
-16.168453
-9.524959
3.145235
18.416899
13.314441
-10.337982
-27.031876
-32.731222
-28.016474
-21.454504
-22.987959
-26.418879
-25.709503
-25.000760
-28.368167
-35.607287
-37.623245
-26.207178
-9.933540
4.455905
15.524709
13.837055
3.492477
1.610810
6.044967
7.196084
8.826227
10.716739
11.936739
19.533547
29.329896
29.733402
26.422239
29.299875
32.702038
34.760336
32.811049
24.240071
20.256817
24.884038
24.915319
13.347579
-3.385497
-16.435186
-16.948024
-5.400509
6.945173
9.760876
4.953228
-1.551868
-8.291738
-4.262669
4.003386
-4.525567
-20.394752
-22.090938
-10.771877
-8.267731
-16.136600
-25.189449
-33.908938
-28.887690
-10.472966
-3.265763
-10.114646
-16.929403
-17.860600
-9.282988
2.721435
8.800271
6.396288
4.093736
7.746472
12.410346
10.069876
1.316893
-4.673155
-2.736510
4.998381
10.227861
8.614779
8.135751
12.914958
9.941262
-4.803663
-12.315474
-3.192164
4.568006
-0.085759
-11.489821
-21.760775
-24.546146
-24.310742
-29.751931
-39.879430
-44.141063
-33.228670
-15.575144
-5.554764
-7.353012
-11.750200
-9.587313
-7.533756
-7.661097
-8.383746
-9.564567
-6.755816
-1.099762
4.109496
7.513239
8.430846
12.210606
19.624461
21.564897
18.024016
13.617980
11.705348
17.108301
21.077966
18.499878
15.936641
13.218574
9.383831
3.554301
-8.222933
-18.181699
-14.361177
-2.960909
2.019578
-0.598640
-0.905774
1.211296
2.316595
3.081584
2.911901
6.536199
12.214371
9.340526
3.809598
4.402693
1.252048
-2.573848
4.012769
12.762274
17.592355
19.875630
14.781388
7.590614
5.333878
-0.910850
-13.228728
-17.995298
-9.948850
-0.602457
6.437593
12.961646
17.659646
19.705304
14.289393
4.809023
2.351639
1.920325
-5.082757
-4.746555
6.486875
14.490350
19.719830
21.446979
11.649996
-0.723179
-3.571430
-5.192412
-13.617091
-19.581228
-20.926044
-22.891445
-18.230414
-4.203715
7.488519
11.785224
12.227912
3.445542
-11.425144
-15.704788
-17.168727
-22.565995
-14.619081
-7.004895
-12.697604
-14.766015
-20.723517
-29.664825
-21.153253
-7.458965
-4.009405
-2.101198
0.157747
-2.352089
-1.372866
2.008443
-5.030345
-6.839020
9.692775
27.882520
31.098255
20.454127
6.728240
-1.932793
-0.071036
1.706039
-3.796135
-6.847562
-5.856647
-6.331251
-9.388998
-17.814309
-27.376835
-26.824501
-17.728997
-5.669594
7.426226
10.983220
2.871678
-0.976337
2.283636
2.444469
0.657281
0.105893
-2.142311
-0.590215
8.135592
20.668967
31.877750
35.774739
33.607426
30.771814
30.769601
34.992682
40.457252
39.066936
27.633172
18.864706
19.959578
18.647941
14.723143
15.934296
20.258176
27.363317
34.456767
29.205799
13.068030
-0.942240
-10.335401
-17.961596
-21.119509
-14.050389
-4.823753
1.614353
6.402408
-0.319135
-14.082624
-19.891931
-24.733389
-29.938856
-21.288253
-11.942808
-13.018092
-10.018804
-7.701086
-9.411491
-3.247340
-2.706066
-12.670519
-14.681738
-16.497048
-25.095201
-29.234865
-29.856716
-20.203506
1.309724
13.664254
8.375999
1.998243
1.249052
-0.023404
1.531536
6.439664
14.090820
25.893647
33.709745
28.212628
24.964029
32.624032
33.359318
26.794818
23.781941
19.674190
12.412004
6.221941
-1.957222
-13.051622
-22.916541
-31.359547
-39.866697
-44.189631
-41.000122
-36.860144
-38.099421
-42.309866
-49.231425
-54.074778
-48.374487
-36.525843
-25.280090
-16.009532
-13.572374
-15.566214
-10.965535
4.618949
25.116302
39.225788
40.245773
35.005231
38.370425
47.554404
47.888710
36.670445
25.684426
19.295611
17.166532
22.645005
23.483300
14.681656
6.140696
1.648713
3.873216
8.338023
9.521370
4.411328
-12.722727
-31.575718
-34.528875
-25.565135
-19.122605
-18.943445
-20.996689
-14.979469
1.048336
11.651700
9.649013
9.117849
10.278761
6.216827
5.329552
5.849024
0.006223
-6.911860
-8.746761
-3.259757
14.046506
36.851466
40.497567
19.523397
4.787319
4.240039
3.772387
2.808644
-2.991815
-16.789430
-22.001533
-14.324151
-4.690847
4.007153
8.739911
10.765978
11.734458
7.405837
-1.584131
-6.535550
-5.380642
-1.292800
7.157471
14.959034
14.335919
11.930041
6.731209
-1.755086
0.092136
4.595492
0.904520
-0.925325
0.224843
-6.060014
-14.123211
-14.112153
-12.060807
-6.780771
6.447761
17.612939
22.471774
23.446573
19.014943
6.799759
-11.778961
-27.303727
-25.294091
-6.156403
12.056409
16.829296
15.435504
14.567504
5.420177
-11.660478
-30.910341
-48.516788
-45.960505
-22.139667
-4.932938
-4.961377
-6.466078
-0.193862
0.935768
-3.928756
-7.461106
-8.013441
1.953854
18.578231
26.975417
24.371735
20.110734
11.993188
3.788431
5.951002
6.752013
1.982282
-3.209598
-12.495325
-17.187955
-12.332913
-8.016933
-0.441612
14.612341
23.171941
17.088047
3.302439
-10.438616
-20.602453
-27.936050
-31.072792
-21.793071
-9.767478
-3.367921
9.678290
22.108655
22.961485
20.945211
15.710990
6.370598
3.364357
2.921351
1.439400
4.142298
6.124760
3.739736
-2.630120
-8.162628
-8.038448
-14.222192
-27.035844
-28.102280
-21.078661
-17.762760
-8.723817
0.338193
-6.382402
-8.062472
6.556059
15.135882
6.204686
-7.635587
-11.063663
-8.455559
-5.985539
-2.935694
0.562528
8.505966
22.710879
33.456434
29.562287
18.146218
10.726041
1.905754
-13.386134
-28.193940
-33.244577
-23.156577
-2.117317
22.599010
33.908907
21.765451
7.927706
1.194155
-6.201691
-10.799843
-15.050733
-23.554091
-24.020164
-14.728120
-12.881846
-12.818019
-10.768885
-19.969612
-27.088343
-20.264741
-14.092690
-8.820553
-2.190330
-1.222798
2.184737
8.221863
8.052497
6.260569
6.186628
7.659729
11.581681
7.982344
-3.635637
-12.493841
-15.008733
-9.623791
-5.556172
-10.511383
-8.356395
7.182588
15.160468
8.423442
-4.052110
-19.847672
-27.450801
-19.491563
-13.677519
-13.552392
-11.479559
-14.246604
-15.563928
-4.374104
5.044017
8.370345
20.051519
33.622574
36.154527
37.102468
42.551554
44.244578
44.139987
44.826296
41.860500
38.870057
35.698242
22.880483
4.697687
-3.073860
5.042736
16.519154
19.299152
16.468911
19.902989
25.913257
23.485892
14.817908
0.899904
-14.323417
-20.047093
-20.291031
-23.754497
-25.107211
-24.555826
-27.386698
-36.474305
-52.411110
-62.695652
-51.591774
-32.448715
-17.128706
2.621668
18.608712
20.539985
19.107959
20.002815
16.486897
18.038677
24.895458
26.840318
26.937639
24.206617
15.201797
9.318551
12.372503
15.619204
14.359072
9.759655
3.254875
-4.217122
-14.140182
-26.022954
-34.283639
-32.549222
-24.571026
-18.436261
-12.351421
-12.028490
-19.696711
-23.124155
-19.838905
-18.950684
-19.278989
-16.753672
-17.348349
-14.042244
-0.092644
15.009654
19.247586
16.767137
19.556297
23.647931
23.875436
15.871959
-0.272761
-13.070298
-13.439048
-4.287300
-3.365901
-15.254993
-28.028831
-27.761828
-15.596571
-6.858757
-8.240858
-15.455963
-15.617430
-9.487721
-4.377050
1.415824
6.541030
5.914755
5.825963
12.331690
20.945955
29.190839
30.009860
18.609590
8.244790
6.080636
1.506182
-4.609942
-6.721958
-7.820940
-3.588063
5.605395
5.706824
-2.302657
-8.393818
-10.797169
-5.577800
4.888428
11.457035
11.577422
8.967420
7.679798
5.935899
5.844264
7.956594
7.727507
11.804289
22.778930
28.489965
22.711308
12.437510
1.603478
-9.032434
-14.697022
-14.924529
-11.177315
-2.557994
6.683810
11.615320
7.328408
-7.884801
-24.837484
-36.091770
-42.974780
-42.175349
-32.108521
-22.979206
-17.630286
-12.938289
-11.159003
-12.522145
-13.964598
-16.728798
-17.552245
-11.991617
-8.846346
-10.849033
-5.860014
5.618300
11.554313
13.012879
14.149777
16.388815
21.715301
23.739157
16.084522
7.898725
9.154431
13.675798
14.729277
10.464800
4.110110
4.784728
12.402391
16.674449
10.329239
-0.481095
-0.642878
11.454759
19.275597
16.798939
15.550182
18.235069
19.407989
18.169027
9.938992
-4.555677
-14.564683
-16.853017
-12.399902
-3.280383
0.715508
-1.124449
-0.723786
1.619526
-0.083927
-7.524642
-16.251715
-18.102731
-11.275337
-5.937475
-8.102260
-12.912120
-7.620392
5.190729
6.319412
-3.160959
-6.580820
-3.437129
-0.882425
3.598496
9.147749
12.767623
18.466018
25.575583
28.469650
29.306682
29.926951
26.073881
18.259360
12.612784
10.444839
3.931843
-9.864824
-19.285475
-17.610146
-14.221254
-14.933475
-18.099919
-19.249142
-11.540794
-1.366847
0.847229
-4.661264
-12.498851
-13.696103
-8.477051
-9.993759
-18.991312
-27.913660
-32.942811
-31.588834
-29.037607
-26.689871
-20.773449
-12.627783
-5.727081
-0.449572
3.816166
7.168721
8.459501
11.331765
18.252374
24.413681
27.739061
24.605163
13.961351
6.923511
14.032129
25.515499
29.961347
24.662349
14.576243
12.654447
13.726885
9.063008
4.266736
0.571340
-3.687133
-4.291605
-2.249739
1.430488
4.573547
-0.604746
-8.942215
-11.502608
-12.060947
-13.804214
-14.523071
-17.541952
-17.618420
-7.506406
0.172241
-6.558466
-19.043813
-30.462094
-37.790320
-34.296838
-28.439504
-23.305451
-13.217767
-4.940337
-0.159234
8.169069
17.250986
24.511274
31.070401
32.056576
30.370185
32.676844
33.500920
30.620439
29.068657
26.618225
21.413389
21.348612
23.822740
16.072048
3.441981
-3.882453
-2.243462
8.452801
17.847222
16.362112
6.247568
-7.779133
-19.389846
-21.094879
-21.643107
-28.012963
-29.903161
-25.196313
-25.788778
-32.565934
-33.648801
-23.852768
-9.663654
1.019021
6.103150
2.458943
-0.032250
6.900998
11.648607
8.107094
0.567793
-4.917949
-6.720620
-6.914634
-3.235987
4.057479
8.556095
9.280006
8.830049
8.385147
10.869702
15.355679
13.608305
5.020264
-1.362548
1.586815
9.203845
12.391774
7.759179
-2.360420
-8.403869
-4.451267
1.912268
3.254869
-0.318242
-8.048712
-11.748531
-6.117756
-0.772627
-5.888356
-15.488799
-19.135850
-16.407673
-15.403172
-19.111839
-18.987343
-10.580993
-2.103547
-0.376714
1.374134
5.403204
5.640504
3.495626
3.924095
6.618777
12.877406
22.686711
25.259109
16.045742
5.912555
-4.072437
-15.630697
-19.919504
-15.188326
-4.578642
7.567340
13.747922
15.751238
20.734569
22.657943
14.796341
-1.340163
-24.178935
-41.127826
-40.978369
-33.627710
-29.795813
-27.767218
-23.100815
-14.362054
-3.892665
0.078895
-0.862728
1.482480
5.192724
8.407195
7.753114
1.540932
-2.711538
-0.869371
0.105744
-5.723785
-13.009670
-15.343505
-11.270198
-6.909981
-7.664860
-5.806263
2.972313
11.377083
9.944741
-1.101630
-11.195635
-9.192950
2.430715
13.180379
20.726945
22.859498
21.301080
23.077839
26.039209
25.315296
26.199093
29.029015
27.789738
22.653786
16.776860
10.882870
3.871257
-4.704777
-12.038691
-12.901951
-9.210034
-7.369131
-7.775799
-6.316285
-3.531548
-2.663234
-3.005126
-3.442129
-5.440392
-7.215257
-6.569709
-4.004895
1.345606
7.004503
7.549885
2.726122
-1.492537
-1.725732
1.853064
9.976928
19.874075
23.233897
19.578631
14.971315
8.267151
0.440307
-7.457316
-15.584657
-18.018342
-13.977266
-7.782781
-1.219546
0.043744
-3.084782
-3.044970
-4.209992
-8.798665
-9.023012
-5.361113
-2.611766
-0.151225
1.352842
2.820572
5.279217
8.588166
11.048707
8.050681
1.925077
0.398573
-1.162373
-11.448810
-22.668971
-24.824276
-20.506401
-16.355363
-16.224232
-21.470145
-24.330720
-18.353630
-9.377566
-1.773491
3.091347
5.795509
11.230377
18.676461
21.386627
16.813121
9.313633
2.513095
-3.000454
-6.555238
-10.034819
-18.479405
-29.798151
-32.564564
-21.981106
-6.486045
5.285184
7.866746
-0.586056
-10.985298
-13.899590
-9.200009
-6.257598
-8.529185
-12.150009
-15.515204
-13.797218
-6.842800
-0.141797
3.471441
3.010108
0.277506
-0.855286
-1.012962
-1.544758
-0.265353
3.249615
8.602960
14.802816
16.820668
14.110184
10.102916
5.820428
7.110892
14.669466
15.171874
7.694505
1.853917
3.619300
15.482795
27.118152
26.091530
13.652000
2.505778
0.651287
2.838188
0.034174
-6.881381
-9.307482
-4.826561
0.591560
5.975238
9.584369
9.248165
10.955723
11.825933
6.127536
0.675603
0.582072
1.141357
1.344215
1.396667
1.013381
5.807440
