EVENT_NAME: 202010301151
EVENT_ID: 10614
EVENT_DATE_YYYYMMDD: 2020/10/30
EVENT_TIME_HHMMSS: 11:51:24.00000
EVENT_LATITUDE_DEGREE: 37.879
EVENT_LONGITUDE_DEGREE: 26.703
EVENT_DEPTH_KM: 16.54
HYPOCENTER_REFERENCE: AFAD
MAGNITUDE_W: 6.6
MAGNITUDE_W_REFERENCE: AFAD
MAGNITUDE_L: 
MAGNITUDE_L_REFERENCE: 
FOCAL_MECHANISM: 
NETWORK: TK
STATION_CODE: 3512
STATION_NAME: 
STATION_LATITUDE_DEGREE: 38.4009
STATION_LONGITUDE_DEGREE: 27.1516
STATION_ELEVATION_M: 79.0
LOCATION: -_-_-
SENSOR_DEPTH_M: 
VS30_M/S: 468
SITE_CLASSIFICATION_EC8: B
MORPHOLOGIC_CLASSIFICATION: 
EPICENTRAL_DISTANCE_KM: 70.05
EARTHQUAKE_BACKAZIMUTH_DEGREE: 
DATE_TIME_FIRST_SAMPLE_YYYYMMDD_HHMMSS: 2020/10/30 11:51:10.6769200
DATE_TIME_FIRST_SAMPLE_PRECISION: millisecond
SAMPLING_INTERVAL_S: 0.01
NDATA: 10501
DURATION_S: 
STREAM: HNZ
UNITS: cm/s^2
INSTRUMENT: sensor = CMG-5T/GURALP | digitizer = 
INSTRUMENT_ANALOG/DIGITAL: 
INSTRUMENTAL_FREQUENCY_HZ: 
INSTRUMENTAL_DAMPING: 
FULL_SCALE_G: 
N_BIT_DIGITAL_CONVERTER: 
PGA_CM/S^2: 28.972
TIME_PGA_S: 
BASELINE_CORRECTION: BASELINE REMOVED
FILTER_TYPE: BUTTERWORTH
FILTER_ORDER: 
LOW_CUT_FREQUENCY_HZ: 
HIGH_CUT_FREQUENCY_HZ: 
LATE/NORMAL_TRIGGERED: 
DATABASE_VERSION: 
HEADER_FORMAT: DYNA 1.2
DATA_TYPE: Acceleration
PROCESSING: Manual Paolucci et al., 2011
DATA_TIMESTAMP_YYYYMMDD_HHMMSS: 
DATA_LICENSE: U (unknown license)
DATA_CITATION: Turkish Accelerometric Archive v 1.0 - Disaster And Emergency Management Presidency, Earthquake Department
DATA_CREATOR: AFAD
ORIGINAL_DATA_MEDIATOR_CITATION: : AFAD - Disaster And Emergency Management Presidency
ORIGINAL_DATA_MEDIATOR: AFAD PROCESS SERVICE
ORIGINAL_DATA_CREATOR_CITATION: AFAD PROCESS SERVICE
ORIGINAL_DATA_CREATOR: network: TK
USER1: GuestUser
USER2: 
USER3: 
USER4: 
USER5: 
[...]
3.220499
3.190773
2.391915
1.434213
0.367211
-0.850274
-1.655016
-2.006762
-2.131545
-1.652231
-0.192612
1.946964
3.392340
3.198508
1.871721
0.551128
-0.941623
-2.525096
-3.110926
-1.899635
-0.202217
-0.152676
-1.567398
-2.689206
-2.896972
-2.376166
-0.895493
1.269165
3.129760
3.825819
3.100034
1.321800
-0.587100
-2.094403
-2.736586
-2.445530
-1.179743
0.216400
0.031238
-2.379580
-5.127281
-5.413074
-2.442747
1.946017
4.887239
5.291002
3.385818
0.849598
-0.236911
0.356348
1.422730
1.331388
-0.137211
-1.513849
-2.466596
-3.484986
-4.379521
-3.952845
-2.073362
-0.577206
-0.475027
-0.854021
-0.962084
-1.551939
-2.805342
-3.738892
-2.829495
-0.240019
2.168321
3.549602
4.445375
5.300896
5.846782
6.395764
7.517261
8.518620
7.913902
5.621984
3.956767
4.581300
6.298535
6.878790
4.889695
0.921103
-3.152454
-5.156102
-3.875453
-0.893979
0.915218
0.472129
-0.755883
-1.074498
-0.380297
0.610224
1.499495
2.446358
3.437809
4.368571
5.038620
4.928699
3.215798
-1.076671
-6.529342
-9.811783
-9.135541
-5.215873
-0.447496
1.980970
0.521660
-3.137296
-6.246960
-7.110223
-5.895525
-3.545397
-0.431399
2.980158
5.723213
7.141959
6.777209
3.536260
-2.468181
-7.905990
-9.571207
-7.725784
-5.337880
-4.761340
-5.334165
-5.107513
-3.346929
-0.092977
4.338827
8.577109
11.298180
11.775327
9.941978
6.029121
-0.158933
-7.215203
-11.221261
-8.511646
0.460644
10.770867
17.724957
19.562330
16.168731
8.491952
-1.088463
-9.844009
-15.366658
-17.030018
-14.787952
-9.595685
-3.529318
-0.063575
-2.466962
-6.301171
-6.218190
-2.474704
0.655394
0.164003
-2.297904
-2.942565
1.556120
7.336074
8.155987
4.275952
-0.314077
-2.928635
-4.216097
-5.555269
-9.316095
-14.876829
-15.586513
-9.384526
-1.782370
2.370453
2.805180
0.311689
-3.681363
-8.029877
-12.575627
-12.519584
-4.072434
8.203351
16.282963
15.594335
6.034047
-6.957615
-13.561200
-9.498790
0.808336
8.142967
8.422257
3.196549
-2.105950
-2.682181
0.523778
6.715237
11.984604
13.326870
11.143634
7.524621
3.243608
-0.352802
1.833839
10.720670
19.911872
21.260951
13.756948
5.049395
-0.557784
-6.721687
-11.413895
-9.204651
-1.652965
3.539302
3.485735
0.806773
-0.901174
0.664959
2.432045
1.704092
-0.405451
-1.590424
-2.929596
-3.670243
-3.334290
-2.281531
1.766635
7.088020
8.187533
4.297589
-0.198001
-3.876155
-5.153399
-3.195269
-2.687777
-4.946255
-5.009421
-0.453763
5.758441
5.756893
-4.530418
-18.887570
-28.146893
-25.901421
-13.102044
2.377843
10.891255
8.972137
2.058918
-5.162388
-11.560065
-16.926039
-19.121970
-16.630958
-9.315834
2.208158
14.977501
22.549313
18.474826
5.778246
-8.569617
-18.936813
-19.915570
-11.118533
0.844521
10.238843
12.573180
7.449341
0.109136
-3.730648
-1.045804
7.154257
15.412529
17.106231
12.093551
5.027063
-3.450742
-13.574875
-17.961473
-12.455546
-1.448644
5.365490
5.307588
3.507990
3.027745
3.856947
2.411880
-2.018377
-5.444797
-7.654352
-9.687725
-9.828610
-5.909871
2.713151
12.373760
18.294907
16.234906
5.868019
-6.928264
-11.039906
-2.051824
12.386141
21.613261
18.341658
5.868634
-4.087058
-5.888514
-3.156606
-1.462903
-3.722620
-8.407396
-9.005921
-3.831613
0.864000
1.360344
-0.363703
-2.481916
-4.183670
-4.283993
-5.133322
-8.344546
-10.472358
-5.841768
2.879099
6.839019
-0.418824
-14.634783
-23.841777
-21.496603
-9.339718
3.478857
10.455241
11.381978
6.984542
0.073490
-4.160148
0.338537
10.891823
18.600493
18.745711
11.310757
2.737585
-3.240537
-5.577971
-4.642565
-2.930903
0.121477
3.164878
1.916430
-1.251136
-3.324452
-6.231305
-11.470019
-15.372038
-11.768818
-1.033466
10.382772
14.081361
9.422903
4.750202
3.573279
1.748290
-2.442619
-8.055062
-11.973182
-8.757005
3.594331
16.964366
21.895611
13.347519
-5.930041
-22.436988
-24.584926
-13.004891
0.741970
8.182496
8.221509
6.145097
6.434915
5.584967
-0.941209
-10.627518
-16.243058
-12.894976
-1.950311
9.578944
13.193002
8.376321
2.251742
-0.240510
0.996171
4.151040
8.031385
10.576583
9.514535
6.676111
6.277920
4.893851
-0.205527
-7.146613
-12.553458
-13.149816
-11.459519
-9.414072
-6.555523
-3.323244
-1.073438
0.602615
2.470023
3.949458
2.454231
-3.737539
-9.598929
-8.865095
-1.267274
6.392164
10.783406
12.404035
9.127168
1.001728
-9.999601
-18.614573
-17.252800
-4.399546
8.898964
11.083437
5.914392
1.851052
1.566187
3.728987
3.578194
-2.309205
-10.330607
-12.194300
-4.320595
7.539970
13.868288
10.498221
3.241616
-0.827297
-1.297942
-0.202764
1.631822
3.968017
5.186120
6.923171
11.655321
15.475287
13.150547
6.813868
1.636772
-2.335225
-5.778366
-7.742691
-4.677925
2.303413
7.432205
8.308471
6.219674
3.702341
0.418353
-2.985774
-5.729140
-6.945386
-3.574701
3.922798
9.855712
8.911635
-0.312080
-14.325847
-24.018040
-20.464361
-6.458645
6.565527
13.069718
14.890370
14.902755
13.489271
8.189869
-2.163703
-11.739783
-13.024459
-6.763332
-0.528214
1.184067
-0.758893
-2.735913
-3.035020
-5.047338
-12.027439
-21.271899
-24.389304
-18.047053
-7.592540
-0.067483
2.446442
3.548122
6.216865
9.044760
8.821513
5.730737
3.066018
3.028242
4.205473
5.310560
6.199211
5.587682
2.998824
-1.922204
-7.896611
-11.995558
-11.233857
-8.032542
-6.973591
-4.883556
-0.742499
0.687704
-0.734450
-1.470453
1.317190
7.116961
10.819265
8.425786
1.981664
-3.280582
-2.356322
6.332033
16.685295
20.047620
14.381300
5.575283
-1.194575
-4.551328
-5.183603
-4.972123
-6.559622
-9.023387
-9.670215
-9.537073
-12.004244
-16.284638
-15.787984
-8.292033
1.274756
6.338835
5.659805
2.625073
-0.971957
-2.893552
1.132011
8.429796
13.175260
13.078344
8.934809
0.676845
-7.072079
-8.189552
-2.653899
7.270828
13.601313
10.304939
-0.234414
-11.021785
-18.871031
-20.429114
-13.647182
-5.427304
-2.756084
-2.717381
0.414886
4.009437
4.282225
2.162463
0.703773
2.366821
4.982926
5.184807
4.434252
4.137621
-0.075891
-7.644608
-10.188878
-5.476235
0.347997
2.419144
1.817832
0.558237
0.591987
2.219118
4.851943
6.114943
5.112344
2.820736
1.475681
2.124366
-2.278953
-12.667204
-17.501225
-9.420993
3.970406
12.863430
12.553795
5.320413
-2.082958
-6.300806
-6.399889
-4.129027
-1.498370
0.816460
2.625037
4.263005
5.373046
2.423153
-7.633479
-18.530771
-19.815137
-10.982492
-0.867340
3.988664
4.702682
5.086319
6.946605
6.441590
0.476163
-7.589827
-12.099350
-9.066477
-0.654316
7.289986
9.200123
7.575159
7.154055
6.530759
2.912674
-0.401349
3.069039
9.817222
13.057241
12.379759
10.698441
9.196711
7.199875
3.720817
-1.868404
-7.257290
-8.869560
-8.184029
-8.049028
-5.782502
-0.044038
4.755612
6.330414
5.296233
0.765345
-4.734700
-5.897690
-2.356705
1.976944
4.435445
3.815865
0.160005
-2.443716
-1.908048
-1.672726
-2.920555
-2.986508
-0.454004
2.500841
2.795303
-1.591605
-9.149794
-12.913097
-7.488294
3.698505
13.447670
16.945305
13.548919
9.199167
7.177870
4.377222
0.187861
-1.101769
-0.292074
-1.674595
-4.623558
-6.139531
-5.211866
-5.268529
-6.757874
-6.787909
-4.294110
-2.571302
-3.638924
-6.877396
-8.273850
-8.557166
-9.376151
-4.836285
4.885012
12.912916
12.745713
7.577286
2.354364
0.042319
1.536307
6.492014
14.660801
21.707472
21.703756
13.621665
2.956599
-6.200544
-11.555990
-11.037662
-3.454084
6.254208
10.115355
7.574490
3.319177
-0.550021
-2.980346
-4.232510
-5.648471
-6.942436
-7.208723
-4.643398
-0.286216
1.609059
-1.153505
-2.185828
3.186028
8.756978
9.535400
5.539561
0.887605
-0.043467
5.858793
16.418271
21.075180
12.822480
-2.530767
-12.930476
-13.358082
-6.747377
0.412001
3.387901
2.164843
-1.791054
-6.152881
-8.038249
-8.555649
-7.468522
-2.506932
4.967344
10.377285
10.049691
2.963695
-8.398978
-13.663391
-7.841017
2.088665
7.362366
2.667061
-9.456075
-18.980755
-17.521136
-8.960970
-1.723874
3.033047
4.930179
6.185438
7.036624
3.674298
-1.186970
-3.272672
-0.431462
3.086919
4.092302
3.526599
-0.144123
-5.424947
-6.749256
-2.553394
3.238636
7.176572
6.591361
2.784090
0.276666
2.012479
3.252566
0.110390
-2.566094
1.241485
8.145105
12.198845
11.621375
5.700845
-0.622520
-1.947757
0.224021
-0.317531
-3.488193
-5.178800
-2.317774
3.168337
7.341905
4.683379
-5.118114
-15.198279
-20.155845
-18.570205
-12.168194
-1.787684
7.377199
10.999617
10.102604
9.553311
9.881524
7.723678
2.544414
-2.485296
-1.877793
5.387170
13.010381
16.919212
14.620791
3.207958
-12.772920
-21.874019
-18.405180
-8.811453
-1.160994
1.253539
1.600949
3.747956
6.942459
6.548603
1.051654
-7.708537
-13.686350
-10.159609
0.459010
9.001837
10.375687
7.431987
3.289071
0.072893
0.563354
4.553928
6.398423
2.175312
-5.062714
-9.033163
-7.295183
-0.655682
6.328132
9.903176
10.519969
6.671825
-0.457519
-7.605751
-12.628030
-13.201474
-9.089214
-3.548607
-1.136242
-0.625345
4.469078
11.882975
11.417593
3.356248
-3.520434
-2.125839
6.744272
12.309958
9.750516
2.350550
-5.329634
-8.834392
-5.608617
2.206258
5.130760
-1.680590
-10.403006
-10.613868
-2.315962
7.193544
12.768830
13.330507
9.619223
2.458915
-4.463593
-7.254953
-6.576853
-6.545271
-8.251050
-8.216991
-4.737624
-2.245373
-5.196194
-11.419856
-15.279456
-13.977442
-9.797990
-3.084796
4.425398
8.167335
6.304571
0.791211
-2.527147
-0.789167
1.785757
2.375611
2.517113
3.204502
4.285437
5.229204
8.082799
11.893165
12.392915
6.871505
-0.556637
-4.190203
-3.642460
-1.885901
-1.885902
-2.938352
-4.713799
-4.111869
-1.554904
0.154280
1.236453
2.325439
1.034880
-4.060783
-6.688035
-2.382872
7.400352
16.888494
22.387300
22.293789
18.293615
15.625491
13.936741
11.089338
6.239217
0.661453
0.501681
6.024638
10.948761
9.622594
2.560441
-4.001343
-8.076448
-11.476860
-13.743388
-11.851519
-6.488952
-0.913976
2.770059
5.490821
7.626682
11.038238
14.189702
12.024734
5.074668
-3.129419
-6.024815
-2.106076
4.194374
7.743099
5.608785
-0.219473
-4.078144
-5.969704
-9.379404
-10.895997
-8.522646
-5.129667
-1.742571
1.304236
0.208747
-3.387973
-3.774707
-0.368414
4.370857
8.413140
9.527825
4.452909
-5.239594
-15.218818
-19.684992
-14.658689
-3.054193
7.087898
11.543234
9.102382
-0.354488
-8.696363
-8.320157
-1.699853
4.837777
11.003537
17.212026
19.767442
15.097528
6.950414
0.768862
-0.547706
1.037004
1.038552
0.863608
2.380818
2.909674
-0.227547
-5.092841
-9.385001
-13.412732
-17.029578
-19.254925
-20.626918
-18.716471
-11.398870
0.006532
10.916207
14.740198
9.892553
1.248785
-5.589193
-7.988245
-9.413186
-8.111171
1.673911
15.539671
22.902169
16.940768
1.638610
-14.425250
-22.401446
-18.899785
-7.692860
3.840731
6.763064
-1.234806
-13.658598
-22.944859
-24.230464
-20.089716
-14.137296
-7.688530
-2.323486
-0.452982
-3.892098
-9.670195
-12.134271
-6.108157
4.082547
10.853643
12.478296
10.096584
3.359547
-4.639871
-10.320743
-13.606280
-13.207781
-8.461697
-3.280886
-1.863688
-3.817175
-6.018061
-5.054787
-4.700875
-9.009136
-11.691194
-6.804536
3.214010
12.682026
17.911759
16.758678
10.996991
6.517812
3.703230
-0.017963
-3.350873
-2.527555
0.536592
4.222795
8.497923
10.344585
10.666605
13.167216
17.840535
19.958437
16.882833
11.203200
5.757960
3.553358
8.033156
13.727651
13.004653
6.501081
0.999487
-3.135688
-8.513118
-14.632743
-19.533335
-18.850591
-12.703409
-5.504708
-0.044916
6.524298
14.310067
17.554730
12.655996
3.813132
-3.863337
-7.649244
-4.531840
4.547274
14.383446
16.231346
8.859558
0.482694
-3.015252
-2.516121
-2.414871
-4.019090
-5.056677
-2.131557
4.388116
9.150610
5.700657
-4.404898
-13.475344
-16.884734
-14.433046
-10.645282
-10.055119
-11.958755
-9.858811
-1.661847
6.578776
9.833348
7.550409
2.400251
-2.220741
-6.787547
-11.708265
-13.207828
-9.452886
-4.059046
-1.949814
-1.019052
2.429042
5.007681
5.497832
5.316696
4.271367
4.248144
7.249435
10.867828
8.964811
2.896586
0.199046
1.516232
3.378995
3.566633
3.836015
6.028539
8.404677
8.110833
2.887911
-3.700501
-8.835797
-10.198501
-7.732569
-2.061296
3.445870
1.727086
-3.609473
-8.428941
-12.939393
-16.736137
-17.331875
-12.649267
-5.223293
-0.880045
-0.449653
-0.676616
0.334961
1.744109
0.849263
0.646142
5.441767
12.969301
16.756755
13.000573
5.912410
0.439612
-3.624346
-6.114740
-6.703357
-6.310431
-6.778909
-9.120678
-11.293077
-8.435457
-1.964708
1.426723
0.216979
-1.998150
-3.625901
-5.568551
-7.847155
-8.532687
-7.112393
-5.673210
-6.121872
-7.321707
-5.850633
-3.709817
-2.958953
-3.207591
-3.339496
-4.041129
-4.804070
-3.191182
-1.553214
-3.325565
-6.296512
-6.849211
-4.820174
-1.634341
1.592983
4.457415
6.701648
7.259919
6.953070
6.027881
0.748915
-7.107143
-9.805302
-4.909355
1.719618
7.827476
11.074307
8.294094
2.565848
-1.976807
-4.412086
-2.661410
1.702893
4.075006
5.321905
7.240712
7.066696
3.978397
4.467001
7.942342
10.200819
10.455338
8.110163
2.846678
-3.266444
-5.319944
-2.132562
0.142634
0.943040
1.793297
4.686525
10.603957
11.677461
5.111652
-4.114850
-9.186360
-8.567091
-3.354388
2.347848
4.004704
1.824564
-1.031199
-3.241993
-5.844475
-6.334938
-1.900037
7.022402
15.390285
17.511593
12.703272
5.532127
1.335335
1.759843
6.001841
12.162337
14.991161
10.844839
3.663786
-2.139392
-7.783108
-13.774854
-16.734345
-14.412394
-9.921759
-6.435580
-3.328704
-1.448601
-5.849133
-16.779556
-26.872106
-28.972360
-21.936527
-11.636213
-3.117847
1.721436
3.321319
0.894710
-3.546074
-6.351677
-5.749747
0.145082
9.539095
18.233333
22.567292
22.728301
19.344611
13.896893
7.808542
2.067600
0.462762
5.159613
12.335711
16.759774
15.936764
8.712362
-1.387929
-10.336069
-14.333766
-11.270239
-6.830694
-7.323014
-11.920164
-15.208797
-15.169784
-13.490944
-11.686392
-8.598404
-4.958955
-3.650439
-5.441677
-8.321283
-9.853357
-8.311375
-5.204190
-4.227911
-3.528756
-1.551119
1.484232
3.493143
4.257940
4.363215
3.695642
1.853004
-0.475761
-1.508703
-2.539788
-2.655282
-1.747124
-2.019603
-3.549200
-2.851903
-2.470124
-4.840689
-6.961689
-5.910479
-1.350796
5.386550
11.465921
13.402997
12.474091
10.947591
8.828139
5.861217
5.032014
8.234877
15.692124
23.194577
27.258225
25.489280
17.139355
6.506491
-4.189537
-12.233543
-15.585651
-16.138970
-15.076303
-11.981193
-7.174731
-2.523706
-1.416452
-2.972058
-4.574419
-5.027725
-4.705396
-4.728309
-5.792835
-7.762113
-10.579172
-10.845149
-5.412915
2.369448
5.547231
1.014485
-7.489948
-13.126852
-9.083950
1.397810
11.669638
17.385808
18.905805
18.116236
14.777751
9.244575
2.813457
-0.660957
0.589039
5.120545
10.051171
14.187274
15.557098
11.034260
3.371105
-0.193103
0.553117
0.174123
-2.916343
-6.409026
-5.599331
2.392036
11.484464
14.944015
12.130671
5.592110
-0.886072
-4.494558
-4.506324
-2.975490
-2.187779
-1.992400
-0.229959
1.596887
0.026727
-5.668388
-11.269065
-11.442771
-6.881230
-1.131000
1.191880
-2.981689
-9.522108
-14.501038
-16.807199
-16.012677
-14.405672
-13.763490
-13.530645
-11.800715
-8.910893
-5.952332
-1.573786
2.604737
2.708155
1.042628
2.626719
8.140697
13.662106
15.160120
11.946418
7.172467
4.799115
2.757691
-2.460277
-7.674839
-6.204693
2.881543
12.006793
12.624514
6.981107
2.183933
-1.119253
-3.142098
-3.540599
-0.074546
7.357310
13.751890
14.608649
9.835936
4.645835
1.171112
-0.356318
3.377569
10.459228
14.245753
11.208544
6.825661
8.157091
13.466709
17.299989
14.605545
8.309738
3.000738
-1.020801
-4.717223
-9.193925
-12.198313
-12.488442
-11.358894
-10.140172
-9.004741
-5.680811
1.620070
9.517308
14.382600
16.045030
13.880681
8.085863
1.521603
-4.033867
-5.684841
-1.914727
3.768002
7.786753
9.656018
9.515134
6.346329
0.109662
-6.965496
-10.592560
-12.116583
-12.745762
-9.250604
-3.705662
-0.047946
4.678321
14.705847
24.841126
24.747616
13.370390
-1.047141
-11.500416
-14.489942
-11.659260
-6.023905
0.153001
4.605551
3.862426
-2.029307
-8.413670
-13.657957
-20.413572
-26.058836
-23.739362
-14.646004
-4.485026
3.476926
8.350579
8.070049
4.100838
0.868559
1.721912
5.920251
9.585709
9.441109
6.620644
4.675207
5.414615
7.591657
9.606451
8.884072
2.494755
-5.568448
-10.103981
-9.693405
-8.131298
-4.950729
-0.812149
2.601885
6.980741
11.490264
13.370986
9.366786
2.119471
-4.259938
-8.004043
-10.024721
-9.659972
-7.010427
-3.886830
-2.956997
-6.206616
-8.863903
-8.336286
-6.915372
-6.359578
-5.366579
-3.946285
-1.232645
4.131779
9.837112
10.577758
3.326108
-4.335499
-5.843731
-2.548597
-0.641866
-4.034536
-10.169024
-13.527324
-12.840864
-11.792751
-9.455008
-4.374828
1.653763
5.165332
4.010393
0.153270
-4.501781
-9.411353
-14.662452
-15.617367
-7.971243
3.876317
13.208713
16.516232
14.384086
10.231881
7.446095
5.061596
1.628983
-1.645097
-0.909096
3.932665
6.433895
5.177087
3.448704
0.547115
-5.420480
-13.166926
-16.945711
-13.210276
-6.453424
-1.049676
1.834263
3.251771
4.718511
7.411096
11.189260
12.752606
11.489605
11.083983
10.540883
8.967937
8.605973
10.431580
11.976038
10.254158
5.331272
-1.957844
-8.841648
-13.892723
-15.968206
-14.879221
-11.018693
-6.838003
-3.392387
0.705321
5.557919
9.685661
10.670609
10.181695
9.119028
6.983475
2.839011
-0.840690
-2.290402
-3.461441
-2.770646
-0.660795
1.549688
1.800802
-1.793751
-7.063737
-11.431758
-11.553754
-7.616128
-2.754550
1.083374
2.891331
3.426690
0.696019
-5.709709
-10.066892
-7.649573
-0.049584
5.934419
6.993060
4.515671
3.566330
5.198415
5.857627
4.488731
2.534314
1.787474
0.014195
-1.661550
-1.508281
-1.174495
-3.079989
-7.452964
-10.531045
-10.504726
-7.954574
-5.581223
-4.797537
-3.306955
-0.060434
2.191850
-0.339107
-5.065994
-7.613670
-5.483073
-0.356139
4.619384
9.238517
11.453025
11.088275
8.891724
6.711894
5.515464
4.896503
4.307887
3.674683
4.474160
5.266824
2.975835
-2.549600
-6.249428
-5.390192
-1.891628
2.266768
3.694804
2.972425
3.126933
3.593552
1.424249
-2.280843
-4.481109
-5.647814
-4.717052
-1.926003
2.470812
7.434259
9.838264
9.482183
8.295971
8.417038
9.227661
9.537605
9.401985
7.772066
3.818647
-1.220662
-4.100267
-3.293669
-0.402608
1.630764
0.687306
-3.319371
-8.849760
-12.583029
-13.089592
-12.072442
-10.166330
-6.146341
-0.561147
1.720862
-1.412954
-5.537601
-7.810941
-9.591033
-13.654372
-18.426775
-18.827134
-13.224600
-6.413252
-3.564302
-3.411343
-3.017178
-1.619177
1.524236
6.433806
9.858368
9.621187
6.800412
4.057356
1.769463
-0.179689
-0.766138
0.052536
2.380061
5.237372
6.478697
2.402044
-4.037434
-7.344955
-7.654900
-7.605669
-7.918091
-5.346264
-0.027046
4.508485
5.532757
3.341470
0.725674
0.226852
0.831258
0.737438
0.130863
2.143489
7.428028
11.905967
13.663145
13.290344
12.049327
9.353335
6.561666
4.392673
1.614938
-2.125453
-3.046308
1.346173
7.100427
10.256845
8.294069
1.741265
-4.926104
-6.127798
-2.662365
1.640941
6.463504
13.077924
19.047685
19.357009
11.947755
2.212214
-2.661131
-1.670609
1.012067
1.297860
-0.031713
-1.617973
-2.872615
-3.892243
-3.893173
-3.099579
-2.025456
-0.327109
2.208800
3.502764
0.482894
-5.974852
-12.142470
