EVENT_NAME: 202010301151
EVENT_ID: 10614
EVENT_DATE_YYYYMMDD: 2020/10/30
EVENT_TIME_HHMMSS: 11:51:24.00000
EVENT_LATITUDE_DEGREE: 37.879
EVENT_LONGITUDE_DEGREE: 26.703
EVENT_DEPTH_KM: 16.54
HYPOCENTER_REFERENCE: AFAD
MAGNITUDE_W: 6.6
MAGNITUDE_W_REFERENCE: AFAD
MAGNITUDE_L: 
MAGNITUDE_L_REFERENCE: 
FOCAL_MECHANISM: 
NETWORK: TK
STATION_CODE: 3523
STATION_NAME: 
STATION_LATITUDE_DEGREE: 38.3282
STATION_LONGITUDE_DEGREE: 26.7706
STATION_ELEVATION_M: 76.0
LOCATION: -_-_-
SENSOR_DEPTH_M: 
VS30_M/S: 414
SITE_CLASSIFICATION_EC8: B
MORPHOLOGIC_CLASSIFICATION: 
EPICENTRAL_DISTANCE_KM: 50.30
EARTHQUAKE_BACKAZIMUTH_DEGREE: 
DATE_TIME_FIRST_SAMPLE_YYYYMMDD_HHMMSS: 2020/10/30 11:51:02.8964160
DATE_TIME_FIRST_SAMPLE_PRECISION: millisecond
SAMPLING_INTERVAL_S: 0.01
NDATA: 10501
DURATION_S: 
STREAM: HNE
UNITS: cm/s^2
INSTRUMENT: sensor = CMG-5T/GURALP | digitizer = 
INSTRUMENT_ANALOG/DIGITAL: 
INSTRUMENTAL_FREQUENCY_HZ: 
INSTRUMENTAL_DAMPING: 
FULL_SCALE_G: 
N_BIT_DIGITAL_CONVERTER: 
PGA_CM/S^2: 64.950
TIME_PGA_S: 
BASELINE_CORRECTION: BASELINE REMOVED
FILTER_TYPE: BUTTERWORTH
FILTER_ORDER: 
LOW_CUT_FREQUENCY_HZ: 
HIGH_CUT_FREQUENCY_HZ: 
LATE/NORMAL_TRIGGERED: 
DATABASE_VERSION: 
HEADER_FORMAT: DYNA 1.2
DATA_TYPE: Acceleration
PROCESSING: Manual Paolucci et al., 2011
DATA_TIMESTAMP_YYYYMMDD_HHMMSS: 
DATA_LICENSE: U (unknown license)
DATA_CITATION: Turkish Accelerometric Archive v 1.0 - Disaster And Emergency Management Presidency, Earthquake Department
DATA_CREATOR: AFAD
ORIGINAL_DATA_MEDIATOR_CITATION: : AFAD - Disaster And Emergency Management Presidency
ORIGINAL_DATA_MEDIATOR: AFAD PROCESS SERVICE
ORIGINAL_DATA_CREATOR_CITATION: AFAD PROCESS SERVICE
ORIGINAL_DATA_CREATOR: network: TK
USER1: GuestUser
USER2: 
USER3: 
USER4: 
USER5: 
[...]
0.008600
-0.034698
0.022093
-0.041600
0.024603
0.043429
-0.022773
0.029939
0.027429
-0.037205
-0.028105
0.039039
-0.029987
0.014567
0.060376
-0.020887
-0.013042
0.005470
-0.017748
0.030885
0.042181
-0.051632
0.011433
0.030259
-0.024021
-0.006136
0.032457
-0.008959
-0.021509
0.024928
-0.010213
0.002652
0.020223
0.014889
-0.010525
0.026185
-0.011151
-0.036565
0.014891
0.018970
0.002969
0.002970
0.026188
-0.019306
-0.014913
0.001716
0.013012
0.032152
0.010189
-0.036560
0.002660
0.010190
-0.006438
0.026506
0.015839
0.005799
0.012702
-0.030282
-0.048166
0.040000
0.034353
-0.012082
0.012391
-0.000159
0.007999
0.005490
-0.019297
0.019923
0.011139
-0.018040
0.012708
0.023690
-0.011136
-0.017097
-0.015842
0.024947
0.023692
0.017417
-0.022115
-0.013330
0.049422
0.002359
-0.009877
-0.009563
-0.005484
-0.006738
0.027148
0.013970
-0.004541
0.014912
0.008324
0.026836
-0.030267
-0.064153
0.028406
0.075470
0.022132
-0.027128
-0.034344
-0.004223
0.020878
0.018369
0.009270
-0.008300
-0.000142
0.010526
-0.011750
-0.024927
0.002370
0.044728
0.022765
-0.010806
0.013353
-0.014884
-0.007981
0.013041
-0.013628
0.010531
0.012414
0.003943
0.012102
0.003631
-0.018332
-0.019900
-0.000447
0.020889
0.012418
0.008339
-0.006093
-0.001386
0.016185
0.039089
0.046306
-0.016445
-0.013934
-0.014562
0.018383
0.021835
-0.007344
-0.023031
-0.061937
-0.026796
-0.032757
-0.064446
-0.071348
-0.023029
-0.043423
-0.067268
-0.037147
-0.085151
-0.084209
-0.041852
-0.043734
-0.053460
0.000193
0.051963
0.047571
0.093380
0.173388
0.158956
0.118168
0.028120
0.008040
0.029376
-0.082948
-0.191508
-0.228531
-0.195586
-0.137227
-0.050316
-0.096124
-0.238883
-0.271199
-0.104594
0.120370
0.158649
0.214498
0.383614
0.413421
0.287291
0.223913
0.018402
-0.338967
-0.466979
-0.275587
0.061702
0.085548
-0.006696
0.341888
0.608269
0.358518
0.132928
0.055744
-0.010459
-0.074465
-0.314174
-0.476073
-0.269934
-0.223497
-0.199965
-0.098935
-0.511525
-0.657422
-0.076971
0.217961
0.032845
0.126659
0.378292
0.533916
0.509757
0.246202
-0.032414
-0.328286
-0.397626
-0.205920
-0.282477
-0.042138
0.311152
0.321193
0.822577
0.678877
-0.193995
-0.317928
-0.407035
-0.742441
-0.539753
-0.394483
-0.306945
-0.158851
-0.022680
0.296725
0.033170
-0.444368
-0.376596
-0.211246
-0.295646
-0.260505
-0.109274
0.574089
1.416841
1.243648
0.814115
0.409369
-0.282465
-0.706664
-1.097919
-1.129921
-0.620380
-0.397926
0.318068
0.831689
0.412824
0.668850
0.893500
0.121659
-0.346153
-0.578332
-0.794511
-0.300657
0.180647
0.271009
0.221750
-0.079143
-0.434943
-0.289045
-0.071925
-0.330460
-0.344265
-0.104241
0.343805
0.862132
0.852406
0.424442
-0.095140
-0.384109
-0.480746
-0.481687
-0.545379
-0.002579
1.075490
1.261235
0.829192
0.685178
0.698670
0.248115
-0.844386
-1.245995
-0.738963
-0.905254
-1.037345
-0.145020
0.217684
-0.375317
-0.718253
-0.515251
0.357307
0.634355
-0.475089
-1.241911
-1.240342
-1.280816
-1.334782
-1.302464
-0.952939
-0.450927
0.045123
0.315268
-0.481360
-0.282438
1.655953
2.517217
1.503468
0.650677
1.671956
1.262504
-1.076554
-1.675516
-1.458082
-0.911203
-0.343930
-0.491395
0.247189
0.857447
0.270408
0.089371
0.945614
1.735027
0.934320
-0.021070
-0.757457
-1.973579
-1.956949
-1.523964
-1.739201
-1.581381
-0.978340
-0.189868
0.879416
2.002039
2.380744
2.670970
2.739997
1.436023
0.807882
-0.166960
-2.112567
-2.766750
-3.040346
-2.234931
-0.152839
0.848360
1.615496
2.269366
1.839833
1.201024
-0.099812
-0.877615
-0.503930
-0.636962
-0.932521
-1.808530
-2.338465
-1.842415
-1.715657
-0.839333
-0.028271
0.344159
1.118825
0.619011
-0.000031
0.702785
0.907669
1.305827
1.539262
0.424170
-0.263898
-1.033230
-2.185032
-2.297356
-1.353888
-0.695940
0.207681
2.141052
2.376684
0.831117
-0.066541
-0.470973
-0.865679
-1.511077
-1.860916
-1.594849
-1.828912
-2.259386
-2.278524
-2.361356
-1.187591
0.496030
1.181276
2.986006
4.044623
3.236071
2.255581
0.488502
0.127368
0.149959
-1.912993
-1.803491
-0.919951
-1.921463
0.070895
2.133847
0.982987
1.240268
1.685176
0.545925
0.238757
-0.001267
-1.098474
-1.265079
-0.928104
-0.576068
0.689315
0.886354
1.018760
2.486202
1.765816
1.207016
2.583782
2.129462
2.130404
2.218570
-0.665170
-2.087116
-1.646287
-1.401243
-2.274428
-5.127420
-5.781289
-4.415505
-2.736904
-0.407572
1.198864
0.901423
-0.266066
0.107619
-0.223081
-2.409653
-2.342508
-1.260674
-1.033827
-0.584527
-1.579450
-0.635982
1.165611
0.030752
0.029812
1.579144
2.687962
2.275372
0.071857
0.218068
1.727239
0.185124
-0.452430
1.243741
0.618424
-1.850530
-3.370054
-4.034905
-3.059748
-0.338533
2.541757
3.947075
2.948073
1.386505
1.213939
0.919635
-0.668602
-2.199736
-2.585657
-1.472760
-1.462720
-3.540732
-3.649291
-1.558414
0.313147
1.862479
2.897250
3.897508
4.220678
3.955554
3.206930
-0.062104
-2.237067
-1.562803
-2.864894
-4.403871
-3.580259
-0.850573
1.951905
2.497843
2.738809
2.717160
3.624545
4.887731
2.165576
-1.260022
-2.426257
-2.300753
-0.365500
0.140904
-0.863431
-1.252803
-0.993953
0.606835
0.153457
-1.264724
0.484157
0.880747
-1.547732
-2.088021
-1.918278
-3.744657
-5.884793
-4.973956
-2.277842
-0.602693
-0.612105
-1.606401
-0.289562
2.280422
2.116327
1.441436
2.427889
1.835830
0.175114
-1.049165
-1.712761
-2.244578
-2.678504
-2.585004
-4.175124
-5.489451
-3.488309
-0.824512
0.607789
3.619857
6.379664
5.685006
5.735522
5.369368
-0.122321
-6.038522
-9.242922
-10.625648
-7.493098
-1.753227
0.392243
0.801383
3.758229
7.206419
8.203225
7.325647
6.073757
4.304168
1.332890
-1.291687
-2.660922
-4.657671
-3.807389
0.950422
2.768958
0.887672
0.118026
0.403859
-2.752849
-7.025591
-5.864690
-3.079155
0.183604
3.457345
1.263243
-1.235204
-0.493482
0.316953
1.014121
-0.992040
-6.479963
-7.371660
-3.369690
-0.109440
-0.215176
-1.988844
-1.212295
-0.319970
0.178591
0.322292
-0.689574
-3.723290
-6.962830
-2.107127
5.482028
3.741618
0.206518
2.607701
5.662126
4.109970
-2.584348
-3.535659
4.189980
8.525160
2.998645
-7.036244
-10.647273
-6.267852
-1.619542
-1.852663
-5.979195
-4.453394
1.370877
1.579840
2.942801
4.343726
-1.590987
-3.281823
3.914194
5.728337
2.874718
2.139586
4.147945
8.097204
8.129208
5.410190
3.051366
-0.815689
-7.602880
-12.220127
-9.586137
-2.351842
0.195552
0.760001
3.988247
3.541458
1.618442
0.183317
-0.457688
-1.472377
-4.555981
-2.631709
-2.839102
-5.510428
-1.111555
-2.359366
-5.872816
1.843410
5.473579
2.984545
4.532622
-0.289822
-5.282009
-0.951849
4.696719
7.664860
10.140403
11.659929
9.514145
1.808902
-4.336342
-3.119906
-1.592537
2.079989
5.137552
1.550996
-3.351770
-7.733700
-12.081430
-14.568268
-11.623344
-3.455622
3.320902
6.271473
4.838545
-0.343778
0.226946
7.751153
8.729134
6.082908
5.902184
1.737060
-1.881499
-1.650573
-4.360805
-3.965785
3.456765
4.026234
-2.210627
-7.436563
-13.113682
-14.807969
-12.044397
-10.404703
-3.642298
11.684104
19.598938
13.861578
10.342794
10.912577
12.550389
10.918540
0.541028
-4.785311
-3.059019
-6.129445
-6.186862
-1.548278
-5.130128
-6.692951
-1.544512
1.581449
-0.858324
-9.956649
-14.099496
-11.349729
-9.618418
-8.136543
-3.411676
8.870969
17.571451
15.060454
10.473013
4.107826
1.246362
2.350160
-0.470201
-0.446042
1.528118
-0.537344
0.309487
4.790878
5.658417
-1.579329
-9.018507
-3.795394
6.027083
6.017043
-0.732811
-8.562302
-11.009293
-6.974064
-6.881505
-6.636460
1.442469
10.571229
10.325244
5.200024
0.473275
-4.462749
-1.529435
1.937580
-2.420190
-2.067213
5.316744
8.279866
2.886384
-2.653623
0.669377
6.178951
6.584325
5.526023
6.589974
7.529049
1.040554
-2.432421
4.116629
4.962204
3.393734
6.140676
2.772182
-0.971252
1.810517
0.031202
-4.170631
-2.465048
-0.274082
0.143842
-2.093872
-5.053855
-3.427025
-1.719559
-1.638295
1.193676
2.888905
-3.822984
-7.467898
-3.508599
-7.735846
-14.177590
-6.528508
3.715658
5.125055
7.240091
11.208176
14.222126
14.119528
7.838113
0.605701
-4.378955
-7.202768
-5.019019
-2.513355
-1.573025
6.573362
9.927738
2.001610
-0.243007
-0.360352
-7.050906
-14.944404
-18.398868
-16.251514
-12.771008
-8.861909
-4.418168
-2.329801
0.441928
7.393215
11.246778
9.274502
5.971583
1.496781
-0.234529
2.952301
2.396010
-3.122975
-4.132958
1.610364
3.622488
-2.732660
-2.041139
2.224702
-0.748773
2.188307
5.469264
0.335886
4.557487
13.242281
10.480906
5.471776
-0.299470
-5.735623
-1.402952
3.120483
-0.148237
-1.654270
1.263984
6.623895
10.078046
7.313220
2.919995
-0.976866
-4.803132
-4.502553
-5.043469
-11.158906
-5.800250
5.672902
5.009934
4.026934
7.357151
7.716089
7.978390
6.442550
-1.687834
-5.488058
2.007910
1.809302
-9.657260
-9.369858
-4.557453
-9.087476
-4.704918
1.331139
-6.217540
-7.333573
-3.656654
-5.624538
-2.507675
1.329887
3.826452
5.854891
1.878649
0.879333
1.771031
2.081651
9.608682
15.529904
12.883992
6.505940
1.695732
-1.876705
-0.910019
3.780648
-2.965440
-5.461690
0.300143
-2.920572
-2.557554
-0.942019
0.220765
7.527224
9.549702
9.757723
12.289115
9.028553
4.003735
-1.958902
-12.883607
-15.307379
-6.211877
-3.347903
-7.374973
-7.940677
-5.929808
-4.726863
-3.692720
-2.210845
2.285607
7.910015
1.265897
-13.752080
-20.273205
-15.071428
0.767339
4.347307
-6.528137
-2.263552
5.730035
4.331307
3.834630
-3.717500
-5.520661
8.616288
9.791622
7.837858
10.781840
5.246226
5.087465
5.639364
-1.337336
6.284763
18.977489
16.285454
14.138415
11.345037
2.063479
-1.586770
1.183391
3.253874
-0.147565
-5.295376
-11.158238
-10.720233
-1.390041
1.090208
0.104384
1.171472
7.115285
9.257618
1.646815
-1.091028
1.441619
1.817500
6.373880
10.506060
4.545305
1.067623
-1.237550
0.977261
7.548274
-1.203663
-8.251585
1.078293
5.662597
2.795486
0.420973
-0.985913
2.041843
3.076614
-2.229644
-6.158195
-7.906449
-4.909441
-5.539151
-13.279536
-12.991193
-8.187886
-3.324025
4.284582
1.635846
-10.096469
-8.414417
-5.668102
-6.118342
4.254778
5.785599
-0.221592
2.029614
2.688505
0.205746
-6.563561
-14.726576
-13.904218
-8.740092
-4.860800
-1.203962
1.578749
2.310117
-0.562641
-9.886871
-16.163893
-11.348350
-9.162719
-7.693708
2.401110
3.966444
6.631182
20.773152
25.778203
20.184544
18.462333
14.292189
4.654202
0.847075
0.789658
2.015507
4.204904
7.251485
7.478959
4.377471
0.956579
-5.344288
-15.531036
-17.625050
-8.872798
0.319968
9.261729
10.784392
1.943348
-0.913409
2.341821
-1.304976
-11.328884
-14.185014
-10.522528
-13.718456
-15.940169
-14.398994
-8.479027
-1.233437
-0.647966
-1.213669
-0.193958
3.500531
8.507779
2.756927
-2.139878
9.673073
17.397771
17.313057
17.038834
10.278312
1.586617
-2.196037
0.511686
6.793729
7.045990
7.407752
13.024003
13.306698
8.151671
5.151214
1.622703
-7.902645
-11.382210
-15.789867
-22.409826
-11.510221
1.511635
5.901096
5.974829
-0.404477
0.198250
9.170759
0.098790
-15.467635
-17.675542
-18.497585
-15.770723
-12.470940
-15.295694
-6.920892
4.980539
-2.535823
-8.937407
-6.635058
-10.963649
-11.139980
-2.964413
-3.147333
-2.394002
9.667444
16.535585
7.099344
-2.307090
-0.221861
-2.164016
-4.967121
-7.742301
-12.275148
-5.750257
4.753386
12.033176
20.626040
17.950320
10.124594
16.325687
25.006716
22.252558
11.524266
3.789215
9.934460
19.062906
12.359175
1.186602
-4.916284
-9.286291
-16.063756
-17.522725
-12.487553
-11.700650
-10.473232
-10.070995
-3.891865
3.579004
-6.486006
-14.117204
-1.663874
5.479745
-3.280350
0.871911
10.358667
13.019641
22.196406
20.570517
18.848306
29.112239
29.711201
20.911259
9.996595
7.978197
18.095605
15.676853
4.569229
12.192583
20.226644
14.344015
14.071047
12.013429
4.438708
12.173446
26.781658
29.117893
22.071539
24.904137
31.974338
24.651250
18.173424
13.910408
11.928405
13.212299
10.163209
6.307764
-2.567166
-5.509578
-1.669193
-8.938942
-23.015335
-17.712841
-0.896094
-1.060188
-6.577291
-3.719278
-9.779180
-23.816667
-23.086554
-21.549772
-24.853319
-13.305179
-7.658808
-17.312796
-16.959505
-16.419215
-15.753422
-5.701276
-8.722441
-17.035746
-6.776206
-4.760631
-14.609148
-7.680138
3.511887
2.088059
-2.991353
-0.615271
-1.114771
-0.133653
2.296709
-11.140247
-18.153029
-3.557367
-8.109667
-28.590154
-20.667162
-8.569947
-10.332634
-10.868844
-12.030372
-7.636519
-1.816326
-6.370195
-10.938496
-4.521851
-3.985640
-11.243153
-5.871005
-1.490957
-7.249653
-4.388502
2.644989
3.554571
10.638576
15.656492
4.783872
-0.646634
2.892545
5.687807
6.475023
-0.284557
1.031341
9.787357
11.998403
14.173995
21.070060
22.236609
17.479426
13.139539
5.377819
5.241963
15.439379
18.186636
13.018118
12.522696
17.868488
18.964755
12.708127
13.546800
22.062479
31.614183
27.053099
16.285900
20.252730
18.525812
4.291286
-12.208880
-28.458354
-30.033414
-20.474179
-22.141484
-21.363366
-11.842410
-9.315410
-14.096439
-19.706727
-26.678093
-28.515140
-21.962952
-29.182187
-43.052128
-33.906425
-20.806443
-26.818340
-32.375603
-25.225081
-15.302516
-6.463667
-6.996112
-13.237052
-4.608735
0.714467
-3.130625
3.439761
11.944772
21.415527
41.092170
48.493384
41.891623
44.245742
43.664665
31.990709
19.632763
11.271767
7.399065
6.726057
6.015711
3.462671
-4.176056
-15.755571
-37.860692
-63.025257
-64.950470
-52.955853
-51.016835
-48.373745
-31.354625
-20.249823
-19.191207
-22.649122
-26.007576
-19.380401
-10.034521
-4.279904
2.520780
11.349588
15.890907
28.895821
42.657517
37.677252
31.696417
35.039812
39.973013
45.709433
47.815684
47.414389
43.542001
31.152679
20.923888
12.517711
0.145018
-16.226507
-22.362338
-19.764430
-29.598515
-42.932245
-45.816299
-44.736661
-44.574448
-42.114279
-40.441013
-43.114222
-40.731551
-32.479742
-28.745719
-23.273483
-16.313725
-8.864507
1.465943
12.544389
23.388458
29.304347
32.784853
39.774418
43.145110
34.643865
24.546538
17.550071
11.513701
3.200710
-2.057543
-3.719514
-11.168104
-16.936840
-14.288417
-8.695070
-8.578980
-5.018779
7.678967
10.493054
3.791205
6.074101
3.537376
-3.514625
6.572349
15.710208
15.061045
21.815606
28.425838
21.651198
16.792985
21.851376
18.875705
9.529826
7.128016
0.850367
-2.993783
2.304945
4.791156
8.315902
10.638646
13.556272
17.683746
14.142058
6.807988
6.775044
9.906340
11.755624
11.562036
-1.513159
-12.158619
-15.751450
-23.083323
-31.233788
-30.476064
-17.656894
-9.042068
-6.106244
-14.309106
-20.289628
-9.062775
-3.583322
-6.329637
-13.561107
-20.866311
-19.513390
-16.120736
-16.803157
-14.316005
0.505562
13.175697
17.402946
17.390396
15.504717
23.296244
33.497112
33.491779
22.948289
20.532047
16.698565
-4.926508
-14.858171
-12.007061
-12.480834
-13.061911
-10.849924
-8.741790
0.229777
10.902849
2.107300
1.108612
17.472608
15.989165
-1.779834
-13.377233
-12.121577
-14.312855
-21.897616
-29.073238
-35.095803
-27.981677
-18.015186
-15.743271
-16.001179
-9.436127
1.657693
-0.649048
-8.650165
-11.189713
-11.245248
-10.957846
-3.216519
6.864179
-1.597846
-5.838899
1.579885
2.450248
1.147843
-0.513500
1.232872
10.686370
24.157841
23.840633
11.222582
-5.087761
-20.733880
-26.891047
-36.646692
-47.518372
-43.931501
-28.805590
-17.991328
-8.675569
-4.197001
-14.332920
-18.582130
-19.235686
-26.662941
-33.820992
-39.237065
-39.270950
-26.527396
-13.170133
-4.233079
4.224555
7.444330
9.184426
16.327418
23.132494
19.756469
17.616961
25.736051
36.800378
35.662068
30.762125
32.309889
31.834234
36.254129
40.641393
32.875908
33.028395
52.761200
62.075076
50.433437
44.839151
41.004099
27.806539
22.000153
6.179271
-18.986235
-19.461890
-17.589702
-20.767119
-16.566226
-19.890167
-14.988028
-10.164013
-19.658613
-25.198620
-30.321957
-33.802150
-27.490613
-22.810614
-23.983437
-22.660323
-18.179246
-10.928321
-9.283920
-9.074958
-1.125297
-1.940751
-8.496389
-6.061320
-7.201199
-13.230980
-12.607859
-4.753893
6.194030
16.469572
24.881397
23.849764
20.502605
27.181551
30.441486
28.998832
24.729541
4.702119
-13.027660
-14.901731
-15.205761
-16.494674
-18.553233
-20.018792
-12.298801
-7.530635
-13.348003
-19.148742
-16.212917
-3.443007
1.971184
6.226356
10.918279
9.793774
14.813573
24.741472
29.400450
26.084666
26.250330
31.625929
31.146195
14.011926
-1.005424
-3.271377
-10.845156
-14.945018
-12.008566
-8.812323
-4.071455
-7.945726
-9.464623
-6.269635
-13.725128
-19.798835
-12.034605
2.253575
5.407147
5.379537
6.195619
4.513569
7.236352
4.608324
-0.824378
-10.010555
-24.699715
-34.396374
-36.011909
-38.254957
-47.119847
-48.659765
-41.530892
-26.244024
-10.370430
-7.028290
-16.358168
-15.841723
-1.633865
0.814381
-5.691370
-12.507740
-6.467917
4.159660
5.855517
6.314230
7.678759
16.890351
28.862063
27.603585
22.863972
19.043981
8.854723
-1.479490
-9.016560
-13.072183
-6.969923
1.571798
0.664099
4.248146
16.056077
28.818143
40.806484
47.881077
36.926880
23.926987
27.339408
22.693609
16.236491
13.254231
-1.106740
-4.394599
2.184885
-7.533109
-14.456784
-12.867919
-17.813983
-19.539646
-11.533509
1.493054
12.998837
26.663268
43.073387
50.984456
43.822639
43.165946
46.899655
24.773826
3.498279
-6.326393
-13.626263
-12.809553
-19.548739
-31.694899
-27.601939
-11.406744
-5.271539
-5.114660
-0.974009
4.440809
3.694068
2.662749
3.400706
1.026508
-0.960829
-7.371825
-16.521292
-22.455378
-20.432586
-13.806979
-15.231435
-18.483212
-13.859062
-11.203108
-10.566809
-8.032279
-6.805175
-2.635344
1.669716
-3.795931
-2.353903
6.002073
16.073359
30.134066
30.847236
34.334331
43.760533
44.086840
40.162055
35.696666
32.707817
35.970263
33.849580
25.039284
21.697145
7.338056
-13.622479
-21.514094
-22.001045
-27.358445
-35.691830
-45.387234
-52.884771
-48.279445
-43.954619
-41.948456
-38.478931
-39.162607
-39.504288
-34.008520
-17.511177
2.584017
14.450621
12.887170
8.295964
8.752168
1.713344
-10.530395
-21.962130
-24.071518
-10.656524
0.367642
4.483193
6.301101
-1.047401
-2.312782
-1.552549
-6.063432
1.354724
2.815264
6.113164
11.020637
8.411121
11.475586
13.082963
16.296149
25.687210
32.005021
30.872359
35.215070
34.681056
29.132891
28.958443
28.912635
36.133752
43.850919
37.025137
23.006475
11.177523
-1.970777
-12.538112
-22.857265
-32.629540
-36.258453
-31.181551
-18.092236
-6.503935
0.805976
9.103593
18.243335
12.047262
-0.555101
-3.495317
-1.214303
7.457627
17.600136
18.070144
15.447450
15.642607
12.269720
5.780912
-15.847926
-38.910633
-48.866142
-55.157910
-50.787275
-36.488741
-27.398259
-19.121350
-12.999323
-19.177825
-18.687422
-15.551421
-19.388355
-19.095933
-14.292313
-4.774808
13.935463
19.819976
15.193629
15.286502
9.814267
6.719682
4.576722
1.201011
-4.274048
-8.689236
-10.543226
-12.619355
-11.474142
-11.625686
-13.762998
-15.454775
-11.426763
-7.638147
-4.361582
7.520082
18.994489
21.450265
21.317547
25.174562
31.036798
30.979381
21.428305
16.540599
22.730083
28.632794
36.487700
44.930901
46.279743
47.585914
45.223638
