EVENT_NAME: 202010301151
EVENT_ID: 10614
EVENT_DATE_YYYYMMDD: 2020/10/30
EVENT_TIME_HHMMSS: 11:51:24.00000
EVENT_LATITUDE_DEGREE: 37.879
EVENT_LONGITUDE_DEGREE: 26.703
EVENT_DEPTH_KM: 16.54
HYPOCENTER_REFERENCE: AFAD
MAGNITUDE_W: 6.6
MAGNITUDE_W_REFERENCE: AFAD
MAGNITUDE_L: 
MAGNITUDE_L_REFERENCE: 
FOCAL_MECHANISM: 
NETWORK: TK
STATION_CODE: 3523
STATION_NAME: 
STATION_LATITUDE_DEGREE: 38.3282
STATION_LONGITUDE_DEGREE: 26.7706
STATION_ELEVATION_M: 76.0
LOCATION: -_-_-
SENSOR_DEPTH_M: 
VS30_M/S: 414
SITE_CLASSIFICATION_EC8: B
MORPHOLOGIC_CLASSIFICATION: 
EPICENTRAL_DISTANCE_KM: 50.30
EARTHQUAKE_BACKAZIMUTH_DEGREE: 
DATE_TIME_FIRST_SAMPLE_YYYYMMDD_HHMMSS: 2020/10/30 11:51:02.8964160
DATE_TIME_FIRST_SAMPLE_PRECISION: millisecond
SAMPLING_INTERVAL_S: 0.01
NDATA: 10501
DURATION_S: 
STREAM: HNN
UNITS: cm/s^2
INSTRUMENT: sensor = CMG-5T/GURALP | digitizer = 
INSTRUMENT_ANALOG/DIGITAL: 
INSTRUMENTAL_FREQUENCY_HZ: 
INSTRUMENTAL_DAMPING: 
FULL_SCALE_G: 
N_BIT_DIGITAL_CONVERTER: 
PGA_CM/S^2: 82.072
TIME_PGA_S: 
BASELINE_CORRECTION: BASELINE REMOVED
FILTER_TYPE: BUTTERWORTH
FILTER_ORDER: 
LOW_CUT_FREQUENCY_HZ: 
HIGH_CUT_FREQUENCY_HZ: 
LATE/NORMAL_TRIGGERED: 
DATABASE_VERSION: 
HEADER_FORMAT: DYNA 1.2
DATA_TYPE: Acceleration
PROCESSING: Manual Paolucci et al., 2011
DATA_TIMESTAMP_YYYYMMDD_HHMMSS: 
DATA_LICENSE: U (unknown license)
DATA_CITATION: Turkish Accelerometric Archive v 1.0 - Disaster And Emergency Management Presidency, Earthquake Department
DATA_CREATOR: AFAD
ORIGINAL_DATA_MEDIATOR_CITATION: : AFAD - Disaster And Emergency Management Presidency
ORIGINAL_DATA_MEDIATOR: AFAD PROCESS SERVICE
ORIGINAL_DATA_CREATOR_CITATION: AFAD PROCESS SERVICE
ORIGINAL_DATA_CREATOR: network: TK
USER1: GuestUser
USER2: 
USER3: 
USER4: 
USER5: 
[...]
7.082801
5.295378
1.902507
-1.399530
-0.549365
-0.681569
-2.805573
-2.807748
-0.656987
1.909678
6.015221
6.755888
1.178974
-1.623480
-0.149614
-0.271552
1.706563
1.548229
-6.496737
-9.160453
-5.174050
-0.629894
3.716730
4.823219
1.429726
1.509363
1.725250
0.642719
0.663252
-1.263843
-5.486034
-5.621971
-0.636402
2.521924
4.099688
0.766233
-7.828400
-14.060122
-9.729051
-2.225347
3.889105
1.827627
-3.749597
0.016254
4.347636
1.809283
-0.575711
1.833551
3.517080
2.869740
-0.229789
-1.534116
-4.077135
-5.648362
-3.758902
-9.701949
-13.013318
-6.506603
1.116242
6.311474
6.751955
1.464962
-7.707022
-6.779711
1.566689
7.075482
8.734126
7.239422
8.409059
9.839686
3.559436
-3.722157
-2.303973
-0.470818
-3.600832
-4.140852
1.301371
-0.267990
-6.265163
-7.273970
-2.850199
4.852591
6.331434
3.692605
2.362770
0.726218
-2.130985
0.617658
1.313219
-5.416842
-3.480410
2.141613
3.791858
3.202065
-0.498145
-1.668399
2.449276
4.176666
2.805148
5.763765
8.772465
8.243643
7.068412
4.068426
0.851623
3.192138
5.224069
1.989846
-3.590178
-5.066217
-1.928733
-1.748620
-2.263443
-0.117971
5.868319
6.575079
3.290773
6.251568
6.048751
4.113568
2.840349
-3.643653
-12.368936
-13.272290
-5.801560
-3.807891
-11.274573
-15.403131
-6.358682
1.901240
2.902897
3.638587
3.847008
6.604050
11.584641
10.642404
6.651651
1.479754
-0.866044
3.061876
7.149377
10.601356
7.676028
3.466280
4.252363
4.370573
1.991490
5.060227
0.110436
-9.443545
-3.025175
2.030385
0.264426
1.877342
2.684890
-2.349824
-8.236877
-16.016187
-14.227205
-4.749121
-2.327415
0.772118
4.833178
2.813383
-1.771519
-7.419668
-7.815662
2.656922
6.832768
0.562473
-0.780427
-0.149880
-2.086307
2.952766
-0.106012
-11.369028
-13.427706
-7.985794
-4.949408
-2.344792
3.682560
3.716469
4.106245
7.780019
2.267187
-8.668270
-5.599533
0.086883
1.771345
8.416177
6.150013
-2.419734
-5.280358
-7.024231
-6.673338
-6.810208
-5.908717
3.565946
6.559092
3.589281
4.110952
3.077881
-0.685788
-5.220296
-4.847940
-1.330324
1.958030
2.941023
-1.523805
1.081744
1.712914
-6.577800
-4.802505
0.001708
6.387727
10.438521
7.067115
6.643125
4.889298
2.196341
3.874893
2.608829
-5.801960
-11.041048
-12.335731
-11.387268
-3.783398
1.798497
-3.813568
-10.285127
-12.336651
-13.575652
-14.598147
-14.146778
-9.557516
-5.849835
-5.834902
-12.285930
-13.644695
-10.484502
-5.001528
2.175861
-7.799625
-12.397592
-6.399170
-9.350939
-11.506983
-9.377686
-10.118660
-3.289984
3.493275
-1.697908
2.528953
10.916416
13.684034
18.327111
12.198665
0.256888
2.904432
0.347726
-7.861487
-7.548235
-3.464778
3.834862
7.034872
7.315151
8.277613
9.048765
7.423411
-1.857137
-5.281737
-1.192058
-1.382122
-2.412393
-7.261396
-6.534416
-6.143706
-7.632810
-1.760684
0.247605
-1.787120
-2.236930
-5.728721
-5.042492
2.706649
4.786796
5.911638
4.577759
-1.644631
-0.333456
7.201355
6.685910
7.378671
8.213282
6.481541
3.295846
-3.080525
-1.604793
7.595814
19.215013
19.334156
5.043467
-4.941350
1.151016
5.120931
0.270684
-1.465412
-3.650386
-1.817853
3.191046
-1.508642
-3.472132
1.615779
-0.520357
-2.634406
-6.696394
-14.260131
-13.998516
-15.241251
-15.653420
-11.610402
-9.908520
-6.297583
-4.156777
-7.971462
-4.558678
4.081997
0.048317
-2.896920
3.150341
0.312113
-0.091346
5.316037
2.443592
4.739935
12.765619
15.426228
15.492489
17.826472
19.755438
25.773457
25.726487
19.824814
15.478816
12.643699
14.713892
8.577358
1.866894
-0.959201
-5.513307
-12.188930
-9.825084
-1.454420
2.116389
8.762776
10.612418
-0.285710
-6.774689
-4.847590
-6.359714
-11.571739
-17.014580
-19.711269
-20.128416
-18.364630
-12.970311
-9.123892
-10.957976
-12.465744
-13.549831
-11.887144
-7.175942
-2.289606
-4.148264
-0.889151
11.370859
14.179228
15.602700
12.697592
5.936112
3.175342
5.583982
17.449240
26.075295
18.683893
10.703630
13.102005
11.482250
8.888215
11.418485
10.994184
5.061091
0.459080
-3.899049
-0.214388
11.599854
10.117594
5.021599
-4.268904
-10.171200
-0.154648
5.305306
2.472989
1.541639
4.895630
2.361010
0.563011
-5.379725
-13.482240
-4.758819
-4.370909
-9.038245
-0.966211
7.179548
1.960991
-1.291275
3.741577
-0.433642
-5.545813
-2.733400
1.733299
-6.480269
-9.734090
-6.076492
-2.225718
1.808590
2.105356
7.491897
15.907667
21.086101
17.054909
9.032339
-0.440141
0.261953
7.990563
7.656784
-1.869201
-10.317940
-18.118092
-19.554002
-13.891539
-8.334841
-0.377281
-1.401331
-0.735011
0.563099
3.162116
5.409931
5.946845
-0.357357
-16.328462
-17.292786
-11.459855
-13.470628
-15.589966
-8.601399
-11.206943
-12.713467
0.010974
2.169200
1.538347
2.758688
0.148788
-0.164771
-3.552664
-2.643085
0.225010
-3.769164
1.105973
6.077855
-4.593190
-12.187100
1.022304
11.128755
11.681223
13.219792
7.452813
7.597153
13.638814
15.367760
8.507048
0.038712
8.760888
13.781297
5.892489
-2.539763
0.416366
8.950343
3.893233
-4.507912
-7.993794
-10.487974
-12.432178
-13.137067
-17.722591
-21.238335
-11.023942
-4.528736
-17.125944
-20.493618
-11.870362
-3.780597
4.760536
12.784665
7.697069
7.500784
23.851714
22.505081
18.293156
23.783907
22.098516
20.259455
20.720156
4.325681
-1.944615
13.139004
14.798269
8.784609
2.819166
-7.164718
-15.201597
-13.860870
-8.530944
-13.112424
-18.239215
-22.628141
-35.896023
-41.222523
-33.760502
-38.142274
-33.211143
-14.242223
-17.759212
-25.526390
-27.399047
-22.016238
-11.867481
-9.015873
-11.046555
-9.956553
0.234510
1.266653
-2.019520
5.581861
8.294420
10.882860
15.324051
11.545450
6.673117
8.675495
7.426851
5.130513
12.093572
15.662203
21.511310
21.837939
17.509983
23.858362
27.696072
22.449828
22.722953
29.585847
34.015217
34.021129
27.786296
26.778422
35.095582
41.082494
37.787923
31.223353
30.558903
32.075075
29.045538
27.371968
23.990918
12.566455
-2.640344
-20.695327
-32.036734
-34.154205
-37.212361
-38.757458
-40.901371
-44.835197
-41.855116
-40.531187
-43.583432
-35.836158
-33.788674
-39.937651
-35.840507
-27.413849
-19.662220
-9.367258
-0.739648
-8.284720
-14.710863
-11.112991
-8.721148
-1.261928
14.420817
28.488161
36.933794
43.176719
34.151873
22.430335
16.198924
5.682794
7.003301
13.711592
10.169095
9.075054
12.533254
3.424107
-3.924989
-0.819235
3.422558
5.852352
1.251274
1.637629
1.548042
-6.928072
-17.172013
-25.007627
-24.613806
-14.526642
-9.479481
-8.137821
13.017009
31.048355
29.355187
27.946962
19.989407
6.117111
1.634863
1.189720
2.974037
7.951206
11.781761
16.231039
18.682297
12.861813
6.999956
12.294731
17.222751
11.453284
5.234004
0.546448
-7.877405
-19.463004
-30.494893
-30.385704
-27.489612
-29.993747
-26.116532
-21.867273
-26.594646
-35.411696
-33.627690
-34.615967
-51.162246
-56.318589
-45.006108
-35.962904
-33.553952
-27.929440
-20.222916
-19.535132
-15.093319
-5.728465
-1.798367
1.119810
6.902348
21.259611
31.315668
30.590560
28.609027
28.849489
33.441239
39.143831
39.389581
35.872903
27.962009
10.964674
-1.576541
-6.023637
-3.949712
-10.285643
-21.089827
-23.147572
-18.618348
-16.719245
-21.647883
-8.761683
1.294063
-10.216567
-14.398318
-2.414542
2.969511
7.679780
19.818782
23.196726
20.052091
25.838673
30.779447
17.238132
9.372655
6.375158
-0.188168
-4.655484
-10.699940
-17.099331
-22.308556
-22.665044
-20.840598
-21.782836
-23.019038
-17.356575
-10.838350
-13.093004
-16.707981
-21.794954
-28.791294
-26.740699
-21.564443
-15.340493
2.597220
25.370251
35.511543
37.588890
34.819721
24.793531
13.317741
1.003610
-10.774232
-8.426874
2.286792
7.424475
8.842970
10.499747
12.272554
11.770485
8.887152
4.975412
11.164832
16.944570
17.366698
17.891170
15.025257
9.588637
5.449814
1.080485
-9.072000
-17.883139
-8.074385
0.262684
-0.116823
4.874034
3.184288
-0.248400
-1.726928
-4.371357
-13.581291
-4.993187
11.126616
3.916880
-4.682418
-10.471172
-18.052018
-22.515913
-25.302191
-25.011335
-25.275123
-17.224864
-1.831105
3.857799
7.164818
10.420510
8.270065
0.064896
-1.577878
1.493969
0.534934
3.537101
11.801067
9.813314
-2.257870
-3.343824
-8.666280
-22.543864
-20.136779
-4.987524
5.575583
11.833751
17.898431
14.314873
11.061052
11.065720
3.638856
-2.201848
-8.475253
-2.822122
9.873700
8.380552
10.625257
20.559374
22.630189
14.888830
11.633142
11.066370
5.720583
5.018183
8.264543
10.802589
11.029986
5.593677
-4.351323
-18.395331
-38.160282
-47.387326
-41.994874
-37.657582
-38.063219
-38.306164
-41.685036
-44.692176
-34.895865
-15.756477
-6.772999
-13.648642
-9.506392
-7.046425
-17.926199
-18.292019
-14.097820
-9.427679
8.207982
28.270945
29.720858
30.375980
42.663053
49.310996
52.525626
52.971396
41.338514
41.465123
49.723179
41.872944
36.575063
30.830170
23.466453
17.540515
-5.654637
-24.532719
-25.182548
-26.364934
-28.967990
-30.401101
-25.571691
-18.375327
-13.463483
-10.168907
-9.858765
-11.451146
-15.644718
-13.664425
-13.642648
-10.494898
-3.293557
-7.256002
-7.093620
-0.665917
-4.206858
-8.887571
-5.886336
-0.735899
2.673462
7.367556
15.919887
19.273566
27.225838
30.922631
20.604965
13.296931
16.149783
23.394674
25.350392
25.164062
23.543685
25.772525
29.452209
30.270022
32.893614
30.227721
23.382252
17.777653
15.086252
14.009320
14.818112
20.690549
23.648544
24.683175
21.694388
13.713192
12.147253
10.336810
-0.230335
-11.505795
-18.838715
-26.277400
-27.563062
-25.521488
-12.705903
6.143254
3.849716
-3.433744
-9.202590
-16.078855
-12.616300
-2.859806
2.171802
2.803282
4.130944
0.416735
-6.563740
-13.570656
-15.148416
-12.016842
-19.691943
-34.466972
-39.604651
-32.727448
-33.125619
-38.426922
-42.681776
-51.104385
-55.310400
-53.820047
-50.992081
-52.521935
-42.746154
-35.486020
-33.704192
-34.484983
-37.867588
-30.061832
-23.819218
-14.022906
-5.654730
5.775959
20.598587
27.867431
33.791507
41.227397
42.027790
36.185842
35.487174
32.966864
24.588738
19.382623
8.775971
-1.344163
-0.549680
-3.967437
-10.767178
-8.028178
-7.073804
-11.690436
-9.931316
-20.696304
-35.698417
-33.801803
-28.853875
-26.741687
-14.690096
-3.354907
-4.422818
-4.120764
-3.367343
-1.514279
-0.522887
-2.086960
0.511435
2.116263
6.356189
15.928839
15.834587
12.852955
27.524402
30.336192
13.355655
10.394554
10.675455
11.636051
15.525398
13.533600
12.270024
14.681153
12.285271
3.767163
-2.728971
-2.445893
5.176641
14.077996
22.564380
27.133110
32.486056
37.476291
35.514667
24.874419
12.963749
9.313932
6.008162
-3.774458
-12.745177
-14.724532
-13.208361
-6.793101
2.210286
7.200832
11.296420
14.649478
11.669401
10.307215
2.698684
0.925259
6.212569
3.012252
5.556209
4.979793
10.676786
22.598970
22.493207
18.628439
17.500491
7.916336
1.535610
7.778846
9.688836
17.524455
27.828749
26.166688
17.398166
13.043458
10.888347
9.948909
8.854246
5.749740
11.535388
9.561321
4.654459
3.081987
1.459433
8.939807
18.015984
22.084199
19.181579
15.595221
11.246424
7.112889
0.104417
-10.296616
-20.251570
-22.698779
-17.124660
-12.928284
-12.838381
-15.663855
-9.163050
-8.503573
-7.628211
-5.060302
-13.187703
-14.211753
-11.596560
2.346354
18.812692
26.910857
32.807558
39.772483
41.255370
35.363029
28.916666
12.785670
6.916969
6.859423
0.889624
-0.216238
-6.069384
-14.856882
-16.128857
-18.972683
-22.508336
-23.435020
-29.723669
-36.522166
-42.701006
-43.529702
-36.508783
-34.286787
-32.404171
-19.817846
-9.959631
-7.939832
1.217536
16.313287
22.640513
22.954388
20.131714
15.176635
15.585387
11.816741
8.351701
1.928047
-9.707945
-6.028572
-2.852515
0.912714
12.842675
16.780239
6.187896
-5.686067
-13.099245
-18.026016
-15.325900
-19.729758
-19.404062
-10.973983
-3.345539
13.861464
32.743906
34.839295
32.386487
27.554282
15.740045
11.532163
6.211574
3.330419
4.766022
1.603657
-4.190385
-5.638117
-8.226552
-17.868879
-32.599425
-45.535702
-49.262665
-53.431663
-55.726446
-47.656900
-37.292569
-32.444495
-32.052540
-30.227473
-21.337006
-17.689051
-21.528933
-16.299173
-9.569418
-5.750995
3.317717
6.735478
6.569678
14.712326
14.490222
8.639253
14.475295
15.183610
17.575142
14.093615
-3.452452
-8.062551
-5.507396
-7.887413
-19.099724
-24.496526
-28.250241
-24.667923
-16.285749
-20.954952
-15.447403
-11.054428
-4.439460
9.129545
17.997615
22.960786
22.998117
19.352655
14.046064
17.182615
23.980806
26.674389
26.450107
28.845060
29.591949
28.343304
19.953358
9.962008
9.884864
9.266453
4.871306
-5.132176
-13.511235
-12.875710
-11.272438
-14.175991
-22.233400
-25.921479
-21.979871
-21.136239
-27.629574
-30.222675
-26.456202
-34.393537
-43.243560
-46.919818
-46.175729
-41.760358
-37.568958
-37.160206
-42.331481
-32.469222
-17.748936
-9.941003
-3.201294
7.610049
27.333943
39.304032
41.557758
47.768643
46.180929
43.631377
41.759965
36.846258
37.046281
31.858519
27.222601
28.875645
34.358930
35.064446
30.022267
22.905542
10.341619
-0.493361
-5.033468
-1.484435
3.942857
10.845568
15.919171
9.400639
12.168257
21.753662
23.867405
24.110977
18.935037
18.476828
23.933672
29.412603
33.907920
32.617903
34.528826
38.143496
34.195983
23.861208
23.440640
29.815771
23.117440
13.311178
1.638479
-10.465056
-15.159145
-10.693690
-15.640059
-27.177753
-25.510088
-28.725025
-37.873989
-49.999300
-67.857685
-82.072472
-78.443804
-71.504386
-65.292568
-50.731241
-37.916588
-30.418795
-27.641222
-17.332573
-8.757845
-4.827747
-5.921166
-5.858327
1.540856
2.492431
7.817691
17.795980
20.430771
15.103649
15.928927
23.396236
26.132747
28.827574
36.394737
39.806587
34.637490
33.561491
29.743695
19.283870
12.803289
5.332252
-0.221642
-3.980334
-13.865919
-22.149168
-22.727761
-23.555524
-29.086088
-34.434985
-38.889236
-40.047981
-36.842994
-31.546975
-25.033727
-14.647621
-8.832732
-9.654273
-8.863835
-4.992218
-4.294479
-10.926864
-8.154890
0.732466
5.620358
10.498917
15.202343
14.226198
13.896152
15.565372
12.314039
7.945955
-1.013877
-8.187839
-11.429217
-14.352367
-17.157932
-17.847889
-11.237276
-4.106237
0.555504
5.516187
9.903562
11.007251
17.388915
21.111527
15.213587
11.864266
7.566796
11.599548
14.849018
5.590245
2.316827
2.607993
-3.954400
-11.468676
-13.287828
-13.182061
-13.142552
-9.551835
-0.057575
-0.461345
-12.032013
-15.866296
-20.528966
-24.087638
-17.047744
-9.627719
-5.459028
0.185704
1.217536
1.007253
2.078590
-7.019358
-13.969970
-17.065766
-22.185091
-23.120485
-21.638220
-27.099104
-36.838796
-29.955682
-15.274903
-9.997859
-3.418975
5.904817
15.183814
27.657220
33.645065
29.388656
26.674236
26.825109
24.115355
20.058343
8.781640
2.566405
7.294405
3.795147
3.495897
2.771100
-3.498573
-3.996910
-10.599431
-20.564962
-21.660870
-18.589022
-16.705473
-13.056896
-14.190755
-18.108094
-13.599712
-6.275186
0.778707
9.075647
16.985301
22.915909
26.641944
32.156025
36.872826
40.857984
39.966763
34.802954
30.295820
23.265885
25.966933
32.951146
29.413937
23.068673
19.223192
13.059284
7.788777
1.472754
-4.085184
-0.580634
1.119382
0.635666
-0.806777
-2.863901
-0.369715
7.310367
12.135422
7.209273
5.206899
4.163251
-0.859331
-10.453129
-18.552533
-17.414937
-11.586361
-3.321773
3.643153
7.946850
7.548678
5.205679
0.710055
-3.958837
-7.455605
-9.444915
-5.863529
-7.502259
-10.625430
-8.690865
-6.606051
-3.079726
-1.854096
-5.082098
-9.776498
-13.515904
-15.745050
-15.688433
-12.820960
-4.934636
5.995537
13.500796
17.262292
17.123867
12.982244
2.511531
-11.200563
-18.145264
-15.069995
-8.185326
-5.572933
-2.206499
4.859214
14.090617
22.303568
24.478903
28.269329
28.046292
19.196269
13.971801
4.231798
-6.847996
-8.820818
-9.373904
-5.863132
-2.225132
-3.986424
-7.116438
-8.245009
-10.845265
-14.351988
-11.386839
-4.846216
-1.159689
-3.218989
-9.291442
-16.149976
-21.359513
-23.283497
-26.236821
-30.177180
-34.269031
-35.657037
-30.146688
-27.025380
-21.297280
-14.113359
-13.335674
-13.004379
-7.150917
0.136280
0.615646
3.833075
14.301305
23.252742
27.834227
33.199304
37.442653
41.570593
47.109249
41.451146
34.918305
36.531220
31.605071
25.739171
25.470406
21.902091
17.095394
14.126516
6.811015
-1.663232
-8.655527
-12.511585
-15.995600
-24.181794
-24.647157
-20.141885
-22.230737
-22.076443
-21.106204
-21.845000
-19.338061
-19.696415
-21.035270
-18.936770
-15.583090
-7.572026
5.984535
8.399397
5.737859
7.733705
7.349844
6.747298
3.293768
1.657837
7.356696
13.896385
17.188784
19.529921
15.811046
14.269682
14.406245
5.000335
-3.110268
-3.515283
-2.012176
0.178091
4.021088
2.277838
0.537387
0.359766
5.060392
12.234359
10.343971
7.165429
5.534787
3.927476
6.980037
13.920388
17.020543
20.689962
24.688807
24.318010
18.146325
9.002649
2.085633
-0.370597
0.059308
-1.403976
1.179798
3.932796
1.095813
-4.140165
-9.063826
-12.120426
-8.151133
-0.797677
0.590955
1.375794
1.862626
3.397773
9.664651
9.137073
6.015147
5.532987
-0.951016
-5.468726
-3.132255
-2.858819
-2.322838
-0.874791
-6.370826
-10.132940
-11.612712
-17.627616
-22.166479
-23.987809
-23.409833
-21.143043
-18.819948
-12.118190
-6.062219
-1.984361
0.058457
-0.440502
2.006089
4.180802
5.579389
6.224556
7.491870
13.988631
24.212979
27.752058
26.526433
24.188100
15.602177
7.266669
3.872865
-1.143806
-1.176466
4.571231
1.323943
-1.636537
0.546576
-0.138094
0.799483
8.130541
13.104289
7.083785
-1.792368
-4.411289
-5.170616
-5.861818
-6.489872
-7.207515
-3.284883
5.113778
11.808382
13.573101
18.579511
22.310522
20.503813
16.849330
10.221612
2.780438
-3.253753
-12.171901
-17.671979
-14.282837
-15.931522
-15.917832
-8.681962
-2.563777
0.342580
0.428127
-4.267517
-11.897201
-16.491435
-19.927544
-18.244326
-15.672995
-16.558307
-8.709623
0.467343
1.600895
5.299866
8.328785
5.405013
9.621298
16.824194
13.767905
12.657066
17.516339
17.675299
9.998643
0.393957
-7.901112
-11.297404
-10.219845
-9.713416
-5.046387
-2.693429
-2.466343
-0.273276
-0.960745
-4.491110
-6.093134
-7.334001
-12.218155
-14.389442
-12.554421
-8.144959
-4.441634
-5.595401
-10.347349
-11.166402
-8.874103
-9.415368
-11.044454
-15.302419
-16.912841
-11.261266
-4.145781
1.475621
1.952809
-0.248341
1.833051
3.236614
1.676897
3.591242
4.213390
-1.357924
-4.497581
-8.240409
-11.470588
-7.759797
-4.998400
-4.783446
-8.693631
-9.541924
-1.271426
5.150678
6.728442
8.282565
10.551222
9.020434
6.376939
2.882970
-2.441353
-3.648625
-1.052408
-1.302819
-3.282796
2.369713
7.747855
8.720272
10.690921
6.830197
4.429960
8.594918
10.550014
11.489457
11.567227
9.000567
8.048063
12.124055
12.613686
8.561963
5.188690
1.446485
1.007563
1.988067
0.527582
-3.121302
-5.350448
-9.344311
-12.866899
-10.483456
-11.968516
-13.588271
-12.324068
-13.115435
-7.261351
3.285580
5.475535
5.950857
8.330568
4.959161
1.873631
3.384203
1.057069
-2.302828
2.037886
5.437605
9.186970
13.074762
9.816897
6.509571
7.288189
3.414400
-1.000034
0.926754
-1.068154
-3.020446
-0.540259
0.296841
4.628223
11.880580
9.544424
