EVENT_NAME: 202010301151
EVENT_ID: 10614
EVENT_DATE_YYYYMMDD: 2020/10/30
EVENT_TIME_HHMMSS: 11:51:24.00000
EVENT_LATITUDE_DEGREE: 37.879
EVENT_LONGITUDE_DEGREE: 26.703
EVENT_DEPTH_KM: 16.54
HYPOCENTER_REFERENCE: AFAD
MAGNITUDE_W: 6.6
MAGNITUDE_W_REFERENCE: AFAD
MAGNITUDE_L: 
MAGNITUDE_L_REFERENCE: 
FOCAL_MECHANISM: 
NETWORK: TK
STATION_CODE: 3523
STATION_NAME: 
STATION_LATITUDE_DEGREE: 38.3282
STATION_LONGITUDE_DEGREE: 26.7706
STATION_ELEVATION_M: 76.0
LOCATION: -_-_-
SENSOR_DEPTH_M: 
VS30_M/S: 414
SITE_CLASSIFICATION_EC8: B
MORPHOLOGIC_CLASSIFICATION: 
EPICENTRAL_DISTANCE_KM: 50.30
EARTHQUAKE_BACKAZIMUTH_DEGREE: 
DATE_TIME_FIRST_SAMPLE_YYYYMMDD_HHMMSS: 2020/10/30 11:51:02.8964160
DATE_TIME_FIRST_SAMPLE_PRECISION: millisecond
SAMPLING_INTERVAL_S: 0.01
NDATA: 10501
DURATION_S: 
STREAM: HNZ
UNITS: cm/s^2
INSTRUMENT: sensor = CMG-5T/GURALP | digitizer = 
INSTRUMENT_ANALOG/DIGITAL: 
INSTRUMENTAL_FREQUENCY_HZ: 
INSTRUMENTAL_DAMPING: 
FULL_SCALE_G: 
N_BIT_DIGITAL_CONVERTER: 
PGA_CM/S^2: 43.174
TIME_PGA_S: 
BASELINE_CORRECTION: BASELINE REMOVED
FILTER_TYPE: BUTTERWORTH
FILTER_ORDER: 
LOW_CUT_FREQUENCY_HZ: 
HIGH_CUT_FREQUENCY_HZ: 
LATE/NORMAL_TRIGGERED: 
DATABASE_VERSION: 
HEADER_FORMAT: DYNA 1.2
DATA_TYPE: Acceleration
PROCESSING: Manual Paolucci et al., 2011
DATA_TIMESTAMP_YYYYMMDD_HHMMSS: 
DATA_LICENSE: U (unknown license)
DATA_CITATION: Turkish Accelerometric Archive v 1.0 - Disaster And Emergency Management Presidency, Earthquake Department
DATA_CREATOR: AFAD
ORIGINAL_DATA_MEDIATOR_CITATION: : AFAD - Disaster And Emergency Management Presidency
ORIGINAL_DATA_MEDIATOR: AFAD PROCESS SERVICE
ORIGINAL_DATA_CREATOR_CITATION: AFAD PROCESS SERVICE
ORIGINAL_DATA_CREATOR: network: TK
USER1: GuestUser
USER2: 
USER3: 
USER4: 
USER5: 
[...]
0.003628
0.003629
-0.010188
0.013050
0.016504
-0.004221
-0.002022
0.019960
-0.000138
-0.011756
-0.020235
0.001747
0.004260
0.017449
0.017449
-0.015837
0.022474
-0.000135
-0.023059
-0.007357
0.025302
0.010543
-0.003902
0.002379
-0.027453
0.008974
0.026245
0.032526
-0.005471
-0.034675
-0.008924
0.000183
0.023421
0.042577
-0.006725
-0.021170
-0.025252
-0.009864
0.008663
0.031902
0.028762
-0.009549
-0.000128
-0.008293
-0.010804
0.003327
0.001129
0.012120
0.017459
0.008353
0.000188
-0.026818
0.007725
-0.003265
0.014320
0.048863
-0.008603
0.006471
0.012123
-0.046913
-0.001065
0.021859
0.003646
0.027198
-0.029954
-0.021789
0.002077
0.008672
0.047297
0.007730
-0.049736
-0.004830
0.019036
0.006789
0.040076
-0.003573
-0.036545
0.000824
-0.006713
0.004593
0.020294
0.003023
0.015898
-0.006083
-0.003885
0.000512
-0.005768
-0.000429
-0.003569
0.009306
0.011818
0.007736
0.017157
-0.026492
-0.011104
0.019670
0.004283
-0.002311
0.005540
0.002400
-0.015813
0.017474
0.013392
-0.011730
-0.016440
0.016533
0.001460
0.013393
0.011195
-0.004820
-0.022405
0.026897
0.016849
-0.018950
0.014651
-0.024287
-0.005132
0.001463
0.021247
0.003348
0.008373
0.001150
-0.010782
0.010886
0.003035
-0.007955
0.001780
0.013085
-0.012037
0.016226
0.000211
-0.024283
0.016855
0.019995
-0.007639
0.015285
0.006807
-0.028678
-0.008266
0.003354
0.023451
0.027220
-0.015801
-0.021139
0.003983
-0.006066
0.010578
0.028478
-0.011089
0.009323
-0.003866
-0.056308
0.009324
0.062394
0.014035
-0.017368
-0.006062
-0.004806
0.010896
-0.013912
-0.013912
0.011838
0.015607
0.019376
-0.009200
-0.020819
-0.018621
0.027855
0.024087
0.003676
-0.007629
-0.022387
-0.008570
0.033196
0.017809
-0.027097
0.010273
0.001794
0.002422
-0.005428
0.000225
0.015612
0.018125
-0.003229
-0.027722
-0.009508
-0.015789
0.017184
0.042621
0.029746
-0.016416
-0.054726
-0.033372
0.040738
0.056125
0.002741
0.001171
-0.016728
-0.011703
-0.009505
-0.030858
0.012792
0.046393
0.038856
0.012793
-0.048756
-0.029286
-0.000710
0.003373
0.042940
0.042627
0.004630
-0.039333
-0.018293
0.005573
0.046396
0.071833
0.061470
0.036663
0.025044
0.014995
0.031639
0.013740
-0.038074
-0.053775
-0.084235
-0.055345
-0.073872
-0.054402
-0.026453
-0.070417
-0.119090
-0.093340
0.048914
0.195564
0.280351
0.308613
0.331851
0.356974
0.387120
0.403450
0.480072
0.556067
0.558265
0.544762
0.535028
0.483528
0.364827
0.233251
0.081891
-0.085170
-0.414896
-0.846994
-1.087537
-1.089421
-0.951878
-0.800203
-0.698145
-0.583212
-0.332933
-0.003521
0.410364
0.725332
0.714341
0.887683
1.519188
1.996820
1.764442
1.075471
0.290723
-0.557458
-1.313944
-1.859719
-2.054728
-2.047191
-1.670675
-0.595767
0.344110
0.355415
-0.068519
0.006848
0.303602
0.245193
-0.043395
-0.197267
0.192752
0.335948
-0.073855
-0.489310
-0.964429
-1.317393
-1.207170
-0.902251
-0.640668
0.346627
1.820660
2.726937
2.571180
1.810298
0.964629
-0.153299
-1.055493
-1.237941
-0.827196
0.060867
1.049418
1.170946
0.650292
0.076883
-0.608319
-0.648514
-0.405144
-0.787627
-0.798303
-0.012926
0.754237
1.233753
1.303153
0.863833
-0.077928
-1.495751
-2.170904
-1.691702
-1.192402
-0.559955
0.585922
1.716413
2.168609
1.641047
1.150855
1.310380
1.117568
0.522805
-0.116549
-0.763754
-0.762184
-0.201021
0.619527
1.504763
1.298449
1.092135
1.677478
1.525490
0.807001
0.326543
-0.163021
-0.772858
-1.291941
-1.757325
-2.113116
-2.831290
-2.788269
-1.513013
-0.777252
-1.063329
-0.997383
0.262485
1.294686
1.489068
0.939838
0.054288
-0.754954
-1.148741
-1.583037
-2.468902
-2.547408
-1.661543
0.160430
1.571659
1.993709
1.816913
1.029653
0.124005
-1.301040
-1.975880
-1.308262
-0.182168
0.367062
0.649056
0.845008
-0.140088
-0.282027
1.480910
3.658359
3.985888
2.060287
1.208965
2.023860
2.461926
1.591763
0.046132
-1.533414
-2.643492
-2.055951
0.241457
2.682687
3.712689
4.355813
4.109617
2.801390
2.268175
2.887119
2.744552
0.095123
-1.195519
-1.345309
-2.101166
-2.387243
-2.369971
-1.278106
-0.376540
0.486715
0.850670
1.091842
2.215109
2.501186
2.215424
0.367387
-2.576597
-5.255544
-7.340983
-7.563941
-6.292453
-4.048117
-2.505940
-1.024997
1.787725
4.378431
7.407830
9.661588
8.763163
5.621971
2.145715
-1.681935
-4.946225
-6.877478
-7.497363
-6.893493
-6.912334
-5.323367
-2.149517
-0.221717
0.302077
1.091850
2.576246
2.722896
2.014456
1.498514
1.023394
0.037042
-0.938948
-1.676592
-2.910710
-3.025329
-1.414694
0.857591
2.265051
2.659781
3.826698
3.697320
1.976463
0.771864
-0.780676
-2.679898
-3.875077
-4.763768
-5.776812
-5.568613
-3.855292
-2.252509
-0.889954
0.788510
2.883057
4.135703
4.136645
5.047318
5.809457
5.443932
5.136188
5.095365
4.396659
2.298973
0.767473
0.926684
1.707979
2.827792
5.459008
7.811997
7.575851
6.893789
5.678512
3.511426
0.488622
-4.515994
-7.602859
-7.223831
-6.272649
-3.398692
1.102542
1.864367
-0.060920
-0.519396
-1.451736
-3.200226
-4.465747
-3.778974
-0.999539
-0.579687
-3.086234
-4.861417
-6.233706
-7.913739
-6.229937
-2.636549
-0.371800
1.920582
3.745382
5.785288
7.017837
4.873360
2.086075
0.101123
-2.756190
-5.809140
-7.767400
-7.083139
-4.268847
-3.184204
-3.227226
-2.110238
-0.065621
1.523031
3.628883
5.438609
4.784810
4.114052
4.248455
4.836939
4.011367
1.261765
-0.868895
-1.246038
-1.899524
-2.466025
-0.034843
2.992044
4.674590
3.944168
2.178092
2.137897
0.531346
-2.080714
-2.018537
-1.811908
-2.792922
-2.732943
-2.205066
-3.511096
-5.036943
-5.469983
-4.167721
-1.023703
3.137128
7.167011
6.983935
5.188026
5.009975
4.988621
2.700949
-0.722865
-3.501043
-5.178251
-4.053099
-1.774219
0.071620
-0.165155
0.895936
4.199165
5.586842
4.035245
-0.221050
-3.313253
-3.242283
-3.484082
-3.341515
-2.470095
-2.361128
-2.656311
-2.042078
3.730329
10.956044
15.115620
14.800653
9.297679
5.146269
3.456187
0.714749
-4.306510
-10.963211
-14.546236
-14.187619
-11.250229
-7.888277
-5.646139
-2.902188
2.685887
9.428945
11.636541
10.386408
7.555787
4.496556
4.166516
5.728477
4.757826
0.388482
-3.509823
-4.760271
-1.566322
2.964430
2.749638
0.636564
1.801283
4.679008
5.751718
5.486367
5.145650
1.981535
-2.329714
-2.155116
-0.043926
-2.829327
-7.518976
-9.386482
-7.750412
-2.898411
4.178456
10.176647
11.587562
11.033936
6.731794
-0.869808
-9.198693
-16.651133
-20.703940
-23.132294
-22.083765
-14.274591
-2.830264
4.623747
7.054929
7.486085
5.861006
4.942169
6.050992
8.078023
11.968479
15.108415
15.412706
11.296781
2.832552
-4.880844
-8.055950
-7.839901
-11.421041
-15.458146
-9.743833
1.597493
6.347121
1.943235
-4.513118
-6.200688
-3.352167
-3.114136
-4.955578
-3.757572
2.613367
10.865944
13.169631
5.834322
-4.847238
-9.979662
-7.043842
3.705548
11.734539
8.334904
1.855627
3.844348
11.786040
14.427932
9.064700
-0.817980
-6.778174
-4.886801
-0.544149
2.409256
1.258040
0.147962
1.690767
-1.483711
-9.726238
-14.388253
-8.356147
0.291474
1.710239
-1.423416
-6.380300
-5.587073
2.877471
8.967358
3.919406
-4.432402
-4.843774
3.036055
13.466395
13.148916
3.526877
-5.211496
-8.084511
-1.172820
7.130628
1.499847
-12.932113
-22.645220
-22.904604
-20.218120
-18.819452
-15.205025
-11.055498
-2.449015
10.008042
16.686098
8.905501
-2.546676
-4.318718
0.549297
5.738560
10.704552
8.694478
-6.013196
-17.170189
-16.882542
-8.862658
0.608650
3.621720
0.929584
2.500651
1.623894
-2.539449
-0.708055
-0.584957
-0.621698
3.407871
7.517203
2.096190
-5.543096
-1.632543
8.138345
7.799826
-1.674307
-0.077804
7.673275
8.240091
5.085396
3.572424
1.394975
-5.887578
-8.409827
2.871207
12.854376
9.039601
5.577789
12.597190
12.565160
-2.967772
-16.386687
-13.897411
-9.844290
-11.504540
-6.121523
-1.644469
-2.708385
-0.630481
6.804060
9.559316
6.851793
1.902445
-3.692538
-5.556590
-7.042870
-3.502552
2.181929
4.260146
8.270874
17.889459
23.154403
15.365955
6.613451
0.022067
-5.065766
0.344571
5.760560
0.436581
-11.388657
-16.634130
-8.384380
3.181475
1.739472
-5.751280
-7.805631
-9.527743
-7.250434
-7.385778
-15.431412
-24.001468
-19.421727
-5.723329
4.082415
11.537683
16.183683
14.655323
5.622395
-5.150232
-7.970176
-7.046314
-8.564625
-6.624264
-2.747311
-0.238879
-6.690208
-12.455707
-5.753785
2.754722
5.597276
5.094523
8.941329
7.537324
3.506813
1.676990
-4.773397
-7.894177
-8.592882
-6.281658
-0.678196
8.043220
11.839468
5.778787
-1.830353
-6.616407
-2.443643
-2.141864
-4.026956
3.281662
14.456869
15.420612
6.149653
3.290769
2.811568
1.608852
5.748016
12.111104
8.469357
-4.961491
-15.951424
-17.177691
-12.546450
-12.008211
-13.189887
-12.594809
-13.696094
-10.203508
5.116829
16.561784
10.136205
2.036873
4.352493
12.252106
17.284043
12.931657
6.788072
5.842857
8.226621
7.127220
1.357953
-5.130745
-6.214131
2.979579
8.369818
4.273677
7.116545
19.221266
27.215087
22.359319
13.287451
5.573742
-4.476942
-9.038468
-3.613372
1.103597
-8.794470
-13.075572
-1.301205
5.650994
4.551907
4.371971
4.938158
-0.151872
-1.710378
2.491905
1.622056
-8.232048
-15.515857
-11.136465
-3.911063
0.897287
3.666674
-0.067083
-3.818425
1.268466
9.930217
15.079285
2.447631
-15.455561
-15.710549
-4.271247
2.171918
-3.013890
-4.306731
-1.788878
-4.860042
-0.992196
8.524017
4.918382
-3.202617
-4.616672
-7.356539
-16.182525
-22.445125
-17.421667
-1.671744
5.246227
-9.647036
-22.012083
-22.290309
-14.708176
-4.201842
2.353116
3.321884
-1.146692
-10.045845
-18.004494
-20.706679
-23.547663
-20.336757
-8.632103
-1.704712
5.227076
16.776601
20.500623
18.534827
11.144250
2.461145
-4.203093
-10.277906
-17.334047
-22.055412
-11.204279
4.139296
6.067096
-0.103809
-2.159730
-5.842301
-2.685721
8.514608
14.932651
17.131768
8.532508
-0.936287
-1.889038
-6.445226
-13.710822
-15.984363
-14.180603
-6.996653
3.523184
13.901082
17.830477
15.712693
16.383136
19.183297
18.927995
9.814991
4.246072
9.187883
5.089858
-5.540202
-15.837395
-20.901990
-9.516385
3.017294
15.805334
25.685188
18.695306
5.811175
1.215106
6.625757
8.677910
7.725473
1.946157
-6.909347
-5.933043
-3.635636
-3.725133
-4.568603
-3.736437
-0.259238
-9.123221
-24.095304
-26.380777
-18.285527
-11.642956
-11.727115
-9.491257
-6.239842
4.383938
14.518152
7.883119
4.860943
5.280166
4.867224
5.743354
-0.299429
-1.533547
5.948727
4.785579
1.488631
2.182312
-9.318853
-19.509591
-8.585918
0.698545
2.074289
4.873508
2.834230
6.393389
8.592507
5.638788
7.961003
2.788070
-4.244834
-2.914623
1.330367
-0.652073
-11.247590
-7.120359
8.642125
19.300762
15.839265
12.525359
16.801438
14.336342
14.173677
8.779670
1.000958
1.063763
0.459265
-10.181785
-25.795107
-38.155758
-32.913739
-6.696107
10.337237
10.810159
8.902143
6.418206
4.240129
8.160731
14.987320
19.762385
17.260234
2.602176
-12.520011
-18.373750
-10.413845
-0.830430
-7.700668
-13.726493
-11.267050
-11.560349
-4.366350
11.207091
21.561437
25.864836
19.563925
11.176318
9.958529
2.628245
-12.162332
-17.941647
-17.672214
-12.931378
-3.332890
4.600951
12.980708
17.791571
20.497211
17.236376
4.607861
-11.656435
-12.480436
-1.710321
2.388020
9.116005
10.212895
2.730308
4.292582
7.874352
4.622937
-3.927649
-13.429102
-18.541429
-12.493307
-6.909315
-6.250490
7.215215
15.506417
16.065068
11.461776
1.517547
-11.217108
-19.562007
-7.332304
5.679007
9.926510
7.110334
5.520426
7.421847
10.753653
17.824239
14.323489
1.215145
-7.508783
-7.004145
-3.711593
-3.370875
-8.018445
-12.900591
-12.770270
-14.512480
-9.867737
-1.271302
2.908056
7.031205
10.155754
14.175274
14.263201
7.403011
-3.104264
-7.203546
-4.044769
1.152973
4.692977
4.244236
0.724644
-6.652745
-10.924426
0.387382
14.819657
10.968454
4.325884
0.320182
-10.320868
-16.057163
-13.508850
-13.881283
-14.221686
-15.816618
-17.712387
-5.288302
9.574187
24.391456
36.794501
27.081708
11.125785
6.442103
5.251948
-2.334267
-9.435942
-9.758131
-3.486424
3.995536
-3.196264
-4.639837
2.710232
-3.785374
-10.879198
-2.927143
7.619072
0.207455
-0.721745
7.827900
5.543054
-3.393783
-5.205392
-0.301264
-5.173675
-9.818733
-9.156768
-0.802447
-0.168744
-11.203896
-15.520169
-10.799431
2.658110
21.168627
26.009322
10.180893
-4.854937
-4.984629
2.266523
3.006366
-0.947837
-8.703311
-10.420400
-6.821359
1.671761
5.278652
-4.038783
-8.302928
-3.113037
5.629419
3.402354
2.549463
2.820781
-0.447905
3.165581
0.539704
-7.394765
-2.044407
9.668725
2.364504
-8.276860
-5.960298
1.424628
11.157519
6.768392
4.881102
7.014902
-6.439812
-16.503056
-26.770731
-32.363202
-18.248406
6.461906
18.615929
17.928843
19.100784
14.354925
13.574573
11.249218
0.789675
0.475964
7.092471
20.475588
21.748017
9.792772
12.766903
23.358652
26.696424
10.054042
-0.080486
4.374901
2.021598
5.036552
6.569622
4.242384
-3.096380
-14.809826
-20.918239
-21.881982
-7.021063
3.786735
2.801325
5.535541
2.069647
-1.986927
4.172673
7.068926
3.117864
3.733039
-3.239257
-15.858979
-15.498164
-16.260931
-18.212596
-1.292929
15.395301
8.878655
-1.781237
-8.351268
-16.656914
-9.053427
8.888391
15.107028
3.770098
-7.688673
-17.033428
-13.670849
5.279931
3.768529
-3.466606
7.806577
18.230323
8.788534
7.806578
16.505384
16.340522
8.856679
-6.911458
-11.735509
-4.720505
1.426535
4.057436
21.327554
43.174273
31.860895
14.288057
9.490698
5.255129
-3.716250
-13.058179
-10.736592
-4.692553
3.817210
5.893230
3.120389
-1.971840
-4.871232
-1.144383
-6.834830
-7.627114
1.355571
0.141550
-12.331208
-18.212895
-10.491963
-5.037977
-11.307485
-23.756691
-20.064071
-0.599546
6.957465
7.369152
7.599019
4.967490
-2.806827
-11.929880
-8.553169
3.952248
20.748188
24.600019
15.503972
14.852998
11.589023
6.193760
1.820962
-3.688920
-3.479465
-7.273514
-24.780407
-36.232270
-27.663470
-13.323205
-1.576472
4.431769
1.261687
-6.371004
-1.551349
3.147722
-2.876847
0.548851
5.605910
3.237848
-3.776842
-9.229886
-6.754740
-1.106687
-3.278169
-11.345785
-2.575381
0.547284
-6.466778
1.118182
7.836747
1.461412
-2.706955
1.432522
-1.499843
-3.669127
0.353847
7.228796
7.324574
2.067482
5.782398
7.781168
0.249279
-11.428682
-16.241743
-5.948318
3.257011
-1.108564
-4.801812
2.544803
5.347476
0.151933
0.591569
-3.407853
-9.344495
-11.271666
-7.052740
5.409027
3.416539
-6.463629
-5.053656
0.252110
-1.951717
-5.364226
3.199236
9.020945
4.539809
2.068118
11.751079
25.661130
22.714948
14.729921
11.952056
-1.336539
-13.300576
-5.501138
7.913382
-0.233368
-10.724000
-0.423038
2.493940
-5.132471
-3.459345
5.441065
7.085928
-2.449440
-7.925721
-8.491280
-16.814512
-25.516458
-19.667428
0.247722
2.845337
-10.822286
-10.006135
-0.934267
-0.429942
-10.291897
-11.649740
-1.727807
5.436046
16.185435
31.740035
32.722619
18.046034
0.189632
-2.590117
3.730892
1.520784
-3.091928
-5.515259
0.969985
-3.362931
-9.831217
2.628038
7.978082
3.810971
1.917086
-6.994000
-24.172109
-26.185008
-14.239812
-8.630069
-6.849233
-2.982957
-7.915662
-15.515694
-12.434481
-8.498805
6.756843
25.853645
26.448722
22.788761
14.120102
3.547195
0.138454
-5.359809
-6.378820
-10.068299
-17.798966
-22.119321
-29.101981
-26.263509
-8.157142
9.526233
11.811708
8.254433
15.295501
20.594673
16.062351
12.494713
14.970801
20.770214
25.002643
12.053195
-0.633100
6.346420
9.403139
3.510775
-7.525319
-10.864660
-2.946520
2.919781
0.612012
-7.425772
-6.376614
-9.297046
-20.822705
-20.448701
-15.428697
-8.475869
-1.690417
1.686294
-5.323686
-12.103171
-12.263637
-23.646101
-24.787267
-19.849852
-14.207765
-1.901125
11.274107
17.019822
11.482620
15.485811
14.585502
8.812153
16.568570
17.213264
10.124150
-0.507166
-2.621496
1.860897
-0.799836
-6.706646
-18.691723
-21.562539
-19.707907
-16.952024
-12.897333
-6.502214
7.014678
12.908613
11.380254
1.445760
-15.735489
-26.890598
-19.042172
5.077774
5.245463
-11.355467
-21.058525
-14.266478
15.423014
29.348138
22.720013
5.556350
-0.446237
6.620267
7.064927
3.367283
-6.259781
1.471829
12.165950
8.203583
8.382891
7.318661
-5.166030
-13.986677
-8.096197
-5.874155
-9.316183
-19.136686
-17.348942
4.899415
15.003483
17.279850
21.356523
16.194267
6.408306
-5.385530
-15.342006
-14.456141
-3.241366
18.224440
24.552043
8.310672
-4.719167
-3.221267
-5.935071
-17.092378
-16.434496
-14.700763
-12.191704
-5.388980
-5.005241
-0.156695
17.756546
25.509195
14.432592
0.763713
-12.159985
-16.216873
-3.351583
0.392223
-2.271337
5.689197
0.577498
-0.996709
0.165812
-8.493113
-1.087147
-1.394263
-8.556859
-2.261914
1.441383
4.507209
-4.840058
-18.768322
-23.056647
-28.835334
-29.490076
-23.739022
-10.453567
3.306380
11.217612
11.613284
4.575356
3.916532
4.227731
-2.023878
-5.548494
-3.807540
-2.251231
1.306044
7.146909
9.968110
6.990211
2.539535
-6.337323
-8.693766
4.738967
4.568766
-3.911793
-6.277657
-0.815506
11.328469
14.059858
9.784722
9.426420
15.793277
14.252671
3.412215
-0.544186
5.165103
6.745905
6.443813
8.352771
5.804145
6.214575
10.610612
23.099071
27.681638
14.833306
6.069811
7.732574
10.149625
4.360260
2.708803
6.716390
11.394735
10.772652
-1.045678
-9.081264
-16.370725
-11.764606
10.440729
13.413917
-9.354150
-31.533420
-37.622992
-29.935974
-11.974687
4.065709
7.940464
-0.049588
-13.075972
-5.979007
11.776594
13.269155
-3.100653
-18.400578
-21.287409
-23.178467
-20.061141
-18.175421
-16.218103
-8.401707
0.873022
-0.682972
-9.826751
-11.021302
-7.025020
2.320364
-4.225800
-8.438445
-4.686161
-5.751019
-0.509000
-2.520957
-0.086321
-0.592215
-11.263098
-7.067724
2.785752
5.262468
4.135746
7.193094
9.368659
6.631932
3.500161
-2.014432
-3.121998
-0.323093
0.338244
3.317714
7.714692
-2.155427
-3.187941
11.877722
14.571114
15.776657
12.586163
-2.067499
-8.954066
0.420522
11.591019
11.620538
7.440237
2.381295
-4.561797
-8.448170
-6.704075
-5.390508
-6.429616
-2.606048
4.501280
1.230082
3.464056
20.471963
17.013606
5.861637
-5.290646
-11.700837
4.191339
10.202092
5.060247
3.377387
5.160108
-0.781873
-14.984909
-15.619867
-14.431910
-15.710620
-5.686942
7.558946
19.891336
24.316890
19.732754
12.945418
2.621847
-0.552003
7.916937
16.047358
21.588643
21.413732
14.944503
9.191566
-1.451369
-6.189063
0.294611
4.824107
2.543344
9.469794
18.509003
11.863921
5.048951
-2.679518
-0.522794
0.927060
-4.266599
4.795534
11.070067
13.887186
20.889943
22.486132
21.251072
29.381494
34.000487
27.149091
21.353760
18.499587
14.534080
8.584877
4.880324
-0.572719
-2.331573
-8.133184
-4.693982
17.658630
26.644142
23.132714
11.276073
9.443110
19.098122
22.856060
23.385506
16.649356
5.735104
-1.267025
1.477554
0.988617
-6.421430
-13.209080
-19.220145
-18.919623
-17.456895
-23.368729
-22.688236
-19.505279
-19.629632
-8.554599
-5.619093
-2.507105
-6.916330
-13.767413
0.867722
4.970145
7.361759
6.175373
5.448406
5.634309
3.088194
6.872196
0.086116
-5.465845
-7.394586
-0.537851
11.089867
7.852583
-3.847673
-19.852898
-34.467307
-35.841794
-28.572743
