EVENT_NAME: 202010301151
EVENT_ID: 10614
EVENT_DATE_YYYYMMDD: 2020/10/30
EVENT_TIME_HHMMSS: 11:51:24.00000
EVENT_LATITUDE_DEGREE: 37.879
EVENT_LONGITUDE_DEGREE: 26.703
EVENT_DEPTH_KM: 16.54
HYPOCENTER_REFERENCE: AFAD
MAGNITUDE_W: 6.6
MAGNITUDE_W_REFERENCE: AFAD
MAGNITUDE_L: 
MAGNITUDE_L_REFERENCE: 
FOCAL_MECHANISM: 
NETWORK: TK
STATION_CODE: 4814
STATION_NAME: 
STATION_LATITUDE_DEGREE: 37.3991
STATION_LONGITUDE_DEGREE: 27.6567
STATION_ELEVATION_M: 63.0
LOCATION: -_-_-
SENSOR_DEPTH_M: 
VS30_M/S: 694
SITE_CLASSIFICATION_EC8: B
MORPHOLOGIC_CLASSIFICATION: 
EPICENTRAL_DISTANCE_KM: 99.50
EARTHQUAKE_BACKAZIMUTH_DEGREE: 
DATE_TIME_FIRST_SAMPLE_YYYYMMDD_HHMMSS: 2020/10/30 11:51:18.0427260
DATE_TIME_FIRST_SAMPLE_PRECISION: millisecond
SAMPLING_INTERVAL_S: 0.01
NDATA: 11251
DURATION_S: 
STREAM: HNN
UNITS: cm/s^2
INSTRUMENT: sensor = GMS+/GEOSIG | digitizer = 
INSTRUMENT_ANALOG/DIGITAL: 
INSTRUMENTAL_FREQUENCY_HZ: 
INSTRUMENTAL_DAMPING: 
FULL_SCALE_G: 
N_BIT_DIGITAL_CONVERTER: 
PGA_CM/S^2: 27.384
TIME_PGA_S: 
BASELINE_CORRECTION: BASELINE REMOVED
FILTER_TYPE: BUTTERWORTH
FILTER_ORDER: 
LOW_CUT_FREQUENCY_HZ: 
HIGH_CUT_FREQUENCY_HZ: 
LATE/NORMAL_TRIGGERED: 
DATABASE_VERSION: 
HEADER_FORMAT: DYNA 1.2
DATA_TYPE: Acceleration
PROCESSING: Manual Paolucci et al., 2011
DATA_TIMESTAMP_YYYYMMDD_HHMMSS: 
DATA_LICENSE: U (unknown license)
DATA_CITATION: Turkish Accelerometric Archive v 1.0 - Disaster And Emergency Management Presidency, Earthquake Department
DATA_CREATOR: AFAD
ORIGINAL_DATA_MEDIATOR_CITATION: : AFAD - Disaster And Emergency Management Presidency
ORIGINAL_DATA_MEDIATOR: AFAD PROCESS SERVICE
ORIGINAL_DATA_CREATOR_CITATION: AFAD PROCESS SERVICE
ORIGINAL_DATA_CREATOR: network: TK
USER1: GuestUser
USER2: 
USER3: 
USER4: 
USER5: 
[...]
-0.169652
0.210908
-0.158222
-0.317200
-0.192512
0.322608
0.315335
0.068555
0.306243
-0.337722
-0.612037
-0.230697
-0.022623
0.330142
0.101806
0.164150
0.289878
0.000497
0.076868
-0.521897
-0.757246
0.016602
0.310660
0.242601
-0.057951
-0.108865
0.151942
-0.097695
-0.288625
-0.291482
-0.486568
-0.125750
0.267019
-0.134582
-0.384738
-0.056652
0.235587
0.320532
0.309102
-0.158480
-0.197445
0.512241
0.594327
0.384695
0.152722
0.017383
0.358718
-0.117696
-0.439549
0.602900
1.022425
1.011515
0.993331
0.132980
-0.621906
-0.609696
0.270657
0.955665
0.447819
-0.253295
-0.281869
-0.293818
-1.024286
-1.165080
-0.804262
-1.108450
-0.674638
0.200780
0.196884
0.044660
-0.264724
-0.034050
0.300012
-0.510724
-0.091199
0.760061
0.444183
0.857993
1.075939
-0.133281
-1.612919
-1.658118
-0.610215
-0.250176
0.062844
0.430156
0.028815
-0.038205
0.197144
0.183117
0.397945
0.216108
-0.265762
-0.234070
0.024659
-0.090418
-0.640866
-0.554104
0.079730
0.407037
0.795650
0.923456
1.285053
1.016973
-0.118213
0.697458
0.289623
-1.257815
0.291441
0.879296
-0.086002
-0.155619
-1.213394
-2.035040
-1.165857
-0.328884
0.283908
1.183485
0.359241
-1.974774
-2.359490
-1.968539
-1.485630
1.071785
1.790563
-0.300050
-1.864891
-1.839434
0.638752
2.052929
1.584567
2.083581
1.562227
-0.105483
-0.270176
0.635116
0.075316
0.240009
1.580151
-0.199778
0.023362
2.274251
0.096097
-0.313297
-0.907386
-5.264733
-4.226181
-0.892579
0.355086
1.908758
1.763029
1.269989
-0.168865
-1.771374
0.665250
2.223597
1.182967
1.208165
-0.330700
-1.793973
0.228840
0.503155
-1.051556
-0.631252
-0.195101
0.856699
1.112051
0.031676
1.757315
2.836131
1.513393
0.021545
-1.827483
-2.265971
-1.733966
-0.200036
2.306984
0.662653
-2.391698
-1.886969
-1.829041
-0.073269
3.446846
2.901074
1.207906
-1.489784
-3.785353
-1.936584
-0.605274
0.403145
1.834207
1.006846
0.729674
0.814099
-0.645797
-1.702533
-1.333403
-0.114831
0.440553
0.896445
1.821479
1.584571
1.609249
2.061245
-0.407849
-3.065015
-2.099198
-0.610208
1.510797
2.819248
-0.261600
-2.576911
-2.825769
-2.925000
-2.052959
-1.368470
0.818256
3.547897
2.024878
-0.384989
-0.154315
-0.530199
0.463154
3.034856
1.247913
-2.712769
-3.829771
-2.053478
-0.785810
-0.785551
1.716274
3.074081
1.810570
2.201781
1.006589
-1.254951
-1.441724
-1.082205
0.161304
0.777214
-0.433564
-0.889457
-0.714633
-1.210011
-2.033475
-2.992278
-0.773341
2.467264
2.700536
4.608012
4.348764
1.128421
1.073350
0.810725
0.556152
-0.413562
-1.060643
1.554181
2.176585
2.325951
2.332186
-0.887378
-2.811739
-1.289499
0.178450
0.597196
1.347666
0.393018
-0.754117
-2.137121
-4.206692
-1.296252
2.091381
2.295039
1.113355
-1.811632
-1.888523
-1.394964
-2.179203
0.431984
3.372817
3.423991
1.233109
-0.045209
-0.103137
-1.824100
-0.425769
3.184745
2.273739
-0.809966
-2.424943
-1.942034
-0.014037
0.969185
-1.041678
-2.438191
-0.419015
1.190507
1.979942
2.098656
2.443109
1.868762
-1.009207
0.292230
0.444195
-2.882913
-1.116491
0.546543
0.769164
0.634605
-1.803317
-1.822800
-2.034251
-2.145951
0.447832
1.572107
1.447679
-0.080016
-1.661483
-1.446396
-1.577838
-1.673952
-1.315732
0.393541
2.681577
2.896405
2.860817
1.726670
-2.023080
-2.767835
1.120372
3.702725
2.786783
0.371981
-1.596281
-2.079969
-2.759262
-2.527029
-0.365500
0.349641
1.335980
2.229581
0.008046
-1.190003
-0.949458
-1.307678
-1.062457
-0.816197
0.026750
1.273116
1.880973
1.870583
0.395361
-0.716706
-2.172705
-2.842127
0.969448
2.709893
1.275455
1.964619
0.512776
-2.003336
0.645518
3.501146
2.472206
0.782675
-0.880878
-0.787362
-0.220289
-1.434963
-0.585262
-1.302482
-2.110100
1.114919
0.298728
-0.651763
0.667079
-0.661894
0.010905
0.242618
-0.306531
-0.226003
-1.519907
0.221837
0.577200
-0.754371
0.124165
-2.091915
-3.478816
-0.607861
0.867880
0.043637
-0.926596
-1.009982
0.333538
-0.157683
-0.490186
2.425969
1.478595
-0.641111
-0.809441
-2.131659
-0.152747
0.568628
-0.134304
2.449868
1.090502
-0.661632
0.694616
1.098555
2.495068
2.000989
0.637208
1.523536
0.032208
-0.907113
0.068576
-1.733174
-1.642775
0.280027
-1.442754
-2.236604
-1.011539
-0.300814
0.328864
0.234048
0.951008
0.921654
0.480568
1.404563
0.002076
-1.605368
-1.937351
-1.356250
2.292450
4.483852
2.523643
0.213787
0.638768
2.775099
3.178778
0.209112
-3.447901
-4.235777
-3.125529
-0.158460
1.297280
-0.482390
0.364973
1.446646
1.209478
1.569776
-0.317697
-1.420672
0.656952
2.361809
2.835106
1.264809
-1.189738
-0.100791
1.581207
0.776186
1.248184
0.854376
-1.573155
0.433812
2.472730
-0.921137
-2.809131
-2.940054
-2.729642
-0.569411
-0.378742
0.585777
2.524165
0.689944
0.391990
0.604220
-2.150878
-1.511589
-1.132068
-2.432466
1.706935
3.817550
2.615084
3.189171
1.177529
0.980365
3.578044
2.146723
-1.636018
-3.218783
-2.243615
-1.844092
-0.451735
1.215715
-1.268705
-3.150464
-1.377288
1.477821
2.254008
0.862431
1.315986
-0.269638
-3.287102
-1.800190
0.419787
2.162050
3.082668
1.915790
0.931010
0.666047
1.069466
-0.210410
-2.504421
-2.065932
-1.008936
-1.643549
-1.914228
-0.176120
0.892825
0.821389
1.606147
0.247042
-0.306004
3.395169
3.845347
0.176385
-1.643549
-1.096997
-0.504207
0.526033
1.136747
-0.251193
0.913347
0.766318
-3.465301
-3.793648
-2.676905
-0.987634
1.082716
-1.155964
-0.829436
1.600434
0.536684
0.210416
-0.909184
-2.953298
-1.191552
0.729172
1.163245
2.020998
1.710056
-0.041299
-2.486235
-2.522342
1.237798
4.546722
5.027553
2.382336
-0.382894
-0.309119
-0.906586
-1.337800
-0.921133
-2.129313
-0.011425
1.952940
-0.429132
-2.054240
-4.534504
-1.934487
5.885307
5.159515
0.869189
0.515644
0.593315
0.357706
-0.449653
-1.414431
-2.020989
-1.055691
1.712655
2.349866
0.128850
-1.865907
-0.907883
0.120798
-1.897859
-1.498336
-0.235084
-2.419732
-1.360918
2.723673
2.790173
0.689170
-0.008826
0.362123
0.391217
-1.156480
-0.249371
2.234530
1.263518
1.432627
2.499753
-0.115330
-2.759248
-2.127752
-1.084524
-0.623956
2.202839
3.730274
1.798900
-0.191961
-1.508465
-0.545246
1.056224
0.733852
-0.029866
-1.385075
-2.594814
-2.222307
-0.971005
0.882959
2.175044
2.816411
2.241285
-0.022592
-0.253266
0.127294
-0.299245
-1.091017
-2.259973
-0.863201
-1.421182
-3.522445
-2.648326
-2.181783
-1.300390
1.083500
3.105274
1.681486
-1.583277
0.177170
2.820049
0.459798
-1.335718
0.504218
1.088956
-0.057660
-0.721626
-1.717836
-2.352969
-1.811093
0.557471
4.521789
5.543457
1.596023
-1.911623
-1.950068
-0.896190
0.789704
2.271680
1.824879
0.257440
-0.636941
-0.689155
-2.021764
-4.164849
-2.294001
2.405980
2.106208
-0.656943
-1.697833
-2.548833
-0.989446
-0.308334
-0.389122
1.000896
-0.926582
-1.320650
1.545110
2.131147
2.494042
2.946298
2.697960
1.481467
-1.091794
-1.430271
-1.624058
-2.456874
0.151196
2.584702
1.825400
-0.675645
-2.312183
-0.781111
1.843844
3.455704
3.187883
1.384055
-0.356390
-1.225833
0.385767
1.033109
-1.796803
-0.948921
1.042980
-1.397020
-2.519477
-1.731601
-0.777473
-0.085711
-0.398991
-0.940348
-2.456353
-2.048258
0.891536
2.250382
0.936735
-0.507314
-0.772278
-2.632216
-3.902741
-2.206196
-0.332490
1.509524
1.696817
0.270431
-0.218972
-2.305168
-4.017558
-2.198663
-2.173725
-1.708740
2.761606
4.693760
3.178014
-0.321060
-3.463732
-2.332962
-1.247912
-1.800178
-1.597040
-1.853950
-1.395719
-0.376650
-0.327294
0.017418
0.081321
1.223781
3.319588
2.506255
0.890499
1.842288
1.904892
-1.377275
-1.909540
1.156761
1.312881
-0.731492
-0.506793
0.499548
-0.655899
-1.039057
-0.292744
-0.777730
-1.373638
-0.938007
0.282902
-0.446266
-2.005913
-1.240117
-0.210397
0.479547
1.603043
1.988279
0.870238
1.017786
2.753036
1.314441
-0.365478
-0.373271
-1.253624
0.740614
2.729657
1.380422
-0.071420
-2.935102
-2.996147
1.507449
1.883593
-1.193877
-1.903823
-0.679277
0.532540
0.083142
-1.180889
-1.110492
-1.570021
-1.104777
2.510414
3.614427
1.637853
0.465521
0.228612
0.214065
-0.100513
1.924637
2.822136
-0.941642
-1.297264
-0.301054
-3.043943
-3.253057
-1.584048
-1.585606
-3.182659
-4.603590
-2.588570
-1.646911
-3.095377
-1.340125
0.715418
0.366290
0.246797
0.751526
1.031556
-0.495879
-1.327916
-1.040872
-3.001860
-3.137199
-0.721098
2.470931
6.170805
5.281879
2.776678
2.848633
-0.210134
-2.450113
0.520593
1.258594
3.461686
5.669194
0.303168
-1.830046
-0.125709
-1.438576
-1.080875
-0.021802
-0.128306
0.036906
-1.233099
-1.960709
-1.377270
-1.613140
-0.590953
0.396945
-1.431302
-3.132782
-1.379868
1.742023
3.395966
4.742343
3.226337
-0.207275
0.462666
1.664872
-0.308844
-2.012922
-2.160470
-2.355815
-0.572249
1.227424
-0.560039
-0.423401
0.343693
0.141074
1.405365
-0.031152
-1.485592
0.266802
1.443031
0.470720
-0.615110
-1.498840
-1.908234
-0.555363
-1.073340
-1.220369
1.015714
0.115878
-1.226343
-0.657711
-1.403505
-2.033702
-0.229094
2.828115
2.970208
-0.579261
-0.953846
2.345466
1.441993
-1.953953
-2.847035
-3.801682
-3.917019
-0.449117
2.571724
1.396534
-0.001017
1.102217
0.678536
-1.814976
-4.275238
-4.588259
-1.612097
0.647104
0.520078
-0.301568
-0.591729
-0.322349
-0.158436
1.482258
2.823181
1.055460
-1.646386
-3.377739
-3.807655
-3.184472
-1.774711
0.036910
1.609805
1.896849
1.188981
2.070893
0.607621
-3.625558
-2.658182
-0.107780
-0.250393
0.799849
0.809201
-0.732522
0.153806
1.176772
0.128089
-1.600406
-2.056039
-0.479248
-0.044656
0.164457
1.691633
0.782185
-1.651840
-3.053288
-4.186136
-3.217721
-0.053748
0.755170
-1.398566
-3.067575
-1.676777
0.692826
-0.596402
-3.087317
-3.335655
-3.501647
-2.022528
0.907914
0.541641
0.126013
0.807644
-0.619002
0.226023
1.150018
-0.936958
0.204203
0.550214
-1.594170
-0.882406
-1.287124
-2.394775
-2.847031
-2.478680
0.471764
0.775433
-1.070218
-1.656254
-1.109443
0.297460
0.974416
0.626846
-0.420798
-0.300785
-0.071670
-0.948386
-1.798087
-2.691689
-1.578064
0.646069
1.632408
2.081807
2.428077
2.454054
1.030786
-0.786291
-1.129964
-0.849674
0.267068
2.131942
2.138956
-0.268833
0.394355
2.730188
-0.249869
-3.060558
-2.226703
0.901422
3.761987
1.228470
-1.128404
-2.682596
-4.568771
-1.421682
0.950778
0.710753
0.996238
0.747900
1.330819
1.686701
2.121293
3.336228
4.171641
3.683278
2.247021
1.097028
-1.552604
-2.450362
-1.628716
-0.337670
3.762767
2.929172
-0.175315
1.405893
2.624464
2.260789
0.886357
1.831653
3.558850
2.244424
2.981905
2.745516
-0.799796
-2.468286
-0.952280
2.726034
3.463775
2.124671
1.686183
-1.449735
-3.520605
-1.619623
0.870772
2.728632
2.106488
1.900752
2.457694
-1.947450
-4.657869
-2.160720
-1.591048
-1.974466
-2.484910
-4.090795
-3.625291
-0.986828
1.730085
3.896549
2.852802
-0.993841
-1.148144
2.547315
5.122914
5.311506
4.589611
2.956709
-0.087771
-2.086685
-2.489585
-3.249406
-4.642022
-5.892025
-5.844228
-3.461636
-1.709242
-1.723269
-0.007502
0.959354
-1.990310
-5.440288
-6.692889
-6.816538
-6.168677
-4.860746
-4.051309
-4.382773
-5.654077
-5.889167
-4.362510
-0.595616
3.076723
2.427563
1.039364
-1.003971
-6.323758
-8.594649
-4.491615
1.009750
2.863195
2.249363
1.553185
1.262245
1.826981
0.846876
-1.359852
-2.201240
-2.579722
-1.572082
3.186866
7.068059
6.882844
7.520574
8.337285
7.610974
6.848555
6.413703
7.034809
5.238773
4.484927
7.113259
5.600890
1.540198
1.217306
4.840809
4.848083
0.662442
-2.661548
-6.233357
-4.737613
0.469695
0.938056
-0.980070
-0.474562
1.475256
1.836334
1.543835
0.656728
-0.860577
-1.991087
-3.230180
-2.845203
1.472140
8.216234
11.456580
9.329080
2.579790
-5.866824
-10.324441
-12.323355
-12.897702
-12.041247
-12.631700
-15.220287
-17.302846
-12.816654
-5.921894
-6.807962
-9.932711
-9.851403
-10.395097
-9.599168
-6.290245
-3.891288
-5.094273
-6.432857
0.806615
7.883473
4.168532
2.622133
5.783769
4.592993
1.736845
-0.874343
-0.688868
-0.451700
-5.105183
-7.413221
-6.551051
-5.686803
-2.584914
2.172736
4.947317
3.898114
4.836656
8.350537
6.165888
-0.854859
-4.029223
-0.694063
1.163797
-0.707311
1.558125
4.496880
3.202456
4.922640
10.509728
11.433203
8.151035
7.336663
5.851050
2.156111
0.829217
1.730092
2.415880
1.276278
1.736067
5.079280
5.824814
2.663439
2.860343
10.256715
17.638020
22.330988
23.745944
16.354248
3.512101
-2.964173
-0.445983
2.219236
1.738406
-0.070358
-1.191517
-1.915750
-2.903647
0.086022
3.661728
3.471578
0.918319
-2.614525
-3.614112
-4.499921
-7.880021
-8.335394
-6.354144
-9.507726
-14.331357
-9.834514
1.319920
8.717332
11.099923
14.171679
16.430621
11.618420
4.403626
-0.940060
-5.521847
-4.083252
2.436663
3.578343
-2.365666
-6.020861
-0.312461
8.433406
10.043448
4.675603
-0.793031
-2.116549
-3.101588
-3.439287
-0.097632
0.712584
-1.265808
-0.419225
-0.451436
-4.740204
-7.477898
-8.546324
-11.264535
-12.070595
-10.604725
-8.076663
-5.425731
-1.882497
5.831831
12.942459
17.069911
19.413797
13.755532
3.345593
-1.463751
-2.013679
-2.593741
-5.250387
-9.213407
-10.031676
-8.257201
-4.484591
2.206771
7.266270
7.612541
6.744397
7.041571
5.695194
3.829022
1.816600
-5.189861
-14.290570
-21.766431
-25.882194
-22.202582
-15.366789
-8.361107
1.120682
6.793753
8.760456
11.581276
12.191731
8.343269
2.183133
-0.058664
1.795040
1.271607
-2.205646
-5.998258
-15.097668
-27.383912
-25.187574
-12.737157
-5.533013
2.092734
10.166581
11.022257
7.175873
8.015183
14.384693
13.337308
7.486815
5.798324
3.170512
-2.261236
-5.025946
-0.467018
3.091802
2.471217
8.786435
19.131433
23.931424
24.453298
25.474186
23.801021
15.848226
5.904829
-0.899272
-3.642421
-8.833623
-13.895721
-11.914471
-11.122958
-8.847391
1.428509
9.383902
10.245032
5.053571
0.678559
4.456104
7.661381
2.595127
-5.950198
-11.574953
-11.417274
-6.212824
-0.789908
1.837125
1.663600
3.963845
10.719110
14.188570
10.785870
1.224852
-5.595615
-5.380527
-5.867332
-6.473630
-6.533896
-7.013687
-5.569118
-4.537580
-1.901455
3.253120
3.278058
2.499793
5.166311
3.734471
0.387361
-0.751721
-0.266994
1.116530
2.157160
5.819368
7.084958
-0.017357
-5.800051
-4.386654
-2.237334
-6.432066
-12.202810
-7.641545
-1.214627
-1.302169
2.522134
3.872668
-3.270950
-4.639927
1.388507
6.887794
6.792200
2.247041
1.318111
1.479426
0.921965
5.117217
9.127774
6.601531
2.525252
2.379263
1.597881
-2.211096
-4.954505
-6.359849
-5.375329
-0.873811
4.175818
7.354858
7.616704
8.075454
11.223062
11.501793
8.598367
8.663050
8.583301
6.005624
5.154884
2.568894
-3.243153
-3.743986
0.825072
4.038661
2.584740
-1.901971
0.098242
4.977982
4.225954
1.343570
-2.337602
-3.512532
-1.878332
-0.204647
3.676026
2.907113
-1.407632
-1.529203
-3.229644
-5.413253
-2.885711
3.577834
8.708510
7.958820
5.799629
2.651762
-0.771200
0.546343
1.115235
-3.008321
-5.721338
-7.917935
-9.732414
-6.491290
-1.342949
1.394485
-0.010859
-0.736391
3.669013
6.708558
3.664338
-0.926021
-2.569833
-3.829447
-5.756406
-5.514042
-4.743570
-7.259682
-8.746854
-5.308825
-4.235204
-5.713024
-5.555085
-5.231154
-4.320408
-6.532332
-10.921371
-9.394195
-4.802017
-2.860252
-0.835881
2.186259
3.844618
5.941984
7.888425
5.852104
2.404205
0.390744
-0.558968
0.197996
1.494238
3.268453
5.672865
6.982095
7.014307
5.558307
2.376930
-2.651138
-5.997209
-5.554304
-7.243315
-8.785038
-5.570150
-4.799678
-6.425306
-4.929043
-2.579961
-1.583491
-2.303828
-2.126666
-0.031898
0.132016
-1.831310
-2.119912
0.476728
0.812349
-0.354529
2.633841
6.626994
8.602529
7.521115
3.809032
1.706470
-0.711710
-2.322271
0.957040
2.767882
3.375999
6.303583
6.693755
5.621693
4.506249
2.410442
1.896621
2.590201
1.824925
-0.027480
0.038241
-0.183341
-1.583230
0.003432
2.661638
4.699517
5.693909
4.146211
0.947689
-2.904929
-3.561103
-0.319199
0.633890
-1.498285
-0.630141
1.637373
0.070973
-1.998598
-1.885339
1.681794
3.812410
-1.945865
-6.282691
-6.569994
-6.000323
-2.856871
-2.294473
-4.024788
-6.233075
-6.902756
-2.342790
0.167088
-0.879257
-1.699085
-3.367055
-3.017927
-2.179136
-4.110770
-5.802119
-5.189586
-4.571339
-6.684031
-6.808200
-3.402643
-2.051590
-1.724022
-1.134868
-1.014336
1.347734
3.596545
3.181955
4.902918
5.696768
1.316822
-0.289323
-0.690925
-3.328868
-1.601671
1.595293
3.204815
3.878393
2.121583
1.063029
1.065886
0.403998
1.003282
2.311993
2.616181
3.336258
3.041941
0.409193
-1.482696
-2.096788
-0.362057
2.522146
1.657378
-0.516879
-1.547378
-1.906118
-1.203186
-1.043688
-0.378682
2.445255
6.141493
6.217605
2.689177
2.375118
3.513681
1.284612
-0.775088
-0.445442
-2.138090
-4.732132
-3.797487
-2.030286
-2.013401
-3.811774
-4.500679
-4.902540
-7.331630
-5.584171
-2.016518
-1.220849
1.098619
2.651512
1.848050
1.501259
1.502818
2.543448
4.283634
5.179573
4.758749
3.148448
0.693641
-0.444921
-0.624161
-1.907155
-1.009916
-0.006952
-1.930534
-1.892868
0.210214
0.945357
-0.865225
-3.586035
-3.614090
-2.823875
-3.454072
-3.069096
-2.473189
-3.336138
-3.166509
-1.726356
-2.221993
-3.880611
-4.427422
-3.740076
-2.057819
-1.724537
-3.287041
-5.673529
-6.580638
-2.715551
0.718061
-0.618964
-2.456563
-2.579433
-0.276330
4.109591
6.144094
3.908791
0.269962
-2.056260
-2.795819
-2.167700
0.022403
0.946398
-2.024308
-5.074503
-5.172695
-4.689007
-4.250259
-3.415365
-2.829848
-2.202249
-2.121201
-2.292388
-1.895723
-3.071692
-4.078812
-1.330208
1.326699
1.892214
1.721806
0.649744
0.834179
0.814956
0.299057
1.923906
1.591662
0.290225
-0.092673
-2.361745
-3.991010
-5.404667
-5.734312
-4.146870
-3.530181
-1.180580
1.060437
0.656239
0.505833
-0.561034
-1.288124
-0.360753
-2.461755
-5.758730
-6.325024
-5.572736
-3.050389
-0.351920
-0.194241
-0.954062
-1.233313
-0.679487
-0.006429
-0.833270
-2.584885
-3.490696
-3.711238
-4.393649
-4.361178
-3.438482
-2.393176
-0.782874
0.486611
3.458876
7.558534
7.786090
5.171007
2.894660
2.988177
4.129857
2.465004
0.062411
-0.674551
-2.158605
-3.682923
-4.743036
-7.811155
-9.292871
-6.351259
-2.066906
0.851846
0.904579
-0.417380
-1.405277
-1.564515
-0.323604
-0.196837
-1.136157
-0.631169
-0.973543
-2.047683
-2.469806
-3.780335
-3.344964
-0.698448
0.624550
-0.392961
-2.596312
-2.532929
-0.857426
-1.405536
-2.771915
-2.434996
-1.100828
0.258278
1.534258
3.012077
4.005430
4.468856
5.579624
4.702128
1.729084
0.219573
-0.242035
-1.594647
-3.321843
-2.624107
-1.960140
-1.347607
2.719320
4.606014
4.790969
6.097342
5.257252
4.812530
4.063359
2.421106
2.369413
1.582576
0.192038
-0.364904
-0.250866
-0.133191
0.310752
0.582469
-0.091109
0.057219
0.166062
0.959912
1.543611
0.525840
1.466200
2.077174
0.793921
0.192558
0.068909
-0.073184
0.626631
2.765560
3.595778
1.699992
-0.851708
-1.879610
-1.186549
-0.888076
-0.896388
-1.221098
-2.847765
-3.515109
-1.685303
0.599615
0.090730
-2.163796
-2.469802
-2.548512
-3.613300
-2.342516
-0.230343
-0.994580
-1.927147
-1.327862
-0.697145
-0.093185
-0.949380
-2.374986
-2.310564
-1.150960
1.176301
2.302395
-0.105134
-3.099739
-3.846052
-3.225466
