EVENT_NAME: 202010301151
EVENT_ID: 10614
EVENT_DATE_YYYYMMDD: 2020/10/30
EVENT_TIME_HHMMSS: 11:51:24.00000
EVENT_LATITUDE_DEGREE: 37.879
EVENT_LONGITUDE_DEGREE: 26.703
EVENT_DEPTH_KM: 16.54
HYPOCENTER_REFERENCE: AFAD
MAGNITUDE_W: 6.6
MAGNITUDE_W_REFERENCE: AFAD
MAGNITUDE_L: 
MAGNITUDE_L_REFERENCE: 
FOCAL_MECHANISM: 
NETWORK: TK
STATION_CODE: 4814
STATION_NAME: 
STATION_LATITUDE_DEGREE: 37.3991
STATION_LONGITUDE_DEGREE: 27.6567
STATION_ELEVATION_M: 63.0
LOCATION: -_-_-
SENSOR_DEPTH_M: 
VS30_M/S: 694
SITE_CLASSIFICATION_EC8: B
MORPHOLOGIC_CLASSIFICATION: 
EPICENTRAL_DISTANCE_KM: 99.50
EARTHQUAKE_BACKAZIMUTH_DEGREE: 
DATE_TIME_FIRST_SAMPLE_YYYYMMDD_HHMMSS: 2020/10/30 11:51:18.0427260
DATE_TIME_FIRST_SAMPLE_PRECISION: millisecond
SAMPLING_INTERVAL_S: 0.01
NDATA: 11251
DURATION_S: 
STREAM: HNZ
UNITS: cm/s^2
INSTRUMENT: sensor = GMS+/GEOSIG | digitizer = 
INSTRUMENT_ANALOG/DIGITAL: 
INSTRUMENTAL_FREQUENCY_HZ: 
INSTRUMENTAL_DAMPING: 
FULL_SCALE_G: 
N_BIT_DIGITAL_CONVERTER: 
PGA_CM/S^2: 11.244
TIME_PGA_S: 
BASELINE_CORRECTION: BASELINE REMOVED
FILTER_TYPE: BUTTERWORTH
FILTER_ORDER: 
LOW_CUT_FREQUENCY_HZ: 
HIGH_CUT_FREQUENCY_HZ: 
LATE/NORMAL_TRIGGERED: 
DATABASE_VERSION: 
HEADER_FORMAT: DYNA 1.2
DATA_TYPE: Acceleration
PROCESSING: Manual Paolucci et al., 2011
DATA_TIMESTAMP_YYYYMMDD_HHMMSS: 
DATA_LICENSE: U (unknown license)
DATA_CITATION: Turkish Accelerometric Archive v 1.0 - Disaster And Emergency Management Presidency, Earthquake Department
DATA_CREATOR: AFAD
ORIGINAL_DATA_MEDIATOR_CITATION: : AFAD - Disaster And Emergency Management Presidency
ORIGINAL_DATA_MEDIATOR: AFAD PROCESS SERVICE
ORIGINAL_DATA_CREATOR_CITATION: AFAD PROCESS SERVICE
ORIGINAL_DATA_CREATOR: network: TK
USER1: GuestUser
USER2: 
USER3: 
USER4: 
USER5: 
[...]
-0.246134
-0.003771
-0.301985
-0.258604
0.247683
-0.010268
-0.240163
-0.164571
-0.888805
-0.879454
0.061165
-0.030274
-0.646184
-0.777108
-0.500715
-0.306150
-0.448503
-0.454738
0.025832
0.461462
0.170781
0.052586
0.245073
-0.295504
-0.309013
0.917611
1.759518
1.473773
0.884618
0.930856
0.803310
-0.057822
-0.447214
-0.357855
-0.335775
-0.181734
0.052836
-0.237845
-0.807776
-0.393447
-0.494497
-1.416155
-0.639449
0.463785
0.743554
1.255816
1.196588
0.540673
0.606394
0.905906
0.083220
-0.835839
-0.413457
0.358572
0.532356
0.085555
-0.275783
0.293368
0.506377
0.185823
0.287651
-0.745966
-1.729188
-0.254746
-0.202274
-1.957266
-1.014309
-0.422039
-1.229918
0.718081
1.497124
-0.756883
-0.689863
0.290500
-0.598426
-0.120973
1.504134
0.947191
0.296472
0.631572
0.423237
0.417262
-0.104612
0.755479
2.641133
2.662434
3.303800
2.067564
-1.297730
-0.841838
0.449727
-0.729100
-0.821578
-0.589866
-1.981184
-1.398784
-0.335555
-2.477342
-2.196793
0.390494
-0.419203
0.316459
1.383845
-1.831303
-2.310316
-0.365174
-0.319975
0.450496
2.331734
3.949568
3.609791
1.861812
1.045621
-0.561564
-2.146668
-1.840922
-2.117835
-2.366174
-0.597935
0.857285
-0.147239
-0.790165
0.392558
1.445397
0.656741
-2.097839
-1.958344
0.440092
0.636476
0.748176
0.202922
-1.019027
-0.482866
-0.730686
-1.603766
-0.649380
0.417487
0.758821
1.019627
0.687643
0.175380
0.180315
0.406053
0.467098
0.656988
0.641920
-1.079562
-1.276986
1.067678
1.245099
0.813624
1.665922
2.152986
1.061700
-0.786809
-1.832375
-3.076405
-2.882878
-1.301931
-0.227791
1.096245
1.294447
0.401884
0.808680
0.203680
-2.986531
-3.768692
-1.897845
-0.563417
1.542521
2.505480
1.210796
0.737498
-0.032715
0.448894
2.580809
0.783994
0.334075
4.284625
4.061484
0.071188
-1.398839
-0.903203
-1.623540
-1.697834
-1.282466
-1.651597
-0.239759
0.906597
0.962186
1.799677
2.516896
2.327005
-0.374322
-3.572845
-3.135137
-2.474288
-2.617421
0.159498
2.591185
2.297906
1.759666
0.531483
-1.404308
-1.661479
-1.791364
-0.759307
3.315672
3.691036
1.806679
2.014233
-0.161844
-1.782276
-2.377146
-4.760777
-3.751579
-1.394186
-1.141432
0.090127
2.219704
1.988769
-1.106886
-2.916689
-2.767323
-2.238696
-1.449262
-0.243160
1.275442
1.530793
2.389586
2.297108
0.641606
1.181663
0.055049
0.021278
2.307495
-0.425264
-2.697195
-1.466415
-0.710491
-0.001325
0.503403
-0.572297
-2.024919
-1.325885
-1.717615
-1.079886
1.295432
-0.150957
0.305455
2.701553
2.180199
0.730173
-1.317058
-1.329008
0.037370
0.075556
0.580024
1.452584
0.807840
-1.130030
-0.832596
-0.334622
-1.897906
-2.195081
-2.692537
-0.750513
2.283836
-0.015111
0.805236
2.464113
0.004630
0.757696
-0.207083
-0.140063
3.096645
1.082403
-0.171757
2.193689
1.319570
-2.547596
-2.666311
0.048523
0.465450
1.342686
1.711556
-0.797024
-2.108853
-1.975073
-1.984685
-1.377608
-1.466189
-0.083965
3.299772
1.577769
-1.677903
0.164890
1.307089
0.980041
2.136787
1.741939
1.257731
1.846364
0.045652
-1.711938
-0.238275
0.525702
-0.841977
-1.024595
-0.900426
-1.098889
0.353992
-0.022932
-2.526576
-1.286444
-0.187887
-0.986933
0.771435
1.734134
1.222391
1.406566
1.884538
0.796889
-0.570790
0.529846
-0.106326
-1.764685
-1.747021
-1.141503
-1.103577
-2.254090
-0.524556
0.720771
0.263838
1.416428
-0.603528
-1.395821
0.955078
1.297452
1.339274
1.519292
2.286646
0.245389
-2.663493
-0.558334
-0.076725
-0.856289
0.898702
1.388104
1.284197
1.401092
0.099134
-1.284391
-0.840967
-0.078549
0.223301
0.059906
-0.055951
1.580326
0.485404
-1.270888
1.103650
1.215090
1.003119
1.895421
0.962074
0.679186
0.167962
-0.281697
-1.444678
-0.902543
0.827770
-0.283777
-0.078301
-0.924106
-2.504795
-1.256870
-1.097114
-0.252089
1.910738
0.550592
-0.965154
0.981806
0.533965
-1.933311
-1.972017
-0.957105
0.528767
0.769052
0.238865
1.464709
1.377427
-0.043764
0.786193
-0.227162
-3.111106
-1.178433
0.537333
-0.106632
1.118952
0.624873
-0.218334
-0.238077
-2.023463
-2.318820
-0.320166
0.618895
0.248205
0.377049
0.445628
1.004128
1.051405
-0.516035
-0.373423
0.615772
1.420792
1.957732
0.435491
-0.361997
0.052852
-0.519677
-1.078179
-1.272226
-1.185724
-1.865277
-1.687077
0.162729
-0.440712
-0.883097
-0.205623
-2.008413
-1.441860
-0.026126
-2.262468
0.560689
3.194475
-0.753738
1.520529
3.605166
0.242730
1.119186
0.607443
0.197009
1.182048
-2.439118
-2.902804
-0.937400
-1.351211
-0.924673
-0.564635
-0.145371
0.885648
0.512101
-1.033259
-1.247309
-0.463849
-0.889090
-0.960007
0.196739
0.770565
0.821479
0.381951
-0.181746
-0.085373
0.002428
0.493649
-0.134471
-1.397203
0.305315
1.642600
0.149453
-1.402401
-2.088189
-0.429571
1.163065
-0.874036
-1.067823
1.678443
0.883812
-1.231739
0.144771
1.151891
1.143058
1.326194
-0.869106
-0.993795
0.526886
-1.358510
-1.487356
0.618582
-1.583731
-2.987518
1.933266
2.397210
-1.876232
-0.422572
0.440637
0.167360
2.456694
-0.797419
-2.318101
1.653490
1.934298
3.250542
4.476905
1.948324
0.256714
-0.474793
-0.762356
-1.648425
-1.445288
0.219305
0.983541
0.439067
-1.041091
-0.965759
-1.316706
-2.340452
-0.510128
2.257179
1.675558
0.140069
0.730781
-1.095129
-1.344506
0.873651
-0.839259
0.169159
2.055074
0.485036
0.822993
-0.539490
-1.106824
1.630870
-0.135033
-2.646470
-1.367114
-0.839266
-1.779627
-1.324254
0.650241
1.689572
2.390685
2.422896
1.061192
1.455519
1.820752
0.644002
-0.171410
-1.190740
-1.425571
-0.491965
-0.213495
-0.480537
-0.055817
1.055210
0.534894
-1.243478
-0.450407
0.413581
-0.598476
-0.262856
-0.012960
-0.097905
1.237042
0.753093
-1.964339
-1.616771
0.551512
0.209656
0.322135
1.441475
1.595257
0.758024
-1.534948
-1.971619
-1.475722
-3.384498
-2.530122
0.783218
2.016855
1.613175
-0.674602
-1.721727
-1.308697
-1.953441
-1.378056
-1.386629
-1.233886
0.725283
0.757494
0.759051
1.119089
0.062612
0.361345
0.842954
-0.925287
-1.466904
1.359890
1.881504
0.085208
2.009308
2.955382
-0.081046
-1.625107
-2.438181
-3.204497
-0.887628
0.888405
-0.473299
-0.675919
0.976984
0.513038
-1.197535
-0.396151
0.926067
1.078290
1.118813
0.434065
0.039736
-0.072744
-0.436420
0.468871
1.060622
1.017759
1.258564
-0.475388
-2.352731
-1.532125
-0.341350
-0.145225
-0.605795
-0.162891
1.708736
1.009960
-0.456171
0.595629
0.220523
-0.501632
0.607057
0.007771
1.239331
4.866729
2.804431
0.636147
2.547259
0.413525
-2.641087
-1.797880
-1.395241
-0.435399
2.087207
0.507817
-1.912182
-0.595938
-1.430054
-2.769937
-1.469020
-0.932600
0.693806
1.105538
-1.308226
-1.287965
-0.475152
-0.525288
-0.770769
-0.359557
1.913671
2.282801
1.389718
1.426085
1.069423
0.797446
0.324927
-0.094079
-1.008723
-1.948564
-1.243554
-0.109408
1.316457
2.402287
2.127452
1.274113
0.930440
0.751979
-0.217216
-0.439318
0.499482
1.800399
1.680126
-0.438801
-1.370330
-1.135760
-1.152386
-0.568168
-0.077727
-0.893399
0.160479
2.068733
0.483629
-0.327367
0.333741
0.909646
3.307823
2.645934
0.665982
2.387204
1.253835
-1.847275
-2.045738
-2.175882
-1.104340
1.660629
1.797526
-0.158787
-0.730277
-0.395956
0.718967
1.230969
-0.727422
-1.231373
0.605965
0.425426
-1.641288
-2.104715
-0.777561
0.243326
-1.070840
-2.601913
-0.746651
2.094430
0.957425
-2.068352
-0.487665
1.342399
-0.352587
0.554782
2.114947
-0.304012
-1.073446
1.058209
0.091352
-0.467669
0.882864
1.087301
2.453939
1.585275
-0.435721
0.415279
0.268769
-1.212169
-1.986018
-0.707441
1.289914
0.660236
-0.247394
1.388624
2.022457
0.973254
0.307208
-0.361435
0.556584
1.404985
1.088328
1.210937
-0.130245
-1.017613
-0.094138
-0.664849
-1.583129
-1.114769
-0.192074
-0.292345
-1.681844
-0.625628
1.730466
0.893493
-0.409763
0.121462
-0.175973
-0.685638
-0.450029
-1.919537
-1.925253
1.363409
2.321692
1.254045
1.539529
0.958947
0.386938
1.340805
-0.497833
-2.420376
-1.468068
-0.916581
0.717878
2.039837
0.889584
-0.066363
-0.724875
-2.276730
-2.514678
-0.205341
0.943352
0.248212
-0.189238
-0.849568
-2.035669
-2.658074
-1.467818
-0.889056
-1.703429
0.566942
2.668724
0.784367
0.138583
1.409367
1.128038
0.790079
1.535353
0.206119
-0.772946
1.129333
0.597588
-1.392495
-0.879454
-0.032871
-0.297575
-0.463048
-1.350675
-2.939417
-0.894524
1.600286
1.087244
1.709128
1.169329
0.051028
0.283000
-2.006076
-1.899831
1.408053
0.477044
-1.217683
0.506397
1.605994
0.818117
0.322219
0.045825
-1.089621
-1.817491
-1.021823
1.320504
3.284089
2.109158
0.265065
-1.230419
-2.548483
-2.593423
-2.145844
-0.218626
-0.631658
-2.078566
0.866683
1.863671
0.458846
0.637306
0.884864
0.821220
0.130496
0.072827
0.145562
-0.059136
1.023836
1.592987
0.190499
-1.955704
-1.530205
0.069705
-0.026929
0.475461
0.369995
0.619891
2.276171
0.666128
-0.842345
0.930051
-0.095773
-2.369003
-0.697656
0.478572
-0.225140
0.859650
1.908852
0.406354
0.197240
1.521796
0.234646
0.464799
1.389053
0.451290
0.952642
-0.648828
-1.704006
0.264774
0.077741
-0.191899
0.873408
1.071091
-0.704683
-1.915722
-1.620626
-0.897173
1.527500
1.343324
0.517262
2.010926
0.751051
-0.745212
-0.211910
-0.803142
-1.192535
0.677794
0.469719
0.444261
2.370959
-0.799769
-2.800762
-0.278156
-0.287768
-1.268652
-1.194879
-1.135653
-0.598973
0.304500
-0.914332
-1.947690
-0.499224
-1.070455
-1.456470
0.445809
0.358267
0.054078
1.003529
0.760905
-0.471954
-1.638053
-1.192551
0.228638
0.055113
-0.546510
-0.809656
-0.975388
-0.298434
0.084463
-0.504951
-1.400631
-1.165282
-1.037737
-1.642217
-0.542880
-0.296101
-0.169335
1.032611
0.079781
-0.456121
0.616980
0.941170
-0.231164
0.320843
2.218447
0.066269
-0.675110
2.082586
1.334714
-0.109337
0.105231
-0.957480
-0.972028
-0.992550
-2.170599
0.587617
2.235064
0.266542
1.918406
1.505374
-2.192423
-1.858881
-0.993855
-0.421327
1.584340
2.438716
2.008280
2.200768
1.809297
-0.613819
-1.132576
0.329917
0.592541
0.016376
-0.414320
-0.439518
-1.671339
-2.827306
-1.618087
-0.534077
-0.680067
-0.422897
1.520686
3.062927
2.730424
3.221125
2.518712
0.780604
0.715661
-1.883058
-5.594363
-5.401616
-4.617377
-4.848571
-1.924364
1.956308
1.168691
-1.214940
-2.103606
-3.218011
-2.424161
-0.847890
-0.992062
1.389749
3.176173
0.866835
0.358469
1.574961
1.196219
-1.124808
-3.628971
-4.057070
-2.686275
-1.261968
-1.811637
-1.392113
-0.291477
-1.986723
-0.660868
2.043835
0.654076
3.037965
5.788907
2.809368
1.862514
1.149970
0.138952
1.000602
-0.136143
-0.943503
-2.000239
-3.756531
-3.566641
-2.782143
-1.389008
-0.055620
-0.342664
-0.390462
1.538055
1.792627
-0.637763
-0.135632
1.922509
2.567252
5.023357
6.930832
5.602378
4.163783
2.731942
1.015654
1.847171
4.255479
4.437575
3.036127
2.949364
3.008850
1.254896
0.616905
1.429978
0.940575
1.495958
2.315006
1.657792
2.881299
3.411225
1.291518
0.797179
2.175507
2.190573
0.882640
-0.395418
-3.014659
-4.912005
-6.130577
-8.654742
-7.048078
-3.981518
-4.304151
-2.499284
-0.077468
-0.990034
-0.949770
0.641048
0.546752
1.124215
3.815150
4.552631
3.434849
2.114188
-0.341918
-0.865611
0.200995
-1.721807
-4.497948
-5.468961
-6.811702
-8.397066
-7.886103
-6.411142
-4.400279
-1.618944
-0.916533
-0.308676
0.450105
-2.549955
-3.988291
-2.198231
-1.527251
0.001743
2.435767
2.853733
1.746862
1.866614
2.288476
1.658019
2.265616
3.913323
4.265827
3.204934
2.421214
2.139625
2.572138
3.457686
5.728317
8.237415
7.550068
7.469799
5.630901
-0.249985
-2.685310
-2.965600
-3.052104
-0.892654
-0.353376
-0.632887
2.017524
4.232825
7.326660
10.413482
7.832687
7.207684
9.219067
6.304730
4.102417
4.764305
4.249704
4.019029
2.366645
0.680750
3.100488
0.531902
-4.312251
-1.308815
-1.683141
-5.356260
-0.976833
3.187246
2.955532
4.099809
3.742108
4.428415
8.654059
9.387383
7.622779
7.686941
5.915323
1.098965
-0.551861
-1.797708
-5.485634
-4.977269
-5.165082
-8.030842
-7.096977
-7.107628
-9.979363
-10.201985
-7.522999
-4.455140
-1.095822
0.625140
0.295494
2.749520
2.816540
-5.004294
-9.486330
-6.629663
-6.592517
-8.810675
-5.849841
-2.911347
-2.029176
1.940337
1.535098
1.347026
8.593771
4.813887
-3.136570
1.507820
0.866452
-4.562439
-2.016454
-0.614227
-2.557292
-4.369953
-4.150190
-2.670812
-5.655027
-8.472211
-7.510291
-6.680333
-7.904620
-10.789343
-8.441561
-1.855666
0.126103
-0.980769
0.257025
4.251735
5.246126
3.982615
4.455132
3.376315
2.888730
4.143408
2.511546
-0.361228
-0.544625
-0.963891
-2.996316
-2.623550
-1.791774
-2.215196
-0.336815
0.864352
-0.768291
0.026858
1.898745
2.264498
3.183037
4.596693
6.894600
7.593375
6.593527
7.981986
9.325246
9.137433
7.850282
5.200908
4.256132
3.943630
2.426065
2.196950
4.343931
6.557153
3.940770
-0.420994
-2.209497
-4.578581
-4.751847
-1.683988
1.668056
3.831922
2.425019
-0.024074
-1.346293
-3.019199
-3.593027
-3.197921
-5.073965
-4.578329
-3.665765
-6.511263
-3.631996
1.307750
2.635163
6.063580
9.262361
8.723342
5.397793
1.519197
-1.248631
-4.347143
-5.720797
-5.922117
-8.382899
-7.045875
-4.618864
-5.538183
-1.975207
3.567201
5.925114
7.395659
8.989595
7.010942
0.254378
-4.894483
-7.461251
-9.402757
-10.697441
-9.795007
-7.196550
-7.847529
-4.879421
1.701799
2.886600
5.397256
8.327697
8.262755
9.688360
7.430976
3.226892
2.641114
-0.083592
-2.966237
-2.493720
-4.992428
-9.666693
-11.243745
-8.805044
-5.692246
-4.341453
-1.716759
2.624223
4.888879
3.691088
1.901027
0.760645
-0.663923
-2.785448
-1.535446
3.557304
3.418327
1.126394
3.213629
4.651184
3.687185
3.148685
3.788493
4.343876
3.611330
0.963255
-0.735368
-1.002410
-3.447606
-4.498888
-3.303956
-3.431762
-3.003146
-2.268523
0.075882
1.794506
-1.640406
-1.315437
1.052867
-1.362456
-0.520289
0.404224
-1.408437
0.536185
1.914773
1.079099
1.017273
-0.018942
-2.359451
-3.040304
-3.137977
-4.010019
-2.837946
-1.803291
-0.250139
1.378345
0.699571
0.416943
-0.491207
-0.464711
0.380054
0.810748
2.257655
3.081638
3.771321
4.170584
5.007815
3.691571
-2.081772
-4.316556
-4.330584
-7.330904
-9.239939
-8.781450
-5.810744
-2.112169
-0.966334
-0.780600
-0.645781
-0.669940
-0.036367
0.098192
0.814631
1.801749
0.231711
0.153520
0.457448
-2.494815
-2.285703
-0.216392
-0.856980
0.039478
1.427418
0.940612
0.487836
-1.062720
-2.007236
-0.760351
-0.132233
0.687075
1.168424
1.582493
3.228642
2.998227
2.436608
2.237366
0.947358
-0.186270
-0.823741
-1.088186
-0.971291
0.060766
-0.291739
-2.175317
-3.294918
-4.215016
-4.402569
-4.087471
-5.535159
-7.008303
-5.420602
-5.200579
-6.496822
-5.913903
-7.626814
-8.379362
-6.254981
-6.160426
-4.640265
-2.946578
-3.219335
-0.819340
-0.508658
-2.633301
-0.760894
-0.048351
-0.614127
-0.515675
-3.517554
-3.205833
-0.381637
-1.497081
-1.409800
0.407796
0.745494
0.175562
-0.293320
0.377401
1.362440
1.752870
2.215516
4.167152
5.321560
4.888007
4.493679
2.111866
1.897297
3.524742
0.438959
-0.767404
1.961457
1.135914
-0.702464
-0.150198
0.625468
0.640794
-0.322686
-0.019797
2.498912
3.810739
3.009095
2.949867
2.647237
1.927939
2.204331
1.211757
2.584630
2.664378
-1.698425
0.052930
2.548000
0.227233
-0.568697
-0.121377
2.093404
4.306366
3.345484
2.196790
3.910998
5.531429
2.416032
0.590642
3.389121
3.137665
0.746241
0.085391
-1.302550
-2.430723
-2.326816
-2.530215
-3.537855
-4.106228
-2.673349
-2.418257
-1.653501
1.041071
1.142380
2.958416
3.669401
0.049534
0.569069
2.220673
1.409157
0.430871
-0.485331
-0.881478
-2.182396
-3.612160
-3.673466
-2.238508
-1.039940
-1.867561
-2.356705
-0.962791
0.425668
0.289809
0.541264
0.680499
-0.803556
-1.103589
-1.555585
-3.160952
-3.093153
-2.894431
-3.608534
-3.562036
-3.094454
-2.596220
-1.285951
-0.581461
-1.053980
-0.624324
1.695662
3.159454
1.577726
1.812036
3.133475
2.767721
2.656020
2.342999
4.753645
5.991958
3.478963
3.850950
4.757020
2.617830
0.724901
2.218566
3.658718
2.656273
2.828758
3.243607
2.656271
2.843044
1.985549
0.391872
0.909070
1.452244
1.333269
1.824750
1.839556
1.367817
1.589398
2.128156
1.161299
-0.130527
-1.285196
-1.897989
-0.263011
-0.690330
-2.312321
-0.105593
1.266240
-0.773198
-2.194129
-1.922673
-2.286868
-3.685719
-4.589712
-5.152889
-4.635952
-4.104987
-5.374733
-5.197052
-3.099427
-3.103584
-4.515163
-3.921854
-2.289213
-1.752533
-1.510430
-0.470580
0.771889
0.835272
0.000118
0.006871
0.027652
0.164549
1.444944
1.201541
0.849035
2.260873
1.907069
1.097112
1.338436
0.528478
0.250786
-0.046909
-1.548368
-1.671499
-0.807771
-0.496829
-0.808032
-1.744756
-2.028942
-1.060788
-1.686829
-3.245438
-2.494449
-2.267153
-2.536793
-2.568745
-3.043861
-1.777233
-1.539806
-1.913872
-1.097422
-1.175353
-0.437873
0.155177
-0.670886
-0.203824
-0.060692
-0.526197
1.194505
1.176580
-1.612808
-0.877666
1.612729
1.622080
2.152265
1.614026
0.095162
0.930835
0.310768
-0.648815
-0.108239
-0.883387
-1.177445
-0.551665
-1.639573
-2.346402
-1.179526
-0.102788
2.173558
3.995309
4.259752
5.629508
5.958114
4.403142
2.673607
1.623624
0.852373
-0.133707
-0.251902
-0.814300
-1.518012
-1.411768
-1.367608
-0.010061
0.384266
-0.470371
0.647150
0.982250
0.868990
1.313972
-0.371663
-1.253835
-0.468038
-1.937026
-3.481607
-2.352396
-1.899362
-1.442171
0.051494
-0.073974
1.012375
2.028846
1.588279
3.199099
3.463542
1.825185
1.897920
2.560587
1.616590
0.555177
0.802995
0.947166
1.975327
2.503174
2.015589
3.619396
3.904101
2.811257
2.315619
1.127180
2.074033
2.591231
0.403724
-1.040326
-0.523648
0.321636
-0.095033
0.984822
1.505916
0.406317
1.379667
1.543580
1.407461
2.857745
2.391980
0.940137
1.920760
2.875666
2.018951
1.730348
1.269779
1.014427
1.651377
1.530065
1.429014
0.902984
-0.123360
-0.775118
-1.980702
-1.519874
-0.168822
-0.875391
0.647887
2.719016
2.328324
3.448183
3.754189
2.367028
1.463035
0.231734
-0.594069
-0.324950
-0.247020
-1.752376
-2.036562
-0.738503
-0.245464
0.572025
0.712559
0.575661
1.972692
2.145697
0.826335
0.820360
-0.439775
-2.176584
-0.365223
0.523702
-0.599016
-1.245319
-0.092989
2.576905
1.526143
-0.129878
1.271050
2.144129
2.319472
2.308821
2.659507
3.532326
3.478814
2.845759
2.527282
2.012682
0.886587
0.372246
0.626818
0.529924
0.385492
0.389648
0.589149
1.034910
1.491062
2.479738
3.664279
4.030291
3.700645
3.321124
3.075123
2.455056
1.919674
2.047739
2.108524
2.232952
1.237521
-0.010405
0.073240
-0.880369
-1.159360
-0.376940
-0.460846
-0.475393
-0.973369
-1.064808
-0.293818
-0.105486
-0.359021
-0.247321
0.061023
0.111157
0.501328
1.283489
1.083986
-0.650225
-1.174177
0.382092
0.080241
-0.887915
0.612504
1.110738
0.170118
0.033739
0.223629
0.487552
0.212717
0.108030
0.624708
0.687831
-0.313835
-1.580724
-1.724636
-2.289112
-2.934896
-2.342106
-1.788541
-0.475155
0.481569
-0.394109
-0.776748
0.039183
-0.041606
-0.848965
-0.949236
-1.396557
-0.972617
-0.210718
-1.091851
-1.382532
-0.812342
-0.749219
-1.001714
-0.356711
0.554814
1.017200
0.948880
-0.261639
-0.088894
0.821073
0.901080
1.689216
1.681422
1.413860
1.930538
1.094085
-0.734422
