EVENT_NAME: 202010301151
EVENT_ID: 10614
EVENT_DATE_YYYYMMDD: 2020/10/30
EVENT_TIME_HHMMSS: 11:51:24.00000
EVENT_LATITUDE_DEGREE: 37.879
EVENT_LONGITUDE_DEGREE: 26.703
EVENT_DEPTH_KM: 16.54
HYPOCENTER_REFERENCE: AFAD
MAGNITUDE_W: 6.6
MAGNITUDE_W_REFERENCE: AFAD
MAGNITUDE_L: 
MAGNITUDE_L_REFERENCE: 
FOCAL_MECHANISM: 
NETWORK: TK
STATION_CODE: 4814
STATION_NAME: 
STATION_LATITUDE_DEGREE: 37.3991
STATION_LONGITUDE_DEGREE: 27.6567
STATION_ELEVATION_M: 63.0
LOCATION: -_-_-
SENSOR_DEPTH_M: 
VS30_M/S: 694
SITE_CLASSIFICATION_EC8: B
MORPHOLOGIC_CLASSIFICATION: 
EPICENTRAL_DISTANCE_KM: 99.50
EARTHQUAKE_BACKAZIMUTH_DEGREE: 
DATE_TIME_FIRST_SAMPLE_YYYYMMDD_HHMMSS: 2020/10/30 11:51:18.0427260
DATE_TIME_FIRST_SAMPLE_PRECISION: millisecond
SAMPLING_INTERVAL_S: 0.01
NDATA: 11251
DURATION_S: 
STREAM: HNE
UNITS: cm/s^2
INSTRUMENT: sensor = GMS+/GEOSIG | digitizer = 
INSTRUMENT_ANALOG/DIGITAL: 
INSTRUMENTAL_FREQUENCY_HZ: 
INSTRUMENTAL_DAMPING: 
FULL_SCALE_G: 
N_BIT_DIGITAL_CONVERTER: 
PGA_CM/S^2: 23.003
TIME_PGA_S: 
BASELINE_CORRECTION: BASELINE REMOVED
FILTER_TYPE: BUTTERWORTH
FILTER_ORDER: 
LOW_CUT_FREQUENCY_HZ: 
HIGH_CUT_FREQUENCY_HZ: 
LATE/NORMAL_TRIGGERED: 
DATABASE_VERSION: 
HEADER_FORMAT: DYNA 1.2
DATA_TYPE: Acceleration
PROCESSING: Manual Paolucci et al., 2011
DATA_TIMESTAMP_YYYYMMDD_HHMMSS: 
DATA_LICENSE: U (unknown license)
DATA_CITATION: Turkish Accelerometric Archive v 1.0 - Disaster And Emergency Management Presidency, Earthquake Department
DATA_CREATOR: AFAD
ORIGINAL_DATA_MEDIATOR_CITATION: : AFAD - Disaster And Emergency Management Presidency
ORIGINAL_DATA_MEDIATOR: AFAD PROCESS SERVICE
ORIGINAL_DATA_CREATOR_CITATION: AFAD PROCESS SERVICE
ORIGINAL_DATA_CREATOR: network: TK
USER1: GuestUser
USER2: 
USER3: 
USER4: 
USER5: 
[...]
-0.095593
-0.497454
-0.169887
0.210153
0.689165
0.893602
-0.270418
-0.832556
0.234310
0.515898
-0.205997
0.309642
0.841647
-0.118975
-0.255873
0.457189
0.493297
0.014285
-0.710468
-0.612796
-0.037150
0.337954
0.698252
-0.060790
-0.719821
0.031687
0.187028
-0.375110
-0.009357
0.677729
0.679547
0.665779
0.655908
0.370422
0.111174
-0.427066
-0.838019
-0.493826
0.449131
0.675648
-0.603189
-0.548119
1.231291
0.934896
-0.463955
-0.374855
-0.548640
-1.030509
-0.042352
0.388083
-1.221180
-1.736040
0.091687
0.950220
-0.514092
-0.944528
0.767082
0.952557
-0.818022
-0.933879
0.253780
-0.101063
-0.288616
1.477546
2.759241
1.611586
-0.159512
0.459255
1.354934
-0.427593
-1.390553
0.195330
0.810200
-0.056126
0.123893
1.153353
0.313523
-1.456796
-0.994149
-0.230692
-0.101328
1.132050
1.545601
0.733826
0.397686
0.690963
1.045546
1.102955
0.127526
-1.402248
-0.838032
0.604199
0.714601
-0.236150
-0.680613
0.022578
-0.116138
-0.088343
0.614069
-0.649443
-2.951506
-2.151161
0.453791
0.114274
-0.595672
0.552502
0.027511
-0.290705
2.140463
1.681193
-2.259227
-2.297413
0.429370
1.056710
1.960962
1.922776
-1.210545
-1.192622
2.510110
2.636097
-0.475403
-0.759589
0.896691
1.071774
1.933424
1.681449
-2.325212
-2.843709
1.623260
1.893418
-1.752425
-1.836850
-0.031722
0.113488
0.746282
-0.682702
-3.936035
-2.159223
1.401416
2.663628
2.565955
-0.853630
-3.867458
-1.226917
2.790653
3.595933
4.016238
4.540969
0.689649
-2.393537
1.498566
2.004074
-4.059949
-5.346320
-2.378471
-1.401484
-0.012506
2.676612
0.893565
-2.640059
0.232974
3.439289
-0.213827
-4.947059
-3.181936
1.774955
1.945882
-0.190449
0.133221
1.227883
-0.199022
-1.451883
0.805240
1.369975
-1.027163
-3.254154
-3.140376
0.065939
2.930919
2.731937
0.431172
-0.578286
-0.498538
0.566511
0.730424
-1.600993
-0.063427
2.129273
0.037102
-1.143803
-0.061610
1.125529
1.271778
1.121372
-0.868970
-4.031385
-2.602661
2.149013
4.345091
2.138362
-0.596475
-0.945343
-0.579850
-2.564217
-5.545574
-3.798895
0.205428
2.044584
2.616073
1.679090
0.010860
0.211921
3.701383
5.792255
0.316866
-4.257647
0.384925
3.447588
-0.474128
-1.670360
0.773017
-1.094715
-3.715254
0.481816
4.189744
0.651964
-2.056117
0.669108
3.415894
2.870381
0.017609
-2.725280
-3.070512
-0.776242
1.564786
0.938226
-0.119290
2.900772
3.767877
-0.381656
-1.646466
-2.659561
-4.479756
-2.000790
0.334003
1.349436
2.626195
1.122658
-0.271776
0.723394
-0.100850
-2.575919
-4.393255
-3.151825
-0.859633
-2.966091
-2.929204
2.410845
3.734362
-1.486454
-4.595357
-0.383480
3.095332
1.751812
1.007577
1.153826
-1.615041
-2.005212
4.787199
5.731715
-0.677279
-3.302754
-2.941937
-1.277864
-0.814438
-1.977939
-1.775840
0.434785
1.951570
0.949905
0.097086
-2.457991
-4.058941
-1.171881
0.540509
-1.406971
-4.202334
-2.614113
2.326153
4.264541
3.283657
1.818825
0.548820
-0.841978
-1.135516
1.254868
3.521343
1.352800
-3.409525
-3.109753
0.986786
-0.714694
-3.683841
-1.423861
-0.479864
-0.226071
0.436077
0.093183
0.844951
0.508552
0.877162
2.869582
2.371347
0.599989
-0.412587
-0.799901
0.927815
1.190181
-2.052503
-1.134743
3.384180
2.932963
-0.443501
-1.174748
-1.691167
-3.836331
-2.954679
0.470101
-1.213714
-3.745153
1.068346
5.229568
0.198903
-4.777991
1.070943
5.720529
0.033689
-1.922104
1.865312
1.294862
-0.722756
-0.052815
1.114322
1.508650
1.798810
0.901312
-1.995361
-1.793521
-0.001642
-0.993177
-0.865631
-2.308642
-3.869847
0.948328
3.162330
1.035609
1.137698
-0.086069
-1.620778
-0.069185
1.955187
0.845458
-1.191902
-1.020196
-2.296955
-2.424502
1.698015
1.542933
-2.712325
-1.006430
2.663831
1.999345
0.741548
-1.631432
-3.646452
-1.359456
1.682946
2.823846
2.180401
2.151826
0.733753
-3.277064
0.441254
4.622738
-1.762618
-3.501764
2.346651
2.869044
-1.097613
-1.000200
1.051966
-1.414271
-1.705471
0.432159
0.600489
0.795055
0.778429
-0.337015
-2.078499
1.056120
2.601220
-1.376087
-1.233994
1.817759
1.830228
-1.355567
-0.442223
2.396261
1.474344
1.110150
-0.540676
-2.658304
-1.679759
-0.407416
-0.455992
0.393189
1.867631
0.330324
-1.358687
-0.251037
3.064641
2.601994
-3.614513
-3.604642
0.840507
0.682048
-0.398846
2.035698
3.401818
-1.017614
-2.454651
1.873862
1.443686
-5.231830
-5.856832
0.537095
1.694361
0.187187
0.919473
-0.095181
-2.730786
-2.618827
0.818422
2.612119
1.979065
-0.589521
-2.764818
-0.862537
0.792444
1.045458
-0.262994
-2.547913
0.401232
3.239976
2.778628
2.912408
0.856345
-1.043078
-1.202576
-1.393246
-1.240243
-1.673536
-1.786795
-2.215413
-1.508065
0.904140
0.669569
-1.795369
-3.523865
-1.840569
0.924401
0.730873
1.120785
1.785271
-3.417102
-4.871283
3.678718
4.115908
-2.621433
-1.596130
1.993343
0.738144
-4.087305
-5.029224
-0.751625
0.015729
-1.821870
-0.395484
1.799295
1.609144
-0.313918
0.188993
3.024359
0.379921
-4.004182
-1.011916
1.502897
-0.188712
0.802043
0.315238
-3.113959
-2.875232
0.982581
3.155020
-0.015448
-2.675991
0.462265
1.315602
-2.288418
-2.636248
-0.619670
1.433796
1.916964
-0.557846
-0.914507
1.078952
-0.338083
-4.116148
-0.989321
4.526071
0.253148
-4.385268
-1.231166
0.499667
-0.644091
0.841781
2.510270
1.087001
-1.207789
-1.249092
1.722133
3.170339
-1.606014
-4.120048
0.303540
1.204934
0.083256
2.215950
3.102538
1.545489
-0.471350
1.197140
4.091733
2.440908
-1.250135
-3.123581
-1.030112
1.972545
2.799127
1.290394
-2.238293
-4.113039
-1.785778
3.228782
1.578216
-5.015733
-3.001493
2.761458
2.571827
-0.746708
-0.776322
1.660820
1.852529
2.311279
2.475452
0.076495
0.076754
-0.070794
-2.424032
-1.168574
-0.124567
-0.650337
-1.014532
-3.578182
-3.223599
0.302750
0.829819
0.014148
2.081381
2.720929
-1.623170
-4.908715
-1.548617
2.946666
0.719156
-0.850102
2.956797
4.065486
0.461465
-1.736172
-0.465907
-0.413694
-1.313270
-0.247183
-0.441230
-4.605829
-5.092115
1.062306
2.324518
-1.673830
-1.484199
0.888001
-0.090025
-1.109874
-0.300698
-0.212117
0.234943
-1.028568
-2.403780
1.697696
2.639874
-3.420252
-3.997197
2.185539
4.556181
-0.454743
-3.241793
1.781859
3.623613
0.221952
-0.340446
-0.401752
-2.850584
-2.673682
-0.038856
-0.355514
-1.503948
0.050243
3.011857
3.704138
2.422963
2.406337
1.010084
-0.771664
-0.781795
-0.684123
1.034242
1.201792
-3.054246
-2.361185
3.717124
0.864093
-4.526092
-0.167186
3.707771
1.456363
-0.398640
0.291043
0.603284
1.686516
2.980680
0.615233
-0.292397
1.376352
0.031793
-2.991386
-1.793077
1.790421
0.607957
-0.009511
2.914176
2.075905
-1.329393
-1.775155
-1.192496
-2.367686
-1.358228
-0.263047
-1.703720
-1.775416
1.492984
6.076329
3.302007
-3.138419
-2.145327
0.616006
-1.438239
-2.970091
-1.473828
0.681207
3.460464
3.518132
0.498849
-0.548016
0.027110
-1.438501
-1.764770
2.134866
2.817276
-0.888833
-1.661643
-0.990403
-1.417461
0.199334
0.974481
-0.088230
1.427516
1.815089
-1.334337
-3.236878
-1.613069
-0.559450
-1.467080
-0.179410
2.152786
1.867301
-1.014045
-2.645908
-1.212768
-1.058986
-2.961267
-2.498360
-1.400062
-1.492540
0.428184
2.579062
3.090285
1.591944
-0.891178
-0.634268
-0.603615
-1.864269
0.314664
1.406728
-0.367228
2.834672
6.081770
4.177671
2.404755
0.348951
-1.282651
-0.916379
0.701715
2.739595
1.250605
-1.558266
-0.030052
1.331651
-0.330084
1.539985
3.117036
0.502991
-0.223580
0.807438
2.041336
1.056555
-3.193768
-3.819549
-0.079930
0.740157
0.006053
2.057699
1.083829
-2.689040
-0.432177
4.058691
1.045123
-4.005285
-0.749095
4.411455
1.846246
-1.286296
1.829101
3.681246
-0.530891
-4.115949
-1.134852
2.833882
3.031565
2.246806
0.268673
-0.018631
2.412537
2.308630
2.680357
4.413789
-0.207743
-5.585978
-1.715177
1.064600
-2.759184
-1.373063
3.056240
0.833146
-3.219754
-1.197980
2.800887
-0.201251
-4.530803
-1.197462
2.396427
1.044854
-0.238659
-0.068252
2.633335
5.480910
1.518410
-2.380447
-1.230974
-0.923409
0.412317
0.746379
-0.663382
-0.946010
-0.902629
1.449310
0.668707
-3.626296
-3.736438
-0.081244
0.455956
-2.310053
0.259311
3.984643
-0.091636
-4.251300
0.397247
3.490303
-1.518542
-3.255870
-1.239292
-1.359565
0.444783
4.134786
3.525890
-0.596368
-0.798207
3.165591
3.335219
-1.239294
-3.490963
-0.697938
1.849346
2.453306
3.358857
1.655558
-0.432976
-0.935887
-1.846634
-0.424145
2.090408
1.814794
-1.401652
-4.317807
-2.582038
2.962188
3.723828
0.613366
-0.650405
-4.695511
-4.048170
3.207668
2.167816
-2.394488
0.203191
1.529566
-2.451378
-2.390852
0.190202
0.433344
1.379938
2.080272
0.755456
-0.315828
1.777642
3.335989
1.073930
0.326058
0.414898
0.469190
3.194934
2.418228
-0.025929
1.899731
1.700748
-1.474655
-1.797027
0.967942
3.652903
1.817383
-1.453096
-0.384151
1.623335
0.871307
-1.975230
-3.143147
-1.958346
-0.873555
1.571640
2.949709
-0.256607
-2.013158
2.308861
3.386897
-1.432058
-3.184972
-3.887385
-5.629129
-4.271322
-1.874184
-0.961360
-0.433771
-0.247778
-0.809656
-0.945255
-0.308824
-0.238167
0.089659
0.674657
-0.780044
-1.712611
0.949490
2.583950
0.208632
0.483726
1.946479
-2.239162
-4.429266
-0.874602
-0.617432
-3.697241
-1.477784
3.783815
5.034858
1.460451
-3.699320
-2.554523
2.322620
2.062592
0.882726
1.894521
0.727384
-0.509371
1.719697
0.886881
-2.565955
-1.348423
-0.136865
-0.395335
0.425532
2.089085
2.816435
-0.143101
-1.526885
-0.817459
0.223690
1.352382
-0.245711
-0.013219
2.948395
3.389221
0.774137
0.133289
0.790242
-0.286756
0.603728
1.801518
1.577858
0.490209
-0.942151
-0.849674
-1.459869
-1.964339
-2.543622
-3.370203
0.261612
2.215845
-1.041385
-0.126223
1.522005
-1.995773
-2.496606
0.077175
-1.425063
-3.527885
-2.434262
-0.070634
1.664875
0.586578
-0.430673
-0.301049
-0.517696
0.719838
-1.048143
-4.230560
-2.373999
-0.876177
-1.344279
-1.003464
-2.363609
-2.868598
-1.087370
0.035347
0.383696
-0.355344
-0.839032
-1.363504
-1.793160
-0.468085
0.570987
0.598262
0.138473
0.111976
0.365250
0.320569
-1.008404
-2.001497
-0.152728
-1.144263
-3.269165
-0.314565
1.851640
0.595402
0.070151
-1.047631
-2.935624
-0.733831
3.008125
3.204509
1.329504
-2.071378
-2.261268
1.917618
1.572127
-0.282876
1.073372
0.792043
-0.951000
-0.407566
1.751625
1.479648
-0.506538
-0.163385
0.565264
-1.396504
-2.362841
-0.468354
1.396260
3.093064
1.054145
-3.000572
-0.377436
1.531858
-2.057875
-2.896666
-0.410168
0.809962
-0.354318
1.076224
2.023597
-2.079957
-3.008368
0.286009
2.335577
1.895790
1.317546
0.919062
0.713066
2.640024
-0.942695
-8.816521
-7.100754
0.496158
1.064011
-2.552219
-2.400514
1.954495
4.662315
1.586663
1.445349
3.820666
-0.104167
-3.807419
-2.274009
0.968154
1.129729
-1.328455
-0.034551
1.821750
0.362114
-0.094039
2.030083
4.515283
3.569468
-0.980628
-4.238637
-5.477990
-4.355014
2.221011
5.950759
0.653571
-3.415174
-1.265595
0.897232
-1.350799
-3.070463
-0.847110
-0.060793
-1.867998
-2.852259
-3.613379
-3.951857
-0.297183
1.734202
0.081039
-1.426395
-5.870504
-7.324166
-2.496120
-1.524588
-6.183006
-6.515250
-2.054515
-0.104438
1.698352
2.511165
-0.166263
-1.941777
-2.466249
-3.603513
-4.449058
-1.975548
-0.015339
-1.129224
1.021913
3.704796
2.716639
0.244168
-3.179054
-6.041437
-4.975870
-1.992175
-5.083674
-7.481072
-0.800101
5.136115
7.595598
9.607500
10.306535
8.795465
5.485762
4.376033
3.951831
2.369585
2.286719
5.206250
7.207242
3.948973
0.338458
-0.463446
-2.946567
-4.938208
-0.692302
2.046431
-0.224460
-0.445783
0.347288
-0.295637
-1.118063
-0.251737
2.278142
5.467053
5.409384
1.122434
-0.392273
1.524554
4.696580
7.569353
8.254881
6.736797
0.709921
-7.801375
-11.466441
-10.419317
-11.858431
-12.952055
-6.746979
1.892902
3.704004
-0.162122
-0.519823
-0.467869
-4.439202
-4.791707
-3.733932
-7.075847
-9.969402
-9.013976
-5.934427
-3.259078
-0.366302
3.279540
4.839966
3.806349
1.715477
0.231682
0.957733
2.742598
2.359700
0.500281
0.887855
1.514674
0.070884
0.281556
1.239579
-1.361217
-1.195486
6.565860
7.928603
-2.981910
-6.971686
0.364679
0.074778
-8.953976
-11.930137
-4.959785
2.176559
0.023343
-0.028611
6.919142
5.687062
4.751378
13.811823
14.613986
4.143520
-2.708379
-5.498546
-7.003642
-3.244281
2.637125
4.788782
5.369104
6.897318
8.379034
9.556562
9.806718
11.762770
14.177313
8.616201
-0.022641
0.564694
4.612657
-0.011472
-6.635554
-3.628221
4.065844
2.886498
-3.617572
0.286740
7.292681
4.057271
-1.548261
0.578458
4.437311
-0.989761
-6.949357
-4.862901
-7.699048
-13.773721
-10.377775
-7.110155
-4.093730
4.267160
3.555136
1.658051
7.602840
3.729959
-4.791987
-1.955841
3.743986
1.482446
0.793022
8.379804
9.682540
2.910130
4.056226
11.616251
9.924123
1.573883
-2.926337
-5.344517
-5.730013
-8.466928
-12.223172
-4.409613
5.311162
4.020635
-0.436723
-3.251309
-6.959496
-8.893728
-4.260248
0.154767
-1.947275
-1.307727
0.339202
-2.794639
-1.481253
4.811885
10.552756
14.862565
12.150588
5.139971
4.393657
4.324819
-1.820252
-7.167834
-5.444274
-3.229493
-10.252060
-14.005187
-7.212775
-0.627919
6.353344
10.909154
8.587608
6.277491
6.844824
4.144277
-0.475696
0.683388
-1.131091
-10.144259
-14.114812
-8.769048
-5.153079
-7.043670
-1.317606
9.840205
14.351335
10.920320
6.044476
2.912973
-1.469312
-1.007705
3.772025
4.831098
-0.499859
-12.557767
-22.288154
-23.002516
-18.611919
-13.586189
-9.601349
-5.475456
-0.712351
2.327453
3.843198
6.553876
10.262063
11.391014
7.794787
5.601047
5.018647
-2.562161
-11.153466
-12.058237
-8.103531
-3.597077
2.484090
10.492994
15.374813
18.584765
20.604720
17.624662
10.520788
5.510904
6.051740
1.182650
-7.790513
-9.028827
-8.056776
-5.066847
2.848541
6.279295
2.192626
-2.274343
-0.321668
3.589398
2.258606
-0.843543
-1.972754
-2.655684
-4.544197
-4.597450
-3.359396
-4.635117
-7.247863
-6.156058
4.394675
11.295410
2.551622
-7.210457
-7.312287
-3.611633
-5.112053
-11.049828
-10.843053
-3.480451
1.127052
3.056348
5.828332
3.272735
-0.213091
5.285156
10.233995
5.503621
-0.647424
-1.409064
1.613076
1.858556
0.641803
3.415085
1.039247
-4.258720
-1.609087
3.168304
4.261667
-0.610800
-4.773581
0.122005
2.917367
-0.498841
-0.073861
0.146162
-3.786984
-1.228530
2.431600
0.772202
3.472490
4.917838
2.411857
0.378653
-1.781837
0.354234
3.913314
7.459925
10.049292
6.091208
5.127469
9.336228
4.399339
-3.446432
-2.348913
-0.257522
-1.110080
0.098100
1.130158
0.165379
1.040797
1.221855
-0.447674
1.648653
3.337664
0.053938
-1.691443
-0.302724
0.642571
0.477878
-0.189206
-1.377385
-3.670876
-4.760343
-3.215504
-2.318006
-2.481660
-2.183187
-1.539222
0.297337
0.087704
-3.134198
-2.641419
-0.992932
-5.347941
-6.916680
-3.146149
-3.613731
-5.350020
-3.993772
-0.989816
0.448519
-1.537407
-1.900823
0.299671
0.210310
0.357339
1.934649
0.848300
-2.252550
-3.968837
0.071853
4.114361
1.730470
-0.328970
2.129733
4.868206
4.959125
5.333710
5.398132
3.362591
0.260961
-2.943276
-2.708706
0.111854
-0.416774
-2.543235
-1.543388
-1.734058
-2.597267
-0.197271
-0.311829
-4.877251
-9.902721
-10.408230
-7.125543
-6.498463
-4.762694
-0.516788
0.330575
0.978955
3.694309
4.545568
3.666773
0.867774
-2.986663
-1.724191
2.750311
1.791248
-2.916007
-2.843792
3.185681
6.674104
2.802523
-0.353658
1.719810
3.531691
1.805273
-1.860053
-0.613427
6.255876
5.610093
-2.375433
-2.802232
1.991005
1.076362
-1.638213
1.959573
4.053042
-1.752512
-3.968072
0.198865
0.100153
-5.676307
-4.787901
4.088109
7.292866
4.743763
2.060620
2.244795
4.612060
0.462267
-4.506574
-1.470667
1.731232
1.008038
1.243388
2.914215
4.092002
3.467520
-0.175725
-1.267530
2.021131
2.611843
0.355239
-0.683573
0.092094
0.815807
-0.327432
-1.025948
-0.541481
-0.145855
3.309578
4.228637
-3.044086
-5.265622
-1.413004
-2.898617
-5.994791
-5.665925
-1.841362
0.687478
-2.602743
-4.440081
-1.079204
1.936701
0.446153
-2.060868
0.084815
1.788113
-0.353154
-2.890568
-4.140311
-4.316694
-5.264587
-5.204321
-3.369321
-1.300530
0.477062
1.281563
1.571724
0.556810
-1.482368
-0.920491
0.786184
-0.796322
-1.510684
1.141806
2.136197
-1.459510
-5.200948
-2.440395
2.775485
4.143683
0.967240
-0.564092
3.485950
3.420748
0.347953
0.380164
-1.539002
-5.184326
-6.409391
-2.443255
2.828215
1.769920
-0.309003
4.212258
7.287390
2.341928
-1.714867
-1.220789
-2.958637
-5.372141
-3.328807
-1.625249
-3.395827
-3.733266
-1.639277
-0.634755
-1.368599
-2.026851
-1.447569
-0.577607
-2.246876
-5.011846
-2.689780
1.718221
1.282590
-0.425904
0.465360
1.608079
-0.344337
-1.847615
1.394029
5.408223
5.458617
0.634987
-2.628218
-1.571483
0.129997
1.291679
0.123762
-0.995578
-0.405645
-1.584473
-3.397913
-1.322107
3.262017
3.183567
0.170778
1.740815
3.537370
0.325339
-2.528471
-0.788806
1.848098
1.999283
2.353346
2.939902
0.714989
-0.060158
1.708601
-0.542548
-2.265329
1.517152
4.873872
5.094415
2.011749
-1.632795
-0.315772
2.666104
1.263876
-1.002080
-0.956880
-0.319930
0.096218
-0.079125
0.903057
0.241947
-3.357657
-2.136748
1.447010
-0.170565
-2.924625
-4.254377
-4.956530
-4.187617
-3.913302
-2.698108
-0.448259
0.166612
1.063071
2.496989
3.433452
4.101316
3.004575
2.556215
5.188963
2.320346
-4.514149
-4.189439
-1.819317
-1.542404
-0.058870
1.009036
1.176066
1.244645
0.982019
1.070340
0.345068
-0.375529
1.334263
1.755607
1.592992
2.494127
-0.245646
-3.183881
-2.877875
-1.510976
0.634706
0.310256
-1.765550
-1.208088
1.528047
4.480829
3.680224
-0.076540
-1.970248
-1.643460
0.366624
0.469491
-1.829715
-0.240715
2.964302
2.624006
2.094339
3.689054
6.666773
7.702987
4.047792
3.143020
4.879829
1.374780
-0.172398
1.782875
-0.036540
-1.447080
-0.051347
0.828486
-1.117695
-3.850194
-2.048444
0.397530
-1.370450
-2.945683
-1.486307
-0.131878
-1.641909
-2.506157
0.161919
3.344855
3.183539
0.373629
-0.262802
1.168519
2.963774
3.452398
1.104615
-0.391389
0.220105
0.987978
0.062685
-0.994831
-0.939500
-3.280010
-4.859139
-2.470833
-0.645964
-0.919240
-0.869884
-0.873521
-2.017799
-1.823493
-2.123005
-3.778507
-1.981432
-0.702076
-2.526686
-2.938938
-2.474213
-1.323182
-0.717403
-1.942209
-2.334719
-2.649817
-2.420183
-2.167429
-2.795028
-1.341627
-0.663893
-1.060299
1.302550
2.770498
1.395027
2.366818
4.511981
4.218703
4.651736
4.645501
2.482933
1.240463
1.776364
1.728047
-0.197613
-1.249933
-0.574537
0.029683
0.654685
2.788678
3.372116
1.528803
4.238442
7.012503
2.249398
-1.415408
0.874706
2.000021
-0.860804
-1.988197
2.248098
3.849567
-0.989650
-3.197418
-1.760122
-2.133928
-2.021968
-0.052148
0.837037
-0.271913
-2.541765
-1.435414
1.663358
-1.125771
-4.712387
-2.478643
-0.126185
-1.020566
-1.566338
0.003179
0.567914
-3.017663
-5.277903
-3.375104
-3.653835
-3.603180
-0.449858
0.558561
-1.931315
-4.380927
-3.280030
-0.811716
-0.017865
0.145788
-0.137619
-1.454642
-1.916770
-0.626762
0.207352
0.009668
-0.458693
-0.741841
-0.361800
0.092533
0.830274
1.818431
1.528010
-0.216332
-2.007691
-1.994963
-1.149678
-2.209792
-4.354955
-4.716812
