EVENT_NAME: 202010301151
EVENT_ID: 10614
EVENT_DATE_YYYYMMDD: 2020/10/30
EVENT_TIME_HHMMSS: 11:51:24.00000
EVENT_LATITUDE_DEGREE: 37.879
EVENT_LONGITUDE_DEGREE: 26.703
EVENT_DEPTH_KM: 16.54
HYPOCENTER_REFERENCE: AFAD
MAGNITUDE_W: 6.6
MAGNITUDE_W_REFERENCE: AFAD
MAGNITUDE_L: 
MAGNITUDE_L_REFERENCE: 
FOCAL_MECHANISM: 
NETWORK: TK
STATION_CODE: 3516
STATION_NAME: 
STATION_LATITUDE_DEGREE: 38.3706
STATION_LONGITUDE_DEGREE: 26.8907
STATION_ELEVATION_M: 17.0
LOCATION: -_-_-
SENSOR_DEPTH_M: 
VS30_M/S: 460
SITE_CLASSIFICATION_EC8: B
MORPHOLOGIC_CLASSIFICATION: 
EPICENTRAL_DISTANCE_KM: 57.08
EARTHQUAKE_BACKAZIMUTH_DEGREE: 
DATE_TIME_FIRST_SAMPLE_YYYYMMDD_HHMMSS: 2020/10/30 11:51:08.8188700
DATE_TIME_FIRST_SAMPLE_PRECISION: millisecond
SAMPLING_INTERVAL_S: 0.01
NDATA: 10501
DURATION_S: 
STREAM: HNZ
UNITS: cm/s^2
INSTRUMENT: sensor = CMG-5T/GURALP | digitizer = 
INSTRUMENT_ANALOG/DIGITAL: 
INSTRUMENTAL_FREQUENCY_HZ: 
INSTRUMENTAL_DAMPING: 
FULL_SCALE_G: 
N_BIT_DIGITAL_CONVERTER: 
PGA_CM/S^2: 35.011
TIME_PGA_S: 
BASELINE_CORRECTION: BASELINE REMOVED
FILTER_TYPE: BUTTERWORTH
FILTER_ORDER: 
LOW_CUT_FREQUENCY_HZ: 
HIGH_CUT_FREQUENCY_HZ: 
LATE/NORMAL_TRIGGERED: 
DATABASE_VERSION: 
HEADER_FORMAT: DYNA 1.2
DATA_TYPE: Acceleration
PROCESSING: Manual Paolucci et al., 2011
DATA_TIMESTAMP_YYYYMMDD_HHMMSS: 
DATA_LICENSE: U (unknown license)
DATA_CITATION: Turkish Accelerometric Archive v 1.0 - Disaster And Emergency Management Presidency, Earthquake Department
DATA_CREATOR: AFAD
ORIGINAL_DATA_MEDIATOR_CITATION: : AFAD - Disaster And Emergency Management Presidency
ORIGINAL_DATA_MEDIATOR: AFAD PROCESS SERVICE
ORIGINAL_DATA_CREATOR_CITATION: AFAD PROCESS SERVICE
ORIGINAL_DATA_CREATOR: network: TK
USER1: GuestUser
USER2: 
USER3: 
USER4: 
USER5: 
[...]
0.018609
-0.004206
-0.010769
-0.033584
-0.003890
0.012363
0.015803
0.028618
-0.009825
-0.010761
-0.017636
-0.012634
0.021435
0.006746
0.022062
0.001122
-0.000752
-0.011378
-0.024504
0.006753
-0.002310
0.022695
0.006443
0.004257
-0.011370
-0.010431
-0.013556
-0.001365
0.018014
0.003638
0.015204
-0.010112
0.004891
-0.009172
-0.007608
-0.002607
-0.003856
0.014273
0.024901
0.000836
-0.014166
0.003338
-0.002286
0.021156
0.005530
-0.003846
-0.016347
-0.017909
0.000533
0.000534
0.020226
0.003974
0.004288
0.009915
-0.014150
0.002103
-0.005709
-0.006958
-0.001644
-0.003831
0.008985
-0.006642
0.005862
-0.007264
0.002738
0.013054
0.011805
-0.000697
-0.027262
-0.001945
-0.007569
0.018686
0.013999
-0.000065
0.012751
-0.004751
-0.002562
-0.007562
-0.014749
-0.016624
0.004006
0.015571
0.021824
0.020574
-0.009430
-0.030682
-0.023492
0.006826
0.015892
0.037771
0.008392
-0.033801
-0.025674
-0.013483
0.005271
0.016212
0.039342
0.024653
-0.013790
-0.038481
-0.035667
-0.001597
0.032785
0.034661
0.012783
-0.002843
-0.019720
-0.005341
-0.007841
-0.004089
0.008414
-0.001586
0.013730
0.014981
0.019983
-0.011896
-0.035337
-0.024396
-0.005329
0.035303
0.035305
0.019678
-0.018765
-0.037830
-0.027827
-0.000946
0.033436
0.025310
0.011247
-0.005005
-0.025945
-0.032507
-0.003126
0.019066
0.030319
0.015317
-0.007810
-0.010310
-0.033750
-0.009682
0.016573
0.024388
0.014387
0.018452
0.007201
-0.011551
-0.018426
-0.029677
0.004080
0.004706
0.019709
0.011584
0.004397
0.006585
-0.017167
-0.002476
-0.011539
-0.010288
0.014405
-0.005285
0.012532
0.005344
0.001594
0.003471
-0.010280
0.014100
-0.004965
0.002537
-0.003087
0.003790
-0.006836
0.004417
0.005668
0.006920
0.017235
-0.005268
0.003797
-0.014330
-0.008077
-0.004013
0.012866
-0.000573
-0.001197
0.001617
0.021309
0.009746
-0.009319
-0.003067
-0.028695
-0.001814
-0.001813
0.041008
0.031945
-0.004936
-0.017437
-0.039627
-0.010246
0.006321
0.028826
0.025076
-0.010241
-0.010240
-0.008051
-0.003675
0.015392
-0.002110
-0.014611
-0.012109
-0.003044
0.020711
0.027901
0.009149
0.006649
-0.018979
-0.022416
0.007590
0.020094
0.048537
0.035411
0.011345
-0.024597
-0.036160
-0.008342
0.001973
0.023228
0.006664
-0.013339
0.003228
-0.003022
0.000417
-0.026462
-0.032712
-0.023334
0.022612
0.089500
0.072623
0.064185
0.056060
0.108257
0.165456
0.173270
0.131389
0.098260
0.137018
0.172962
0.254227
0.281733
0.266731
0.221412
0.138899
-0.013938
-0.155836
-0.160523
-0.164272
-0.038313
0.057017
-0.012056
-0.095819
-0.130824
-0.124572
0.044520
0.250806
0.077028
-0.173638
-0.126442
0.104536
0.281442
0.303322
0.154860
-0.070802
-0.221451
-0.345533
-0.429609
-0.465864
-0.400852
-0.076734
0.376156
0.608697
0.219570
-0.256760
-0.228942
-0.190496
-0.293013
-0.208622
-0.047657
-0.032966
0.146128
0.202076
-0.055154
-0.149231
-0.205489
-0.305818
-0.262684
-0.320505
-0.383015
0.178331
0.748428
0.682481
0.217403
-0.267052
-0.378945
-0.482712
-0.675243
-0.501150
-0.103582
0.419007
0.781257
0.494335
0.104583
-0.010436
-0.018248
0.322435
0.566540
-0.128264
-0.726176
-0.315793
0.629680
1.291043
1.239160
0.833780
0.442778
0.113348
-0.230771
-0.327662
-0.242021
-0.186386
-0.652401
-1.536924
-1.575367
-0.397667
0.620006
0.364651
-0.347343
-0.138556
0.828796
1.527977
1.527041
0.845364
0.285896
0.373724
0.921630
1.500479
0.951325
-0.825536
-2.024800
-1.184032
0.690035
1.479232
0.895697
0.028052
-0.551733
-0.570485
0.146512
0.300915
-0.573607
-1.080566
-0.600172
-0.079770
-0.235733
-0.472334
-0.463269
-0.604542
-0.801137
-0.766130
-0.637357
-0.490143
-0.331053
0.517216
1.245778
0.536284
-1.285272
-3.024002
-2.651125
-0.389805
1.437692
1.411751
-0.299474
-1.819730
-0.982087
1.593348
2.726666
1.752440
0.505356
-0.687657
-0.921133
0.250628
1.369568
1.579292
0.851670
0.139364
0.113736
0.572564
1.038269
1.639309
1.794024
0.712592
-0.473232
-0.487608
-0.178180
-0.636694
-0.803596
-0.181302
0.567888
1.073287
1.489608
1.502736
1.125486
1.493674
2.232238
2.111281
0.650410
-1.320546
-1.895642
-0.282244
1.545878
1.205822
-0.503215
-1.823124
-2.074728
-1.203955
-0.173780
0.117207
-0.384751
-0.767002
0.578226
2.223817
1.966275
0.243798
-1.587760
-2.359764
-2.066276
-0.581962
1.337425
2.642021
2.197260
0.461031
-0.608524
-1.083916
-1.544930
-1.635881
-0.395359
1.164906
1.392758
0.215373
-1.606809
-3.149255
-3.460557
-2.486016
-1.209550
0.855800
2.515456
2.045378
1.114597
0.298210
-1.321750
-2.872635
-2.606339
-1.816830
-1.887153
-2.255027
-1.636484
0.175698
0.936140
0.870505
1.640323
2.301999
1.230256
-0.421271
-0.896975
-0.159350
0.334485
-0.856340
-1.915580
-0.716002
0.943654
1.337784
0.887710
1.018358
1.658154
1.537822
0.293239
-0.805383
0.206351
0.932100
-0.104637
0.067581
2.050729
3.359076
3.537545
2.506747
-0.026492
-1.601757
-0.911327
0.607368
1.047756
0.037274
-0.306220
0.611123
1.549720
2.387363
2.412680
-0.019604
-2.751314
-2.119956
-0.212446
0.761470
1.747575
1.255618
-0.510929
-0.856924
-0.570000
0.036354
1.504415
2.345808
1.656005
-0.466539
-2.581583
-2.563453
-0.764711
0.283904
0.133567
-1.370748
-3.824911
-3.008209
1.596319
4.683716
2.940610
-0.756575
-2.730657
-1.799249
0.076381
-0.145843
-1.011925
-0.167094
1.310969
1.865751
0.484269
-1.978646
-2.574057
-1.712661
-0.096450
1.016552
0.583355
-0.425564
-0.980344
0.351131
2.145498
2.125808
-0.278034
-3.352927
-3.821442
-2.032077
-0.653406
0.347702
1.467579
1.088767
-0.574325
-2.221165
-2.602791
1.109399
4.870660
2.787810
-0.271768
0.384281
0.599631
-0.344902
0.256138
1.553233
1.779835
-0.212375
-2.719672
-1.571352
1.999876
2.762194
0.834369
-1.852020
-2.664657
0.013922
1.637322
0.667472
1.747655
4.092739
4.025854
2.201485
-0.603675
-3.160043
-3.395081
-2.577130
-2.416477
-1.906389
-0.221104
1.212577
0.668111
-1.157821
-1.136879
0.034257
-0.765877
-1.266585
-0.663357
-0.393623
0.030512
0.226483
0.078335
0.002698
0.575608
1.637038
1.900521
1.333864
0.581551
0.825656
1.151649
-0.060742
-1.528488
-1.318764
-0.325471
0.370898
3.036036
5.317985
4.162791
1.858966
0.241507
-0.550501
-0.289206
0.560939
0.714403
1.204800
2.721619
4.041843
4.769154
3.830872
1.262627
-0.583308
-0.757711
0.051801
1.373275
2.831960
2.987925
1.793975
0.543452
-0.925545
-1.427191
-0.395453
0.396244
-0.682062
-2.351405
-1.950711
-1.755677
-2.039787
-0.190098
1.409235
0.278420
-0.471705
1.423303
3.053267
2.756030
1.786805
0.303431
-1.489058
-2.830846
-2.838971
-0.741741
0.840715
1.002618
0.766642
-0.239777
-1.184310
-0.506070
1.569594
1.152337
-2.316684
-3.531576
-1.320264
2.088437
4.195669
5.662793
8.404194
8.941473
5.859704
0.192811
-6.001670
-9.943897
-8.867152
-2.975844
2.770127
4.177865
1.956241
2.238165
5.839711
6.904580
4.831106
2.303493
0.112187
-0.409150
0.049366
-0.393520
-1.483078
-0.894853
0.557268
-0.046582
-3.261186
-7.059326
-8.257965
-6.807406
-4.110388
-2.617010
-1.789056
1.760294
6.893348
9.881041
8.442987
1.520570
-7.397809
-12.198618
-10.926527
-8.779289
-10.767748
-14.131440
-16.186160
-15.601061
-11.792292
-8.242004
-4.229451
3.977560
12.942824
13.411342
4.617984
-2.742319
-6.686109
-8.996498
-8.132601
-4.605442
-1.353017
-0.345658
-1.444280
-3.922510
-4.338829
-3.000165
-1.709633
-1.591175
-2.095321
-1.132033
2.100702
4.244815
3.641276
2.923031
2.123210
1.370271
2.496400
5.846654
7.860432
7.898565
9.278799
7.506001
-1.060756
-5.795617
-1.651791
0.203210
-3.101096
-1.322983
3.065259
5.290323
9.540104
10.253975
4.971210
3.463457
6.864657
7.337237
0.687054
-7.226156
-8.761726
-3.381130
2.347963
5.059360
8.890632
11.140388
8.455248
3.974806
3.507228
4.458640
0.584237
-5.551485
-7.428676
-5.553358
-4.650705
-7.171129
-9.247728
-7.295210
-4.994196
-4.109045
-3.736794
-2.500647
-5.334249
-10.737660
-7.853422
3.815736
9.367611
3.905441
-3.312651
-2.307168
5.000941
8.947859
6.196145
-2.002425
-4.754138
-5.245782
-11.244606
-16.118240
-13.226501
-4.876966
0.958083
2.161099
6.741561
10.944146
-1.093197
-17.593480
-16.597999
-9.414598
-8.714166
-5.405482
-2.971632
-5.422357
-4.552209
0.068884
3.709812
5.734842
6.202735
6.706258
7.444822
6.764395
5.022853
4.608096
9.183557
11.341422
3.440090
-3.794255
-2.843781
-4.566258
-9.322059
-5.625184
0.380830
-4.167124
-11.813100
-13.414620
-5.106654
7.395769
7.272000
3.788913
4.986304
5.211343
4.385579
2.713736
3.011287
6.680032
6.736605
-1.965800
-5.577033
2.562779
8.371261
4.828476
3.100373
4.918806
3.406677
4.049912
3.599212
-6.141181
-7.735824
6.215594
13.822504
9.606168
2.097402
-1.124703
-1.661355
-6.238063
-8.443122
-3.431338
2.082719
-0.663681
-5.471991
-5.360096
-3.369759
-2.086104
-1.564140
3.843024
4.259970
-6.883159
-14.594772
-13.660863
-7.317604
-3.280985
-3.843891
-3.802633
0.674374
6.701017
-0.650848
-12.638495
-9.312620
8.403183
17.469714
9.626517
1.788008
5.236091
14.260427
11.058325
-2.283613
-10.360912
-2.628669
11.428392
11.363382
-6.709354
-21.581550
-17.458666
-5.373813
-0.100734
-0.245133
-4.529292
-7.715766
3.823682
19.003745
13.467187
-4.027952
-5.489135
2.080268
1.526739
-3.362210
2.506594
12.031327
10.059433
5.412712
4.851681
6.137524
8.841732
12.254496
9.769078
1.098866
-0.225732
1.395793
-1.414055
-2.862423
-0.604229
1.116063
-2.175742
-2.249503
-3.319057
-7.471945
-6.855590
-7.349422
-11.885499
-8.164870
4.275043
17.165344
23.705824
20.006451
13.084034
8.319168
0.375642
-11.934560
-17.965889
-16.658167
-6.850886
2.881382
1.259860
-4.804288
-5.700063
-9.894207
-20.753226
-18.475340
1.726507
19.402304
25.760878
25.562095
12.655856
-5.815385
-10.908431
-4.485471
-2.022241
-3.744406
-4.615177
-2.630466
1.976250
1.393028
-6.995887
-10.208615
-8.246408
-4.679868
-5.313724
-15.750171
-22.827302
-23.581803
-18.998216
-13.125974
-3.281812
7.854444
8.001032
-0.270988
-0.287239
8.328903
10.668987
8.526751
5.779101
5.382473
6.852409
4.770809
3.382764
8.500816
12.073607
6.337953
0.823273
-6.029444
-14.895939
-14.170816
-3.859387
5.177139
1.701553
-6.680485
-5.253056
8.343615
16.469675
9.488810
-3.661845
-12.188283
-13.614460
-12.581472
-13.550697
-14.907175
-9.175582
3.162439
12.474324
12.116452
9.951400
10.679962
11.608870
10.104242
4.889613
0.231640
-2.193768
-7.393082
-9.331533
-5.045496
-2.503191
-4.903907
-6.665453
-4.161905
-1.748997
2.195420
6.241729
5.473475
-2.424731
-8.329789
-7.563409
-4.701987
6.242986
20.537899
22.748898
13.509528
6.077025
-2.398467
-11.825057
-9.568737
-1.440802
-2.206243
-9.501535
-13.910091
-8.313208
3.281250
3.864787
2.657397
10.086464
11.447007
3.290320
-3.624909
-6.989538
-3.441751
4.991548
3.397218
-6.467883
-8.339760
-3.298909
-3.257026
-1.942115
5.285981
7.778902
6.943138
9.510447
12.046188
9.017553
7.067538
4.929678
-7.898423
-18.335808
-19.565077
-22.954085
-28.587222
-18.365184
-3.198561
-1.382941
-3.983691
-7.654622
-9.340218
0.373610
21.140240
32.213360
19.323998
4.659650
7.998652
15.088600
15.642444
14.017796
1.915130
-15.657210
-14.648288
-7.276106
-10.707621
-18.308903
-16.994930
-10.749187
-4.581583
3.401015
8.496251
5.839866
1.477881
3.659188
-0.662790
-7.005734
-9.717441
-6.731936
5.926764
14.541656
10.400646
-0.674347
-7.872123
-6.345302
-3.788307
-4.225254
-1.742647
7.309819
13.694023
11.146406
3.813608
-5.722375
-8.413766
0.276764
9.688666
13.949073
16.420117
12.331928
-2.986281
-22.560521
-27.180049
-16.699217
-3.255385
2.671554
-1.779821
-1.917968
13.701544
31.174493
25.989244
7.796488
-5.881444
-9.689273
-8.327792
-12.164376
-15.311469
-7.354500
2.396522
8.846986
14.937703
14.502943
10.480078
2.663447
-3.267553
-3.206291
-2.849667
4.334358
9.312075
-2.761212
-15.982817
-6.457771
13.610304
19.828230
6.984813
-1.564441
12.656710
25.755484
22.112683
11.053318
-1.124674
-7.208512
1.299488
8.102512
1.545781
-6.310231
-4.212376
3.376093
4.965738
-0.127308
-7.574814
-11.239181
-9.451378
-9.947086
-8.190538
-4.186737
-7.290697
-8.582164
2.937594
17.716651
11.046464
-4.780893
-9.591391
-5.592590
-4.027012
-4.207042
-0.795215
-3.583497
-5.752612
1.434227
7.429302
6.914217
3.258601
-3.747893
-3.830718
2.588803
2.818218
-5.541004
-9.247253
-10.186473
-5.895123
7.299605
11.665343
1.149819
-10.915028
-10.684676
-7.169394
-5.510675
-6.178287
-8.372406
-6.197663
2.316275
15.426613
27.959667
26.459102
14.103581
6.903304
9.151185
10.582365
3.930618
4.096585
10.267002
3.848108
-11.440721
-14.867236
-1.809406
4.684816
0.507549
2.457880
4.409148
0.605069
-2.233846
2.704488
2.811382
-1.924416
-9.446934
-10.666514
4.281322
11.415340
5.142720
-5.051187
-11.150653
-13.113170
-8.810568
-1.724996
-2.065053
-2.993333
-0.726700
4.953635
6.975852
-2.555755
-6.843040
-0.504157
5.039592
5.095853
6.930539
16.627176
16.616238
0.456324
-13.773576
-20.259669
-21.933076
-19.282940
-10.250789
-0.784191
0.979545
0.634176
6.937115
11.809814
5.544695
-0.970466
-0.402556
1.862202
-0.338168
2.417298
10.131726
11.776067
4.288867
-3.420871
-3.581522
0.015336
1.572475
-1.582431
-4.773906
-8.091965
-5.770322
0.419161
-1.743703
-3.414609
1.569671
16.380296
29.307791
21.802151
4.320452
-6.111620
0.332594
5.605985
-0.280008
-1.563348
8.994685
24.412600
35.011265
31.218438
17.726163
11.651389
8.892174
1.304957
-4.735436
-9.704398
-12.577070
-2.350655
13.142273
15.417970
8.889682
0.752685
-5.392413
-1.319225
0.068823
-9.331825
-15.088733
-4.519135
-0.008061
-11.263084
-16.919350
-16.586480
-15.454413
-12.962741
-14.607080
-17.583519
-12.482657
-3.799003
-1.010406
-3.048249
-0.546576
-4.696963
-17.199384
-17.077800
2.887758
25.084630
26.527687
12.577209
2.378926
-2.578159
-1.893355
2.161393
5.330054
2.182649
-10.308833
-13.726909
-6.284402
6.355232
9.608595
-1.046015
-11.269614
-13.584691
-7.539607
-1.182908
2.399885
1.078725
3.065624
3.944211
3.009367
6.970349
10.296536
11.060104
6.668114
5.126917
1.635079
-4.860703
-0.366194
11.728348
10.869454
-2.994447
-11.193329
-13.775326
-2.109294
17.208029
27.149395
19.249626
8.324033
7.072261
3.254117
-0.996599
-8.464733
-13.820948
-10.750741
-1.741720
5.105686
3.818908
-0.704667
-3.383868
1.092826
5.587648
1.043132
-3.346045
-0.827806
6.244013
12.486630
12.402242
2.297101
-11.873727
-17.569062
-13.063926
-8.145907
-7.327956
-3.367286
2.053942
1.448216
-6.594390
-13.023286
-14.253493
-8.318115
-0.039842
2.954414
5.451399
8.713201
5.101342
-3.340394
-5.181953
-0.316444
3.555461
0.656535
-5.890194
-6.114605
-1.278788
5.216996
4.576577
-4.480263
1.099117
6.254676
-4.394620
-11.891509
-8.333095
-5.872366
-2.826539
-4.329916
-13.617732
-9.358888
4.046188
6.887919
-8.281203
-17.733422
-9.489842
-5.080972
-18.354148
-29.952354
-24.042918
-14.415980
-7.374166
0.582803
9.495871
13.098980
9.973453
7.522728
9.813429
11.789076
5.002619
-0.193257
5.264853
5.789005
4.786649
8.970794
11.127409
12.800192
11.484971
16.228586
19.934524
10.777043
-0.541429
2.813201
17.006222
20.377730
15.186855
4.698524
-2.995274
2.134030
15.324070
10.393864
-2.398294
-1.199965
8.521989
11.171500
4.741666
2.973243
-5.148439
-11.322292
-7.617291
-5.223761
-8.835932
-5.846364
-6.400831
-9.840473
-9.580115
-9.349138
-8.531811
-9.079403
-5.976065
-7.551018
-16.109336
-18.615383
-4.311718
0.128095
-7.660406
-11.799541
-10.918453
-4.300460
2.034360
-1.427473
-12.396511
-17.224512
-19.507084
-18.845408
-14.098981
-11.732956
-8.278622
6.050672
19.226022
12.187022
1.247365
0.263763
-2.214155
-2.511079
7.909118
17.506052
9.620659
-6.630519
-13.559500
-6.104491
0.194698
-3.117735
-5.271222
-0.423528
6.136018
11.118734
11.941687
0.953584
-4.918344
-0.834528
6.156965
11.138744
11.651957
15.605750
23.927468
23.124209
4.041302
-12.120799
-10.096081
-1.400863
-3.802830
-10.996855
-11.583828
-2.249752
14.257097
21.413931
10.775887
-2.341326
-2.081281
-0.763870
-4.354162
-4.465117
8.647409
13.212556
1.359619
-9.425637
-15.509475
-12.979985
-7.758165
-7.060546
-11.194993
-5.765951
3.519055
5.531583
7.941053
3.215257
-3.946576
0.861112
1.007075
-6.566702
-15.999543
-14.196425
-4.226617
-4.975492
-11.047453
-8.068824
6.116071
13.066307
11.797657
7.247827
10.542134
20.211267
20.085622
7.989207
-11.278419
-22.745040
-15.671970
1.819107
14.072426
12.405584
9.283183
7.258155
7.423184
6.804330
-4.954841
-9.791281
-6.255995
-8.140687
-8.047233
-3.885280
1.490003
7.706366
4.884328
-4.506318
-11.896001
-9.753138
-2.140603
4.231724
-1.002283
-10.844881
-2.455339
11.909586
13.009773
14.443766
17.263931
12.438117
9.286336
4.817771
-3.791181
-13.195579
-19.862953
-19.143768
-9.704362
0.859610
4.966866
-4.549739
-8.782952
-8.855776
-12.301668
-15.684426
-23.628578
-25.952719
-15.051191
3.911385
12.297802
9.433569
0.469558
1.103728
1.133735
-5.540828
-12.841434
-16.224191
-4.656301
-3.564240
-7.666494
1.743845
5.542612
-8.337854
-18.306098
-17.354373
-20.195164
-14.627349
0.143583
5.644825
6.301499
4.385239
3.696374
2.955313
1.100626
8.301217
13.622741
11.805873
1.637596
-5.180429
1.810752
1.646350
-7.216707
-14.413233
-20.649284
-23.456631
-17.493124
-3.990532
-1.610442
-6.211217
0.020148
4.983487
1.849522
-3.978648
-0.996894
10.116857
15.159584
22.622095
29.763301
21.350632
14.040337
21.244367
26.153009
20.762413
17.639699
19.496264
21.489726
17.827234
2.685618
-9.642399
-12.877632
-10.845725
-4.168035
5.436087
16.273229
21.639449
17.851310
5.094471
-1.309421
-2.609327
-10.984176
-15.757481
-14.160960
-9.376402
-4.389622
-5.891436
-11.795557
-12.840419
-15.447108
-22.978691
-20.769254
-4.577458
7.049192
-1.818865
-11.051672
-2.878730
17.010878
20.011385
-1.080610
-13.686487
-1.140306
10.396017
8.121572
7.553664
7.806521
11.375562
10.826408
1.380127
-4.800915
0.136794
5.382993
9.126126
11.892219
11.435893
9.029550
4.225616
-0.709591
-3.977954
-11.495784
-16.668843
-7.568869
-1.291246
0.163688
2.671925
5.993111
5.587732
5.408327
4.378780
-0.730206
0.102435
-2.445181
-10.106160
-8.423375
3.165457
10.326041
8.187869
2.951049
-3.171859
-3.014331
-2.669897
-7.421948
-17.083889
-19.003587
-9.065972
0.013687
7.777185
10.898338
7.510892
5.491803
14.343298
17.998603
18.393983
18.456495
14.714302
9.158366
3.931860
0.697252
-2.493285
-4.277335
-7.016233
-4.138559
9.213695
18.781873
6.842985
-7.335344
-9.306613
-7.000911
-5.868219
-3.014298
-8.335508
-10.961575
2.974215
7.018962
-2.424193
-8.764637
-5.245917
2.786689
9.754741
12.796506
8.654245
0.440048
-4.747077
4.444163
18.097718
12.787135
-1.273986
-0.805469
15.729823
25.465842
14.323025
-7.889160
-16.820353
-15.431993
-12.571509
-6.450475
-4.835201
-12.664959
-24.276292
-21.746802
-13.593863
-4.322922
1.920945
-2.953001
-1.835937
2.279446
-3.763760
-12.035780
-10.978413
-7.040559
-13.433825
-22.621937
-26.308183
-15.110667
-5.694077
-8.524866
-12.442713
-7.285280
6.443601
5.298096
1.127081
1.622478
2.690472
2.591394
