EVENT_NAME: 202010301151
EVENT_ID: 10614
EVENT_DATE_YYYYMMDD: 2020/10/30
EVENT_TIME_HHMMSS: 11:51:24.00000
EVENT_LATITUDE_DEGREE: 37.879
EVENT_LONGITUDE_DEGREE: 26.703
EVENT_DEPTH_KM: 16.54
HYPOCENTER_REFERENCE: AFAD
MAGNITUDE_W: 6.6
MAGNITUDE_W_REFERENCE: AFAD
MAGNITUDE_L: 
MAGNITUDE_L_REFERENCE: 
FOCAL_MECHANISM: 
NETWORK: TK
STATION_CODE: 3516
STATION_NAME: 
STATION_LATITUDE_DEGREE: 38.3706
STATION_LONGITUDE_DEGREE: 26.8907
STATION_ELEVATION_M: 17.0
LOCATION: -_-_-
SENSOR_DEPTH_M: 
VS30_M/S: 460
SITE_CLASSIFICATION_EC8: B
MORPHOLOGIC_CLASSIFICATION: 
EPICENTRAL_DISTANCE_KM: 57.08
EARTHQUAKE_BACKAZIMUTH_DEGREE: 
DATE_TIME_FIRST_SAMPLE_YYYYMMDD_HHMMSS: 2020/10/30 11:51:08.8188700
DATE_TIME_FIRST_SAMPLE_PRECISION: millisecond
SAMPLING_INTERVAL_S: 0.01
NDATA: 10501
DURATION_S: 
STREAM: HNN
UNITS: cm/s^2
INSTRUMENT: sensor = CMG-5T/GURALP | digitizer = 
INSTRUMENT_ANALOG/DIGITAL: 
INSTRUMENTAL_FREQUENCY_HZ: 
INSTRUMENTAL_DAMPING: 
FULL_SCALE_G: 
N_BIT_DIGITAL_CONVERTER: 
PGA_CM/S^2: 47.418
TIME_PGA_S: 
BASELINE_CORRECTION: BASELINE REMOVED
FILTER_TYPE: BUTTERWORTH
FILTER_ORDER: 
LOW_CUT_FREQUENCY_HZ: 
HIGH_CUT_FREQUENCY_HZ: 
LATE/NORMAL_TRIGGERED: 
DATABASE_VERSION: 
HEADER_FORMAT: DYNA 1.2
DATA_TYPE: Acceleration
PROCESSING: Manual Paolucci et al., 2011
DATA_TIMESTAMP_YYYYMMDD_HHMMSS: 
DATA_LICENSE: U (unknown license)
DATA_CITATION: Turkish Accelerometric Archive v 1.0 - Disaster And Emergency Management Presidency, Earthquake Department
DATA_CREATOR: AFAD
ORIGINAL_DATA_MEDIATOR_CITATION: : AFAD - Disaster And Emergency Management Presidency
ORIGINAL_DATA_MEDIATOR: AFAD PROCESS SERVICE
ORIGINAL_DATA_CREATOR_CITATION: AFAD PROCESS SERVICE
ORIGINAL_DATA_CREATOR: network: TK
USER1: GuestUser
USER2: 
USER3: 
USER4: 
USER5: 
[...]
0.070330
-0.412144
-0.648489
-0.639337
-0.395417
-0.130670
0.057398
0.054559
-0.016438
-0.036948
-0.168216
-0.125931
0.324358
0.650637
0.469828
-0.031262
-0.236999
-0.204812
-0.143595
-0.117719
-0.140122
0.078554
0.150185
0.158390
0.118632
0.043217
-0.208590
-0.456295
-0.481223
-0.125913
0.367606
0.662014
0.668642
0.135365
-0.564837
-0.850724
-0.590079
-0.039445
0.623209
0.795184
0.559785
0.106027
-0.326905
-0.440187
-0.358458
-0.089294
0.121494
-0.055844
-0.402316
-0.558827
-0.396003
0.002852
-0.082345
-0.390005
-0.529161
-0.388740
-0.041635
0.031573
-0.008816
-0.185207
-0.361914
-0.544616
-0.558814
-0.473300
-0.614665
-0.465093
0.012018
0.193775
-0.074441
-0.319937
-0.503270
-0.497905
-0.599510
-0.833331
-0.814082
-0.812503
-0.750970
-0.527245
-0.245143
-0.121447
0.206094
0.418144
0.287508
-0.286791
-0.897693
-0.878759
-0.681540
-0.442037
-0.297199
-0.032768
-0.002474
-0.282050
-0.742435
-0.856978
-0.707722
-0.475162
0.195381
0.732762
0.786406
0.195068
-0.578657
-1.086690
-0.930492
-0.709922
-0.583702
0.161310
0.841635
0.967540
0.876347
0.676921
0.078957
-0.572020
-0.573912
0.101364
1.244914
1.868125
1.530804
0.256933
-1.593445
-2.823769
-2.781485
-1.390228
0.197300
1.089673
1.046759
0.601836
0.553243
0.485716
0.030696
-0.582731
-0.484594
-0.077535
0.131675
0.275251
0.347197
0.484777
0.052161
-0.663819
-0.545172
0.501505
1.117774
1.027212
0.270211
-0.769206
-1.581113
-1.910861
-1.527152
-1.044677
-0.723763
-0.428408
-0.202789
-0.197108
-0.308812
-0.276940
0.052809
0.540965
0.976423
0.534971
-0.451434
-1.154161
-1.493059
-1.298680
-0.182898
0.309044
0.337760
0.197342
-0.414823
-0.979023
-1.263016
-0.474143
0.408764
0.649214
-0.073708
-1.043389
-1.483264
-1.237765
-0.228639
0.644486
0.385106
-0.288906
-0.587414
-0.571005
-0.365897
-0.240938
-0.790939
-1.009614
-0.565004
0.201781
0.701611
0.368393
-0.176244
-1.038638
-1.691508
-1.838238
-1.139927
0.012144
0.638825
0.472532
0.078412
-0.748957
-0.894739
-0.547003
-0.701937
-0.655235
-0.455807
-0.354199
-0.023818
0.404383
0.247556
-0.011824
-0.284458
-0.191370
0.534709
0.683018
-0.547937
-1.269281
-0.720225
-0.369649
-0.311272
-0.023806
0.004595
0.105571
-0.183155
-0.565915
-0.156016
0.188249
-0.013070
-0.285388
-0.025690
0.550503
0.900133
0.099586
-0.974542
-1.345942
-1.363296
-1.595539
-1.210253
-0.516044
0.091073
0.523376
0.087288
-0.062597
0.268415
0.903301
1.059183
0.655912
-0.362994
-1.325418
-1.437121
-1.464573
-1.067296
-0.846411
-1.307742
-1.128825
-0.133267
0.859451
1.547033
1.012810
0.379820
0.045970
-0.436188
-0.699670
-0.811058
-0.971987
-1.082113
-0.315328
0.382352
0.423059
-0.022495
-0.574074
-0.858698
-0.889621
-0.875736
-0.118418
0.483335
-0.324785
-1.331069
-1.854249
-2.009498
-1.610012
-0.924007
-0.560178
-0.537142
-0.982065
-1.580345
-2.221540
-2.556336
-2.347126
-1.807221
-1.272049
-0.496744
0.404149
0.372595
-0.509048
-1.444649
-2.510573
-2.922994
-2.510255
-1.635553
-0.752646
-0.428260
-0.406486
-0.887382
-1.538359
-1.445586
-0.205793
0.756948
0.560993
-0.061269
-0.489468
-1.079544
-1.740618
-2.435456
-1.983904
-1.753552
-2.045750
-1.269183
-0.710344
-0.464215
-0.621358
-0.774082
-1.118345
-1.713154
-1.383089
-0.269516
0.343913
0.394401
-0.373013
-0.789536
-1.204482
-1.992723
-2.299120
-2.667680
-2.322469
-1.807807
-0.809409
-0.119934
-0.927738
-1.759524
-1.145465
-0.512157
-1.825156
-3.535746
-4.301267
-4.418965
-3.805853
-2.887604
-2.106304
-1.380540
-1.222765
-1.762984
-2.440782
-3.182006
-3.754726
-3.264046
-2.855409
-2.650933
-1.709965
-0.629839
-0.024300
0.253384
-0.488155
-1.721951
-2.165296
-1.990481
-0.689787
0.448084
0.341114
-0.610897
-0.186482
1.177006
1.713125
1.916024
2.033724
2.355585
2.473286
2.091157
0.863988
-0.443015
0.260029
1.289667
0.384358
-0.613723
-0.926747
-0.959563
-0.578063
0.875672
3.071263
5.038712
5.104663
4.094591
2.095589
-0.374212
-1.047277
0.233853
3.040347
5.241302
7.192658
7.914320
6.151348
3.130283
0.522903
-1.054210
-1.321794
-0.197177
1.818236
3.513997
3.053612
2.103495
0.795230
-1.702655
-2.980943
-2.290521
-0.013203
2.632676
3.403563
1.837810
-1.050093
-4.253230
-5.998846
-5.432435
-3.375685
0.686693
4.530712
5.227761
2.717254
-0.231550
-2.854077
-4.045904
-3.962599
-3.262079
-2.658433
-3.230206
-3.881183
-4.207775
-2.702606
-1.801397
-1.148525
0.886767
4.270400
4.276712
2.397619
1.569304
-0.567909
-3.056958
-4.489550
-2.758131
1.256915
3.677808
2.101957
1.282162
1.854569
1.915155
0.920230
0.571865
-1.187004
-1.228340
0.200467
-0.762588
-0.357738
-0.001797
0.889630
1.563643
1.757391
3.126244
5.816615
5.170688
2.621368
0.868810
-0.930449
-1.936103
-0.130531
3.771234
6.028988
6.748125
6.272278
3.994962
2.306460
1.470887
-1.765698
-3.249092
-2.860335
-2.523328
-2.220084
-1.939876
-1.996989
-2.410673
-1.998565
-0.901400
-0.016915
2.255985
5.881644
6.558813
3.367352
-1.033294
-1.853720
0.285387
2.840389
3.318762
4.059356
5.043555
2.720168
-0.953768
-1.783976
0.886516
1.614173
0.518903
-2.820866
-3.688625
-0.805768
-0.045610
-0.594033
-0.531553
-0.482327
-0.834794
0.575080
1.866623
0.319803
-1.405303
-1.338721
-2.990934
-2.725872
-0.645772
0.430882
1.250364
-1.608509
-1.017169
3.575963
4.092202
1.611357
-0.051270
1.552982
3.304280
4.782943
4.791149
3.062257
-0.867905
-4.863070
-4.090921
-0.057257
2.174938
1.690887
1.808903
1.110594
2.038309
3.228245
2.692444
3.172079
5.476535
5.077051
1.322019
-2.897186
-4.583479
-2.951458
0.982807
2.561500
3.459553
5.171092
5.029412
3.954653
0.929801
-1.408416
0.026386
4.169861
4.655176
4.307442
1.485173
-2.841634
-3.692037
0.141568
3.541294
3.376579
3.315363
4.605644
3.271188
0.485838
-1.482240
-3.539934
-2.935972
-1.247784
3.405302
4.421056
0.244450
-4.899313
-8.764472
-9.694709
-9.284179
-4.067206
4.173041
7.208939
7.971306
4.715788
-1.405546
-4.666744
-3.862408
-0.922753
0.882188
2.145647
1.636352
2.057296
2.108416
0.633856
-2.853275
-5.919779
-7.842734
-5.317078
-0.843539
-0.259457
-2.278339
-5.004997
-7.151675
-5.763574
-2.420647
-0.215275
3.340017
4.253532
1.386140
-5.037175
-7.064261
-4.299419
-2.741237
-1.035379
2.431559
4.702251
3.758129
2.466273
-0.088727
-3.346454
-7.896353
-12.721097
-12.622013
-5.950991
1.928584
7.241483
9.283402
5.176217
-0.816057
-1.549392
-0.533955
0.983206
2.069958
3.672632
6.741662
9.145831
8.095054
2.037777
-1.774685
-1.374253
1.971830
4.018481
4.067393
3.826314
1.490937
-1.189335
-3.999929
-2.973763
1.781877
7.262964
8.218447
4.228647
-0.839069
-5.045021
-4.338505
-3.625364
-2.095581
1.200329
5.290160
7.508155
9.172362
7.015585
0.736792
-1.865539
-0.868088
4.335632
7.180938
6.793760
4.417993
2.049799
-0.528867
-4.045344
-4.686854
-1.766447
1.052669
1.307949
0.965895
-1.146705
-3.180102
-4.999872
-6.342532
-3.397196
0.545589
3.024543
4.838320
4.331865
2.395341
-0.089922
-0.861122
0.879131
1.535790
0.379619
-0.523796
-0.273881
-0.706497
1.040383
3.200632
3.486521
0.764596
-1.615274
-1.070635
-2.048205
-0.836180
-1.308872
-2.178208
-2.359648
-0.602355
4.823196
11.377149
13.074488
9.990629
7.818391
2.555350
-1.784394
-3.054793
-0.024891
3.625696
3.612444
0.991495
-2.063334
-1.554668
-0.425948
-2.068695
-1.399730
1.341129
0.943854
0.218408
1.349021
3.660103
5.980020
3.629181
-0.659760
-2.430936
-1.072496
0.696157
1.720114
4.367887
4.953231
2.370779
0.095672
0.293522
-0.522802
-2.081297
-3.810821
-5.659621
-7.987109
-10.753211
-9.357537
-3.825962
-1.918152
-2.112845
-2.866059
-6.376225
-8.922704
-8.298232
-6.610991
-1.868604
4.011337
6.695398
9.241564
6.842446
2.324416
-0.492804
-0.149486
0.168588
0.503702
0.693979
0.989334
1.267018
1.089996
2.262893
-1.397790
-3.305598
-2.097045
1.154689
5.793260
5.405451
1.833753
-1.322051
-0.099929
4.660759
7.816250
9.717118
9.794113
8.317661
6.275744
2.772520
-3.060087
-6.198220
-5.625498
-0.519283
6.340753
10.012166
9.137466
0.781098
-8.257171
-12.614586
-8.780033
-2.469684
0.093206
-1.848050
-3.669082
-5.331078
-8.142303
-8.295974
-6.487562
-1.335277
3.157510
6.395044
8.178528
9.895746
8.426551
2.545981
-4.280605
-9.411746
-8.086439
-5.260381
1.198908
3.965327
2.451955
3.217477
3.933143
6.268523
6.305758
6.253063
3.098520
-0.257342
-3.082767
-4.413121
-2.567474
-0.072427
3.984272
5.393830
4.814799
2.562096
1.788686
2.972311
5.510904
5.331042
4.798396
4.714146
2.201115
-1.705697
-6.738071
-7.691659
-2.970414
2.579147
6.796145
7.200364
5.146141
1.135830
-5.592936
-7.004701
-6.484360
-6.546522
-7.443311
-6.313645
-4.810053
-2.371805
-0.975815
-1.269590
-0.136137
-0.393309
-2.044576
-4.886409
-4.973815
-4.950779
-5.252443
-4.529519
-3.109548
-1.595858
0.225807
-0.352909
1.074636
2.974242
2.330207
0.015025
-0.057234
0.626877
1.997623
5.550074
3.935095
1.157634
0.325217
2.366189
3.293273
2.792813
0.313230
-0.601861
-2.352526
-2.495784
-1.584793
-4.219627
-4.849146
-4.074788
-3.736834
-6.168769
-8.171242
-8.119806
-7.423704
-5.760760
-2.328848
3.686463
7.757046
7.895573
9.605850
10.189301
8.477448
2.023841
-1.659245
-2.891463
-3.599239
-1.244611
-1.196962
-0.961246
-2.888618
-4.060251
-2.423497
0.988535
5.083731
7.628319
8.282768
4.146238
-0.474976
-3.670856
-5.231560
-3.201317
-1.325377
0.355553
3.363683
6.800013
7.764016
7.726151
5.276229
2.410730
1.354588
3.660621
8.006994
11.455315
10.942233
6.570303
3.151961
0.519653
-3.140084
-6.559371
-7.201513
-5.649011
-3.750983
-3.504222
-3.557234
-6.208791
-8.726555
-6.959480
-1.194399
2.583039
6.041142
8.724256
9.275836
9.635248
5.306547
0.362842
-1.165676
-3.815655
-5.593773
-7.807664
-9.888708
-10.986818
-11.939459
-7.625273
-2.486241
-0.781960
-3.919147
-6.109371
-4.927324
-2.912858
-3.400696
-4.373217
-4.839282
-4.543296
-3.050117
0.798004
5.275961
7.153794
7.855260
7.331134
3.682758
-0.328500
-1.920759
-3.513334
-1.628875
3.275073
7.385415
12.121807
17.399049
15.973400
12.589138
9.948309
7.821510
5.443534
3.944993
1.970919
-2.161194
-8.614170
-16.784048
-21.426719
-23.060946
-20.296105
-18.153211
-17.767294
-18.117552
-17.523688
-15.219233
-11.506167
-7.436530
-8.985244
-13.893292
-13.383995
-10.082405
-2.584960
6.898551
12.308324
12.150550
6.566912
4.738306
7.033611
12.787647
17.674871
23.080542
28.796397
31.678623
30.097723
24.313396
19.366535
11.922735
4.117948
-4.484864
-12.265985
-16.626871
-18.579487
-16.720587
-18.292651
-21.774734
-23.967483
-20.701234
-17.733810
-19.054697
-18.568751
-19.900051
-20.029741
-20.941045
-14.628487
-5.804789
-0.224620
0.624839
-1.473877
-1.131505
-1.248573
2.152100
7.084447
16.100314
22.360176
26.055255
31.624696
34.966677
33.337183
28.408939
23.182187
17.342007
11.071103
5.153929
0.382198
-4.860332
-10.484045
-14.722813
-15.257984
-12.273836
-8.299180
-1.611749
5.305086
8.291127
6.944365
3.931189
2.689820
2.071345
2.368908
1.001951
-1.998288
-5.225722
-8.497964
-12.231854
-16.299280
-19.020573
-18.336778
-14.652742
-8.494487
-2.868247
0.148402
-3.337782
-7.955841
-12.980958
-18.547556
-16.808881
-11.427191
-1.722481
5.559759
7.271298
3.306110
0.618581
-3.801629
-8.643096
-5.753297
2.217471
13.174595
19.742433
22.821561
24.667208
25.745440
22.370645
15.458860
8.554334
4.186506
1.962833
-0.264311
-2.943321
-5.189398
-5.771584
-4.849234
-1.913996
3.229769
7.148257
11.132380
18.418723
21.896389
19.329399
13.853363
10.288291
8.816572
4.306747
1.274006
1.863453
5.253081
5.452193
3.610966
3.791461
3.970378
5.237624
5.293477
4.929334
1.574734
-1.020340
-6.378361
-13.336846
-20.284603
-22.726951
-22.143184
-20.701440
-18.423175
-20.828604
-19.972204
-15.620782
-10.066803
-5.178002
4.002266
8.156785
12.142801
14.250038
15.711347
18.008229
16.206129
14.259193
11.085087
8.053608
5.057472
7.283355
6.348700
6.845060
4.466137
2.460824
3.225716
5.137944
8.500435
11.196171
13.387975
10.112893
9.847517
11.178188
11.781834
11.350164
9.982892
4.676621
-7.989515
-18.613417
-23.615499
-21.649943
-13.995986
-6.092429
1.618327
2.559610
-1.968517
-8.463145
-10.475716
-8.217015
-4.029679
0.048162
5.163212
13.060458
19.831509
21.967461
19.466421
17.614464
12.001796
11.298122
12.253290
11.708338
10.792616
8.985152
6.842575
0.955694
-8.384555
-18.750654
-23.274363
-25.595856
-25.734381
-22.150059
-15.981075
-12.681694
-12.783931
-14.884224
-13.523891
-8.219828
-3.598612
-0.261996
-0.041110
3.958474
8.726105
12.679304
13.129277
11.889802
10.259361
7.062536
5.142736
3.567517
5.136743
4.243740
-0.880774
-6.190201
-12.882363
-14.741576
-9.193909
-1.538058
6.220662
9.418752
13.247624
12.977199
6.124423
-1.777554
-8.847113
-14.388152
-17.156147
-13.932497
-7.669795
4.585813
15.151972
20.811029
22.792362
21.584126
20.497376
15.646127
9.235434
5.222599
4.103032
5.498075
5.466836
3.317949
-1.054928
-3.170683
0.425630
3.691563
5.442545
3.038378
-5.353962
-11.547241
-15.490025
-18.578302
-17.933634
-21.138980
-27.936220
-35.037018
-39.575873
-40.738986
-37.183694
-27.229069
-15.503899
-4.352397
1.830156
-1.127484
-7.247871
-10.421346
-12.941635
-15.518092
-16.996122
-17.287057
-15.653459
-12.317159
-6.399668
-3.989188
-11.074208
-19.026042
-30.521806
-41.627868
-47.417560
-46.366150
-39.596360
-29.536027
-15.943437
-2.244508
12.813491
23.665853
32.021591
33.146840
30.657790
25.662020
22.159427
22.319096
15.326531
9.819887
4.806445
-0.806224
-7.197352
-10.530495
-8.698417
-3.452098
5.878371
15.484314
27.244826
36.995922
42.579247
46.906371
47.213401
45.738211
46.941400
45.718018
43.074665
36.632102
27.846588
21.133600
14.958622
13.555377
12.420979
13.214271
15.684073
13.982003
13.540551
11.412490
6.058571
-0.459093
-8.419762
-14.266568
-18.295496
-16.278191
-11.531702
-8.431748
-4.729410
-4.643580
-7.088137
-10.971282
-17.119122
-20.139871
-16.582371
-11.103493
-6.348484
0.686997
10.025986
15.791067
18.315776
16.061179
9.569706
0.034448
-10.333229
-12.802715
-8.646618
-2.215413
-0.958265
-0.259638
-0.002465
-0.487778
1.325998
0.653880
0.259129
-0.560982
-2.825360
-7.338657
-10.855449
-12.569510
-10.275784
-5.807924
-2.554929
0.996576
2.548447
3.822950
1.735910
-1.027982
-5.466178
-11.813445
-19.780425
-28.050016
-36.105035
-38.060175
-32.886433
-29.274343
-26.207837
-25.938988
-22.313645
-15.023515
-7.369558
-5.774457
-4.678239
-1.983449
0.683887
2.417515
3.554754
8.129584
14.955226
17.569866
11.557712
6.347683
2.121536
-1.746462
-9.444910
-17.265475
-25.169345
-30.129459
-30.678198
-28.734099
-21.521911
-14.911158
-8.347423
-3.471243
-1.107149
-3.234264
-6.287199
-9.721003
-14.236823
-13.846173
-10.805542
-3.431792
4.909431
16.345874
26.530535
30.321857
28.909776
24.026656
18.767402
10.938633
1.185330
-10.879054
-14.287613
-12.111902
-3.510351
8.580857
18.546210
28.249974
36.562166
43.383390
44.057088
37.383859
27.287554
20.426889
15.643798
13.976754
13.565595
13.190724
9.053246
2.631194
-5.388483
-9.095551
-6.733666
-4.027517
-0.695950
-2.539070
-7.885100
-14.740401
-17.714134
-16.505265
-15.285351
-15.310910
-15.594903
-10.511723
-5.630811
-0.514814
5.512804
7.367917
6.481226
1.474095
-6.163451
-14.454185
-19.987966
-28.122818
-33.308234
-32.285223
-26.431788
-15.457625
-4.920496
6.451890
11.912151
13.692795
12.103060
6.757977
1.866022
-2.377480
-1.895636
2.917750
10.307277
14.604424
15.338707
14.068624
7.863038
4.182791
1.233356
-0.807298
-7.114491
-14.206453
-18.783491
-24.987498
-26.372126
-26.497398
-22.709863
-17.170399
-12.787738
-7.524065
-2.209903
2.228610
7.724843
13.114737
15.769451
17.269888
18.417856
17.934436
15.505656
11.926701
8.591033
6.763059
9.478990
15.152562
22.527258
28.297704
29.978634
30.344041
27.993517
27.102724
27.054761
22.872791
17.888380
15.546377
15.040237
15.401857
13.215419
9.532964
5.589864
4.148438
1.026397
-1.918937
-1.391969
1.267795
6.822720
8.625137
6.979865
2.157962
-4.645904
-11.244033
-18.081032
-21.012796
-22.882423
-23.976115
-22.133308
-21.852153
-20.340041
-21.776735
-20.834189
-21.007109
-22.144346
-20.697869
-18.480505
-16.025848
-15.856082
-11.485412
-8.549543
-3.479616
-0.120281
2.049119
1.955087
-3.275768
-7.042160
-11.489506
-15.038800
-16.844686
-19.648338
-21.351039
-19.387062
-14.543384
-11.413768
-5.663202
3.181637
10.538032
18.884304
24.588168
29.368737
30.716763
30.169602
26.347989
22.075141
20.034487
19.472811
18.273725
16.533789
15.779628
14.846235
12.638024
9.113027
4.782750
-1.307029
-4.084175
-5.660657
-4.673303
-4.017591
-3.883167
-6.619922
-9.234244
-9.245288
-6.283228
-4.291798
-3.541421
-2.756650
-3.838351
-0.897749
2.240387
5.282911
7.278760
8.289149
6.637566
2.438241
-2.650301
-6.473492
-6.936717
-3.354288
0.578716
1.796105
0.152411
-0.079201
0.482477
-1.414287
-3.806147
-6.934814
-9.935684
-13.383687
-14.328124
-12.709357
-8.613530
-4.815582
-0.803375
4.781212
9.130425
11.923034
13.407062
12.534570
12.476195
14.282082
16.998014
19.895385
19.489590
19.409757
17.137806
10.989966
2.325307
-7.668444
-14.054839
-15.703897
-15.496896
-15.422110
-13.300358
-9.608434
-5.335584
0.026226
4.128363
6.258320
4.030545
-2.546441
-11.063423
-17.466227
-20.109580
-16.760026
-7.880161
-1.664792
3.307315
6.730707
8.204953
10.272431
11.823039
13.373017
15.562612
11.184371
0.165401
-9.980129
-16.240304
-17.701926
-15.394947
-15.118525
-16.700371
-17.368072
-14.023882
-5.812034
3.107274
10.558018
11.571247
8.797257
5.623781
3.756048
1.121846
-0.335358
-2.975556
-5.438099
-7.337072
-8.323793
-9.486590
-13.613023
-17.487333
-19.263557
-15.614547
-9.999036
-0.837386
6.873686
15.317147
24.713565
32.362474
37.677267
39.311496
37.758365
34.078433
28.323452
19.771128
11.731888
5.100942
-0.504469
-4.653937
-5.348144
-4.472810
1.308995
9.064874
15.575913
20.713052
24.307471
24.146858
20.573267
18.690702
16.991156
14.869090
10.160469
3.354710
-2.574770
-6.096927
-9.157121
-12.531916
-13.192359
-10.970262
-8.362564
-8.112333
-6.694255
-3.487645
-0.921600
0.134228
-0.269673
-1.948709
-4.811684
-7.895227
-13.199921
-21.176367
-28.430522
-32.170407
-33.116107
-31.075451
-25.649269
-20.479629
-16.978612
-16.124420
-17.615072
-15.865352
-15.154104
-15.648252
-16.114948
-17.631476
-18.276142
-17.663029
-12.918749
-8.623179
-10.792893
-16.480032
-22.283292
-25.149738
-22.019176
-14.647950
-7.472681
-4.863405
-4.553535
-1.796898
2.969155
8.177292
12.261128
14.673816
16.145538
15.645394
17.561724
17.574031
15.869752
12.653362
9.028021
6.413383
2.799717
1.954046
1.833192
2.846421
1.284454
0.828487
1.114691
-0.626823
-2.120315
-2.414091
-2.277772
-3.007321
-5.630479
-8.805532
-11.267759
-13.225109
-12.614521
-9.584303
-5.978839
-2.049306
2.854326
6.638075
10.907769
15.923422
21.065925
26.671022
31.666795
32.433264
29.452590
26.434364
24.351742
21.271669
21.109794
21.090231
19.031274
12.794765
2.640400
-3.385954
