EVENT_NAME: 202010301151
EVENT_ID: 10614
EVENT_DATE_YYYYMMDD: 2020/10/30
EVENT_TIME_HHMMSS: 11:51:24.00000
EVENT_LATITUDE_DEGREE: 37.879
EVENT_LONGITUDE_DEGREE: 26.703
EVENT_DEPTH_KM: 16.54
HYPOCENTER_REFERENCE: AFAD
MAGNITUDE_W: 6.6
MAGNITUDE_W_REFERENCE: AFAD
MAGNITUDE_L: 
MAGNITUDE_L_REFERENCE: 
FOCAL_MECHANISM: 
NETWORK: TK
STATION_CODE: 3516
STATION_NAME: 
STATION_LATITUDE_DEGREE: 38.3706
STATION_LONGITUDE_DEGREE: 26.8907
STATION_ELEVATION_M: 17.0
LOCATION: -_-_-
SENSOR_DEPTH_M: 
VS30_M/S: 460
SITE_CLASSIFICATION_EC8: B
MORPHOLOGIC_CLASSIFICATION: 
EPICENTRAL_DISTANCE_KM: 57.08
EARTHQUAKE_BACKAZIMUTH_DEGREE: 
DATE_TIME_FIRST_SAMPLE_YYYYMMDD_HHMMSS: 2020/10/30 11:51:08.8188700
DATE_TIME_FIRST_SAMPLE_PRECISION: millisecond
SAMPLING_INTERVAL_S: 0.01
NDATA: 10501
DURATION_S: 
STREAM: HNE
UNITS: cm/s^2
INSTRUMENT: sensor = CMG-5T/GURALP | digitizer = 
INSTRUMENT_ANALOG/DIGITAL: 
INSTRUMENTAL_FREQUENCY_HZ: 
INSTRUMENTAL_DAMPING: 
FULL_SCALE_G: 
N_BIT_DIGITAL_CONVERTER: 
PGA_CM/S^2: 48.544
TIME_PGA_S: 
BASELINE_CORRECTION: BASELINE REMOVED
FILTER_TYPE: BUTTERWORTH
FILTER_ORDER: 
LOW_CUT_FREQUENCY_HZ: 
HIGH_CUT_FREQUENCY_HZ: 
LATE/NORMAL_TRIGGERED: 
DATABASE_VERSION: 
HEADER_FORMAT: DYNA 1.2
DATA_TYPE: Acceleration
PROCESSING: Manual Paolucci et al., 2011
DATA_TIMESTAMP_YYYYMMDD_HHMMSS: 
DATA_LICENSE: U (unknown license)
DATA_CITATION: Turkish Accelerometric Archive v 1.0 - Disaster And Emergency Management Presidency, Earthquake Department
DATA_CREATOR: AFAD
ORIGINAL_DATA_MEDIATOR_CITATION: : AFAD - Disaster And Emergency Management Presidency
ORIGINAL_DATA_MEDIATOR: AFAD PROCESS SERVICE
ORIGINAL_DATA_CREATOR_CITATION: AFAD PROCESS SERVICE
ORIGINAL_DATA_CREATOR: network: TK
USER1: GuestUser
USER2: 
USER3: 
USER4: 
USER5: 
[...]
0.027710
0.002450
-0.005128
0.002134
0.006554
0.016974
-0.013970
-0.003234
-0.020601
0.022341
0.022973
0.016026
-0.013971
-0.001656
-0.003867
-0.006393
0.013183
-0.015866
0.013815
-0.006394
0.020761
0.004342
0.003078
-0.001974
-0.001974
0.002762
-0.006079
0.007182
0.009708
-0.007027
-0.004185
0.015707
-0.006396
0.013812
-0.002923
0.003708
0.010339
0.009075
-0.020921
-0.016185
0.012233
0.020442
0.012864
0.014442
-0.012397
-0.020606
0.016021
0.002443
0.005285
-0.017450
0.007810
0.013810
0.024861
0.007494
-0.000400
-0.009872
-0.041764
0.013809
0.033701
0.026754
-0.001979
-0.013347
-0.013031
-0.015241
0.010019
0.026438
0.012860
0.000230
-0.013348
0.004966
0.007492
-0.006086
0.028015
-0.023137
-0.014612
0.011280
0.011911
0.023278
-0.004824
-0.003561
-0.009876
0.010332
-0.016192
0.005279
0.019172
0.011910
0.003700
-0.026296
0.009068
0.002121
0.022645
0.007173
-0.001037
-0.010510
-0.010194
0.001173
-0.008616
0.024222
-0.007037
-0.008300
-0.024404
-0.003249
-0.001039
-0.005144
-0.003565
-0.025983
-0.001355
0.005276
0.012854
-0.026931
-0.040509
-0.020617
0.008432
0.002749
0.008116
0.024535
-0.010513
-0.013671
-0.005462
-0.005777
-0.013671
-0.060719
-0.066718
-0.064508
-0.021566
0.016324
-0.006726
-0.039564
-0.045564
0.002746
0.048214
0.096840
0.114522
0.147676
0.062738
-0.017147
-0.037355
-0.001675
0.031794
-0.023147
-0.037040
-0.095454
-0.151974
-0.135871
-0.042724
0.055474
0.121467
0.072525
-0.012728
0.051685
0.045685
0.008426
0.058947
0.107257
0.088943
0.030213
-0.091668
-0.202181
-0.139978
-0.071460
0.070628
0.099677
0.085153
0.101887
0.096519
0.126200
0.103150
-0.038307
-0.134612
-0.092933
-0.147874
-0.119456
-0.048096
-0.038624
0.025474
0.016317
-0.134613
-0.059464
-0.024100
-0.116616
-0.107143
0.024525
0.207346
0.291336
0.092412
-0.145034
-0.221446
-0.217026
0.070308
0.320384
0.313437
0.099673
-0.128301
-0.108408
0.116407
0.054204
-0.230605
-0.661607
-0.733914
-0.368589
-0.019367
0.249654
0.383532
0.491204
0.353851
0.202290
0.190607
0.315645
0.161558
-0.203768
-0.263761
-0.103043
0.025784
-0.228081
-0.575409
-0.637928
-0.445319
-0.046525
0.300803
0.429314
0.180185
-0.152618
-0.155144
0.218075
0.598872
0.483938
0.045674
-0.243555
-0.267237
-0.223979
-0.237241
-0.289024
0.049778
0.553087
0.620657
0.484252
0.424259
0.267646
0.160606
-0.180407
-0.624670
-0.737394
-0.665087
-0.239453
0.421416
0.774743
0.301746
-0.558048
-1.076829
-0.785074
0.195968
1.268894
1.393932
0.608656
-0.163358
-0.922427
-0.705505
-0.068949
-0.037374
-0.233772
-0.639198
-0.600361
-0.138731
0.332371
0.561607
0.467197
0.033985
-0.387229
-0.726978
-0.860858
-0.508794
-0.088528
0.295427
0.335843
0.162179
-0.125787
-0.029167
0.309003
0.487719
0.592549
0.297636
-0.326291
-0.801182
-1.004211
-0.879805
-0.183256
-0.021591
-0.170310
-0.346184
-0.630046
-0.120422
0.578654
0.956609
1.045651
0.553077
-0.007067
0.056714
0.036506
0.116076
0.269531
0.029243
-0.044643
-0.096742
-0.255881
-0.574791
-0.971376
-0.908542
-0.391340
0.054187
0.722634
1.169423
0.953448
0.438456
-0.409339
-1.072103
-1.175670
-1.187668
-0.631313
0.798097
1.963223
1.954697
1.080064
0.169750
-0.716251
-1.046528
-0.794242
-0.204417
0.385723
0.339308
-0.184841
-0.574480
-1.050003
-1.463007
-0.992536
-0.119797
0.801252
1.335189
1.321296
0.943340
0.393931
-0.157688
-0.625002
-0.875709
-0.823926
-0.405870
0.097439
0.608326
0.798093
0.509179
-0.063911
-0.758250
-0.724465
-0.267572
-0.550170
-0.603217
-0.217999
0.211740
0.566645
0.378772
0.189952
-0.015918
-0.617742
-1.070847
-0.960650
-0.532174
-0.023497
-0.161797
-0.263154
0.427397
1.162783
1.097107
0.513281
-0.085386
-0.967282
-1.427017
-0.927497
0.126483
0.886183
0.309304
-1.140315
-1.490484
-0.568804
0.598532
1.504109
1.357600
0.604215
-0.023185
-0.528704
-0.290627
0.249941
0.907021
0.973013
0.112588
-0.634798
-0.930026
-0.806883
-0.577331
-0.571648
-0.254001
-0.022239
-0.122965
0.436548
0.806926
1.055107
0.449494
-0.530601
-0.918345
-1.096114
-0.966024
-0.512288
0.051013
0.715987
1.378120
0.775349
-0.064553
-0.349993
0.128688
0.971746
1.039948
0.612420
-0.298842
-1.430182
-1.630053
-1.089486
-0.314314
0.314348
-0.044030
-0.949292
-0.955923
-0.357573
0.071218
0.489906
0.788923
0.545478
-0.228431
-0.971396
-1.105907
-0.016562
0.252143
-0.611124
-1.058860
-0.507241
0.369603
0.778502
0.778186
0.627256
0.758293
-0.212330
-1.300096
-0.882672
0.159310
0.690405
0.779132
0.659461
0.548632
-0.173493
-1.541964
-1.845718
-0.788263
0.512004
0.598836
0.208882
0.155835
0.524002
1.271703
1.471890
1.297279
1.184555
0.586520
-0.822998
-1.972968
-1.810040
-1.278945
-0.960982
-0.033934
0.842910
1.182028
0.813229
0.163411
0.029216
-0.779110
-1.982126
-2.424179
-1.961918
-1.331677
-0.805634
0.252767
0.841961
0.230664
-0.769639
-0.813529
-0.232229
0.288762
0.606409
0.317495
0.633879
1.215179
0.410642
-1.053501
-1.899086
-2.087275
-1.698584
-0.938568
0.341491
1.297589
0.969522
0.223715
-0.254018
-0.522408
-1.022559
-0.938569
0.029527
0.715025
0.780070
0.813539
0.221504
-0.933834
-1.315579
-0.426421
0.606089
0.999832
1.318426
1.624705
1.920249
1.213596
0.382220
0.151405
-0.699548
-1.835309
-2.198108
-2.052546
-1.727638
-1.707745
-1.651857
-0.769014
-0.256548
-0.409373
-0.568512
0.212975
1.468090
1.804050
1.338315
0.847320
0.805009
1.866884
2.353774
1.629754
0.762698
-0.344014
-1.430517
-2.871927
-3.440281
-3.162419
-2.806566
-2.089493
-1.751323
-1.001411
0.447891
1.763631
3.455116
4.115038
3.407121
1.639855
-0.961312
-2.173485
-2.052236
-1.916147
-1.703014
-1.708698
-1.847629
-0.774703
0.479465
1.414723
2.214839
1.728264
0.620921
0.640182
1.459874
2.779087
3.678349
2.296933
-0.439060
-2.022874
-3.177264
-4.525526
-5.374900
-5.970725
-4.960318
-2.936346
-1.009626
1.661322
4.776850
7.377069
8.804901
6.883548
4.192707
1.591540
-1.729226
-3.786037
-4.950531
-3.726991
-1.846371
-1.765223
-1.529356
-0.200671
0.322846
0.967296
1.417559
1.571014
2.994110
3.328807
2.052852
-0.241088
-3.021919
-4.219883
-4.141576
-3.024129
-0.150468
2.647728
3.815695
3.821695
3.368906
1.201266
-1.153298
-2.511665
-3.148537
-3.516073
-2.261905
1.335144
3.528359
2.341762
-1.437161
-5.226819
-5.078732
-2.732061
0.403674
4.428568
5.870293
5.138063
1.081594
-2.232226
-2.137185
-0.160260
2.678984
4.715901
3.050308
-0.057957
0.089499
0.590913
-0.260039
-1.116359
-1.637982
-2.456412
-2.051618
-0.971430
0.687532
1.802769
1.205366
-1.302339
0.139702
3.748750
4.240692
3.340797
2.358808
2.338600
1.002336
-1.844802
-3.624382
-2.588083
-1.123309
0.176643
-0.816398
-0.791454
0.003926
-2.805638
-3.043083
-1.224035
0.019397
2.260922
0.779097
0.701422
3.296905
0.166537
-3.100236
-4.236628
-3.638594
-1.745659
-1.393280
-0.798718
1.028855
0.732680
-1.613360
-3.082871
-1.993841
2.395430
4.491394
2.641085
1.926222
1.728561
0.146958
-1.592206
-2.671763
-3.332317
-3.295690
-1.850807
-3.940772
-5.851704
-4.666371
-3.452619
-1.427384
-2.171613
-2.027945
1.692879
4.852611
5.454119
6.208451
7.553556
8.835510
6.313596
-0.020394
-0.924709
1.274506
1.381861
-1.950272
-3.755744
-1.883649
-0.557490
-2.229714
-3.896254
-0.943971
0.849186
-0.111017
-0.751362
-1.253409
-0.374039
-0.346884
-1.137212
1.145676
1.217983
0.861183
2.805901
2.230600
2.351218
1.700136
1.896850
6.270966
6.650815
4.028809
1.199984
-3.046884
-4.287475
-2.584307
1.464584
5.574731
4.090063
0.347452
-0.584649
-0.731474
-0.901349
0.401129
2.943250
5.564625
3.781888
-1.005863
-3.214866
0.723511
4.257410
0.539112
-2.678720
-3.481046
-1.973961
-1.730200
-2.913640
0.110003
3.959023
5.577569
3.555807
-2.632937
-6.513848
-6.678039
-6.659094
-7.418163
-5.436818
1.144406
3.703894
3.128593
3.082493
2.993767
3.238790
0.617415
-2.085109
-2.690090
-5.808775
-4.872886
-0.390151
-0.347209
-2.117316
-4.395785
-5.601327
-4.446621
-4.197177
-1.411927
4.228356
6.422202
3.678946
-3.850798
-7.500578
-4.877624
-1.984702
0.434591
3.779670
6.311372
7.132959
4.212251
-1.187113
-3.812277
-3.455477
-0.506983
3.572220
6.252325
5.766698
4.641041
2.864619
0.273871
-1.947130
-2.174788
-2.583371
-4.145082
-5.003297
-5.442824
-3.575150
-0.949986
-0.713172
-4.321273
-7.330392
-4.683125
2.420037
6.045504
5.160135
3.228678
1.144713
-0.280908
-0.009993
1.243543
2.496448
3.389395
3.703884
1.413733
-4.473468
-9.515084
-11.253932
-7.324079
-2.295725
0.001057
0.462371
2.050289
3.056275
0.778122
-3.864383
-5.351261
-1.066503
4.579147
8.025583
7.710146
7.196102
7.393762
6.424403
3.131738
1.098293
0.773069
-1.951874
-3.924694
-4.657239
-3.421069
-1.358260
-4.994779
-8.698237
-10.761362
-10.384986
-6.540071
-0.830007
2.342040
2.906920
1.835888
1.981450
5.942878
8.382064
11.489697
10.759993
6.011711
0.461418
-2.701473
-3.573896
-2.295731
0.823901
3.464852
5.497665
6.080228
6.965913
7.790342
7.634044
5.100448
1.648644
-1.628548
-5.780690
-7.581741
-4.418220
-2.657270
-2.642114
-3.909859
-2.056709
0.925570
1.438668
4.226444
8.148403
10.966491
8.466681
2.723463
-3.147950
-5.729857
-5.954041
-3.520539
-0.693609
-0.676558
-4.453587
-10.574129
-12.171519
-10.668855
-8.689404
-4.827438
-2.720739
-3.147952
-3.673996
-4.734292
-0.967368
5.057185
7.535208
8.170502
7.093471
4.992455
4.585135
3.463898
2.393814
0.000727
-2.298265
-2.815783
-3.746305
-3.428027
1.382458
6.828869
6.361555
3.721866
1.994701
1.098280
-0.861910
1.084703
1.701051
2.534005
3.570936
-0.038113
0.488562
4.248539
5.471763
4.905620
3.795119
2.165837
2.925537
3.683973
5.843403
9.558544
9.556018
3.294019
-2.835680
-6.634495
-10.110296
-11.263108
-9.466793
-8.582371
-6.170656
-4.659466
-5.259395
-3.836931
-4.659466
-4.668939
-4.615893
-4.969851
-3.620958
0.425091
2.165833
2.430749
2.169622
1.647052
2.041426
-1.007793
-2.083245
-1.180194
-1.183352
-1.700238
-2.367739
0.645169
5.146533
8.081766
8.652014
6.004747
2.089419
-1.355438
-2.376265
-1.809490
-1.803491
-3.593175
-4.407500
-3.916190
1.524537
7.345430
6.945687
1.297826
-6.927836
-6.497781
-1.543944
2.953631
6.914427
8.105444
6.532366
4.884139
1.542217
-0.130323
0.268157
0.360040
2.876270
0.590539
-0.754566
-2.688548
-5.658514
-7.780685
-11.224911
-11.129869
-6.048469
-1.506057
1.305401
2.454739
-0.789300
-0.082331
1.773661
2.497365
1.156049
-1.916220
-0.253153
3.593656
3.566186
1.902487
4.578803
6.079573
2.246656
-1.007171
-1.972741
-1.327344
-1.015065
-4.022290
-6.282760
-4.912711
-2.112305
0.337933
1.490428
2.304437
3.317686
2.876264
5.978214
9.656096
9.134789
9.756505
8.091859
4.010130
-2.483000
-6.692293
-6.962577
-8.462085
-7.986878
-4.891559
-0.017607
2.506832
2.436735
-0.805094
-2.617512
-2.486790
-5.282461
-8.324734
-6.579572
-5.378450
-5.151424
-5.386344
-6.978683
-4.623487
-3.806320
-4.663904
-6.323813
-5.076908
-2.116099
-0.559441
-2.178934
-0.734684
3.659956
6.231126
4.925491
1.274132
1.249187
-0.971183
-6.062688
-8.600389
-5.674629
-2.429012
-1.320090
-4.018825
-6.713770
-7.396427
-8.052560
-5.317830
-0.553444
1.325281
1.519469
0.596840
0.426334
4.087797
10.508935
12.995168
12.315669
8.095640
2.631863
5.233030
6.765691
3.413033
0.090372
0.539056
2.696591
4.666885
4.974112
5.002213
6.206492
2.995923
-0.702167
1.336013
4.987057
6.226700
2.198017
-0.968663
0.858280
1.839322
0.615466
-0.425570
-3.109148
-4.748534
-1.481130
1.773328
4.707614
4.831073
2.343261
0.696297
-0.776372
-0.949720
0.252349
-0.316953
-1.172326
-2.376921
-1.228530
2.003194
3.539645
2.733529
2.094446
2.467034
0.804282
-3.484581
-10.821400
-16.801748
-17.832995
-11.780024
-2.764666
2.447772
2.796362
-0.219388
0.700398
3.359663
-0.204864
-3.939582
-4.677810
-6.370874
-8.275492
-8.344010
-6.496544
-1.902980
0.510314
0.591778
-2.723621
-11.434910
-16.756283
-14.418769
-5.709375
5.117770
12.344075
15.024496
14.564445
10.079500
2.836775
-2.808876
-4.542672
-4.583404
-3.896327
-0.774800
1.631863
2.067601
3.059063
1.183810
0.514099
2.065074
1.321478
-0.847109
-1.924456
-1.119603
-1.103500
-0.868265
-2.975280
-6.682843
-7.112582
-6.822090
-6.480762
-6.021658
-7.757349
-10.231899
-13.276067
-15.030702
-13.261542
-12.144095
-12.922109
-11.180736
-6.784201
-2.925078
-4.215873
-10.088549
-16.735134
-22.793473
-22.959874
-15.889550
-3.925382
6.698418
9.466934
4.705706
-0.704709
-2.602696
-4.037790
-3.836025
-2.400300
1.374518
5.620439
9.563237
14.363934
16.095203
13.914618
5.076397
-1.494408
0.010467
4.026836
11.820233
22.467714
32.481797
37.838218
39.426451
39.552752
38.729586
36.880540
33.126562
26.223586
14.164376
4.059672
-5.863790
-15.230896
-20.709513
-22.527615
-19.874980
-17.808698
-15.963126
-10.975819
-2.127179
3.027161
6.281935
10.501332
14.139114
17.396098
19.239775
18.775303
14.763987
8.929516
1.378617
-4.812969
-10.520822
-18.659653
-26.705652
-30.694866
-33.733981
-35.707433
-30.826850
-21.580993
-7.761781
5.233003
8.529772
6.921014
5.775465
7.409167
15.193091
22.277308
24.655239
28.119672
31.361500
31.888491
29.530137
22.678313
17.536603
16.580189
14.303616
13.969234
11.210190
6.856914
4.353314
3.790012
6.925116
11.577410
14.580845
13.066497
11.384800
7.283178
-0.045116
-12.909494
-26.931420
-38.722556
-46.797604
-48.544346
-43.812167
-33.265095
-27.986981
-22.318912
-14.448472
-11.867197
-14.549197
-19.865202
-21.437333
-17.529267
-12.447551
-5.479214
7.729649
20.638864
27.429747
27.364387
17.810039
3.308801
-9.057636
-17.682093
-18.795751
-13.312714
-5.401225
4.022716
14.915537
24.000045
27.265554
27.657719
20.767689
13.406872
12.344997
17.565329
25.241582
30.063118
31.885009
29.420246
25.527337
19.316174
13.924704
6.058368
-1.733450
-7.103764
-8.217738
-8.055758
-4.285992
-0.121220
-2.311909
-4.766251
-11.287483
-18.615777
-20.123810
-19.373267
-22.471428
-24.116497
-26.335289
-21.707939
-13.405234
-8.674950
-2.392743
4.713577
10.615302
16.443456
21.559590
22.988053
20.767683
11.002413
2.078939
-5.569528
-16.263425
-23.326172
-21.077385
-13.074644
-3.775425
3.981029
7.008777
6.190347
2.712336
-3.611550
-6.278709
-3.656387
1.811179
8.335883
13.472225
15.840998
14.487999
7.217804
-5.091482
-15.528673
-20.896777
-19.002579
-17.901236
-14.147573
-7.766536
-1.566109
2.556983
1.939688
-1.466332
-7.134717
-10.171938
-13.417239
-15.805274
-17.232474
-14.877278
-9.852081
-4.823727
-4.210852
-5.229469
-1.967117
-2.140465
-5.704361
-7.826532
-6.143257
-1.208049
2.013887
0.339768
0.931803
2.727486
4.800084
6.917834
4.971221
6.556613
13.952478
20.566856
19.933772
13.831228
6.645654
2.342898
2.540875
0.193573
-1.026179
1.572778
5.207086
10.634867
14.368006
17.218301
18.033573
18.237549
20.171532
22.913840
26.788751
25.146524
19.193646
12.711252
5.527889
-1.137957
-6.662043
-9.466239
-16.353743
-19.611043
-15.215772
-11.772810
-8.957563
-8.953774
-6.156525
1.154087
7.016659
6.788054
5.289178
8.615943
13.925002
17.536891
17.527734
13.901320
7.344408
0.581942
-4.215598
-8.767482
-13.600386
-15.471850
-16.930941
-13.551761
-10.217417
-9.369623
-4.567978
-0.979770
2.299949
7.449552
10.557185
12.701143
16.194310
16.603525
16.440281
13.927524
9.301122
5.938045
2.088709
-0.909990
1.868313
8.054531
14.032037
15.352828
12.490218
12.253088
12.340867
11.560012
9.247758
7.587848
4.591991
2.110809
-2.471387
-3.491583
-0.836422
-1.528236
-1.918190
-7.742240
-14.691316
-19.800503
-16.625615
-7.726769
0.071364
4.870798
6.411353
6.480503
-0.928624
-6.385139
-8.698971
-9.634545
-9.069981
-15.990638
-27.094698
-33.308702
-31.852769
-23.814033
-15.764876
-10.746310
-7.357657
-4.120881
1.295217
6.409456
13.002994
18.739581
19.725359
15.682783
10.528759
7.316927
2.637794
1.795999
2.371615
-2.347303
-7.499748
-11.040278
-12.624723
-10.639273
-5.877414
-1.200807
2.976595
5.478300
6.620376
7.603944
6.981912
4.759647
0.225129
-7.982219
-17.163663
-24.220095
-27.754310
-26.532665
-26.047669
-24.917276
-21.158562
-16.915168
-11.263202
-3.491277
7.466273
17.457306
24.320497
30.334314
36.205095
42.692856
45.209086
40.159576
27.816189
13.939509
1.563915
-6.443562
-8.949688
-8.878012
-2.905243
1.497291
2.728724
1.471714
-0.692452
-4.529473
-8.198514
-9.956939
-7.039704
-1.285119
2.371607
7.256926
13.519872
22.220425
24.245659
21.666595
16.074307
10.807559
8.515829
3.708501
-4.521582
-9.259444
-11.972704
-16.757929
-19.666639
-21.263398
-17.564045
-9.744441
-7.291362
-8.441647
-11.631377
-20.106799
-26.353957
-28.855978
-27.709797
-25.059057
-20.375505
-12.181102
0.184703
13.106548
21.519766
25.048929
22.712046
16.178816
11.618091
9.652849
9.740312
13.670164
16.469308
16.758852
16.243860
13.737419
8.191862
1.892920
-2.813683
-0.120316
4.168230
6.080742
6.630150
9.296362
10.958166
11.791752
15.247344
16.696016
17.803674
15.462055
11.954679
8.066822
4.528818
0.912823
0.123126
-2.289221
-9.771287
-17.052218
-21.780608
-23.557977
-25.826973
-29.437916
-30.190354
-25.461333
-17.726666
-6.118350
3.518408
12.349051
16.544136
15.515415
12.132445
5.804770
-2.068513
-11.558447
-15.420413
-15.785422
-11.171019
-4.308460
2.237715
7.742224
7.058305
3.651022
1.172998
0.705053
-1.082420
-0.970329
-0.440812
1.526324
6.407538
4.846143
-3.796943
-17.163999
-30.037534
-38.866283
-42.440283
-36.682541
-20.722844
-0.892971
9.034595
9.765246
4.451451
-8.416085
-19.060409
-27.746753
-33.046024
-31.944680
-24.068240
-14.754496
-5.025538
1.297716
-1.023379
-5.377602
-8.051393
-5.698407
-6.471684
-9.208309
-8.645955
-2.694656
7.285640
11.329479
9.746929
9.297929
8.532545
5.189992
-1.520059
-7.049828
-8.384198
-3.758427
5.671198
13.613314
19.349269
23.989564
27.331486
25.549064
19.858261
15.920515
12.572909
5.984738
1.145519
0.063752
3.252218
5.257244
-0.568385
-8.723002
-13.039020
-16.032983
-15.858688
-14.056374
-11.638975
-8.864460
-5.290777
-1.345452
0.506434
0.378239
-2.724974
-2.964946
-4.945029
-8.001826
-9.135377
-6.583783
-1.485963
1.105731
0.721144
3.405986
7.713793
12.226524
16.641056
22.507102
30.059895
32.886509
32.596333
28.722052
24.889136
16.430764
6.578031
-1.972540
-8.980661
-12.703696
-13.655058
-13.671161
-13.787358
-10.577105
-9.116120
-7.808906
-5.045758
-2.952952
1.371590
7.309627
12.405552
13.594044
12.355032
12.224942
10.033305
6.856522
2.344422
0.322976
3.056127
8.333294
11.232531
12.598791
13.877588
13.312707
8.237936
-0.599022
-6.613787
-5.216899
0.164782
1.376323
-0.617336
-4.256697
-6.180576
-7.615985
-6.380131
-4.869888
-2.731299
-1.460396
0.339392
3.997697
5.844532
6.273008
5.318488
4.205461
2.197593
3.277150
3.483020
-0.118135
-7.435377
-14.868185
-16.499678
-13.419199
-10.217155
-7.921637
-7.813334
-12.582140
-21.821051
-28.123150
-31.667154
-32.973737
-32.416434
-31.574323
-27.352084
-23.083745
-19.909488
-18.313045
-15.095845
-13.042824
-12.046311
-9.411674
-7.798812
-7.475797
-8.730597
-8.495362
-6.294253
-3.211564
0.855009
