EVENT_NAME: 202010301151
EVENT_ID: 10614
EVENT_DATE_YYYYMMDD: 2020/10/30
EVENT_TIME_HHMMSS: 11:51:24.00000
EVENT_LATITUDE_DEGREE: 37.879
EVENT_LONGITUDE_DEGREE: 26.703
EVENT_DEPTH_KM: 16.54
HYPOCENTER_REFERENCE: AFAD
MAGNITUDE_W: 6.6
MAGNITUDE_W_REFERENCE: AFAD
MAGNITUDE_L: 
MAGNITUDE_L_REFERENCE: 
FOCAL_MECHANISM: 
NETWORK: TK
STATION_CODE: 3521
STATION_NAME: 
STATION_LATITUDE_DEGREE: 38.46792
STATION_LONGITUDE_DEGREE: 27.07636
STATION_ELEVATION_M: 1.0
LOCATION: -_-_-
SENSOR_DEPTH_M: 
VS30_M/S: 145
SITE_CLASSIFICATION_EC8: D
MORPHOLOGIC_CLASSIFICATION: 
EPICENTRAL_DISTANCE_KM: 73.17
EARTHQUAKE_BACKAZIMUTH_DEGREE: 
DATE_TIME_FIRST_SAMPLE_YYYYMMDD_HHMMSS: 2020/10/30 11:51:11.3160460
DATE_TIME_FIRST_SAMPLE_PRECISION: millisecond
SAMPLING_INTERVAL_S: 0.01
NDATA: 10501
DURATION_S: 
STREAM: HNE
UNITS: cm/s^2
INSTRUMENT: sensor = CMG-5T/GURALP | digitizer = 
INSTRUMENT_ANALOG/DIGITAL: 
INSTRUMENTAL_FREQUENCY_HZ: 
INSTRUMENTAL_DAMPING: 
FULL_SCALE_G: 
N_BIT_DIGITAL_CONVERTER: 
PGA_CM/S^2: 93.933
TIME_PGA_S: 
BASELINE_CORRECTION: BASELINE REMOVED
FILTER_TYPE: BUTTERWORTH
FILTER_ORDER: 
LOW_CUT_FREQUENCY_HZ: 
HIGH_CUT_FREQUENCY_HZ: 
LATE/NORMAL_TRIGGERED: 
DATABASE_VERSION: 
HEADER_FORMAT: DYNA 1.2
DATA_TYPE: Acceleration
PROCESSING: Manual Paolucci et al., 2011
DATA_TIMESTAMP_YYYYMMDD_HHMMSS: 
DATA_LICENSE: U (unknown license)
DATA_CITATION: Turkish Accelerometric Archive v 1.0 - Disaster And Emergency Management Presidency, Earthquake Department
DATA_CREATOR: AFAD
ORIGINAL_DATA_MEDIATOR_CITATION: : AFAD - Disaster And Emergency Management Presidency
ORIGINAL_DATA_MEDIATOR: AFAD PROCESS SERVICE
ORIGINAL_DATA_CREATOR_CITATION: AFAD PROCESS SERVICE
ORIGINAL_DATA_CREATOR: network: TK
USER1: GuestUser
USER2: 
USER3: 
USER4: 
USER5: 
[...]
3.821168
4.060086
4.060719
4.157486
4.320443
4.429188
4.686702
5.087945
5.171789
4.724534
4.270976
4.156564
4.471759
5.230744
6.255121
7.022616
6.912617
5.987216
4.341918
2.635471
1.683910
1.957499
3.413689
5.661010
7.624344
8.265447
7.701572
6.400462
4.927889
3.908246
3.591481
3.725440
3.861921
3.306241
1.588133
-0.651934
-2.187546
-2.270754
-1.184599
0.765181
3.171044
4.929503
5.662327
5.922678
6.513351
7.436866
8.296713
8.963032
9.110229
8.988883
8.594896
8.032282
7.048886
5.361666
3.596909
1.813872
0.238860
-1.472629
-3.728455
-6.240531
-8.624955
-10.156785
-10.483006
-9.876574
-8.444339
-6.730952
-5.008426
-3.336329
-1.885498
-0.551918
0.530769
1.523312
2.458804
3.386732
4.430966
5.366774
5.540763
4.100654
1.179143
-1.815178
-3.810025
-4.546941
-4.259798
-3.340065
-2.669964
-2.973175
-4.124884
-5.702417
-7.315881
-8.523694
-9.524425
-10.389939
-11.056252
-11.307772
-10.827102
-9.922498
-8.553616
-7.135250
-5.517997
-4.155419
-3.689878
-4.597313
-6.671273
-8.970280
-10.626610
-11.192377
-10.966066
-10.137739
-9.235341
-8.511027
-8.235862
-7.978032
-7.601059
-7.146235
-6.510489
-5.820531
-5.369804
-5.398484
-6.030440
-7.138652
-8.266406
-8.931773
-9.061945
-8.745174
-7.783836
-7.055424
-6.790030
-6.869770
-6.833835
-5.839717
-3.976299
-1.060771
2.435026
5.466229
7.752004
9.572871
11.405715
13.526645
16.109015
18.802018
20.904981
22.090106
22.186243
21.210411
19.511530
17.926117
16.779767
15.999039
15.490323
15.066077
14.022795
12.271591
10.822657
9.773701
9.467653
9.873623
10.905249
12.255534
12.997499
13.197018
13.182838
12.754180
11.827203
10.622542
9.410317
8.462223
7.738230
6.998477
5.602180
3.220277
0.239195
-2.553087
-4.374263
-5.030175
-4.842318
-4.232103
-3.916908
-3.761201
-3.746699
-3.672941
-2.825702
-1.202461
0.576486
1.880122
2.846819
3.271701
3.215915
2.467337
1.194279
-0.095798
-1.433470
-2.680366
-4.078240
-5.520870
-6.750116
-7.953831
-9.159437
-10.373553
-11.172247
-11.638098
-12.092917
-12.582407
-12.965047
-13.022094
-13.101519
-12.807442
-11.534379
-9.400842
-7.613070
-6.406197
-5.645636
-5.347462
-5.174418
-5.172209
-4.963864
-4.531418
-4.531415
-5.182599
-6.860047
-9.316650
-11.711476
-13.625949
-14.323150
-13.225334
-10.386712
-7.505225
-5.472864
-5.273029
-6.140435
-7.060477
-7.840259
-7.868308
-7.707557
-7.583369
-7.464854
-7.051634
-6.843604
-6.822168
-6.850218
-6.185790
-4.711004
-2.475030
-0.278139
1.340375
2.699485
3.682572
4.770617
6.112392
8.071628
10.383564
12.229961
13.071527
12.859090
11.925180
11.415517
11.634894
12.371500
13.255932
14.157384
14.974994
15.581742
15.708767
15.234091
14.745862
14.177889
13.715190
13.553815
13.360605
12.676956
11.654162
10.397179
9.016011
7.471573
5.950145
4.781101
3.951834
3.422629
3.453206
4.175314
5.217341
6.172376
6.595997
6.208313
5.172596
4.134041
3.095487
1.963635
0.922244
-0.194163
-1.503467
-2.982660
-4.691313
-6.288702
-7.993257
-9.630046
-10.905625
-11.769248
-11.998390
-11.912339
-11.630870
-11.061000
-9.903927
-8.315357
-6.532313
-4.980621
-3.971688
-3.162588
-2.301165
-1.465588
-0.651129
0.059631
1.053119
2.317042
3.265142
3.768191
4.001121
4.374942
4.618903
4.184256
3.112292
1.717570
0.241214
-0.964707
-2.168738
-3.580164
-4.642988
-5.267696
-5.864666
-6.526882
-7.285546
-8.362554
-9.564062
-10.879986
-12.274077
-13.755476
-15.135699
-15.962759
-16.452880
-16.374394
-15.942893
-15.035138
-13.645769
-11.855476
-9.486490
-6.621392
-3.312820
-0.259552
2.052383
3.254213
3.653249
3.894689
4.207047
4.400578
4.522245
4.474969
4.178376
3.174178
1.576158
-0.016504
-1.189015
-1.710970
-1.658330
-1.284510
-0.889256
-0.681226
-0.864035
-0.600531
-0.110090
0.506744
1.165813
2.050244
2.924905
3.724235
4.795260
6.149958
7.776351
8.969671
9.492577
9.091656
8.178863
6.917468
5.260822
3.489131
1.749590
-0.152591
-1.759436
-3.541214
-5.407777
-6.633871
-7.076397
-6.674840
-5.672842
-4.072925
-2.167271
0.014490
1.823695
3.326848
5.066395
6.791444
8.177346
9.463647
10.735764
12.068399
13.453986
14.607276
15.112216
15.336951
15.752692
15.475641
15.114749
14.417233
13.508852
12.736635
11.255236
9.204600
6.666362
4.478303
2.183709
0.458666
-1.072218
-2.491209
-2.985112
-2.828459
-1.643019
-0.373108
0.814223
2.283651
3.365708
3.458692
2.696246
1.436111
0.583520
0.173774
0.606220
1.218326
1.594037
1.424467
0.515141
-1.335348
-3.062912
-3.941664
-4.630986
-4.861073
-5.411710
-5.623832
-5.909077
-6.058475
-5.866521
-6.023798
-6.698306
-7.946779
-9.461273
-10.937314
-12.358511
-13.618331
-14.782016
-15.945387
-16.728636
-16.809637
-16.304066
-15.269288
-13.349136
-10.911124
-8.421419
-6.551068
-5.300383
-4.148354
-2.926667
-1.921832
-1.276001
-0.751203
-0.149499
0.248592
0.452208
0.930042
1.819517
2.753749
3.284850
3.565059
4.139972
4.700071
4.608353
4.276459
4.048263
3.855683
3.287395
2.334258
1.094926
-0.185066
-1.011181
-1.054989
-0.255029
0.650520
1.703579
2.971599
4.368533
5.653573
6.906149
8.538531
10.525504
12.524769
13.876630
14.258331
13.806979
12.657477
10.827791
9.634162
8.673775
8.590882
9.564513
10.233038
10.369519
9.436869
7.707414
6.040682
4.904733
4.726337
4.777717
4.743679
5.059189
4.915464
5.154698
4.919883
5.343188
6.504989
7.251051
7.643468
7.294869
6.789619
6.476321
6.148209
5.085070
4.075513
2.905523
2.394600
2.280504
1.850900
1.490639
1.627435
2.027731
2.165158
1.839883
0.734508
-0.623967
-1.995364
-3.850265
-6.107667
-8.330082
-10.609232
-12.361697
-13.635384
-14.308947
-14.445107
-13.864205
-13.114991
-12.881431
-12.942575
-13.590291
-14.219412
-14.572424
-14.627264
-14.086707
-13.487839
-13.256485
-13.354192
-13.864170
-13.790412
-13.088161
-11.431825
-8.272023
-5.061159
-2.046976
0.080888
1.381373
2.046431
2.173141
1.881276
0.762978
-0.197409
-0.687845
-0.510389
0.318569
1.309850
2.674634
4.556964
6.524079
8.232107
9.529440
10.385820
9.675065
7.963260
5.468834
2.081470
-1.260508
-4.084940
-5.917778
-6.857677
-7.085873
-7.151115
-6.705431
-5.841487
-4.644069
-3.157621
-1.741146
-0.631667
0.254655
1.240263
2.602211
4.122700
5.492527
6.316757
6.458596
6.379170
5.995900
5.326120
3.689016
1.603079
-0.549364
-2.897541
-5.263999
-8.039261
-10.762517
-13.142213
-14.992387
-16.213437
-17.223940
-18.147449
-18.564760
-18.080938
-16.150069
-13.430275
-10.324371
-6.978920
-4.079152
-1.933637
-0.467992
1.014989
2.941445
5.540206
8.049137
9.762838
10.472023
10.302452
9.341120
8.555980
8.606729
9.018057
9.660736
10.083096
10.039918
9.480455
8.583107
7.987082
7.635961
7.723902
8.213083
9.000120
10.300921
11.150996
11.140283
10.421017
9.614129
8.956642
8.271732
6.859360
4.805257
3.036088
1.710394
0.758202
0.191490
-0.228658
-0.881418
-1.437414
-1.794208
-1.953062
-1.848100
-1.720444
-1.695856
-1.849037
-1.936342
-1.819718
-1.757307
-1.744696
-2.361839
-3.392199
-4.286395
-4.437054
-3.950080
-3.537175
-3.449549
-3.734164
-4.225861
-4.507009
-4.643799
-4.578867
-4.240978
-3.917588
-2.971379
-1.559632
0.418516
2.331419
3.955606
5.069812
5.643464
5.638109
5.219222
4.650303
3.836796
3.455732
2.995870
2.546094
1.826829
1.147593
0.839653
1.064703
1.517952
1.876328
2.422874
2.770219
3.167994
3.671358
4.410486
5.320764
6.006309
5.917428
4.923946
3.499281
2.228745
0.962307
-0.416970
-1.412028
-1.829654
-1.823663
-2.134754
-3.318612
-5.660170
-8.914209
-12.374698
-15.423232
-17.820263
-19.144067
-19.135553
-18.100145
-16.613697
-15.100457
-14.160552
-13.811632
-13.723060
-13.724948
-13.715174
-13.835575
-13.938955
-14.521742
-15.724196
-17.598009
-19.563543
-21.512372
-22.949959
-23.677419
-24.089057
-24.185188
-23.870308
-22.818825
-20.672680
-17.292874
-12.599663
-6.401095
0.716887
7.979227
14.884140
21.826245
28.490351
34.731155
40.211400
44.811629
47.729679
49.184608
49.284527
48.077660
46.209835
43.490047
40.139559
35.747678
30.074856
23.918530
17.726903
11.454586
5.889245
0.617978
-3.199308
-5.131747
-5.955971
-5.603584
-4.964371
-5.026146
-5.041903
-5.586551
-6.467510
-6.887343
-7.817471
-8.651466
-10.088738
-11.093567
-11.470849
-10.827855
-7.647565
-3.449521
1.419882
7.002250
12.905798
19.689992
25.577465
30.714781
35.222344
38.337704
40.193872
39.623063
38.769211
35.650705
31.348968
25.927039
20.502589
16.644012
13.553243
11.822527
9.796791
9.081309
7.084571
5.107374
1.765082
-3.573321
-10.434101
-17.552392
-23.087160
-26.784989
-27.133588
-25.807258
-21.642308
-16.939642
-12.157547
-8.141053
-4.778898
-1.059945
3.041966
8.377223
13.702078
18.274255
21.718991
22.807982
21.629167
18.369455
12.519180
6.272079
-1.032806
-9.766141
-16.915952
-22.677973
-26.977504
-29.643394
-30.726706
-30.192768
-29.753702
-27.243826
-23.945655
-19.552507
-13.014162
-6.636250
-1.510281
2.770028
5.845990
6.924579
5.342634
0.449597
-4.618371
-10.280161
-16.254306
-21.216685
-26.536807
-31.882459
-35.982788
-39.695431
-42.559577
-45.440113
-47.466164
-47.807829
-48.189208
-47.601372
-45.320325
-41.994417
-38.077209
-32.933274
-27.893036
-23.917518
-21.564607
-19.861307
-17.895767
-16.324847
-14.807510
-12.624173
-10.233754
-8.346382
-6.844489
-6.163357
-5.652428
-5.229122
-4.564064
-1.617962
2.364806
6.823829
12.323932
17.671796
22.128613
24.880557
25.289364
24.374995
22.081031
18.517474
15.316387
11.655436
7.802533
3.891634
0.166383
-2.200075
-3.148169
-3.164556
-1.888971
0.009748
1.618805
3.555348
5.550516
7.589810
8.802987
9.544321
10.299839
10.979081
11.559667
12.170828
13.397873
15.128279
16.854273
17.982663
19.087414
19.475418
19.245961
19.038568
18.638277
18.333805
17.994976
17.970710
17.643228
16.741152
15.426174
13.610986
11.983338
10.596497
9.488285
8.745695
8.355491
8.465496
9.110066
10.046504
11.301917
12.188239
11.884397
10.790684
8.952173
6.727551
4.538546
2.592554
0.845448
-1.284616
-3.585515
-5.912889
-7.508703
-7.947132
-7.367491
-6.267783
-5.028446
-3.500077
-1.892280
0.261429
2.358404
3.801041
3.393816
-0.020340
-5.317138
-10.595970
-14.604893
-17.694401
-20.265104
-21.450538
-21.974384
-21.623257
-20.680515
-18.792512
-14.307643
-8.929521
-0.187039
9.253908
17.498387
27.093462
33.260511
37.065196
38.079171
37.083483
35.720596
32.210306
26.597371
19.378848
12.359842
4.532053
-1.774620
-8.430840
-14.572037
-20.476209
-26.732451
-31.330153
-36.059290
-39.813538
-41.130722
-40.552342
-39.846939
-39.750488
-40.414594
-40.602446
-41.817508
-43.120193
-44.309094
-45.120080
-46.227031
-47.349111
-48.398698
-48.637610
-48.024874
-46.473812
-42.688984
-37.553874
-31.123956
-24.341653
-17.596857
-11.242270
-3.917206
2.839566
8.984551
13.844499
18.752985
21.426762
24.155066
26.217370
26.276944
27.625653
27.591300
28.486133
29.501684
30.368150
31.658233
33.467438
35.484669
37.461871
39.131131
41.247017
43.193961
45.401883
48.118210
50.312579
52.573139
54.343890
55.872889
57.104662
57.856398
58.074829
57.059283
55.118334
52.408002
49.439212
45.914739
42.261037
38.239821
34.818100
32.504279
30.547255
29.435576
28.507654
27.622283
27.503774
27.796590
27.791235
29.144356
28.711916
31.299014
31.002422
30.000745
30.839158
28.014411
26.557912
22.312280
16.411574
8.270169
-0.730133
-9.801354
-18.859022
-25.887169
-32.166420
-37.529408
-40.998722
-43.634354
-45.198019
-44.778495
-41.705371
-37.141389
-32.999449
-28.693293
-25.303401
-23.061123
-20.845005
-20.218716
-21.532748
-24.241505
-29.180244
-34.769855
-39.811347
-46.859666
-52.451484
-58.440758
-66.673253
-71.736178
-78.219673
-83.202540
-86.879251
-88.928941
-90.788255
-90.795817
-90.354545
-89.195267
-85.327228
-80.268079
-71.889329
-62.087803
-48.741312
-34.490221
-19.318770
-6.219705
7.161141
18.543670
30.812204
40.176560
49.769114
54.869868
59.182327
60.417252
57.563507
62.189267
55.024327
52.628556
48.265357
41.386611
37.699499
32.803625
28.587621
24.299122
20.463239
16.031959
14.411245
11.900429
12.205853
13.596798
14.815648
15.312078
15.376380
14.483129
13.581998
11.934178
11.255888
9.554800
7.066677
5.098307
1.399848
-2.371736
-5.135967
-7.143421
-8.661383
-9.432339
-10.011974
-11.272109
-12.607574
-13.563863
-15.023199
-16.027713
-17.371688
-19.126044
-20.432196
-21.785942
-22.824182
-23.938382
-25.227199
-26.897083
-29.252510
-30.988269
-34.785383
-36.673065
-38.937400
-39.238406
-37.486566
-33.334225
-24.462514
-12.719405
1.227210
11.299802
19.212068
24.876070
30.786237
35.182537
39.210063
42.584195
47.151645
51.612244
54.867549
60.091228
62.775090
65.560444
67.364291
67.362402
66.843284
66.009604
64.426083
62.781730
60.909808
58.080333
54.361386
49.040319
42.095698
33.666838
25.337263
17.952319
10.527661
4.131474
-1.227101
-5.926610
-8.175502
-8.983020
-9.624433
-8.069273
-6.489528
-4.813019
-1.222980
2.080865
7.108809
11.872308
18.789198
25.806319
31.331006
36.275740
38.113942
38.045234
34.679302
28.989145
21.148118
11.705916
2.669681
-4.870968
-11.147067
-16.951638
-22.777643
-28.555108
-33.475882
-38.232125
-42.282339
-45.728960
-49.713613
-52.662861
-55.893260
-58.865833
-61.084151
-64.141194
-67.407525
-70.850049
-74.976539
-78.701789
-82.691171
-86.248424
-89.079475
-91.132632
-93.024096
-93.659835
-93.933104
-93.379939
-92.880042
-89.138395
-84.327933
-75.379001
-61.826690
-46.982408
-29.327244
-18.433262
-3.727033
5.203933
14.786401
21.508187
25.984546
31.624594
35.186896
42.918242
44.048523
48.404794
48.363822
47.856366
45.605898
40.437068
36.497172
33.969336
32.289996
32.855453
37.984890
41.780434
48.321300
53.414805
59.093936
63.727260
68.018601
72.026585
74.795549
74.939280
73.415014
69.815525
64.020725
58.326785
50.212802
42.403294
33.243505
24.628681
15.287656
7.905864
-1.866029
-6.927063
-15.883554
-21.325970
-29.744113
-37.166565
-31.687581
-35.675071
-35.799884
-38.732427
-40.951375
-41.984256
-43.730102
-43.684711
-44.086893
-43.506622
-42.305107
-40.552637
-36.920362
-32.872034
-27.804690
-23.678510
-18.404715
-15.985299
-9.736301
-6.663492
-3.015142
1.990109
3.834930
9.904584
6.565759
12.804041
13.795322
14.987696
15.312662
14.982659
15.858580
15.096764
16.702355
15.459871
16.845143
15.630396
17.044035
18.754269
22.196798
26.700894
32.285468
38.414693
44.160960
49.097814
52.969635
55.023114
56.024481
56.303429
55.957036
54.432140
52.090267
48.763104
44.589966
39.135887
32.482189
26.011301
21.299500
18.079187
15.540003
15.325361
16.906051
19.486846
22.611346
24.874112
25.293005
27.190779
27.424024
29.587189
28.656745
27.785242
31.182384
30.710860
31.886529
31.312252
29.674833
28.183347
24.065053
18.735475
12.854312
6.585147
-0.481768
-5.527358
-10.940777
-14.712360
-19.144586
-23.090156
-26.116941
-29.838725
-33.075428
-38.399647
-41.139608
-47.177106
-53.089789
-56.796128
-59.531361
-62.878696
-66.243367
-68.174230
-71.462940
-73.507272
-75.636390
-76.433508
-76.543822
-75.516924
-73.237453
-70.162752
-66.063678
-61.049917
-55.994236
-50.232524
-44.186825
-37.928055
-32.868907
-29.139553
-26.431106
-23.187462
-21.273614
-18.885402
-13.621063
-8.343486
-7.354096
-4.941614
-1.156156
-0.143757
2.026343
1.166187
3.055135
0.706328
-2.380344
-4.204357
-10.830003
-17.125644
-22.458689
-28.122685
-31.373887
-33.344464
-34.646519
-33.774065
-32.157757
-29.828486
-26.902872
-23.183604
-19.791190
-14.987032
-11.614790
-7.178461
-3.822924
1.433850
4.036707
7.240321
9.796531
8.967579
12.815760
11.142094
10.295491
10.021277
7.783102
6.947216
8.222486
9.709249
12.746441
17.088844
19.532845
23.821349
26.558794
28.344990
29.965710
30.543460
30.220391
29.390808
28.594006
28.582662
29.133621
30.455539
32.196977
33.524884
35.274202
36.505344
37.611041
38.102743
38.716425
38.655911
38.344819
38.090462
37.665586
38.299755
39.044557
40.301861
41.770658
43.033005
44.612119
45.404199
45.770771
45.454951
44.653421
43.719825
42.373644
40.610463
37.808409
34.028946
28.591573
21.874205
14.241835
7.682064
1.803737
-3.816448
-9.593913
-15.071315
-20.620582
-25.974429
-30.536514
-33.806312
-36.293489
-37.631161
-38.180537
-39.105938
-38.409361
-37.963991
-36.555711
-34.720976
-33.124526
-31.204373
-28.880145
-27.759005
-26.560957
-24.508424
-23.121262
-21.496444
-19.751224
-19.019975
-18.591942
-19.170946
-19.605278
-20.439273
-20.434542
-20.114934
-20.281353
-19.837875
-18.713267
-16.953863
-15.044742
-11.805197
-9.814757
-5.490005
-1.827157
2.787256
6.863636
11.582693
15.387063
19.646885
24.643940
27.232930
30.666319
32.676616
34.716541
35.024802
36.179037
35.323609
34.435401
32.382559
28.177902
23.585873
17.825744
13.089042
9.928300
8.421371
8.132658
8.624675
8.551554
9.368849
10.502283
11.949332
14.801191
17.019200
18.403841
18.866230
18.191092
15.850165
11.756140
5.034990
-3.633101
-13.209890
-24.252636
-33.885214
-42.825000
-51.097525
-59.204889
-66.712443
-72.932122
-77.786075
-81.014583
-82.287955
-82.150214
-79.314744
-74.386715
-67.473923
-59.004712
-49.516802
-40.393884
-30.919526
-21.565257
-13.247969
-3.968085
2.901841
11.511312
17.832804
25.109328
30.417478
35.475051
38.003524
37.833008
42.685391
39.452785
40.684243
42.460037
40.476853
43.372524
45.252331
45.191818
48.208522
50.425901
49.385455
53.276187
53.267995
53.428431
53.713682
51.224299
49.840295
46.542129
43.676722
40.472169
37.281484
33.710362
29.905053
23.624226
17.211018
9.616472
1.776390
-5.286112
-11.629662
-17.640054
-23.139520
-27.589712
-32.495672
-34.893964
-37.967398
-39.476534
-39.912757
-40.043559
-38.695165
-35.284154
-31.625088
-26.931562
-20.441757
-12.662502
-4.908778
1.473547
6.778545
10.404201
14.871104
18.684614
23.785368
28.451788
31.876666
35.356073
37.256053
38.922476
38.878667
37.409875
34.708999
29.585241
22.309669
12.914431
2.085699
-9.304704
-18.918685
-26.830630
-34.204858
-40.984634
-45.755061
-50.057743
-51.393839
-51.298332
-50.905600
-46.836470
-39.880811
-30.512043
-18.540735
-7.208321
1.861645
9.287570
16.110848
21.633329
23.917843
25.522173
24.151406
22.948952
18.581025
16.241043
12.944768
8.554148
7.025785
2.905914
-0.249785
-2.938054
-6.808608
-8.798412
-10.262475
-13.249231
-11.587852
-13.414701
-12.511043
-12.054642
-12.743964
-12.802587
-15.367931
-16.576689
-20.146550
-22.666506
-26.906150
-29.882190
-33.250958
-37.619831
-40.659854
-43.901285
-46.705229
-48.915667
-49.285700
-48.457688
-45.095848
-40.421863
-34.080199
-27.409474
-20.740955
-14.833625
-9.985339
-5.381958
-3.551636
-2.349491
-2.952765
-3.423659
-5.263431
-7.167503
-8.420388
-9.627885
-10.571567
-11.567886
-10.192070
-10.018712
-8.262459
-4.964918
-3.821714
-0.321190
2.196567
3.723990
7.887993
10.656012
15.070278
18.363721
21.980867
25.317492
28.375171
30.903959
33.289650
35.331151
35.835461
36.938951
35.881485
35.428557
34.586682
33.704463
32.330229
30.407561
27.969555
24.518836
19.031348
13.178867
6.417057
-0.788228
