EVENT_NAME: 202010301151
EVENT_ID: 10614
EVENT_DATE_YYYYMMDD: 2020/10/30
EVENT_TIME_HHMMSS: 11:51:24.00000
EVENT_LATITUDE_DEGREE: 37.879
EVENT_LONGITUDE_DEGREE: 26.703
EVENT_DEPTH_KM: 16.54
HYPOCENTER_REFERENCE: AFAD
MAGNITUDE_W: 6.6
MAGNITUDE_W_REFERENCE: AFAD
MAGNITUDE_L: 
MAGNITUDE_L_REFERENCE: 
FOCAL_MECHANISM: 
NETWORK: TK
STATION_CODE: 3521
STATION_NAME: 
STATION_LATITUDE_DEGREE: 38.46792
STATION_LONGITUDE_DEGREE: 27.07636
STATION_ELEVATION_M: 1.0
LOCATION: -_-_-
SENSOR_DEPTH_M: 
VS30_M/S: 145
SITE_CLASSIFICATION_EC8: D
MORPHOLOGIC_CLASSIFICATION: 
EPICENTRAL_DISTANCE_KM: 73.17
EARTHQUAKE_BACKAZIMUTH_DEGREE: 
DATE_TIME_FIRST_SAMPLE_YYYYMMDD_HHMMSS: 2020/10/30 11:51:11.3160460
DATE_TIME_FIRST_SAMPLE_PRECISION: millisecond
SAMPLING_INTERVAL_S: 0.01
NDATA: 10501
DURATION_S: 
STREAM: HNZ
UNITS: cm/s^2
INSTRUMENT: sensor = CMG-5T/GURALP | digitizer = 
INSTRUMENT_ANALOG/DIGITAL: 
INSTRUMENTAL_FREQUENCY_HZ: 
INSTRUMENTAL_DAMPING: 
FULL_SCALE_G: 
N_BIT_DIGITAL_CONVERTER: 
PGA_CM/S^2: 41.203
TIME_PGA_S: 
BASELINE_CORRECTION: BASELINE REMOVED
FILTER_TYPE: BUTTERWORTH
FILTER_ORDER: 
LOW_CUT_FREQUENCY_HZ: 
HIGH_CUT_FREQUENCY_HZ: 
LATE/NORMAL_TRIGGERED: 
DATABASE_VERSION: 
HEADER_FORMAT: DYNA 1.2
DATA_TYPE: Acceleration
PROCESSING: Manual Paolucci et al., 2011
DATA_TIMESTAMP_YYYYMMDD_HHMMSS: 
DATA_LICENSE: U (unknown license)
DATA_CITATION: Turkish Accelerometric Archive v 1.0 - Disaster And Emergency Management Presidency, Earthquake Department
DATA_CREATOR: AFAD
ORIGINAL_DATA_MEDIATOR_CITATION: : AFAD - Disaster And Emergency Management Presidency
ORIGINAL_DATA_MEDIATOR: AFAD PROCESS SERVICE
ORIGINAL_DATA_CREATOR_CITATION: AFAD PROCESS SERVICE
ORIGINAL_DATA_CREATOR: network: TK
USER1: GuestUser
USER2: 
USER3: 
USER4: 
USER5: 
[...]
0.008719
0.013419
0.020938
0.020312
0.023759
0.031278
-0.007259
0.032532
0.006527
0.023446
0.019687
-0.012271
0.049765
0.015301
0.034413
0.031907
0.003396
0.024075
-0.034514
0.006843
0.009976
0.032535
0.035982
0.000264
-0.013835
-0.032633
-0.022294
-0.058638
-0.005061
-0.011014
-0.023233
0.001206
-0.009447
-0.016339
-0.051430
-0.028871
0.005906
0.024392
0.020006
0.012173
0.030346
-0.012578
-0.003492
0.049145
0.044445
0.031913
0.057918
0.028467
0.017501
-0.009756
-0.018842
0.003090
-0.026361
-0.030434
-0.036700
-0.000356
0.018756
0.003404
-0.009441
-0.038266
-0.023540
0.017817
0.007792
0.013118
0.002779
0.039750
0.025025
-0.007560
0.041004
0.071395
0.035051
0.007480
0.013120
-0.008812
0.000588
-0.016017
-0.000665
-0.000978
-0.029489
-0.003484
-0.003484
-0.001604
0.004976
-0.020089
0.029101
-0.010689
-0.032621
0.000277
0.028789
0.043515
0.009364
0.025343
-0.018834
0.003412
0.017511
0.039130
0.018451
-0.000347
0.008739
-0.020712
-0.008806
0.006860
0.014379
-0.014445
-0.004419
-0.003479
-0.011625
-0.035123
-0.019770
-0.006611
-0.003791
-0.008490
0.008742
0.004356
0.056052
0.040387
-0.004416
0.049473
0.013129
0.000597
-0.009115
0.009370
-0.022901
-0.006295
0.024723
0.000598
-0.006921
-0.014440
-0.037625
-0.007860
0.035064
0.018145
0.048850
0.019712
0.010626
0.010626
-0.021644
-0.008485
0.000288
-0.035116
-0.031043
0.017521
-0.019763
-0.010677
-0.012557
-0.036368
-0.002530
-0.015689
-0.011929
-0.014436
0.030055
0.041961
0.033815
0.043841
0.004364
-0.004095
-0.001588
0.022537
0.014704
0.021911
0.035697
0.032250
0.014705
0.003739
0.002800
-0.026025
-0.014119
-0.010359
0.017213
0.035072
0.010947
0.007814
0.008128
0.003741
-0.041375
-0.005031
0.000609
-0.011923
0.051992
0.001236
-0.000017
-0.000017
-0.015682
-0.017562
-0.039180
-0.000016
0.025049
0.034135
0.047921
0.050428
0.009071
-0.011607
-0.006594
-0.020380
-0.029779
-0.029152
0.022858
0.072675
0.068602
0.066409
0.025992
-0.015365
-0.054529
-0.086173
-0.036356
-0.008471
-0.018497
0.021607
0.049805
0.028500
0.010642
0.021921
0.025368
-0.005963
-0.005650
0.033828
0.045734
0.023802
0.016596
-0.019748
-0.018494
-0.000322
-0.027893
-0.010347
-0.035412
-0.029459
0.001872
-0.047944
-0.051390
-0.008153
0.004066
0.024745
0.021299
0.018479
0.010333
-0.021937
0.007201
-0.020684
-0.003765
0.023180
0.007202
0.027567
0.030387
0.077071
0.054512
0.027568
0.026941
-0.007523
-0.034154
-0.044180
-0.022248
-0.011595
-0.019114
-0.010968
0.016604
0.020050
0.011905
0.001252
0.004385
0.001566
0.003446
-0.019739
-0.024125
-0.029138
-0.030078
0.021306
0.057650
0.078642
0.063290
0.045745
0.032273
0.003761
-0.018170
0.002195
-0.019110
-0.033208
-0.008143
-0.000310
0.014729
0.027575
0.028515
0.015356
-0.001249
-0.018168
-0.034460
-0.017541
-0.017854
-0.034773
0.000005
0.035723
0.022564
-0.009080
-0.014406
-0.002814
-0.018479
-0.010646
-0.020358
-0.024118
-0.001559
-0.005319
0.041678
0.023193
0.006274
-0.005945
0.001262
0.027580
0.021314
0.026327
0.030087
0.017242
0.016615
0.059539
0.046380
0.013796
0.026015
0.007217
-0.052625
-0.062338
-0.038213
0.001265
-0.000302
-0.011267
0.015051
0.024764
0.017245
0.043563
0.052963
0.031344
0.000013
-0.012206
-0.010012
-0.016905
0.010980
0.031032
0.012234
-0.010324
-0.013457
-0.015337
-0.012204
-0.032255
-0.005624
-0.010010
-0.025675
-0.039147
-0.056693
-0.037894
-0.019408
-0.001863
0.032602
0.040435
0.004718
-0.026927
-0.023793
0.021637
0.030097
0.049836
0.008792
0.011925
0.038870
0.049210
0.015686
0.002213
0.044197
0.038871
0.013807
-0.024417
-0.001545
0.016314
0.044512
0.058611
0.044826
0.045766
0.015061
0.000963
0.031041
-0.007810
-0.061699
-0.063892
-0.088017
-0.067965
-0.026607
-0.017521
0.041382
0.032922
0.033549
0.012558
-0.030366
-0.022533
-0.023473
0.012872
0.008486
-0.001540
-0.002167
-0.000600
0.057363
0.046397
-0.016265
-0.063261
-0.041329
-0.007178
-0.001852
0.020080
-0.006551
0.013815
0.010055
0.031360
0.055172
0.063632
0.048280
0.001597
-0.005609
0.024469
0.015070
0.018203
0.015383
0.026349
0.071467
0.046402
0.010371
-0.033179
-0.064823
-0.097721
-0.042264
-0.025345
-0.012186
-0.013126
-0.030358
0.026979
0.052044
0.020399
-0.003412
-0.015631
-0.020644
-0.010618
-0.008424
-0.010304
-0.002784
-0.009050
-0.009050
0.048600
0.070845
0.046407
0.020402
-0.016255
-0.039127
-0.014688
-0.009362
-0.010928
-0.015941
0.043589
0.069594
0.052675
0.008185
-0.007794
-0.022519
-0.014373
0.043903
0.045470
0.073042
0.057063
0.028865
0.004740
0.027926
0.013200
0.005994
-0.026903
-0.052595
-0.056667
-0.058234
-0.043195
-0.002777
0.015082
-0.042567
-0.061679
-0.077658
-0.023768
0.017589
0.052367
0.066466
0.017903
-0.038493
-0.030346
-0.012801
0.027303
0.044849
0.009758
-0.030972
-0.074522
-0.043191
-0.013739
0.015712
0.049550
0.064589
0.049551
0.046731
0.034825
0.019473
0.041405
0.047672
0.041092
0.016341
0.009135
0.026054
0.018221
-0.010916
-0.017809
-0.009349
-0.003083
-0.002143
-0.000889
-0.003082
-0.000889
-0.004962
-0.033786
-0.023133
-0.025640
-0.037859
-0.028772
0.004752
0.021358
0.005066
-0.020312
-0.013732
0.013213
0.021359
0.030445
0.016660
0.000054
-0.000259
0.002561
0.005694
0.030133
0.038906
0.043919
0.054885
0.036713
0.008829
-0.008403
-0.033468
-0.019055
-0.011849
-0.009656
-0.003076
-0.024067
-0.016234
-0.004328
0.006638
0.011651
-0.024693
-0.050071
-0.022813
0.014158
0.025751
0.024185
0.034837
0.017605
0.000374
0.003820
0.010713
0.010713
0.018860
0.011027
0.018234
0.044239
0.043299
0.020114
-0.012784
-0.024689
-0.034402
-0.021242
-0.004950
0.011656
0.005703
-0.014349
-0.019675
-0.013095
0.005391
0.023250
0.017610
0.003825
0.015417
0.022310
0.030143
0.031084
0.029831
0.019491
0.013225
0.003200
0.001007
-0.001500
-0.008079
-0.000559
0.001008
-0.011525
-0.046302
-0.042542
-0.018730
0.000382
0.010721
-0.000558
-0.000557
0.001009
0.006336
0.020748
0.022002
0.016989
0.006023
-0.008075
-0.013715
-0.016534
-0.005255
0.007278
0.011978
0.002578
-0.009954
-0.014653
-0.008700
0.007279
0.010412
0.030151
0.042370
0.044877
0.048637
0.039865
0.022006
0.016680
0.018560
0.009161
-0.006191
-0.030943
-0.038775
-0.034075
-0.023736
-0.012143
-0.012143
-0.012143
-0.012769
-0.015589
-0.014335
0.001957
0.012923
0.010417
0.016370
0.028589
0.025143
0.011671
0.005092
0.001332
0.002899
0.003212
-0.009007
-0.012766
0.013866
0.023265
0.024205
0.013240
0.007600
0.009480
0.012300
0.019507
0.024520
0.017941
-0.003051
0.000082
0.014495
0.020761
0.008542
0.001336
-0.007750
-0.010256
-0.005869
-0.002736
-0.003049
-0.009315
-0.013701
-0.015894
-0.015581
-0.015267
0.003218
0.025150
0.015125
0.006352
0.007606
0.001340
-0.010253
-0.006493
0.018886
0.022332
0.011993
0.010113
0.011367
0.014814
0.027346
0.024527
0.006355
-0.003671
-0.019336
-0.034062
-0.036255
-0.011816
0.008236
0.000717
-0.006489
-0.006489
0.005417
0.016696
0.022963
0.019203
0.023276
0.014817
-0.005548
-0.007114
0.001972
0.006672
-0.006800
-0.018393
-0.029672
-0.024658
-0.020898
-0.016512
0.008240
0.025786
0.035498
0.037065
0.031739
0.017954
0.014194
0.012314
0.006048
0.000722
-0.008364
-0.006170
0.007616
0.011376
0.012003
0.010436
-0.011809
-0.028414
-0.025594
-0.022774
-0.003662
0.024223
0.038636
0.031116
0.002605
0.004172
0.016391
0.016705
0.015452
0.017645
-0.002093
-0.017132
-0.004599
0.008560
0.000727
-0.007418
-0.000839
-0.002092
0.008561
0.010754
0.001355
0.012008
0.024227
0.009815
0.005116
0.000416
-0.010863
-0.013369
-0.003343
0.012636
0.017023
0.018590
0.018277
0.011384
0.006371
-0.006788
-0.030599
-0.034985
-0.016813
0.001986
0.021411
0.036764
0.026111
0.013892
0.010133
0.012326
0.021413
0.032379
0.047731
0.037392
0.012954
-0.013991
-0.035922
-0.039995
-0.039682
-0.029029
-0.014930
-0.012110
-0.020255
-0.028088
-0.025268
-0.016495
0.003557
0.019850
0.020790
0.009824
-0.004901
-0.002708
0.009825
0.026117
0.039590
0.041156
0.024238
0.008259
-0.003960
0.001367
0.003247
-0.000200
0.012333
0.019853
0.041472
0.051811
0.041159
0.024240
0.015154
0.014841
0.029254
0.049619
0.061212
0.059959
0.048366
0.079698
0.111656
0.140481
0.163353
0.172752
0.166799
0.128262
0.074373
0.017350
-0.005521
-0.001448
0.023617
0.065915
0.116358
0.125444
0.106332
0.083148
0.051503
0.014846
-0.007086
0.002627
0.070616
0.184662
0.266436
0.308734
0.337872
0.403981
0.441892
0.396148
0.294009
0.158972
0.000436
-0.189430
-0.447286
-0.757464
-1.016259
-1.167902
-1.158816
-0.980228
-0.676629
-0.347651
-0.039666
0.279286
0.573486
0.722936
0.707270
0.604191
0.468214
0.314691
0.135791
0.034591
0.038038
0.025192
-0.071308
-0.184413
-0.290625
-0.377726
-0.432555
-0.459186
-0.534068
-0.675371
-0.697303
-0.507122
-0.259606
-0.175638
-0.232974
-0.248326
-0.174698
-0.146186
-0.185976
-0.102635
0.195011
0.507070
0.632708
0.688791
0.862992
1.016829
0.976412
0.836361
0.784352
0.893385
1.006804
0.892132
0.462268
-0.191300
-0.868679
-1.534780
-2.213099
-2.548342
-2.041404
-0.641527
1.044090
2.297650
2.885110
2.929600
2.560832
1.963347
1.304140
0.510521
-0.531866
-1.650075
-2.422702
-2.568078
-2.281398
-1.964953
-1.529763
-0.579488
0.901850
2.247837
2.827777
2.726891
2.332745
1.845545
1.121482
0.070948
-1.073892
-1.851532
-1.848085
-1.198903
-0.496145
0.029593
0.538411
1.026551
1.336103
1.282840
1.018405
0.919712
0.830105
0.373297
-0.300636
-0.820420
-1.211119
-1.823330
-2.782690
-3.586335
-3.659336
-3.184669
-2.693709
-2.132881
-1.146262
0.208811
1.445139
2.145077
2.305807
1.986229
1.104257
-0.123925
-1.027829
-1.161299
-0.741148
-0.197239
0.564735
1.737461
2.837185
2.990082
2.247533
1.311671
0.195029
-1.264064
-2.633235
-3.186544
-2.684931
-1.496853
-0.134887
1.189795
2.560533
3.992368
4.924784
4.683534
3.308723
1.220814
-1.112418
-3.090354
-4.167833
-4.090445
-2.723466
-0.306266
2.368163
4.529387
5.692087
5.763835
4.923533
3.293373
1.307290
-0.228876
-0.950433
-1.181657
-1.197949
-0.992729
-0.896229
-1.451417
-2.358454
-2.634482
-2.122530
-1.649430
-1.291627
-0.066579
1.993446
3.333793
2.686805
0.370179
-2.404509
-4.566046
-5.391622
-4.785677
-3.325331
-1.458934
0.913776
3.525542
5.298573
5.157270
3.184033
0.717331
-1.045674
-1.993128
-2.514792
-2.855362
-3.108831
-3.362300
-3.631121
-3.632060
-3.084705
-2.087434
-1.017474
-0.248294
0.069091
0.124861
0.145227
-0.217902
-1.175068
-2.079286
-2.480638
-2.708102
-2.733793
-1.937041
-0.218527
1.807033
3.342887
4.079483
4.275930
4.093896
3.566906
2.883887
1.927033
0.497706
-0.947914
-1.906648
-2.719378
-3.540568
-3.421822
-1.810460
0.486115
2.313035
3.211926
3.342578
2.961278
2.422068
1.841815
0.733006
-1.153444
-3.183390
-4.227971
-3.424013
-1.148743
1.364643
3.262685
4.419432
5.419210
6.471624
6.971983
6.589430
5.813357
5.153523
4.419120
2.893606
0.366434
-2.289508
-3.972932
-3.937214
-2.448983
-0.511464
1.396291
3.080028
3.955421
3.806598
2.904574
1.544175
0.070984
-0.981743
-1.197615
-0.659345
0.162158
0.422207
-0.318775
-1.415365
-1.785386
-1.565441
-1.866220
-2.620988
-2.725634
-2.177651
-1.822669
-1.906323
-2.007836
-1.682931
-1.160327
-1.021843
-1.405337
-1.778804
-1.444500
-0.441276
-0.010472
-1.022782
-2.663908
-3.657733
-3.974491
-4.203521
-3.988589
-2.975339
-1.975248
-1.738384
-1.943290
-2.070181
-2.364380
-3.189016
-4.092294
-4.345449
-3.870469
-3.029227
-1.777860
0.130522
2.607878
5.038863
7.021186
8.512550
9.017295
7.945143
5.544236
2.734144
-0.091614
-2.725938
-4.317875
-4.107016
-2.512259
-1.122722
-1.001470
-1.457965
-1.554151
-1.364911
-1.216088
-0.709149
0.621799
2.114416
2.612895
2.026689
1.492806
1.561735
2.050815
3.066885
4.577047
5.747267
5.807736
5.182679
4.610572
3.887449
2.230344
-0.388315
-3.250417
-5.662603
-6.991671
-7.064672
-6.627289
-6.285779
-5.507826
-3.267021
0.331364
3.792832
5.712492
5.665809
4.256220
2.398282
0.892193
0.258364
0.643111
2.025755
4.292566
6.749556
8.693655
10.263033
10.822608
8.942738
4.925770
0.794129
-2.101184
-3.643304
-4.479533
-5.133727
-5.341139
-4.217290
-0.961982
4.379356
10.705745
16.260135
19.960659
21.640950
21.551030
19.845048
16.325931
11.730903
7.862130
5.257884
2.989821
0.463276
-2.195487
-4.680048
-7.213486
-10.499499
-14.262685
-17.126040
-18.024305
-16.889490
-14.498295
-11.723920
-9.013773
-6.069583
-2.229322
1.608746
3.554725
3.195983
1.588695
-0.552477
-4.181566
-10.371038
-17.755794
-22.946428
-23.568351
-19.538223
-12.394717
-4.135508
3.410918
8.426098
9.920595
8.794866
6.939121
4.897896
1.528229
-4.094149
-10.850402
-16.760399
-21.197519
-24.195912
-25.003629
-23.002820
-19.022509
-14.743298
-10.665233
-6.094955
-1.650942
1.501913
4.030965
7.056616
9.809686
11.148781
11.564859
11.819895
11.846213
12.271691
14.275319
16.422131
14.827061
8.766674
1.976270
-2.521006
-4.812254
-6.266333
-6.825907
-5.244936
-1.800074
1.176073
2.510468
3.518705
5.032314
6.161490
6.685347
8.100263
10.875578
12.327777
9.225992
1.470588
-9.172609
-19.957423
-26.654460
-27.142599
-23.521343
-18.869917
-14.101000
-8.530005
-1.963932
5.276074
13.091007
19.678385
21.972454
19.427423
14.496838
9.915281
7.257459
7.208895
9.711316
14.314178
20.119530
26.778030
34.624294
41.202587
40.598835
30.841997
17.337637
4.158808
-8.809788
-19.521288
-23.758201
-19.845878
-10.323709
0.881256
10.478306
15.908311
17.113308
15.198347
10.703578
4.612799
-1.925075
-7.927813
-12.708009
-15.331054
-14.090653
-9.749406
-6.280419
-5.551656
-5.205447
-3.099365
-0.672453
-0.485406
-1.687269
-2.208933
-3.287978
-5.836142
-8.432242
-10.692785
-13.153535
-14.833825
-14.171484
-12.122112
-9.799533
-5.438547
0.848678
4.409152
2.591318
-2.585844
-9.330191
-17.097500
-24.789928
-30.743790
-33.883486
-33.644742
-30.348703
-26.093617
-23.016270
-21.229453
-19.524097
-16.724657
-11.374234
-2.784167
7.164418
13.975501
14.166621
10.345786
7.694543
7.099564
7.124942
8.188949
11.884774
17.196347
20.469201
20.205079
19.316214
19.109115
15.485979
5.832534
-6.704319
-17.330911
-24.795248
-30.414806
-32.795035
-27.428632
-13.211488
3.633087
15.641697
22.087772
25.434567
24.517191
17.953625
7.332673
-5.423185
-17.453727
-25.119523
-27.423304
-26.365563
-23.500328
-18.174969
-10.239724
-0.167067
11.817731
24.077931
32.902981
34.764052
30.966402
26.210957
22.256024
17.521572
11.323641
5.488524
1.722831
0.722741
3.767504
10.935135
18.167935
19.313403
12.838504
3.697323
-2.920133
-5.162191
-4.277085
-3.083367
-2.575802
-1.589184
1.748839
8.794592
17.953319
25.439589
28.507850
27.076016
22.107206
13.499595
2.970130
-5.742441
-11.461632
-15.479854
-17.491315
-15.624290
-10.140083
-4.083768
0.381864
4.014399
7.301666
9.264877
10.531596
12.717258
15.607559
16.412770
12.555590
5.763933
0.081713
-4.007944
-9.897263
-18.588216
-27.042618
-32.798466
-36.349227
-37.583048
-34.086490
-26.170044
-17.129748
-9.497789
-4.435925
-1.795961
-1.181870
-1.914393
-2.481173
-1.891520
0.556697
5.457519
11.765423
15.240989
11.167311
1.064263
-7.959739
-12.140570
-14.244145
-16.934552
-18.367952
-16.122134
-11.920938
-8.415293
-4.053055
3.199171
11.170760
16.376434
17.560125
15.328407
10.849930
5.104734
-0.278587
-2.073863
0.738423
4.009710
4.410123
4.329915
4.778264
2.993015
-0.492577
-3.160739
-4.743590
-5.636528
-4.137958
0.762550
5.680604
6.657196
3.564810
-2.273752
-9.765348
-15.425009
-15.788137
-11.432478
-4.726042
2.268015
8.280153
12.723539
14.377512
12.158952
6.569785
-0.833456
-8.779667
-15.970169
-20.983469
-22.948873
-21.259810
-15.412787
-6.168526
5.167404
15.918068
23.257394
26.617662
25.312719
19.681882
11.538285
2.630521
-4.957888
-9.535371
-9.895993
-6.163510
-1.091308
3.788209
9.018321
14.022222
17.156278
18.133184
17.209228
12.308407
2.724830
-7.698109
-13.863143
-14.803391
-12.175019
-5.102634
6.908796
19.349149
26.252345
27.355516
26.579130
25.214031
21.846557
16.509607
11.682414
8.886421
6.623997
2.313142
-5.200072
-14.466577
-22.160259
-25.029567
-22.469497
-16.928580
-11.618887
-7.103752
-2.900989
1.156084
5.544641
8.649247
7.900119
3.881897
-0.466556
-4.644254
-10.771690
-19.591413
-26.846771
-28.339701
-25.147368
-20.045401
-14.053315
-8.090994
-4.750464
-4.702214
-5.195993
-5.842982
-8.162114
-9.953004
-8.730461
-6.402869
-5.471706
-3.553612
2.164013
9.682867
14.670475
15.661167
13.827981
10.674812
7.840282
4.346230
-1.398966
-7.662692
-11.617939
-12.994317
-13.760364
-14.799618
-15.055594
-13.749084
-10.617220
-6.195139
-2.311641
0.687066
3.552614
5.310293
5.458176
4.228115
2.061252
1.661153
5.110401
10.896015
16.029000
18.662072
18.193984
15.657100
12.108219
7.347761
1.323091
-4.540850
-7.515744
-7.427703
-6.235552
-4.927789
-3.342431
-0.970349
1.091556
0.150994
-2.411895
-1.362927
4.187389
10.169449
13.903185
15.935324
16.051563
12.500176
5.100381
-3.544201
-9.557592
-11.529576
-12.234840
-12.389616
-9.108616
-1.955083
5.741418
10.812054
12.706964
12.507384
11.193042
8.140760
2.448514
-5.078486
-11.768943
-14.920545
-13.970584
-10.211784
-3.133759
8.328122
20.321380
27.233975
27.892557
24.128430
16.963933
7.013781
-2.971149
-10.119981
-13.161611
-11.962567
-9.112997
-8.275514
-11.032657
-15.926585
-21.114086
-25.370112
-26.806646
-23.939530
-16.961139
-7.456516
2.356092
10.230242
15.170227
17.239024
16.440706
13.268112
10.254994
9.206654
8.522381
6.355518
3.544799
2.898124
5.268327
7.944635
8.122910
6.426327
5.407125
4.965669
2.726744
-0.845322
-3.487480
-5.787500
-8.860774
-10.902000
-9.808542
-5.907498
-0.365328
5.648064
10.774783
14.102153
14.971593
13.776623
11.842863
9.194440
4.757947
-1.500141
-8.110077
-15.247003
-23.647515
-31.075508
-34.918276
-33.032766
-23.864953
-10.136262
3.309822
14.243773
22.689089
28.576843
28.788328
20.499041
7.294835
-5.419040
-15.683130
-22.591339
-25.101905
-23.544746
-19.101673
-12.476071
-5.881173
-0.313938
5.523059
10.700221
13.200449
12.911262
11.099068
8.278323
4.407984
-0.291064
-3.708668
-4.037331
-2.090413
0.852211
3.838071
5.610162
6.071671
6.913853
8.292111
8.349760
6.231774
4.013527
2.828896
-0.177643
-6.037197
-11.235038
-12.896216
-11.150130
-8.196540
-4.728180
-0.472781
3.581786
5.908439
5.740190
4.677751
3.197667
-0.694604
-7.036659
-12.014554
-12.246718
-7.551743
-0.516329
5.451319
7.910816
6.841796
3.821472
1.185581
1.215033
2.709843
1.799046
-2.577291
-7.130963
-9.888732
-12.569426
-17.251242
-23.222336
-26.630227
-23.298784
-14.414204
-4.681177
5.174042
17.640400
31.364705
39.203763
36.754293
29.276483
24.973461
23.824860
19.731757
11.405186
3.951502
2.105469
4.001319
4.530816
2.708282
1.238224
1.919990
3.427646
4.184920
3.285403
0.361892
-3.691421
-8.551198
-14.351850
-18.791163
-18.238168
-12.156475
-4.262587
2.566041
8.960106
14.431781
16.034057
13.760355
10.248444
6.037849
0.804604
-4.439920
-8.472554
-11.724102
-16.012086
