EVENT_NAME: 202010301151
EVENT_ID: 10614
EVENT_DATE_YYYYMMDD: 2020/10/30
EVENT_TIME_HHMMSS: 11:51:24.00000
EVENT_LATITUDE_DEGREE: 37.879
EVENT_LONGITUDE_DEGREE: 26.703
EVENT_DEPTH_KM: 16.54
HYPOCENTER_REFERENCE: AFAD
MAGNITUDE_W: 6.6
MAGNITUDE_W_REFERENCE: AFAD
MAGNITUDE_L: 
MAGNITUDE_L_REFERENCE: 
FOCAL_MECHANISM: 
NETWORK: TK
STATION_CODE: 3521
STATION_NAME: 
STATION_LATITUDE_DEGREE: 38.46792
STATION_LONGITUDE_DEGREE: 27.07636
STATION_ELEVATION_M: 1.0
LOCATION: -_-_-
SENSOR_DEPTH_M: 
VS30_M/S: 145
SITE_CLASSIFICATION_EC8: D
MORPHOLOGIC_CLASSIFICATION: 
EPICENTRAL_DISTANCE_KM: 73.17
EARTHQUAKE_BACKAZIMUTH_DEGREE: 
DATE_TIME_FIRST_SAMPLE_YYYYMMDD_HHMMSS: 2020/10/30 11:51:11.3160460
DATE_TIME_FIRST_SAMPLE_PRECISION: millisecond
SAMPLING_INTERVAL_S: 0.01
NDATA: 10501
DURATION_S: 
STREAM: HNN
UNITS: cm/s^2
INSTRUMENT: sensor = CMG-5T/GURALP | digitizer = 
INSTRUMENT_ANALOG/DIGITAL: 
INSTRUMENTAL_FREQUENCY_HZ: 
INSTRUMENTAL_DAMPING: 
FULL_SCALE_G: 
N_BIT_DIGITAL_CONVERTER: 
PGA_CM/S^2: 111.563
TIME_PGA_S: 
BASELINE_CORRECTION: BASELINE REMOVED
FILTER_TYPE: BUTTERWORTH
FILTER_ORDER: 
LOW_CUT_FREQUENCY_HZ: 
HIGH_CUT_FREQUENCY_HZ: 
LATE/NORMAL_TRIGGERED: 
DATABASE_VERSION: 
HEADER_FORMAT: DYNA 1.2
DATA_TYPE: Acceleration
PROCESSING: Manual Paolucci et al., 2011
DATA_TIMESTAMP_YYYYMMDD_HHMMSS: 
DATA_LICENSE: U (unknown license)
DATA_CITATION: Turkish Accelerometric Archive v 1.0 - Disaster And Emergency Management Presidency, Earthquake Department
DATA_CREATOR: AFAD
ORIGINAL_DATA_MEDIATOR_CITATION: : AFAD - Disaster And Emergency Management Presidency
ORIGINAL_DATA_MEDIATOR: AFAD PROCESS SERVICE
ORIGINAL_DATA_CREATOR_CITATION: AFAD PROCESS SERVICE
ORIGINAL_DATA_CREATOR: network: TK
USER1: GuestUser
USER2: 
USER3: 
USER4: 
USER5: 
[...]
3.645119
3.596219
4.088432
5.274751
6.448528
6.885565
6.942630
6.585239
5.909638
4.812998
3.406925
1.680449
-0.446377
-2.661924
-4.009998
-4.414415
-4.289632
-3.876109
-3.781736
-4.186153
-5.047350
-5.649590
-6.008235
-6.417982
-6.926483
-7.257853
-7.510846
-7.707094
-7.860706
-7.868536
-7.775417
-7.513945
-7.153405
-6.763708
-6.131357
-5.644473
-5.394287
-5.557304
-5.984294
-6.517875
-7.000356
-7.193155
-6.894690
-6.160135
-5.494239
-5.218032
-5.181031
-5.353139
-5.487626
-5.676350
-5.882944
-6.171677
-6.628764
-7.276462
-7.983414
-8.382501
-8.887867
-9.562528
-10.398957
-11.062958
-11.552022
-12.123225
-12.745530
-13.084737
-12.802887
-11.779593
-9.889764
-7.523092
-4.962045
-2.630798
-0.737522
0.933792
2.339879
3.363800
3.906488
4.561412
5.383121
6.230538
6.965093
7.870195
9.201354
10.070403
10.282968
10.309309
10.761394
11.097167
10.971458
10.500264
9.708039
8.702628
7.695024
7.047639
6.702161
6.521901
6.323145
5.833768
5.245008
4.829932
4.399494
3.984731
3.703836
3.980984
4.424603
4.682313
4.834372
4.715560
4.139654
3.183151
2.213167
1.045047
-0.467305
-1.879020
-2.712315
-3.355938
-4.057560
-4.774857
-5.112810
-4.875792
-3.991067
-2.401893
-0.929969
-0.117352
-0.344637
-1.700548
-3.635821
-5.521245
-6.763040
-7.530812
-7.895727
-7.816403
-7.575622
-7.084662
-6.717852
-6.221563
-5.432458
-3.868050
-1.716757
0.456795
2.525636
3.996618
5.121803
5.507110
5.356320
4.671942
3.422936
2.318144
1.991791
2.266743
2.642019
2.659896
2.447032
1.820338
0.431509
-1.283368
-3.097627
-4.166366
-4.798075
-5.203433
-4.910296
-3.849068
-2.771223
-2.112537
-1.688668
-1.625960
-1.687713
-1.793672
-1.563864
-1.270414
-1.224948
-0.749664
0.253566
1.552747
3.265443
5.274718
7.082407
8.702619
9.513669
9.711813
9.617455
9.246269
8.748114
8.123615
7.833628
7.447708
7.188131
7.015396
6.827612
6.417552
6.136030
5.971132
5.682086
5.422822
5.435997
5.939810
6.356782
6.553358
6.467151
6.175910
5.618815
5.051060
4.698059
4.779578
4.558562
3.781072
2.311044
0.127787
-2.269595
-4.510536
-6.042012
-7.239288
-7.936207
-8.408969
-8.554743
-8.729672
-9.073583
-9.262307
-9.396794
-9.136262
-8.459393
-7.295961
-5.969192
-4.615461
-3.542319
-2.755095
-2.171337
-1.635547
-1.288800
-0.896596
-0.518813
-0.567713
-1.459947
-3.354150
-5.749651
-8.580613
-11.318777
-13.743434
-15.355794
-16.281260
-16.647743
-16.566537
-16.453354
-16.355219
-16.105033
-15.740104
-15.298365
-14.239017
-11.891782
-8.348517
-4.592067
-1.133763
1.741418
4.285223
6.632458
8.931413
11.407813
13.987984
16.204800
17.634713
18.523827
18.858660
18.645482
18.183066
17.481758
16.572908
15.386917
13.987429
12.564427
10.739509
8.557193
6.339764
4.199772
2.273277
0.632075
-0.683708
-1.441447
-1.713251
-1.800712
-1.734241
-2.008866
-2.906744
-4.005579
-4.634154
-4.402465
-3.673553
-2.564985
-1.241978
-0.241569
0.379182
0.775776
1.480234
2.630185
4.130010
5.811983
7.147531
7.982721
8.012512
7.575803
6.573215
4.874954
2.620217
-0.088164
-2.488054
-4.951899
-7.491300
-9.789613
-11.748399
-13.111207
-13.943248
-14.501597
-14.449234
-13.597741
-12.206390
-10.413749
-8.617972
-6.514332
-4.087466
-1.689130
0.457148
2.047576
3.040147
3.484081
3.193780
1.890225
-0.280492
-2.469705
-4.290861
-5.458041
-5.907916
-5.550197
-4.216531
-2.521077
-1.254814
-0.923430
-1.470806
-2.337333
-3.102597
-3.824597
-4.061287
-3.954374
-3.684751
-3.446478
-3.297869
-3.200361
-3.344253
-3.724217
-4.259053
-4.878222
-5.657594
-6.364232
-6.833231
-7.146418
-7.415086
-7.225407
-6.394919
-5.173175
-3.300903
-1.253694
1.111411
3.556774
5.448483
6.885920
7.584108
8.540312
8.966689
8.999301
8.637521
7.795134
7.257790
6.290941
4.849756
3.498861
2.384664
1.544158
1.126574
0.801474
0.553811
-0.216155
-1.362957
-2.606947
-3.750927
-4.636891
-4.811507
-4.555051
-3.646187
-3.041424
-2.710667
-2.294636
-2.396832
-2.283022
-2.631321
-2.745744
-2.663911
-2.203676
-1.247785
0.128518
1.639630
2.877990
3.321610
2.772039
2.126222
1.799868
2.317789
3.194676
4.231764
5.162574
6.052942
7.085955
8.002970
8.932840
9.641060
10.316361
10.540840
9.943616
8.758252
7.085072
5.644827
4.562921
3.348402
2.150185
1.279896
0.523097
-0.922164
-2.837058
-4.403019
-5.005573
-4.691745
-4.101717
-3.364655
-2.753622
-2.156070
-1.543470
-0.545883
0.479919
1.390978
2.412705
3.266392
3.693710
3.597470
3.668016
3.996579
4.006305
3.481188
2.396460
0.858088
-1.102579
-3.019041
-4.618233
-6.000166
-7.288359
-8.055504
-8.161149
-7.958303
-8.329801
-9.030796
-8.873722
-8.280873
-7.019940
-6.316423
-5.100948
-4.057903
-2.954664
-1.425369
0.196411
2.100660
3.150289
4.653250
5.634221
7.090155
8.630423
10.192636
12.114442
13.230221
13.606124
13.587007
13.339030
12.717979
12.227348
11.692825
11.215675
11.003438
10.286140
9.311454
8.170609
6.779898
5.337145
3.302178
0.776258
-2.489852
-5.958802
-9.236825
-11.584987
-13.227757
-14.256366
-14.301191
-13.335582
-11.569902
-9.749673
-7.753879
-5.453670
-2.782895
-0.577679
1.365132
3.353402
5.050736
6.724558
8.273604
9.107854
9.195957
8.249799
6.495107
4.361071
1.602215
-1.238466
-4.012056
-6.449881
-8.123688
-10.029177
-12.061010
-14.286276
-16.349460
-18.018251
-19.404886
-19.825292
-19.180714
-17.793124
-16.013964
-13.768932
-11.463707
-8.342423
-5.080374
-1.838389
1.351867
4.244918
6.689654
9.072942
10.965592
12.410867
13.099649
13.043539
13.197165
12.193008
10.579081
8.066642
5.562981
3.019818
-0.008340
-2.815789
-5.490939
-7.836905
-9.501621
-10.218918
-10.062471
-9.668385
-8.630043
-7.223329
-5.984655
-4.490159
-2.736707
-0.102612
2.346513
4.719455
6.940034
9.029566
11.276792
12.830541
14.111852
14.527256
14.493718
14.300605
13.538162
12.265331
10.558918
8.933391
7.547383
6.185202
4.224222
2.261047
0.440518
-1.081552
-2.356264
-3.245990
-3.494594
-3.419346
-2.918981
-2.501382
-2.229251
-2.172185
-2.380347
-2.056800
-1.798777
-1.237592
-0.213043
1.375191
3.897050
6.446497
8.789970
10.599227
12.496266
14.086695
15.417226
16.586615
17.952573
19.396907
19.868116
19.331712
18.072675
16.182547
14.014026
12.421417
11.467108
10.234405
7.976534
5.265645
2.518075
-0.122902
-2.148464
-3.447317
-4.269953
-4.633614
-4.777506
-4.449257
-3.914093
-3.081725
-2.259075
-1.503515
-0.870851
-0.463598
-0.044745
0.019218
-0.357924
-0.939786
-0.933822
-0.720317
-0.688332
-0.879878
-1.135692
-1.618173
-2.377166
-3.357496
-4.460720
-5.528832
-6.158347
-5.974938
-5.452942
-4.914643
-4.578556
-4.745021
-5.477053
-6.695648
-7.623622
-7.865642
-7.524226
-6.487451
-4.919908
-3.116294
-1.899879
-1.198556
-0.866232
-0.819825
-1.270328
-1.739954
-1.779136
-1.734297
-1.876622
-2.228056
-2.422110
-2.367553
-2.161885
-1.730492
-1.044531
-0.561409
0.104487
1.287357
3.126083
5.270793
7.210782
8.496169
8.380178
6.687247
3.931213
1.001809
-1.437583
-3.212653
-4.361963
-5.118449
-5.694354
-6.296594
-6.967806
-7.713632
-8.137486
-8.019287
-7.405119
-6.637333
-5.769538
-4.620841
-3.393140
-2.009626
-1.244034
-1.326166
-1.597342
-1.964138
-2.310556
-2.239070
-1.462505
0.431399
2.930998
5.621524
8.500153
11.129545
13.223153
15.067523
16.622839
18.227375
19.332495
19.841952
19.968616
19.576112
18.895182
17.508860
15.435018
13.661828
11.938800
10.138963
8.118730
5.465840
3.532135
1.118451
-1.296801
-4.569181
-8.121837
-10.947156
-12.640088
-13.546743
-13.535763
-11.834980
-10.054879
-6.884374
-3.837078
-0.629892
3.384260
6.739421
10.019340
12.645910
14.278976
15.631766
16.186054
16.992715
17.011533
16.182627
15.529599
15.167192
15.312666
15.463784
16.033747
17.028199
18.138335
17.919828
16.306840
12.729104
7.206056
0.227708
-7.581434
-15.236645
-22.544489
-28.884537
-33.343542
-36.811237
-40.403081
-41.921075
-42.861276
-43.271650
-41.754582
-41.265503
-39.243062
-36.349697
-32.620209
-27.530413
-22.153131
-15.453163
-9.699986
-4.891407
-2.702806
-2.763306
-4.119217
-6.221902
-8.512692
-10.645474
-12.710852
-14.623551
-16.758214
-19.257486
-22.353675
-26.286302
-28.998131
-32.015004
-33.750885
-35.376413
-36.227577
-36.499067
-36.201855
-33.732666
-31.948176
-27.728676
-24.410823
-20.013878
-15.262670
-10.569775
-5.223844
0.870742
7.953816
12.586205
18.563853
21.551897
25.442214
27.394744
29.388970
28.958218
28.933145
28.807435
27.193821
27.494168
24.845354
26.412583
23.613285
23.226738
21.415614
18.353597
15.508214
11.565555
10.017777
7.251084
7.527605
8.501678
11.746171
14.956178
18.535183
22.009476
24.516913
26.217383
26.247487
25.611388
23.724082
21.898851
20.673986
20.131626
19.725955
18.400454
17.128562
15.472938
14.842169
14.455622
14.389479
15.498361
16.701609
17.957212
18.505543
18.157557
16.542062
13.241153
8.727598
3.720582
-2.670567
-8.522484
-14.316716
-19.995264
-24.391567
-27.555161
-29.101057
-29.416752
-29.840606
-30.134669
-30.477325
-31.474270
-31.639481
-32.340163
-31.893408
-30.824028
-29.470610
-27.029637
-24.424071
-21.342603
-18.626056
-16.218627
-14.590264
-13.997729
-13.215835
-11.901919
-10.304279
-8.773730
-7.420626
-4.663010
-0.691808
4.533109
10.167153
15.589893
19.754529
21.924946
22.578930
22.007413
21.616477
22.276730
23.818566
25.429686
25.917824
24.665997
21.861996
18.562654
15.322252
12.970642
11.184285
10.279824
10.059436
10.256953
10.933195
11.375247
11.416010
9.563504
6.303664
0.767135
-5.527141
-12.257819
-17.235991
-20.867338
-23.177251
-25.950528
-28.568619
-31.499276
-34.231798
-36.472426
-36.790315
-34.233030
-28.539733
-19.762153
-10.360694
-0.902803
6.924537
15.276374
21.100090
26.298986
28.365946
30.441998
28.903625
27.287503
21.159073
17.261873
9.700401
2.058985
-2.325092
-11.910252
-17.903874
-29.625899
-35.149574
-43.952534
-49.760560
-55.539116
-60.020380
-60.847405
-62.721857
-61.291630
-63.616592
-62.485765
-61.691017
-60.659258
-59.802435
-59.157544
-58.228929
-57.453932
-55.924010
-54.885981
-53.186765
-52.073807
-49.930038
-49.354745
-48.068732
-47.314740
-46.233760
-44.669352
-42.629041
-39.623754
-35.627471
-29.334749
-21.271651
-10.709902
0.857265
13.009749
23.527294
34.125723
41.819823
50.712460
53.978585
63.033619
67.300458
72.150734
78.446278
81.674782
88.851908
90.561783
95.714594
96.758266
99.504910
99.500214
100.839524
99.852297
98.952539
97.655253
95.746943
94.304190
91.236843
89.004053
85.400922
82.972503
78.784995
75.633002
71.953376
68.253685
62.772960
56.816332
49.149835
41.218425
33.245632
25.422069
18.426478
11.908044
5.873353
0.045889
-5.699436
-11.778959
-17.806440
-23.983151
-30.448288
-37.209375
-43.582028
-48.836400
-53.688543
-55.255758
-59.201866
-62.931966
-62.625349
-65.353795
-63.847072
-66.300258
-66.062299
-66.791823
-67.058297
-65.741560
-64.918283
-62.308329
-61.835239
-59.034673
-59.473576
-56.188641
-54.022613
-49.303382
-43.212558
-32.984067
-20.118668
-6.722187
5.360386
16.590532
25.828654
35.400975
42.733287
49.804135
54.361282
58.544101
63.420712
61.688906
65.382654
60.271868
58.833504
51.199926
45.576555
38.101298
29.057565
21.725267
12.629178
9.211644
3.399856
2.686634
-0.355632
-0.397635
-0.074402
1.801632
4.265806
7.497444
11.519748
14.633195
16.860043
16.719286
16.296372
14.588079
11.945848
8.283778
3.832924
-0.765278
-5.873243
-9.771697
-15.362462
-21.033486
-22.709174
-24.422797
-27.329001
-27.679495
-27.534648
-25.937008
-24.977042
-21.409637
-19.474037
-17.515550
-14.033419
-13.416430
-11.008688
-9.659660
-7.517772
-7.745371
-6.226108
-6.722696
-7.413345
-9.203777
-10.752182
-14.084442
-17.184394
-20.109094
-23.931680
-26.415903
-28.644618
-29.721508
-30.507777
-29.981391
-28.847742
-26.190449
-22.577899
-16.499928
-9.855137
-2.488026
5.035839
12.460636
18.768720
23.865413
27.366668
28.635752
26.707377
25.901044
19.592974
19.224924
13.375828
11.773187
10.135746
5.278274
3.474674
-4.554864
-5.939931
-13.058417
-13.782925
-16.072774
-14.234674
-11.322186
-7.236240
-2.706995
1.148210
4.723452
5.947705
8.775233
7.521211
6.176900
2.985718
0.663891
-2.199362
-3.679422
-4.578240
-4.706771
-3.856219
-2.136311
0.012160
4.297183
8.680334
15.641140
21.837929
27.541885
32.373038
35.921946
37.198867
38.207427
36.904812
36.803870
35.491223
35.304066
35.332602
35.205953
36.290381
33.799888
36.787304
34.816919
37.248174
34.699995
34.236325
32.935905
29.283240
27.448604
22.616525
20.700063
17.334885
16.396565
14.472579
12.998476
9.856514
6.590718
2.336746
-3.147740
-8.314017
-14.621147
-20.130401
-26.734108
-32.366883
-37.786474
-43.577885
-47.676983
-52.000240
-54.217668
-55.708701
-55.193288
-54.076882
-50.202240
-46.262075
-39.913862
-34.730641
-28.601883
-23.573221
-17.207451
-12.065614
-5.473178
0.292539
6.212188
14.310084
20.094925
27.542922
34.361709
41.263263
44.309932
52.491535
48.552639
54.195148
52.507859
55.545124
56.214782
53.600453
56.402901
49.201335
48.194044
41.909801
40.195237
33.047909
32.962328
29.090836
28.764796
26.028512
23.975048
21.143459
15.865573
14.186436
6.634683
5.110105
-1.295152
-5.705250
-12.574811
-19.476037
-27.535358
-35.614430
-44.465042
-53.137583
-61.650863
-71.919782
-79.126363
-87.660648
-93.743933
-100.596251
-105.331456
-108.518249
-109.648435
-111.563329
-110.464166
-110.109896
-107.631928
-105.097216
-101.483412
-98.461509
-93.921292
-87.653023
-81.550286
-72.821926
-63.903268
-53.691392
-45.504460
-35.615810
-29.231230
-19.556079
-14.391042
-4.247197
-0.290103
10.109876
12.000018
22.478061
19.991016
27.903003
33.850868
27.073164
40.772179
28.845748
38.572314
31.841323
35.437884
32.777156
33.428631
35.204343
34.855416
40.756255
40.314531
47.413280
47.162795
53.720431
54.059653
59.861737
61.399497
64.926459
65.525892
65.867308
63.865886
59.015311
52.004985
43.104524
35.983844
30.104024
25.905857
23.503773
22.139083
23.329477
25.576704
29.161978
34.504147
40.548886
46.323067
50.596177
55.520754
58.778414
60.492051
57.698710
51.448639
35.555401
17.344406
3.147556
-9.291460
-17.647359
-25.863747
-35.838596
-41.366347
-47.348056
-48.849435
-50.543620
-50.513516
-45.422467
-41.238080
-34.947238
-25.839848
-17.054431
-5.844662
4.636202
16.004919
26.129012
33.698022
39.346488
45.039785
47.344383
51.116508
51.478929
51.355415
55.171431
49.884767
51.109333
44.360159
43.547242
37.403763
34.095956
29.504024
23.012239
18.060401
9.180319
3.152524
-7.477869
-14.393829
-23.659839
-30.274206
-37.969858
-43.808295
-50.513892
-54.518938
-61.300091
-64.991944
-68.354927
-70.859529
-73.972648
-75.626077
-77.229659
-79.365576
-86.180273
-88.356946
-88.650068
-92.037192
-91.986397
-95.477605
-94.118231
-95.518660
-94.232960
-92.394234
-87.929571
-86.774917
-81.509558
-77.449320
-70.606392
-63.691985
-57.080739
-49.449968
-42.689179
-34.834564
-28.760670
-22.665457
-16.400950
-10.695113
-6.484078
-1.633801
2.528640
6.058111
7.583644
15.387784
11.170807
18.140391
16.998919
18.394660
21.156978
18.477127
25.745797
23.692019
28.696227
28.886219
32.952414
34.236860
37.012973
38.678330
38.815967
40.978233
41.791791
44.000143
45.434759
48.898393
50.433017
53.699142
55.899342
58.489232
60.938043
63.227907
65.269472
67.356810
68.991444
70.508825
71.597643
72.262285
72.783028
73.010328
73.225087
72.382701
71.657879
69.224758
67.097932
64.763565
61.682111
59.335203
56.594845
55.461210
54.260485
52.867580
52.822756
52.568822
52.781387
52.802086
52.328383
50.663041
47.384704
41.939719
34.577951
25.880643
17.280523
8.655635
0.723598
-6.643186
-15.659017
-23.268455
-31.513999
-39.060736
-45.357833
-50.346979
-54.704721
-57.950140
-59.554348
-60.907752
-59.457774
-58.108432
-54.314048
-47.958937
-42.629936
-37.064236
-34.342360
-31.412002
-29.897441
-28.876655
-27.611647
-27.090277
-24.991339
-23.013729
-19.893072
-17.224178
-14.650278
-12.616236
-10.893821
-10.013799
-7.926148
-6.418171
-3.418528
-2.759528
1.975377
4.219782
6.489581
9.694258
8.974766
11.182804
8.454986
9.505555
7.794754
7.599446
5.765123
4.549663
3.599430
2.056355
1.131516
-1.687533
-2.849069
-6.045895
-8.675585
-12.887547
-16.094717
-20.056813
-23.164603
-26.295591
-28.828722
-31.467504
-35.046808
-38.159300
-41.353303
-44.521286
-47.184835
-49.873152
-52.262069
-54.867620
-57.033006
-58.601162
-59.167349
-59.286474
-57.644003
-54.572566
-51.229006
-47.022987
-43.773164
-40.119858
-37.011428
-33.223941
-29.601359
-24.915674
-20.378905
-14.293411
-8.809536
-3.224086
1.240576
6.998456
9.760774
13.312190
12.515262
13.280227
15.598933
14.348047
18.999873
18.593888
22.913397
23.519100
26.111811
26.157904
26.938544
26.395557
26.016220
22.992137
20.504466
22.239421
15.291170
15.627570
12.252046
11.276105
9.004126
6.991104
5.597572
1.948669
2.050566
-1.463214
-3.487209
-4.203252
-5.872357
-6.678377
-6.454212
-6.090223
-6.253553
-5.501442
-4.692273
-2.764197
-0.783765
1.919300
5.301109
8.529926
12.248442
15.829641
19.508654
22.828702
25.701689
28.300357
30.325934
34.289612
38.276489
41.660492
45.361451
48.270805
52.754591
54.888955
57.442478
58.139098
60.191950
62.040082
63.125137
64.286061
63.708275
64.292032
63.151500
60.989876
58.689368
56.229598
52.944364
50.333483
47.279931
44.769686
41.734317
38.381679
34.603925
30.915208
27.434031
22.682838
18.742374
15.530814
13.286737
10.070474
8.351835
6.892780
4.135179
2.637876
0.633318
0.521403
-0.000265
-1.848069
-3.166046
-1.939285
-0.291171
-0.409983
-0.360128
-0.094267
-0.140973
-0.012427
-0.851365
-2.463098
-3.409256
-5.764941
-8.117805
-9.948680
-11.235306
-14.828404
-17.231429
-20.314451
-21.855018
-23.562371
-26.092053
-27.672435
-30.887444
-31.540158
-34.674282
-36.051198
-37.831284
-40.136182
-41.867675
-43.714538
-45.705301
-47.939973
-48.487036
-50.886299
-51.477252
-52.233424
-53.325990
-52.892716
-53.381780
-52.144987
-50.428528
-47.718878
-44.305719
-40.836128
-37.599160
-35.337512
-32.962375
-32.324381
-32.578941
-32.174823
-32.514971
-33.195588
-32.942267
-34.570303
-33.790290
-34.759960
-35.210776
-35.892961
-37.669912
-37.996579
-38.951515
-39.136790
-38.537984
-36.725593
-36.637176
-34.115318
-33.149081
-30.312462
-28.124488
-26.452547
-24.414117
-23.520928
-21.042333
-20.644485
-18.928654
-17.840463
-16.451619
-14.608504
-13.086106
-9.990529
-7.297182
-3.344790
0.521387
3.910406
7.756833
10.568058
13.541054
16.929446
19.029638
22.580113
25.619259
28.258682
31.887848
33.897436
36.431522
37.244766
38.089048
36.506158
38.666543
36.140937
35.701720
35.544974
33.314064
34.939606
32.420583
33.973391
32.948544
34.225152
33.949273
34.496977
35.881118
36.568333
38.583251
41.054321
43.259537
45.027411
46.964893
47.939280
49.391139
49.077952
48.472577
48.421796
47.956245
46.546411
45.747602
43.649306
42.580254
41.074173
39.567151
37.708688
35.875932
32.670015
28.297225
22.593283
16.995307
11.059056
4.728414
-0.968317
-6.617709
-12.157686
