EVENT_NAME: 202010301151
EVENT_ID: 10614
EVENT_DATE_YYYYMMDD: 2020/10/30
EVENT_TIME_HHMMSS: 11:51:24.00000
EVENT_LATITUDE_DEGREE: 37.879
EVENT_LONGITUDE_DEGREE: 26.703
EVENT_DEPTH_KM: 16.54
HYPOCENTER_REFERENCE: AFAD
MAGNITUDE_W: 6.6
MAGNITUDE_W_REFERENCE: AFAD
MAGNITUDE_L: 
MAGNITUDE_L_REFERENCE: 
FOCAL_MECHANISM: 
NETWORK: TK
STATION_CODE: 0905
STATION_NAME: 
STATION_LATITUDE_DEGREE: 37.85997
STATION_LONGITUDE_DEGREE: 27.26501
STATION_ELEVATION_M: 24.0
LOCATION: -_-_-
SENSOR_DEPTH_M: 
VS30_M/S: 369
SITE_CLASSIFICATION_EC8: B
MORPHOLOGIC_CLASSIFICATION: 
EPICENTRAL_DISTANCE_KM: 49.38
EARTHQUAKE_BACKAZIMUTH_DEGREE: 
DATE_TIME_FIRST_SAMPLE_YYYYMMDD_HHMMSS: 2020/10/30 11:51:01.9260240
DATE_TIME_FIRST_SAMPLE_PRECISION: millisecond
SAMPLING_INTERVAL_S: 0.01
NDATA: 10501
DURATION_S: 
STREAM: HNZ
UNITS: cm/s^2
INSTRUMENT: sensor = CMG-5T/GURALP | digitizer = 
INSTRUMENT_ANALOG/DIGITAL: 
INSTRUMENTAL_FREQUENCY_HZ: 
INSTRUMENTAL_DAMPING: 
FULL_SCALE_G: 
N_BIT_DIGITAL_CONVERTER: 
PGA_CM/S^2: 87.161
TIME_PGA_S: 
BASELINE_CORRECTION: BASELINE REMOVED
FILTER_TYPE: BUTTERWORTH
FILTER_ORDER: 
LOW_CUT_FREQUENCY_HZ: 
HIGH_CUT_FREQUENCY_HZ: 
LATE/NORMAL_TRIGGERED: 
DATABASE_VERSION: 
HEADER_FORMAT: DYNA 1.2
DATA_TYPE: Acceleration
PROCESSING: Manual Paolucci et al., 2011
DATA_TIMESTAMP_YYYYMMDD_HHMMSS: 
DATA_LICENSE: U (unknown license)
DATA_CITATION: Turkish Accelerometric Archive v 1.0 - Disaster And Emergency Management Presidency, Earthquake Department
DATA_CREATOR: AFAD
ORIGINAL_DATA_MEDIATOR_CITATION: : AFAD - Disaster And Emergency Management Presidency
ORIGINAL_DATA_MEDIATOR: AFAD PROCESS SERVICE
ORIGINAL_DATA_CREATOR_CITATION: AFAD PROCESS SERVICE
ORIGINAL_DATA_CREATOR: network: TK
USER1: GuestUser
USER2: 
USER3: 
USER4: 
USER5: 
[...]
0.007790
-0.006506
0.007170
0.002819
0.012765
-0.003396
-0.007746
0.000335
-0.004637
0.015877
-0.010230
0.013392
0.014635
0.000961
0.008421
-0.005254
0.023962
0.015882
-0.009603
-0.022656
-0.011467
0.018993
0.022101
0.018372
-0.004005
0.012158
0.010915
-0.045650
-0.023893
0.022106
0.046971
0.051323
-0.008351
-0.045025
0.009677
0.015894
-0.045644
-0.012077
0.055057
0.033302
-0.023264
-0.022641
0.009061
0.001602
-0.000262
0.018387
0.027090
0.005956
-0.013934
-0.013312
-0.018906
0.025850
0.025229
0.010933
0.000367
-0.015794
0.007206
-0.005847
0.003477
0.006586
0.017154
0.018398
0.002237
-0.008951
-0.003978
-0.000248
-0.005841
0.009699
0.001619
0.009701
0.027106
0.004729
-0.008324
-0.014539
-0.005214
0.004110
-0.005213
0.015300
0.013436
0.024626
0.001627
0.000385
-0.017641
-0.040018
0.047629
0.033954
-0.047476
-0.015151
0.058820
0.012200
-0.026960
0.017796
0.016554
-0.013283
-0.017633
0.021529
0.022772
-0.022604
-0.006442
0.009099
0.022153
0.013452
0.009723
-0.003952
-0.018870
-0.002707
0.000401
0.024645
-0.000219
-0.000218
0.015944
0.012837
0.003513
-0.020107
0.002893
0.005380
0.003516
0.007246
0.004139
0.016572
0.000411
0.005384
-0.004561
-0.008290
-0.003938
0.009738
0.037089
0.011604
-0.002692
-0.016988
0.010985
0.007256
-0.008284
-0.003310
0.011609
0.026528
-0.014497
-0.003308
-0.001442
-0.001442
0.006018
0.008505
0.005398
0.006020
0.004778
-0.000194
0.009752
-0.002679
0.003537
-0.005786
0.001674
0.016593
0.004162
-0.002054
0.004163
0.003542
0.009759
-0.005159
0.006652
0.015355
0.000437
0.014735
0.002925
-0.000182
-0.010749
0.007900
0.009765
0.009144
0.003551
-0.008259
0.010390
0.001066
0.002932
0.000446
0.001068
-0.003904
0.002313
0.014746
0.011638
0.012882
0.001072
-0.005143
0.002938
0.001074
0.010399
0.009778
0.002319
0.005428
0.003564
0.011646
-0.010732
-0.000785
0.007296
0.005432
0.007919
0.007298
0.016001
-0.014457
-0.005753
-0.011969
0.011653
0.013518
-0.000778
0.017871
-0.002641
0.004819
-0.003883
0.004820
0.002956
-0.004503
0.013524
-0.003880
-0.000771
0.008554
0.017257
0.000474
-0.001390
0.006691
0.007314
0.016638
-0.007604
0.007316
-0.000765
-0.000764
0.010426
0.011048
0.007319
-0.006977
-0.006355
-0.006976
0.011051
0.016025
0.019133
0.012918
-0.006973
0.000487
-0.003863
-0.010700
0.002976
-0.010699
0.008572
0.023491
0.027221
0.001736
-0.013804
-0.000128
-0.013181
0.014171
0.011685
0.027847
0.005470
-0.029961
-0.010069
0.009823
0.021635
0.001122
0.012933
-0.005092
0.003611
0.000503
-0.004469
0.024126
-0.020629
0.008587
0.007344
-0.008817
0.009832
-0.003221
0.025995
0.015429
0.003619
-0.001975
-0.000731
-0.006947
-0.018756
0.024757
0.021649
0.034082
0.014191
-0.017510
0.013571
0.010464
0.038437
0.053356
0.049005
0.026628
0.012332
0.021657
0.070764
0.185140
0.261598
0.280247
0.201925
0.018553
-0.232575
-0.365598
-0.276708
-0.085253
0.142877
0.231767
0.170229
0.061449
-0.158599
-0.359998
-0.461940
-0.371185
-0.154866
0.055858
0.203179
0.247935
0.084454
-0.189051
-0.238157
-0.150511
-0.001325
0.115538
0.145997
0.090053
-0.005673
-0.014997
0.093163
0.187026
0.202567
0.278403
0.443129
0.428211
0.235515
-0.001316
-0.152365
-0.238768
-0.445140
-0.427113
-0.110094
0.141035
0.211277
0.184549
-0.036742
-0.170386
-0.291598
-0.264247
0.010503
0.148500
0.057746
-0.123140
-0.041709
0.083234
0.116180
0.285257
0.645788
0.695517
0.348041
-0.007516
-0.195862
-0.139295
0.031025
0.024810
-0.096402
-0.306504
-0.398501
-0.179695
0.172755
0.233673
0.307645
0.542612
0.202595
-0.270446
-0.586842
-0.471222
-0.131826
0.066467
-0.026152
-0.060961
0.070820
-0.012474
0.013012
0.047201
0.060255
0.059634
0.099418
0.108121
0.069582
-0.164762
0.169040
0.617218
0.499113
0.525843
0.223744
-0.179055
-0.499802
-0.753416
-0.500423
0.290259
0.780706
0.501606
0.379150
0.006188
-0.724196
-0.928703
-0.515957
0.294616
0.433234
0.321968
0.432614
-0.002509
-1.076641
-1.483791
-1.100882
-0.473061
0.421429
0.773879
0.988955
0.763313
0.444431
-0.049122
-0.535838
-0.622862
-0.712994
-0.178413
0.576215
1.434652
1.508002
1.168606
0.928046
0.123069
-0.200786
-0.032331
-0.305215
-0.562558
-0.373590
-0.083922
0.400309
0.576224
0.176533
0.062780
-0.088891
-0.732873
-1.160536
-0.748411
0.081431
0.121215
-0.683141
-1.266205
-0.815541
-0.254232
0.261079
1.160541
1.221459
-0.019884
-1.335199
-1.253768
-0.205120
0.763962
0.508483
-0.184605
-0.010555
0.236844
0.555106
0.589295
0.284088
0.146714
-0.707370
-1.295407
-0.204491
1.339575
1.342684
-0.271622
-1.591909
-1.529127
-0.327564
0.607329
1.528548
2.308662
0.772057
-1.466962
-1.683901
-0.725387
0.014323
-0.180238
0.046027
0.844789
1.475097
1.174862
-1.018158
-2.169369
-2.521196
-2.161908
-0.237420
1.079139
1.827552
2.578451
2.106032
-0.542624
-1.929423
-1.565784
-2.869288
-3.546836
-1.847369
-0.339977
-0.186440
0.790723
1.816371
2.077445
2.219793
1.038124
0.581245
1.583894
1.003316
-0.707960
-0.003060
1.912725
2.705893
1.163693
-1.126918
-1.953030
-2.352100
-2.490717
-2.606334
-1.657765
-0.416421
-1.442067
-2.473308
-0.533902
1.964327
2.207375
1.517395
0.901386
0.884603
3.042193
5.020761
5.348968
3.315079
-1.309036
-4.281548
-5.741696
-6.127712
-3.747588
1.357651
5.156276
5.672209
4.747884
1.602565
-2.293651
-5.578830
-6.123355
-3.579127
-0.897524
0.243742
1.366360
1.365118
0.774594
1.508710
0.290987
-0.650121
-0.880114
-0.830385
1.604440
1.294260
-3.140887
-5.203370
-5.023726
-4.021699
-1.036132
1.442206
1.999786
4.017515
5.516204
2.846413
0.795741
2.751931
4.284808
4.139975
3.075789
1.051845
-0.308225
-2.555324
-3.152064
-1.874666
1.241438
2.109198
-1.731695
-2.943201
-3.717098
-6.735609
-8.594827
-7.483398
-5.610503
-5.881522
-4.184541
-1.526559
-0.879469
-1.881494
-5.163565
-6.834438
-5.166050
-3.056324
-1.146133
1.656682
2.872541
0.731115
-1.729195
-2.463931
-3.983753
-5.107614
-3.631302
2.365938
8.586957
12.500579
11.742223
6.732713
4.912655
3.612881
-0.808591
-4.809237
-2.705727
-1.669511
-3.534324
-4.844044
-6.251356
-3.858178
-0.704156
-0.165846
2.326789
5.708318
0.555217
-7.552369
-8.391535
-1.430807
13.862529
27.967357
30.264808
16.499377
-9.018730
-32.570080
-36.916338
-22.433574
-5.925623
6.895592
16.975531
23.956150
25.457947
22.585513
21.950234
22.538894
20.724431
15.562628
3.220672
-9.732322
-16.849692
-14.972446
-8.976449
0.076600
10.124215
14.100620
10.977058
2.050818
-5.144874
-9.339461
-11.390755
-11.102951
-7.604561
-2.785261
-0.888123
-4.096845
-7.884280
-10.133866
-14.109026
-21.084671
-24.603573
-21.352581
-10.135728
12.692698
30.964762
39.501879
38.320831
16.421084
-14.941348
-34.903554
-30.545484
-13.215772
1.009026
7.486767
9.814676
11.443281
9.465336
-3.066210
-19.502053
-21.611157
-12.794940
1.056895
21.034021
38.256196
33.165256
17.066322
3.333836
-6.744858
-10.213411
-9.049767
-1.320736
14.937330
19.205889
12.294269
10.167761
9.758746
12.877336
4.904016
-10.430966
-15.137754
-4.903036
-7.213539
-14.680251
-17.128751
-20.042210
-11.454744
-0.845198
3.667030
7.933102
11.496761
-10.496226
-33.364433
-40.706824
-31.280813
-6.579494
13.093046
26.753427
22.582461
9.283856
2.220564
-4.591598
-10.216497
-14.407354
-12.811073
2.980168
23.603763
29.302633
14.369208
2.153437
-7.101010
-5.592375
4.031928
3.246842
-5.443188
-11.022709
-4.625155
0.769129
3.560756
6.211899
0.447762
-22.317259
-29.662758
-16.762600
3.386089
29.544449
39.706440
19.649129
-4.237266
-18.106505
-24.227443
-4.268344
6.026670
0.153130
-1.770735
-3.986133
2.913677
4.402421
-6.961752
-8.616462
0.048083
-1.394038
-14.908962
-10.288576
1.335429
-4.686053
-11.574673
2.747716
12.261995
21.347989
41.515325
44.121092
38.500545
6.865228
-26.642361
-27.856975
-14.053625
-0.185007
20.063760
30.703143
17.549371
3.838020
5.097391
5.313089
-14.618658
-21.565709
-25.614840
-27.267686
-9.948541
12.122770
15.710050
-6.506715
-32.457459
-50.946462
-47.878221
-29.667696
-8.480928
1.239102
19.167420
31.546674
15.585736
-3.976778
4.624985
12.176859
-12.404490
-4.953316
9.871330
15.052404
27.292418
31.012722
19.273100
1.319299
-11.137033
-9.912472
0.549754
5.865716
11.521075
7.519807
-3.801474
-15.944517
-10.872846
3.753508
3.314035
-0.653044
0.367009
6.418330
17.688020
15.008905
0.960023
-15.889188
-36.052794
-42.089194
-1.022271
43.399451
48.924272
22.982853
-18.724321
-38.767336
-27.727018
-1.263449
19.940724
27.904099
6.331316
-12.851398
-21.304596
-11.703293
-7.914613
-8.287575
-15.933309
-24.356049
-1.982638
14.340696
5.403267
-10.328298
-12.528777
-30.494390
-23.046324
-8.824013
0.902233
20.190621
30.369395
14.310866
-2.445104
1.441168
0.833239
-4.534315
-15.742465
-6.185295
-0.952628
7.051152
24.660586
31.266378
22.905177
12.774267
14.552679
13.605976
8.941456
9.961510
7.202208
-25.940499
-43.190645
-31.592126
-14.637863
6.216968
7.019460
4.044462
5.708498
-4.964450
-19.528643
-8.894233
8.220404
12.247159
-0.393789
-17.817984
-9.113656
1.701641
-12.020899
-17.248592
3.190386
20.893061
20.729580
11.695802
22.955547
34.974892
21.747149
-10.590581
-36.065797
-39.387650
-10.854761
22.751665
27.013386
16.181307
10.224472
14.246254
12.116637
-5.705384
-34.373783
-44.210673
-29.670722
1.391477
19.079855
18.916373
15.945726
-14.369302
-31.778578
-6.767078
7.256941
11.865518
16.884975
15.680927
14.812547
2.652720
-11.261895
-20.438020
-14.777689
1.440594
1.726533
8.441105
10.876552
-3.537212
-7.006386
1.198794
7.360760
-1.254678
11.741830
27.669202
21.202651
7.716321
4.888643
15.615672
11.540434
2.400362
4.173179
11.059936
6.392930
-11.174856
-23.877964
-27.920879
-22.189685
1.167104
19.504437
19.861239
22.504923
9.500337
-11.549677
-2.705488
-3.428413
-11.083472
-10.791938
-8.020203
-5.385221
-1.056367
-1.767482
-19.904657
-21.159676
-13.627693
-23.274994
-22.838627
0.905421
8.355973
12.613343
17.501020
18.457670
5.440651
-14.747819
-18.511633
-29.595462
-23.904051
-0.849983
15.993013
14.624862
-1.132189
-15.548440
-15.497468
-9.173263
-4.514337
12.254066
8.302527
0.109781
8.827785
16.227365
0.378938
-27.837554
-31.038816
-20.587780
1.441262
13.177777
16.126670
28.094422
30.452790
10.350723
-4.819534
15.119674
32.737810
29.305933
17.650228
10.567045
2.123171
-15.532261
-7.304082
4.918528
-4.533589
0.441112
20.896873
21.959196
19.324215
19.460347
-4.174919
-17.004214
-16.326043
-16.492010
-16.840108
-10.716060
6.938751
13.217579
8.876915
6.684517
11.143287
20.498435
18.498734
7.966890
2.159861
-2.691761
4.418152
4.162051
-6.825429
-12.442246
-23.273082
-22.852255
11.973137
33.010719
25.197152
17.336964
13.399100
11.180594
-4.513054
-3.889584
10.554019
29.608683
30.721356
7.266355
-6.595425
-4.548480
-0.998496
-10.682472
-11.367480
-12.188618
-7.057273
1.872698
2.904562
2.449548
-6.964651
-5.322371
5.536438
1.586142
-6.472338
-5.092997
5.942970
15.625082
8.308798
-9.824026
-13.183176
-13.331117
-27.876661
-25.266543
-24.176248
-36.033975
-35.282454
-27.499344
-21.709097
-9.721454
-4.290495
-13.695370
-13.587210
10.675878
15.551744
-15.887145
-27.220237
-29.322503
-34.864728
-31.169289
-11.443913
1.856559
3.621916
18.766689
14.054306
6.333979
19.230408
17.357514
7.599567
5.514707
6.247579
-3.438883
-5.224752
1.646465
-5.297478
-3.301506
2.627359
-0.400476
-0.034972
5.598008
-0.966756
-3.469957
-5.344093
-16.670348
-20.159413
-20.119630
-27.705691
-28.100409
-21.670531
-26.735364
-24.229054
-19.207111
-6.632673
1.421457
4.610910
15.785495
1.942364
-6.837799
10.789662
22.581499
25.347018
28.905705
33.527956
43.691190
47.892616
43.216286
47.239932
44.027481
31.618391
30.681013
36.826817
47.641492
55.424603
56.002696
45.396259
27.909904
25.763504
15.367170
-6.271503
-9.564763
0.362883
4.428798
14.317283
25.694511
11.501416
-14.152822
-27.292297
-33.490936
-49.482954
-65.349408
-69.016252
-58.928232
-39.307286
-29.489042
-47.317902
-64.008603
-49.997637
-21.789225
-1.276276
-5.853771
-23.224508
-19.039244
-4.655937
9.929391
20.431400
24.958546
23.505235
11.561727
9.752237
25.220865
57.943991
63.356924
41.563471
28.550182
18.002176
15.728969
13.131284
2.760436
0.631441
4.160291
9.483712
6.353312
-1.606332
0.133539
0.233618
4.096891
-0.617978
-5.804024
-2.958318
1.609232
0.520182
-2.764997
-13.261410
-30.122431
-25.774928
-29.405098
-32.874272
-19.611718
-27.820004
-50.657131
-64.361644
-80.057779
-83.461684
-59.749959
-28.341527
0.937910
23.655068
26.562935
18.753718
7.480300
-8.527258
-13.156346
11.088716
42.691089
50.297664
36.123839
0.916783
-31.568267
-40.167543
-30.962823
-10.681732
17.363819
38.599694
56.760491
74.062231
60.182425
46.604719
48.994168
53.679823
52.612529
36.737372
27.636462
28.926292
31.980857
20.335098
4.148517
-22.231755
-27.997136
-8.942471
4.839744
28.259937
33.145127
17.770984
0.088202
-10.035869
-16.721847
-27.011265
-39.903341
-39.939394
-32.137635
-26.214365
-26.720972
-34.128632
-27.645918
-10.465391
4.351795
12.642135
6.081722
0.089455
10.227825
8.283447
2.638657
0.042216
-3.920512
-19.479271
-31.585640
-25.069359
-23.189627
-24.179842
-25.743176
-32.685255
-37.872543
-38.293369
-33.085566
-9.715723
22.824029
61.226133
87.160716
76.040834
40.099042
0.351787
-15.415210
-4.253679
-9.952548
-18.404504
1.862289
22.679203
18.677935
4.960990
-9.969328
-36.154416
-46.115627
-21.544223
-0.317672
-9.433501
-2.815278
3.337986
-8.139319
-13.993589
-16.076585
-13.930806
-16.447060
-0.609820
21.258226
27.831073
34.123576
40.780960
26.802319
8.744088
23.729108
34.572999
26.183825
13.657253
2.975602
-1.569570
-8.635969
-13.313542
-17.973710
-25.140809
-37.252150
-42.988316
-38.592328
-28.024430
-20.682037
-13.229620
4.844774
14.761231
13.409864
9.368814
-2.486426
-5.927628
2.018964
-8.216374
-18.084966
-21.524925
-41.553643
-59.714438
-42.758311
-11.480415
13.859914
28.148737
27.216331
15.427602
13.281824
29.792883
24.179174
8.012485
2.689065
-4.092640
-11.414518
-16.979742
-8.729807
14.818436
26.710974
16.215183
13.504988
20.831219
15.886978
23.998295
30.814811
20.303480
-0.900692
-27.759599
-43.396681
-30.045238
-10.247134
-18.327992
-30.602815
-37.782346
-45.285112
-51.964873
-31.519679
-13.584524
-7.563041
2.329795
1.366309
-3.051433
-13.996023
-11.683653
-3.226724
-2.428583
5.086616
4.588090
-5.332717
0.008109
17.753675
30.708535
38.032901
44.773581
34.571808
8.188428
-5.495572
-15.513349
-27.147298
-23.625908
-14.120332
0.342541
16.239454
19.468690
7.298918
-3.359112
-11.507102
-21.339020
-22.116646
-15.615906
-19.881355
-25.048753
-15.239212
-9.019437
6.264575
28.307292
39.107049
35.487447
28.052437
23.402836
15.252980
23.763368
23.975335
16.632322
22.483486
18.773751
16.374980
6.903593
-6.048779
-20.591837
-40.503071
-44.918327
-26.971362
-11.764429
-5.310930
-3.319930
-7.625162
-6.726322
-7.086852
-1.710594
4.093950
9.422344
4.062871
-11.168303
-20.138055
-21.327184
-15.605314
-7.773097
-2.802125
7.870203
11.236813
-1.414080
-4.174004
-4.612856
-10.078002
-7.190648
3.588596
8.454516
14.138468
17.762423
4.789538
-8.634631
-0.223079
19.466865
36.171865
49.463634
52.653709
39.788984
33.066332
38.747797
29.507647
12.570169
3.666307
-7.080612
-23.914904
-36.539691
-32.997166
-19.860176
-14.266357
-22.176895
-35.836653
-40.034969
-25.007058
-4.400869
5.931442
8.911414
0.514160
-0.101849
3.408352
-0.474811
-3.365271
-13.668986
-13.312185
-9.468803
-17.800168
-19.807949
-19.225505
-18.929621
-18.991781
-14.035106
5.945749
23.344460
29.699123
31.131922
27.429025
10.988208
-6.652926
-9.754110
-0.842166
11.624112
20.643594
19.432709
7.964729
-0.283341
-5.986561
-3.133396
9.107240
17.561684
19.364959
9.798467
-4.855858
-8.040338
-2.293603
3.795635
8.820065
6.963333
5.972496
6.856418
6.460457
5.726342
8.554643
13.101681
5.342193
-4.898119
-8.428832
-11.851385
-20.377312
-28.877131
-30.267659
-20.503495
-12.147887
-13.846110
-10.022620
-2.994138
2.087480
17.692861
22.767019
12.439683
11.907590
2.689196
-8.910564
-5.188396
4.938163
8.284882
7.824274
13.589035
14.337447
10.149699
5.523719
5.153243
5.942681
4.410427
3.273513
8.033761
15.056027
14.384695
9.516290
4.798312
1.600779
-0.937853
2.224250
2.368463
-8.024142
-16.525826
-21.828111
-23.877541
-12.602878
-5.652717
-8.802387
-9.958570
-4.399561
4.547815
6.618380
6.553112
5.176259
2.382769
-3.034513
-0.712198
0.033728
1.789140
12.072965
14.361092
12.066128
13.229151
16.283095
16.894133
13.343528
10.599767
14.244235
23.073505
29.328712
16.058700
1.756825
-4.262792
1.023954
1.137087
-10.060495
-7.636237
-7.222870
-9.192112
-6.325893
-2.790206
3.261736
3.789479
-0.103008
-1.004334
-6.402346
-10.125757
-10.086595
-1.369213
8.627431
8.661620
8.715700
13.286359
15.998420
10.281524
2.364148
-3.008379
-0.300669
5.244666
7.098291
8.442200
10.353013
12.807108
10.579279
11.411608
9.576632
1.905412
7.344451
15.931918
22.696219
24.276338
17.066970
4.391834
-8.561782
-15.985603
-20.930466
-18.110246
-9.582454
-0.324276
8.180518
7.573832
-4.812880
-19.736981
-25.837407
-20.803031
-10.704444
-5.474264
-4.983817
-2.636016
-3.402454
-12.083781
-18.345824
-14.704465
-10.940027
-3.853735
2.385931
0.014511
-3.265074
-3.084808
-7.758030
-12.968939
-7.434172
0.278697
8.030727
13.773731
11.504876
5.209888
1.606447
2.764497
6.436937
11.902084
20.186208
27.669083
34.798266
28.901726
17.898084
14.493557
8.468346
4.600102
8.663531
15.767849
19.227700
20.230349
11.213977
-2.024333
-6.297863
-9.389724
-14.587580
-11.389424
-1.965899
-3.178027
-6.402911
-3.350832
-4.400100
-7.054972
-7.268181
-7.003377
-5.686197
-1.458664
0.034431
-2.775842
-6.867243
-13.204500
-19.689698
-20.002365
-15.171254
-16.595971
-19.769883
-18.063578
-14.203413
-5.570570
6.551340
10.606067
6.849090
-0.945830
-12.461674
-14.386782
-10.506104
-9.661965
-10.690720
-12.274567
-12.057627
-10.954278
-7.178652
-5.282136
-4.193084
0.767942
3.943720
2.586758
2.783186
2.909372
1.728946
8.309252
16.829585
19.974904
17.576755
14.290954
12.690945
8.381983
2.446283
-2.179697
-4.083671
-2.755301
-1.629575
-5.444361
-10.941209
-10.524112
-1.471063
0.487613
-6.875913
-13.510297
-17.697424
-20.890606
-28.242943
-29.035488
-24.927303
-22.627366
-19.623772
-17.571855
-13.721015
-9.167140
-10.888984
-13.077652
-12.234756
-12.011599
-6.251190
-0.782934
-2.489238
-6.761525
-6.419020
0.984911
11.347680
18.583157
18.185953
13.424463
12.355926
15.670321
16.607080
15.746158
15.112744
16.172580
15.874833
10.459415
5.913000
5.507715
4.569093
3.494339
0.689039
-2.272906
-0.519359
1.303808
5.546259
5.087516
2.402185
2.489210
-2.414627
-6.364301
-5.799262
-3.460164
-1.618349
-1.300087
-2.578105
0.012122
4.104145
6.225681
6.399110
0.546083
-6.294674
-10.468748
-15.355180
-18.473147
-18.258071
-16.702195
-12.813436
-10.333234
-6.205158
-4.837627
