EVENT_NAME: 202010301151
EVENT_ID: 10614
EVENT_DATE_YYYYMMDD: 2020/10/30
EVENT_TIME_HHMMSS: 11:51:24.00000
EVENT_LATITUDE_DEGREE: 37.879
EVENT_LONGITUDE_DEGREE: 26.703
EVENT_DEPTH_KM: 16.54
HYPOCENTER_REFERENCE: AFAD
MAGNITUDE_W: 6.6
MAGNITUDE_W_REFERENCE: AFAD
MAGNITUDE_L: 
MAGNITUDE_L_REFERENCE: 
FOCAL_MECHANISM: 
NETWORK: TK
STATION_CODE: 0905
STATION_NAME: 
STATION_LATITUDE_DEGREE: 37.85997
STATION_LONGITUDE_DEGREE: 27.26501
STATION_ELEVATION_M: 24.0
LOCATION: -_-_-
SENSOR_DEPTH_M: 
VS30_M/S: 369
SITE_CLASSIFICATION_EC8: B
MORPHOLOGIC_CLASSIFICATION: 
EPICENTRAL_DISTANCE_KM: 49.38
EARTHQUAKE_BACKAZIMUTH_DEGREE: 
DATE_TIME_FIRST_SAMPLE_YYYYMMDD_HHMMSS: 2020/10/30 11:51:01.9260240
DATE_TIME_FIRST_SAMPLE_PRECISION: millisecond
SAMPLING_INTERVAL_S: 0.01
NDATA: 10501
DURATION_S: 
STREAM: HNE
UNITS: cm/s^2
INSTRUMENT: sensor = CMG-5T/GURALP | digitizer = 
INSTRUMENT_ANALOG/DIGITAL: 
INSTRUMENTAL_FREQUENCY_HZ: 
INSTRUMENTAL_DAMPING: 
FULL_SCALE_G: 
N_BIT_DIGITAL_CONVERTER: 
PGA_CM/S^2: 144.564
TIME_PGA_S: 
BASELINE_CORRECTION: BASELINE REMOVED
FILTER_TYPE: BUTTERWORTH
FILTER_ORDER: 
LOW_CUT_FREQUENCY_HZ: 
HIGH_CUT_FREQUENCY_HZ: 
LATE/NORMAL_TRIGGERED: 
DATABASE_VERSION: 
HEADER_FORMAT: DYNA 1.2
DATA_TYPE: Acceleration
PROCESSING: Manual Paolucci et al., 2011
DATA_TIMESTAMP_YYYYMMDD_HHMMSS: 
DATA_LICENSE: U (unknown license)
DATA_CITATION: Turkish Accelerometric Archive v 1.0 - Disaster And Emergency Management Presidency, Earthquake Department
DATA_CREATOR: AFAD
ORIGINAL_DATA_MEDIATOR_CITATION: : AFAD - Disaster And Emergency Management Presidency
ORIGINAL_DATA_MEDIATOR: AFAD PROCESS SERVICE
ORIGINAL_DATA_CREATOR_CITATION: AFAD PROCESS SERVICE
ORIGINAL_DATA_CREATOR: network: TK
USER1: GuestUser
USER2: 
USER3: 
USER4: 
USER5: 
[...]
-0.001030
0.008976
0.016482
0.007727
0.017734
0.001474
0.001474
0.000849
0.013983
0.005228
-0.010406
0.023366
0.022116
0.017738
-0.004775
-0.014781
0.008359
0.020867
0.003357
-0.001020
-0.000394
-0.006648
0.018369
0.000858
0.006487
-0.000392
0.006488
0.008365
0.000861
0.012118
-0.012272
0.003989
0.012745
0.005241
0.002114
0.002115
0.006493
0.018376
-0.001010
-0.007889
0.010248
0.014626
0.017754
0.003995
0.014002
0.002746
-0.016641
-0.006009
0.003373
0.041523
0.029015
-0.016013
-0.029146
0.009004
0.037773
0.001500
-0.004753
-0.020388
0.035899
0.041528
-0.031018
-0.003500
0.028396
0.000879
-0.029140
0.004632
0.035903
0.009011
-0.020382
-0.005997
0.022146
0.028401
0.005887
0.005262
-0.010372
-0.028508
0.016521
0.022775
-0.001615
-0.002865
0.010269
0.012771
-0.009117
0.010270
0.012773
0.013399
-0.007239
0.002768
0.036540
-0.007238
-0.015367
-0.024122
0.025910
0.047800
0.020283
-0.012863
-0.041005
0.010903
0.043425
0.042800
0.003400
-0.036625
-0.047882
0.010906
0.023415
0.007155
0.013410
-0.001599
0.026544
0.006532
-0.011604
0.007784
0.033425
-0.027238
-0.050377
0.054691
0.062821
-0.024109
-0.048499
0.017794
0.028427
-0.006595
0.015920
0.030930
-0.008470
-0.025981
0.015296
0.034059
0.000288
-0.021601
0.009044
0.033436
-0.004713
-0.015345
0.009672
0.020304
0.006546
-0.014717
0.009674
-0.000957
0.002170
0.023434
0.009051
-0.002831
-0.032225
0.005925
0.021561
0.007177
-0.002829
-0.007206
0.030319
0.029068
-0.007204
-0.012832
0.008432
0.005931
0.010934
0.003430
0.009059
-0.004699
-0.010327
-0.002196
0.001556
0.016567
0.009688
0.024072
0.017819
0.003435
0.002185
0.006563
0.014069
-0.004067
-0.010321
-0.011571
0.007817
0.022201
0.009694
0.005942
-0.004064
0.003442
0.012823
-0.001560
0.000942
0.019704
0.002193
-0.000933
0.002820
-0.011564
-0.017817
0.003447
0.034092
0.027839
0.001572
-0.005307
0.002824
0.005952
0.010330
0.010956
0.000950
-0.004053
0.001577
0.004079
-0.002175
0.004705
0.022842
0.014087
0.004707
-0.002798
0.022844
0.004083
-0.007799
0.009087
0.003459
0.012215
-0.013426
0.001584
0.019721
0.002836
-0.000290
0.013469
0.011593
-0.010920
-0.005917
0.021601
0.011596
-0.005915
0.007844
0.013473
-0.011542
-0.005913
0.015976
0.014101
0.004095
0.004721
0.008474
0.001595
-0.009036
-0.014664
0.017231
0.019108
0.018483
0.003474
0.007227
0.016609
-0.007156
0.009105
0.004728
0.012233
-0.004027
-0.001525
0.012860
0.002229
0.009109
-0.008402
0.007859
0.010361
0.012238
0.009737
0.014115
-0.007148
-0.009649
-0.000268
0.007238
0.014743
0.002236
0.010366
-0.005268
0.000361
0.007241
0.041013
0.013496
-0.004640
-0.019024
0.004117
0.009120
-0.004013
0.021004
0.005995
0.008497
-0.002134
0.000993
0.006622
0.007248
-0.007135
0.014129
0.004748
0.000371
-0.004006
0.016007
0.013506
0.021637
0.002875
-0.005254
0.009756
-0.017136
0.032271
-0.001500
0.012885
0.011634
0.004756
0.006007
0.006007
0.012887
0.008510
0.017266
-0.002746
0.005385
0.017893
0.033529
0.034780
0.051666
0.063549
0.044163
0.015395
-0.010246
-0.037138
0.009142
0.009768
0.034785
0.066681
0.068557
0.038539
-0.059648
-0.120937
-0.170343
-0.120936
-0.032754
0.065434
0.124222
0.164873
0.139233
0.074817
0.001646
-0.061519
-0.064645
-0.016489
0.082950
0.149868
0.134859
0.093583
0.061688
0.020413
-0.001476
-0.005853
0.024167
-0.038998
-0.100287
-0.045251
0.064820
0.042306
-0.048376
-0.059633
0.080457
0.083584
-0.095905
-0.193466
-0.221609
-0.187211
-0.166573
-0.071511
0.032931
0.067328
-0.000214
0.071707
0.156762
0.159264
0.143629
0.234313
0.348136
0.225558
-0.033982
-0.145928
-0.026476
0.112989
0.275593
0.255581
0.117368
-0.072753
-0.165311
-0.158431
-0.246612
-0.278507
-0.107147
0.136134
0.231195
0.049830
-0.071497
-0.038351
0.016060
-0.047105
-0.085254
0.111122
0.203681
0.211812
0.144895
0.137391
0.003556
-0.163425
-0.149040
0.043583
0.098619
-0.036467
0.099245
0.408818
0.414447
0.303127
0.362540
0.244340
0.188055
0.066103
-0.049596
-0.052097
-0.194687
-0.296627
-0.114635
0.080490
-0.166542
-0.377926
-0.205316
-0.007064
0.094251
0.118642
0.364425
0.464489
0.094879
-0.167788
-0.179045
-0.125885
-0.114002
0.094881
0.310019
0.314397
0.057985
-0.068971
0.135535
0.134285
0.014834
0.066117
0.158677
0.157427
0.079878
0.069246
0.215590
0.038603
-0.068965
0.285011
0.199332
-0.313494
-0.501113
-0.212179
0.043610
0.021721
0.153681
0.248742
-0.261583
-0.799425
-0.729380
-0.485474
-0.117739
0.405095
0.697157
0.918548
0.884152
0.223732
-0.361016
-0.377901
-0.140249
0.072387
0.470141
0.864143
0.608355
-0.105224
-0.205287
0.396347
0.548945
-0.011412
-0.629305
-0.611168
-0.321608
-0.040804
0.056134
0.060512
0.235624
0.193098
0.128682
-0.122102
-0.511100
-0.536115
-0.487959
-0.565508
-0.376012
-0.274696
-0.451058
-0.422915
-0.038294
0.383850
0.555836
0.478287
0.517687
0.612123
-0.104583
-0.701213
-0.339107
0.064276
0.149331
-0.027657
0.131195
0.378228
0.370724
0.646525
0.176226
-0.930104
-1.836306
-1.426669
-0.345980
-0.625533
-0.105200
1.468929
2.181258
1.497073
0.158720
-0.931349
-2.004533
-2.129612
-1.683077
-1.225285
-0.037027
1.179374
2.318851
3.423306
3.132496
1.114960
-1.006391
-2.097086
-2.828802
-2.817544
-2.153996
-1.287818
-0.070792
0.349477
0.096816
-0.290931
-1.003885
-1.170240
-0.818140
-0.304062
0.834790
2.294471
2.784159
2.155633
1.498965
0.797894
0.211896
-0.346585
-1.412264
-1.091433
0.778509
1.124355
-0.527948
-2.357864
-2.451048
-1.880058
-1.523580
-0.873165
0.582764
1.945508
1.556510
0.772261
1.055567
1.590909
1.006162
-0.734322
-1.776861
-0.833134
-0.820626
-0.392853
1.264454
1.580281
1.026179
-0.419743
-1.709314
-1.598618
-1.440392
-1.707436
-1.030129
0.427676
0.999291
1.093101
2.173165
2.959917
1.652209
-0.150189
0.070577
0.792287
0.772901
0.812301
1.442704
1.747273
0.798544
-2.084543
-5.626176
-7.002678
-7.305370
-5.790654
-2.005741
0.978663
2.225708
2.210699
2.442097
1.541523
-0.675514
-1.550447
-0.994467
-0.119533
0.162522
0.674099
1.499000
1.117507
-0.671132
-2.415994
-2.996989
-2.220869
-1.288399
0.186292
1.024327
0.736018
-1.166444
-3.317815
-3.753717
-3.744961
-4.367232
-5.946364
-4.281552
-0.350295
1.711645
0.600938
-1.626107
-3.126438
-4.114567
-5.758114
-8.449830
-9.431080
-8.638699
-7.081456
-4.744966
-2.006344
1.577191
5.138837
6.779258
6.751116
5.542220
0.901137
-3.972594
-4.926952
-3.770589
-0.142651
4.334579
6.838050
6.743616
3.133815
-4.005736
-7.705594
-5.736839
-1.988198
1.139421
3.297047
5.961246
7.711737
7.220175
4.363979
3.611000
6.911229
7.245818
1.292648
-6.746851
-13.559944
-18.078449
-18.226668
-11.060224
1.455881
12.850020
18.212189
17.982043
14.275305
9.885632
4.290816
0.052490
1.463390
6.282087
10.707409
9.058233
2.109429
-0.484725
3.804260
5.725485
3.722959
0.612227
-1.338391
0.540307
1.615368
4.965629
15.116476
21.728191
17.699999
3.544725
-12.025200
-20.088465
-22.821456
-24.578826
-20.394283
-4.780579
11.984485
23.859555
24.225414
14.011403
1.882422
-7.506688
-11.814434
-10.608665
-6.473528
-5.613605
-2.245832
0.523434
6.336515
11.546712
9.066382
7.322771
8.537921
7.526652
1.028134
-4.025712
-4.639228
-4.097632
-5.829986
-8.072039
-5.743680
2.913715
5.502241
5.051954
1.252658
-2.939389
-3.474730
-6.626739
-6.220855
-0.786765
5.079475
13.470450
22.139102
17.117151
9.753707
0.423385
-11.251557
-20.078434
-22.416799
-17.144062
-2.991915
14.260959
16.619338
10.328454
-0.857427
-6.924419
-8.380972
-11.318469
-12.510479
-15.034587
-14.851345
-9.120191
-9.070158
-15.260979
-11.881324
-8.489161
-2.102589
11.360369
12.746253
10.123957
9.519197
7.257130
7.438496
13.615560
13.840704
12.062070
6.676137
-6.958804
-15.159657
-23.304849
-21.674434
-10.091424
-4.462210
0.120086
9.524833
14.199688
15.686887
8.609250
-4.570401
-15.445458
-23.895845
-18.147180
-9.868151
-7.285254
-0.909939
1.879339
5.860628
9.393506
3.643591
8.911324
14.336033
18.180359
23.972177
11.783157
-6.859977
-13.796274
-16.071474
-14.931371
-10.916311
-9.686151
0.963764
6.859398
5.994472
10.859449
14.066494
11.797548
11.207172
13.572430
10.555507
3.397820
-4.768636
-6.745520
-4.112591
-0.095655
0.801167
2.186426
5.580465
16.331695
16.204114
4.732426
0.773653
-6.071335
-4.325847
-4.368374
-8.879374
-16.599295
-23.713830
-19.204079
-11.664272
-17.115872
-13.494813
-4.128216
-0.069378
6.897564
2.492256
-2.934328
-7.170778
-8.123260
-8.462851
-2.090663
1.861232
-1.858014
-6.819301
-1.634120
7.114583
13.361065
17.115960
13.748188
8.355376
3.177701
-5.325845
-3.197613
11.306009
23.823990
29.692106
15.791370
1.273365
-4.459039
5.898190
2.292767
-2.996855
-14.001370
-17.572396
-14.724329
-15.719338
-2.106284
-2.163195
5.350971
14.754466
19.698868
15.129706
5.260290
-14.332825
-21.425471
-17.840685
-14.688050
-6.440917
-3.260139
2.375955
12.678773
15.530592
4.898815
-3.611610
-8.420300
1.088888
7.629933
2.060758
-10.074478
-13.796225
-4.443387
-2.737299
-6.772996
-8.046307
-7.540359
-3.404597
4.190245
1.817483
-5.335201
-8.456565
-11.886877
-13.618605
-9.607297
-8.396525
-10.773039
-12.934417
-6.495937
12.489917
14.055291
9.082746
13.094679
13.644405
16.840193
11.057132
0.814978
3.152719
4.815655
-5.874910
-15.056388
-8.293326
1.118925
6.332874
5.774394
6.294101
15.323608
16.543761
5.880714
-12.401566
-20.810050
-18.026400
-15.090153
-14.407217
-10.452195
-1.430193
15.893351
31.265026
19.494398
3.509833
4.259061
8.708148
9.808850
0.671776
-13.940664
-14.142042
-8.086306
3.078938
17.389311
19.055999
15.455579
7.221581
-0.270695
2.899451
-9.502204
-30.062811
-38.136082
-32.865221
-13.332769
-2.438323
-9.022520
-9.116955
1.264039
5.324753
3.309719
0.969477
5.089605
19.137936
34.472712
32.767876
15.184792
-3.918010
-7.851142
-7.045003
-12.808676
-14.131394
-3.665346
6.687504
4.615559
0.014501
1.203384
2.148988
11.276057
26.628970
28.951076
28.119296
13.823308
1.339725
5.179674
7.325417
2.310345
-6.668503
-14.692993
-16.083254
-15.955047
-9.284544
-2.859822
-3.860460
3.269086
7.828243
11.492454
11.875824
19.835899
32.228175
33.756024
24.460099
3.639951
-16.153917
-28.540563
-29.913312
-20.510442
-7.141294
0.457301
4.297875
2.359139
-3.311350
2.016422
13.267970
21.274325
17.043503
12.122867
14.117889
12.219179
10.558121
0.686828
-11.428395
-12.569121
-8.066250
-5.833576
-4.213793
-5.556524
-5.367653
-5.734136
-12.936852
-8.612220
-1.704691
4.678129
16.896544
12.901498
9.037785
18.568861
19.306207
13.335526
11.042815
8.604386
2.902002
-1.303804
0.703726
5.868269
-1.782233
-14.963760
-22.519201
-29.888274
-29.821981
-17.706757
-7.814200
5.320424
18.059171
22.739029
20.545757
12.508133
9.940247
8.802022
8.754492
1.098362
-7.425197
2.934533
18.364996
15.937199
-1.097410
-24.891954
-35.746373
-36.179149
-45.111718
-56.196283
-65.125725
-64.207014
-56.707233
-52.745957
-54.216268
-54.944232
-42.191727
-23.105809
-17.223934
-24.284059
-30.614970
-29.573055
-32.101541
-38.932771
-42.408111
-35.107206
-20.966941
-9.160038
3.194713
9.584412
11.117890
16.865930
19.648955
19.516996
28.289464
40.802442
54.998367
64.857153
57.816415
49.018307
52.276634
57.666321
66.951616
82.806724
90.390309
87.570387
85.080675
82.851129
67.578894
31.038725
-4.637768
-20.232084
-27.235298
-33.448634
-43.928439
-52.082387
-50.157409
-42.859006
-42.945310
-38.628808
-29.493609
-19.421562
6.803282
24.038645
40.729286
49.642468
39.364041
32.816118
25.216273
18.061087
15.537604
14.674554
5.893957
-8.081827
-15.581607
-19.213922
-22.918158
-17.816155
-2.557677
14.056039
31.593470
44.773122
47.051450
43.944470
41.396597
31.220735
18.311881
4.783257
-8.787269
-12.292002
-15.939952
-14.444624
-7.808518
-2.114887
5.984026
1.989605
-13.665374
-19.180765
-27.210258
-37.585622
-31.389796
-26.406619
-27.713076
-28.058296
-30.458576
-28.516712
-16.368342
-3.356922
2.867672
-0.681465
-7.955477
-17.253904
-24.157054
-24.041980
-25.779337
-32.621198
-40.805791
-52.115500
-64.118777
-70.858072
-64.555304
-45.374325
-31.811303
-25.442868
-18.935594
-10.822296
1.287924
17.246849
20.922317
12.471931
6.424951
4.096593
-0.558875
-16.615360
-35.730671
-39.294192
-34.952674
-35.092137
-39.728843
-51.450690
-55.633981
-50.707715
-50.790892
-50.598269
-43.259840
-33.216562
-7.806613
33.404660
62.495081
80.195740
93.761264
97.858251
99.930823
92.687456
74.307614
50.365477
22.303838
2.548119
-1.351867
3.050941
-3.431942
-8.263146
-11.164370
-15.558421
-6.451364
9.909691
26.013083
40.431650
43.529250
37.410975
33.827441
23.505237
10.511328
13.261207
28.227624
33.440322
33.535383
31.578511
26.798590
34.936278
42.072703
38.926323
44.933903
48.739455
31.075069
12.527621
9.642032
17.273147
23.413937
20.198763
1.618169
-22.789266
-43.847690
-66.943663
-83.439804
-97.264241
-89.417989
-54.386281
-15.717254
17.190601
37.275906
48.272291
53.009062
54.078494
33.682992
-1.219883
-32.847545
-44.316106
-33.599898
-11.772858
-6.104244
-14.808542
-21.781737
-27.444097
-23.991270
-29.798722
-30.723060
-21.299552
-8.939172
3.464361
17.066157
23.956175
38.023894
53.471868
69.145610
81.210177
73.023709
51.037818
32.151404
24.028100
-0.588217
-40.339183
-88.090874
-126.477220
-144.564375
-138.863240
-134.819411
-128.199565
-115.136862
-97.298615
-74.851805
-56.072332
-46.498729
-45.459941
-27.487858
5.218618
46.000242
79.033176
101.972800
115.422625
119.327615
110.776539
90.611810
64.808486
43.485518
34.393472
19.265704
-3.955349
-22.076901
-30.848743
-36.791906
-52.316803
-61.752192
-73.618506
-79.251472
-65.820409
-54.822147
-39.760670
-27.550385
-18.743520
4.840890
36.365988
59.106110
62.954189
52.935302
46.424903
37.162748
12.492647
-16.397020
-35.373492
-51.778324
-55.379369
-48.982166
-37.918237
-18.240067
13.714680
39.065217
48.957148
55.887817
64.385735
85.100191
110.076114
124.439021
116.834173
94.176604
51.763942
11.635235
-8.563266
-19.777915
-36.937603
-47.321097
-41.077742
-32.335293
-22.700400
-9.387538
-2.444986
-7.872821
-17.231286
-32.125781
-48.159752
-53.114786
-29.652328
4.089808
33.205245
47.903991
48.347399
34.926969
25.390891
33.544214
45.181633
39.292254
19.511520
22.352706
30.914415
30.305903
14.835416
-4.383711
-14.549566
-20.367024
-19.104969
-20.659710
-26.307685
-14.684650
6.190534
11.547699
3.609514
-26.215123
-53.895894
-47.651288
-34.370321
-20.528996
10.363823
34.873199
44.947747
47.401812
33.609269
2.486930
-27.429016
-32.222697
-27.577860
-11.734635
7.367544
6.812190
-2.311751
-17.483297
-39.047044
-41.275339
-27.645399
-18.433276
-3.176674
12.827904
25.228310
24.871833
11.168723
-10.959758
-33.786810
-51.319236
-55.276759
-51.771399
-43.990813
-24.971187
-6.813987
10.931702
17.795453
13.176259
6.056095
0.932830
5.487609
8.054871
9.820997
24.275212
41.019638
57.179315
66.131272
52.564499
29.034499
17.757310
4.582662
-5.530660
-10.196759
-10.916592
1.870310
22.934364
36.243474
28.026987
4.285602
-28.366463
-47.906419
-42.768769
-19.415130
4.842835
23.579780
32.325981
40.051532
45.185430
39.486173
17.769204
-7.623859
-31.676692
-55.055346
-68.301289
-67.722170
-45.851977
-17.790962
13.461462
24.755537
22.734874
16.153804
0.322463
1.359999
23.464091
38.381102
53.542643
77.916932
87.676904
80.009517
63.440830
43.453088
22.390286
12.961776
10.927354
12.377655
15.615970
19.065669
20.080066
19.832409
14.634721
4.403824
-11.458162
-29.185713
-43.393520
-51.746970
-38.606092
-23.949248
-20.941705
-24.039929
-29.024356
-33.506588
-31.821764
-19.981715
-0.778222
22.113247
39.765125
34.329160
18.546599
7.108683
9.879825
25.597346
19.588516
-5.272333
-39.387831
-56.002797
-49.087763
-36.528506
-29.378323
-29.093766
-18.109262
8.011765
30.920745
33.192819
20.054444
0.673965
-8.430589
-15.809042
-25.308848
-25.453940
-22.650277
-23.384495
-24.173122
-29.639731
-33.623520
-28.039335
-18.400690
-4.391133
6.180607
10.170651
8.821667
6.626518
3.495772
-1.263511
-3.635648
-2.868909
1.765922
10.590298
17.759243
25.330321
32.029592
32.856369
26.366608
11.120014
2.815970
4.084905
9.906742
19.299605
33.084018
46.760863
49.760901
37.867069
13.214479
-12.563830
-22.436373
-15.154855
-7.020919
2.742806
13.050627
14.169466
15.689185
17.560379
8.646572
-1.097765
-5.292939
-6.851432
-4.960225
-4.676294
-9.017186
-15.510074
-23.812241
-34.080037
-38.273334
-35.974368
-32.659755
-30.035581
-26.580878
-12.595087
6.076192
20.545416
27.655574
18.477849
-1.585566
-11.106635
-11.432467
-13.954699
-17.044168
-18.836561
-18.236177
-12.994710
-3.197839
4.163104
1.951695
-5.291673
-7.582507
-5.800121
1.044869
12.809869
22.759963
27.360396
30.377946
30.940805
32.955840
31.484903
19.063235
4.378248
-5.085284
-1.848220
10.881146
13.846787
6.751014
-0.713119
-5.254764
-1.982678
-6.139077
-15.862150
-22.914145
-29.298214
-33.519029
-38.382754
-44.945062
-50.030179
-47.491059
-42.382802
-44.704282
-48.843795
-50.636813
-41.938142
-24.360686
-7.890185
4.707221
11.353334
19.518540
24.656190
26.694365
26.052081
19.904413
7.352036
-1.769403
0.383219
9.858010
23.015148
27.136526
15.864341
-4.978946
-22.720256
-26.101161
-18.276797
-10.546243
-8.326703
-7.863282
-4.405452
-1.272204
3.632798
9.240749
11.185739
17.133907
26.338525
33.134734
36.577554
33.558129
25.991431
18.517917
16.511014
17.299642
17.330912
15.737397
14.337755
17.320907
20.775610
24.018928
23.941380
16.738038
7.249490
-2.244687
-12.047186
-21.156117
-28.174966
-34.295743
-42.470329
-50.634908
-51.557996
-42.784903
-29.139328
-13.785790
-4.935772
-6.281004
-12.824550
-22.356251
-32.549624
-34.613439
-23.827187
-2.921985
18.695547
28.758838
29.942093
27.838252
24.136518
18.876290
18.569220
24.145275
27.656889
33.548145
34.289869
22.664333
8.927451
-6.313514
-21.879687
-28.290023
-28.502033
-26.585186
-20.484421
-17.426221
-19.278651
-19.110418
-12.644421
-1.067040
12.043194
19.291565
16.669894
8.712947
-1.985122
-13.826421
-23.284324
-29.516422
-33.588392
-32.797888
-27.999203
-22.461923
-19.187960
-17.409951
-15.975911
-16.439956
-19.263631
-21.769603
-20.076648
-17.587561
-16.318626
-16.322378
-15.969653
-12.628773
-11.546832
-10.360450
-5.750636
-1.334695
1.792298
5.829248
11.177658
13.920657
15.553573
14.926299
11.611687
8.936857
9.995657
9.776768
5.971843
4.073133
2.316389
-0.584835
-3.492938
-4.345356
-3.367858
-4.828789
-8.369795
-10.689399
-11.832627
-8.426705
-2.471033
-0.674887
-3.025135
-3.008249
0.500238
1.660354
-0.357807
-1.871897
1.944286
10.026314
18.235923
23.608724
23.301028
19.615554
14.080151
2.759184
-11.233485
-20.627599
-22.870903
-16.716354
-8.238449
-2.049503
3.506539
6.000005
4.120682
-0.906898
-4.815639
-4.680552
-7.661202
-17.142871
-27.798413
-34.051149
-30.518271
-23.505675
-17.953385
-14.493679
-14.084668
-14.297303
-14.842024
-14.055898
-8.860085
-0.472862
9.142018
16.810657
