EVENT_NAME: 202010301151
EVENT_ID: 10614
EVENT_DATE_YYYYMMDD: 2020/10/30
EVENT_TIME_HHMMSS: 11:51:24.00000
EVENT_LATITUDE_DEGREE: 37.879
EVENT_LONGITUDE_DEGREE: 26.703
EVENT_DEPTH_KM: 16.54
HYPOCENTER_REFERENCE: AFAD
MAGNITUDE_W: 6.6
MAGNITUDE_W_REFERENCE: AFAD
MAGNITUDE_L: 
MAGNITUDE_L_REFERENCE: 
FOCAL_MECHANISM: 
NETWORK: TK
STATION_CODE: 0905
STATION_NAME: 
STATION_LATITUDE_DEGREE: 37.85997
STATION_LONGITUDE_DEGREE: 27.26501
STATION_ELEVATION_M: 24.0
LOCATION: -_-_-
SENSOR_DEPTH_M: 
VS30_M/S: 369
SITE_CLASSIFICATION_EC8: B
MORPHOLOGIC_CLASSIFICATION: 
EPICENTRAL_DISTANCE_KM: 49.38
EARTHQUAKE_BACKAZIMUTH_DEGREE: 
DATE_TIME_FIRST_SAMPLE_YYYYMMDD_HHMMSS: 2020/10/30 11:51:01.9260240
DATE_TIME_FIRST_SAMPLE_PRECISION: millisecond
SAMPLING_INTERVAL_S: 0.01
NDATA: 10501
DURATION_S: 
STREAM: HNN
UNITS: cm/s^2
INSTRUMENT: sensor = CMG-5T/GURALP | digitizer = 
INSTRUMENT_ANALOG/DIGITAL: 
INSTRUMENTAL_FREQUENCY_HZ: 
INSTRUMENTAL_DAMPING: 
FULL_SCALE_G: 
N_BIT_DIGITAL_CONVERTER: 
PGA_CM/S^2: 180.164
TIME_PGA_S: 
BASELINE_CORRECTION: BASELINE REMOVED
FILTER_TYPE: BUTTERWORTH
FILTER_ORDER: 
LOW_CUT_FREQUENCY_HZ: 
HIGH_CUT_FREQUENCY_HZ: 
LATE/NORMAL_TRIGGERED: 
DATABASE_VERSION: 
HEADER_FORMAT: DYNA 1.2
DATA_TYPE: Acceleration
PROCESSING: Manual Paolucci et al., 2011
DATA_TIMESTAMP_YYYYMMDD_HHMMSS: 
DATA_LICENSE: U (unknown license)
DATA_CITATION: Turkish Accelerometric Archive v 1.0 - Disaster And Emergency Management Presidency, Earthquake Department
DATA_CREATOR: AFAD
ORIGINAL_DATA_MEDIATOR_CITATION: : AFAD - Disaster And Emergency Management Presidency
ORIGINAL_DATA_MEDIATOR: AFAD PROCESS SERVICE
ORIGINAL_DATA_CREATOR_CITATION: AFAD PROCESS SERVICE
ORIGINAL_DATA_CREATOR: network: TK
USER1: GuestUser
USER2: 
USER3: 
USER4: 
USER5: 
[...]
0.022107
0.008985
-0.002888
-0.014136
0.001487
0.020860
-0.000387
-0.013509
-0.012259
-0.000385
0.022737
-0.004134
0.001491
-0.003508
0.007741
0.005241
-0.000382
0.002743
-0.017879
-0.010380
0.006493
0.006494
-0.004754
0.005245
-0.000379
0.011495
-0.007877
-0.001002
-0.001627
-0.002876
-0.011625
-0.010999
0.023996
0.048368
0.020872
-0.028495
-0.019746
-0.004748
0.002127
-0.007871
0.011501
0.003378
0.015252
-0.022867
-0.020992
-0.003494
0.012754
0.041500
0.001506
0.014005
-0.013491
-0.012865
0.000883
0.012132
0.009008
-0.020362
-0.000990
0.007759
-0.015987
0.012135
0.008386
-0.002237
-0.010986
-0.012235
0.016511
0.015887
0.000264
-0.030981
-0.005359
-0.000359
0.013389
0.004641
0.028388
0.026514
-0.004731
-0.012230
-0.013479
-0.005355
-0.020977
0.002145
0.027767
0.027142
0.001521
-0.001603
-0.025974
0.005897
0.015896
0.002773
-0.020973
-0.015348
0.019647
0.022772
0.020273
-0.027845
-0.017221
0.007151
0.010901
0.008402
-0.016594
-0.004721
0.010278
-0.030966
0.005904
0.042774
0.024028
-0.017841
-0.022215
0.007156
-0.004092
0.009657
0.014656
0.004033
-0.014089
0.005284
0.013408
0.003410
-0.014087
-0.016586
0.017785
0.007786
-0.000962
-0.007211
-0.012209
0.006538
0.004039
0.014038
0.010289
-0.006583
-0.014706
-0.003458
0.009041
-0.007206
0.000918
0.004043
-0.002206
0.010918
0.015918
0.014668
0.000296
-0.023450
-0.021575
-0.004702
0.025919
0.015296
-0.004076
-0.016574
-0.015324
0.009048
0.012173
0.013424
-0.010322
-0.002823
0.005301
0.012176
0.008427
-0.008446
0.002803
-0.006570
-0.003445
0.004054
-0.007818
0.005930
0.011555
0.002181
0.006556
-0.015315
-0.010316
0.015306
0.010932
0.014682
0.004684
-0.002814
0.003435
-0.005313
-0.000938
-0.015311
-0.019060
-0.004062
0.004688
0.011562
0.004688
0.012813
-0.010933
-0.007808
0.007190
0.013439
0.013440
-0.002807
0.012191
-0.000932
-0.011555
-0.004680
0.009068
-0.007179
-0.009053
0.009069
0.014069
0.009695
-0.009052
-0.004052
0.002822
0.006572
0.000324
0.002199
-0.012174
-0.005299
0.004700
-0.002799
0.003451
-0.004048
0.010951
0.007826
0.001578
-0.002171
-0.017794
0.007203
0.011578
-0.000920
0.001580
-0.002169
0.002206
-0.003418
0.000332
-0.000292
-0.006541
0.012832
0.005333
0.019082
0.004709
-0.018412
-0.000914
-0.006538
0.003461
0.007211
-0.004037
-0.005286
0.005963
0.000964
0.007838
0.011588
-0.004034
-0.004659
-0.000284
-0.000908
0.015340
0.006591
-0.004656
-0.006531
-0.002156
0.007218
0.004094
0.000970
-0.005904
0.015969
-0.000279
0.018469
0.007846
-0.007151
-0.006526
-0.020274
-0.002776
0.005974
-0.009649
-0.005899
0.009724
-0.004023
0.023473
-0.002148
-0.000272
0.002853
-0.005896
0.017851
-0.000896
-0.010894
0.012853
-0.007143
-0.006518
0.020353
-0.014016
0.005981
0.007232
-0.008391
0.020981
0.002859
0.004109
0.005359
-0.004639
-0.000264
-0.005888
-0.001513
-0.004637
0.029733
0.035983
0.004738
-0.006510
-0.029631
-0.057127
-0.062751
-0.007758
0.069106
0.085979
0.066607
-0.010881
-0.081496
-0.099618
-0.077745
-0.028377
0.052862
0.149098
0.142225
0.021618
-0.107113
-0.132734
-0.174603
-0.170228
-0.036497
0.140353
0.215343
0.135980
0.030995
-0.050868
-0.175224
-0.194596
-0.080237
0.000377
0.100988
0.153481
0.168479
0.105363
-0.010244
-0.082734
-0.102105
-0.158972
-0.180843
-0.004618
0.204727
0.245972
0.099118
-0.065233
-0.079605
0.037878
0.046003
0.065375
0.065376
-0.066480
-0.157091
-0.163340
-0.128345
-0.095224
0.022885
0.200359
0.224731
0.033509
-0.164587
-0.212080
-0.114593
0.057883
0.034136
-0.151462
-0.148961
-0.001482
0.173493
0.232860
0.169120
0.046638
0.002894
-0.005229
-0.050222
-0.116462
-0.080217
0.140377
0.179122
-0.039596
-0.242067
-0.117084
0.032894
0.049767
0.088512
-0.000849
-0.153952
-0.156451
0.049770
0.238493
0.225995
0.051646
-0.202692
-0.315801
-0.168321
-0.067710
-0.206440
-0.073334
0.202252
0.129138
0.093519
0.131014
0.112267
-0.026463
-0.350791
-0.580132
-0.255179
0.297242
0.517211
0.490340
0.288495
-0.107698
-0.639496
-0.696987
-0.339538
-0.085199
0.208509
0.606577
0.585956
0.122273
-0.183933
-0.451394
-0.606996
-0.544505
-0.058324
0.263505
0.144773
0.282878
0.370991
0.201016
-0.313285
-0.533253
-0.208299
-0.088941
-0.113937
0.102907
0.370369
0.587214
0.212893
-0.430139
-0.367648
-0.063941
0.101036
0.214145
0.351626
0.279761
0.073541
0.238518
0.399745
-0.158924
-0.838826
-0.942560
-0.562614
-0.025816
0.395374
0.524106
0.452866
0.197278
-0.137673
-0.205788
-0.168918
-0.263903
-0.569484
-0.730086
-0.372637
0.302267
0.852188
1.017790
0.821569
-0.060804
-1.145023
-1.238134
-0.403254
0.376635
0.142294
-0.603849
-0.470117
0.439127
1.113406
1.639581
1.490853
0.126049
-1.324367
-1.729933
-0.690082
0.852821
1.209021
0.397263
-0.098291
-0.377625
-0.646336
-0.571346
-0.475735
-0.352002
-0.399495
-0.378872
0.417889
0.972809
0.653481
0.092312
-0.945039
-0.977533
0.198548
0.147306
-0.354497
-0.011421
0.289162
-0.478228
-0.496350
0.620990
0.406022
0.563499
0.828462
0.225424
0.071071
0.294165
-0.346993
-0.781930
0.529757
0.682236
-0.059532
-0.805674
-1.081259
-0.248879
1.036562
1.705841
0.903457
0.176687
-0.582578
-1.669922
-1.598057
-0.635695
0.041084
0.767230
1.100307
0.689117
0.407283
-0.007657
-0.670686
-0.424471
-0.417597
-1.563682
-2.515419
-1.471819
1.692726
3.956776
3.358738
0.319800
-1.734279
-1.889256
-1.569927
-0.098263
1.815837
2.232653
0.575391
-0.550696
-0.937515
-1.084994
-0.883772
-0.833779
-0.728169
0.117335
2.055807
3.113780
2.148920
-0.450081
-3.519640
-4.398263
-3.090950
-2.371053
-0.535067
2.311399
3.321255
2.570113
1.598378
-0.228234
-2.211073
-1.848000
-0.315095
0.454170
0.741004
-0.008888
-1.836125
-1.937360
0.140467
2.293908
3.361880
3.023804
0.070479
-2.011721
-1.141221
-0.325088
0.457300
1.695872
0.929733
-2.441032
-3.865202
-2.241685
-1.186836
-0.075745
0.671648
-0.174480
-0.384450
1.019724
1.232194
0.548543
-0.259466
-3.029692
-5.320612
-4.771316
-1.043101
2.885084
4.076788
2.781350
1.781494
1.196579
-0.088861
-2.484141
-2.427274
-0.036992
0.592918
1.793995
4.015552
4.775443
1.818368
-0.455054
-0.195091
0.314211
0.516057
0.354206
1.991471
4.019305
3.060068
-0.285700
-0.703765
0.274220
-0.346315
-0.640648
-1.827976
-3.135913
-3.867682
-3.813940
-2.709098
1.935860
7.148236
8.491793
6.498330
-1.074956
-9.616852
-11.286612
-5.011264
5.643455
12.250631
10.471512
3.015709
-4.884405
-5.549309
-2.925935
-2.676596
-0.759371
2.505160
3.427528
5.171028
7.979375
9.980962
9.487284
4.586114
-2.748456
-7.828976
-9.090044
-7.822101
-8.040194
-11.054135
-9.377501
-2.535984
6.809548
11.476378
12.792439
9.681636
0.279863
-6.704132
-16.617082
-20.153448
-11.407205
-3.348363
5.634721
14.240360
12.605595
5.255402
-1.395516
-12.040861
-20.990199
-22.403745
-13.984330
2.417688
20.990018
31.589120
27.810289
12.228154
-0.576880
-5.929860
-18.274335
-27.373651
-23.532953
-10.215492
7.785671
23.045353
18.639111
9.249837
-2.525345
-18.691771
-22.057537
-12.678259
-2.959031
-2.387238
-3.525199
-1.144291
5.256040
5.611614
7.316994
3.199462
-3.034642
-12.092714
-16.787664
-12.474534
-0.476883
7.026414
4.136205
11.101454
14.527837
13.584848
5.503510
-1.382999
-4.428811
-7.393385
-14.814192
-14.287393
-4.537544
9.649167
22.671671
26.270529
17.598026
1.941527
-7.332764
-10.687907
-3.413327
0.174283
1.980899
5.306671
10.408438
3.835633
-9.462455
-12.287673
-7.532731
4.806745
12.408153
1.661573
-13.115677
-8.902532
2.252115
11.860734
19.659613
12.311295
-2.683424
-14.861048
-21.689441
-23.056119
-10.082359
3.097622
3.688163
7.741955
6.784593
4.889241
3.425702
11.099600
15.712062
6.903329
-8.080767
-10.882864
-4.898724
-4.685004
-7.777059
-10.877238
0.743592
10.258475
17.325584
19.090331
12.804360
3.147624
-2.810269
-12.078937
-10.688511
0.049321
2.238382
1.592850
-1.516078
-4.370042
-14.310488
-16.238960
-8.091381
3.938140
11.067116
9.674817
11.660781
9.223632
3.740046
3.502581
7.278288
3.829409
-5.254284
-3.517034
0.594251
5.502921
1.249782
-5.656724
-15.645288
-24.212806
-11.120938
7.911952
3.557578
-7.638312
5.900367
7.304541
-0.338110
7.034581
4.180616
-10.516021
-11.224668
1.060441
5.542297
2.227149
-1.187984
-7.606436
-15.664027
-15.878996
-7.382092
6.182208
24.996379
26.060602
14.464144
-4.337528
-10.885336
-10.252926
-8.131981
-9.507408
-7.560187
-4.443135
-6.213505
3.528845
5.541056
3.475729
-8.078235
-18.869183
-22.349933
-4.912439
11.375845
27.954087
23.921543
10.355993
-12.646950
-14.701654
6.489050
22.492375
29.341391
17.797426
12.255723
1.285425
11.202750
9.676720
4.974896
-10.888448
-17.903689
-17.888066
-5.776681
-2.025970
-5.676070
-2.565892
-14.175472
-11.446489
-2.580888
4.216260
-3.253916
-6.663425
-15.731496
-24.132788
-13.297470
7.170838
6.302838
6.817765
8.385665
3.783202
3.551361
2.202180
0.222465
-1.347934
-6.644047
-5.415473
6.122244
15.522143
23.411634
19.672172
10.882186
0.211221
-3.755084
-4.071288
8.893099
17.885557
9.614246
-5.841032
-11.939530
0.155607
3.733218
2.094704
12.535079
12.656937
-0.431181
-6.222224
-1.607262
2.933961
-3.028306
-9.388642
-4.515592
5.581707
-1.245436
-8.607502
-9.706719
-6.884624
-6.867751
-14.780988
-17.093780
-7.349555
1.671023
1.296078
-3.033300
-13.722388
-20.909479
-20.193956
-3.585093
8.704390
1.314203
-5.511065
3.830092
17.599988
28.962105
33.036520
13.956138
-1.851589
-6.752759
-7.374544
-3.151401
2.858361
2.726505
-3.716318
8.490678
16.095210
11.015940
11.004068
12.959412
1.111741
-18.676040
-23.066033
-27.616628
-25.017627
-14.467893
-0.867347
11.675225
15.595912
16.667008
14.669171
15.981483
17.518137
7.090887
-3.504465
-5.385444
-9.333001
-9.159276
-5.157350
-2.372125
-6.041597
-14.804712
-14.864078
-11.917626
-14.892198
-12.122596
2.941489
12.765077
12.197034
23.182331
27.684809
20.031534
15.228475
6.237893
-0.864836
2.764643
7.077774
-6.646503
-16.396351
-18.672274
-16.707556
-12.986215
-5.540410
2.853384
0.015667
2.686534
-0.214299
-10.089129
-11.714520
-0.531752
5.071818
5.704228
5.229296
-1.690334
-4.469934
-3.816902
2.304718
4.193822
0.474357
-0.628609
-0.250537
-0.905443
0.911171
4.208823
3.167098
4.326307
5.048703
-6.926450
-17.369323
1.113645
33.998294
40.545478
29.229605
19.224169
1.159891
-19.370907
-23.867136
-13.037442
-9.697297
-11.955722
-7.403875
-4.703013
-9.266732
-6.062817
-2.555196
-5.805353
-0.757953
7.024054
5.321799
-4.696136
-2.488328
-0.934176
-5.314796
12.090828
37.247212
47.966297
53.635482
50.368452
41.355998
36.444205
26.285665
11.385933
-0.343006
-2.237733
-5.524760
-15.556443
-15.693298
-2.902011
2.592200
5.134960
7.625227
5.641138
8.790686
25.677633
45.035476
45.055474
36.857903
30.846267
25.953221
21.093920
16.654559
6.673494
-9.791014
-27.829046
-53.433490
-72.022067
-87.441725
-98.025203
-87.141767
-77.841854
-66.117914
-46.358878
-35.610423
-20.943156
2.528470
17.098251
25.387060
27.351153
19.978464
13.677495
12.914480
0.510638
-16.233204
-19.398999
-13.516094
-3.838735
7.252171
26.389421
45.715393
58.472935
60.716363
57.823654
51.956998
40.987325
44.588683
61.784336
53.697999
34.287040
28.521619
31.207484
35.230031
29.620213
16.635205
-2.359564
-17.674862
-25.870559
-39.513597
-71.149049
-90.779977
-97.569625
-106.286497
-94.708161
-70.571005
-53.497834
-43.483648
-36.901469
-32.069663
-28.192095
-28.313327
-27.124747
-23.625875
-22.229825
-22.563527
-23.818971
-31.508490
-43.746105
-48.092980
-48.830374
-53.274734
-40.079131
-9.694748
16.217777
34.432659
50.604710
69.491371
88.669239
99.305211
90.118407
80.267323
76.835317
69.334521
58.270487
42.259664
29.359643
26.713149
32.640423
30.520728
15.459768
0.695641
-11.753819
-25.895536
-36.490887
-45.774552
-51.558095
-37.050180
-11.438862
3.211533
16.508372
40.906740
49.011200
31.959277
12.559566
-6.025887
-22.517890
-31.565339
-33.778771
-32.379597
-29.665611
-18.555958
-3.527493
9.141936
25.777671
39.644428
43.925063
48.988085
47.591412
31.920540
19.392341
17.126417
22.010716
25.029032
16.130312
7.791511
6.823525
7.151604
2.467277
-3.648093
-7.933726
-17.057415
-13.435435
-1.449657
6.462956
5.120024
-9.610983
-24.244504
-24.991271
-16.288147
-11.013904
-9.902189
-9.885941
-4.423600
20.586555
48.934980
53.440583
37.983430
11.119792
-6.537669
-18.811529
-23.828307
-20.576275
0.387587
12.413984
5.353749
4.613856
-6.513919
-13.687887
-17.374232
-16.641212
-13.571028
-13.152962
-17.034904
-30.962276
-50.478220
-78.852266
-103.411235
-84.722672
-48.473507
-23.810802
-4.073638
9.672511
21.080871
31.796207
41.305465
24.672231
0.821285
-22.885931
-49.865802
-65.682278
-68.000695
-60.634878
-50.132012
-53.992707
-63.443848
-66.111589
-81.529372
-83.719682
-63.797545
-34.761094
5.926808
49.249955
74.891270
94.872773
106.672952
116.555282
122.843129
106.854802
78.951314
44.321292
7.689684
-28.302642
-42.516848
-53.893962
-56.745427
-42.213141
-18.270332
14.672433
60.604581
92.368140
87.689438
71.248677
47.970773
15.059880
-8.534228
-19.970709
-45.542657
-44.872128
-35.004796
-26.201686
-2.198886
27.728687
53.493734
74.685688
95.835773
95.415834
76.007999
53.996789
21.789544
-28.476355
-65.228571
-110.463318
-159.150694
-180.163923
-177.027498
-151.438052
-108.484226
-53.132807
-2.636315
41.953525
81.330990
110.218088
117.400181
122.766910
138.196567
146.975931
148.696309
112.738353
54.313627
4.860737
-14.171527
-40.483994
-71.594522
-64.784250
-64.594277
-65.110452
-37.318197
2.071766
28.322368
49.802406
48.945029
39.070199
36.633675
20.286025
-6.643228
-35.141006
-64.639890
-71.578267
-59.493754
-47.310505
-37.818744
-32.721351
-32.923822
-41.493839
-57.736504
-78.196688
-79.648353
-59.868696
-26.950928
-3.065611
5.723751
5.927472
6.576754
10.095624
15.551090
15.851047
16.384096
26.346415
46.205435
52.822610
53.043203
56.139009
29.148514
-8.079884
-31.973324
-46.719954
-72.914313
-77.341176
-33.328127
4.576424
21.320268
45.520539
51.914621
36.590574
24.236725
6.150576
-35.148487
-49.873870
-42.070616
-47.486712
-46.586216
-35.656537
-28.829393
-33.901788
-24.024458
-17.353541
-2.044492
29.066037
45.406188
47.005334
50.385473
35.526360
-3.964838
-29.899859
-35.273461
-41.780026
-22.972729
3.365986
1.939316
-0.821537
-2.503169
0.443907
0.342047
16.027918
36.206893
50.546082
53.490659
35.311398
-1.020879
-18.390882
-24.550621
-38.048680
-7.526817
10.736808
9.222651
21.049701
40.884975
39.572040
24.203624
24.657309
15.046816
18.416333
46.463551
66.123850
60.124713
53.788749
41.761729
13.703888
-13.777162
-31.820193
-44.657722
-46.632437
-25.839176
-2.485658
22.565742
44.910030
46.617285
37.096779
27.650637
14.689376
-3.849209
-19.170131
-27.271466
-44.382756
-59.201875
-67.866254
-69.297923
-70.849574
-67.348202
-40.354582
-23.857578
-20.573675
-14.882617
-10.804453
-8.957218
0.658275
12.170371
12.270357
7.296697
11.853542
20.937862
30.640218
30.055927
19.749284
13.321459
20.098610
39.523943
55.462277
58.782425
41.454292
17.122165
-23.551363
-50.642468
-76.116306
-83.576483
-40.919489
-13.117860
9.127067
32.874279
49.316291
40.767520
26.915137
23.341901
5.207008
-8.624753
-10.069545
-18.043398
-29.856699
-24.836796
-23.606972
-25.454206
-17.458480
-26.594041
-41.578137
-40.215207
-31.463340
-25.281728
-9.061559
19.161259
24.061180
26.427090
34.434065
36.819972
36.119448
40.735660
43.003460
37.810457
32.196889
16.130449
-4.641565
-9.900183
-4.066646
-5.952000
2.544904
7.567308
10.781221
15.362438
25.506605
36.212567
39.021538
35.820749
34.802146
33.384850
24.644857
13.524581
-1.560126
-13.735875
-17.137260
-0.922091
8.918995
7.411712
1.444445
-3.481721
-4.240362
-1.101438
1.522561
5.319515
1.546308
-8.037939
-10.305737
-10.386975
-15.099422
-26.595269
-22.806439
-16.195513
-21.131053
-24.557436
-17.177871
-10.298859
-7.989816
1.470075
8.899632
5.581360
3.379802
1.078258
-5.650774
-8.599725
-7.589870
-7.240545
-4.125992
5.014570
15.012508
15.469318
5.874447
-6.787482
-17.955876
-20.502385
-12.607894
0.988902
3.830994
-4.434693
-12.240445
-21.322264
-25.890982
-17.249099
-11.154974
-11.372443
-4.290960
2.947375
2.823018
-1.208902
-4.860877
-5.914475
-1.663210
4.756492
6.498742
1.671936
-6.542507
-12.956585
-15.806175
-17.330330
-12.992828
-4.429684
4.892102
16.559800
26.212788
27.018922
23.414441
22.379590
18.150823
5.630748
-11.566154
-21.787184
-26.150932
-24.811749
-21.412862
-15.538081
-12.424153
-14.914420
-18.092087
-18.914469
-16.212982
-17.307199
-11.589895
-1.345743
2.971762
2.923645
1.776310
-0.098420
5.394541
18.450789
31.758877
38.065471
38.244820
24.548665
-2.401211
-27.603213
-34.659698
-40.564474
-51.699748
-35.572690
-21.622195
-14.046409
2.938025
11.508043
2.537458
1.538852
15.908662
23.688794
25.724127
27.221412
20.244291
8.017299
4.200973
4.147856
1.325762
2.950529
10.299473
10.664421
10.376963
9.055903
4.094117
3.071764
6.461277
9.827044
9.953901
8.376003
8.377254
11.834882
16.265495
18.026493
23.847531
29.619202
26.937088
17.743410
6.801858
-1.970630
-10.521900
-16.321691
-27.998137
-38.084187
-38.504126
-33.508594
-22.777636
-9.492045
-1.809399
-5.153918
-7.927894
-6.611208
-7.829782
-11.761092
-16.325435
-20.214251
-20.108015
-12.429119
-5.353260
-5.608848
-6.315621
-1.563179
11.451201
26.088472
38.526059
46.884858
50.888658
52.849002
48.030945
40.308305
34.472270
26.866489
13.416547
0.262189
-11.172417
-21.650910
-28.065613
-29.289811
-30.294042
-34.692159
-38.156660
-47.390333
-55.596653
-53.894397
-44.277654
-26.065896
-4.054060
12.339834
21.497893
29.232406
29.207410
18.970757
9.673344
5.940131
1.262679
-4.640847
-6.993008
-6.861777
-4.768952
-0.187735
1.813228
3.959795
13.527170
25.114254
28.373161
24.308121
19.864385
14.128960
10.704453
13.914617
19.431949
19.988120
18.219624
15.443774
7.489918
1.578268
-0.397698
-4.682706
-10.523116
-12.022275
-8.368425
-0.910122
6.706909
14.222704
20.240589
19.513194
15.654999
8.667879
5.710180
4.700325
0.256589
-2.419275
-4.330875
-5.480709
-8.731492
-10.760575
-15.310545
-22.727603
-24.595460
-18.270118
-8.535267
-0.320823
9.978947
17.176038
17.273524
13.854016
10.937561
8.752251
6.474454
6.167623
9.888339
10.669477
5.347742
0.352836
-2.693601
-4.015286
-6.424939
-10.270635
-13.049611
-11.466088
-8.122818
-7.744122
-12.043503
-15.454263
-12.822766
-11.401094
-12.150361
-7.202322
1.608912
7.488067
9.716497
8.698519
8.658525
10.487013
14.498311
15.965601
9.496531
-1.841213
-12.967739
-20.084215
-22.175789
-20.294184
-14.648120
-5.113865
-0.491404
1.368329
5.972042
10.259551
10.505766
8.022999
4.970938
2.072605
2.562535
5.882683
8.883502
7.628683
2.991850
-3.992770
-6.818614
-4.047762
-1.656855
-4.216487
-12.358441
-16.494721
-12.750259
-4.047759
6.498225
14.811406
17.668496
16.817993
14.952637
9.490922
2.700024
0.078526
1.098380
2.901246
