EVENT_NAME: 202010301151
EVENT_ID: 10614
EVENT_DATE_YYYYMMDD: 2020/10/30
EVENT_TIME_HHMMSS: 11:51:24.00000
EVENT_LATITUDE_DEGREE: 37.879
EVENT_LONGITUDE_DEGREE: 26.703
EVENT_DEPTH_KM: 16.54
HYPOCENTER_REFERENCE: AFAD
MAGNITUDE_W: 6.6
MAGNITUDE_W_REFERENCE: AFAD
MAGNITUDE_L: 
MAGNITUDE_L_REFERENCE: 
FOCAL_MECHANISM: 
NETWORK: TK
STATION_CODE: 0911
STATION_NAME: 
STATION_LATITUDE_DEGREE: 37.76209
STATION_LONGITUDE_DEGREE: 27.39092
STATION_ELEVATION_M: 67.0
LOCATION: -_-_-
SENSOR_DEPTH_M: 
VS30_M/S: 307
SITE_CLASSIFICATION_EC8: C
MORPHOLOGIC_CLASSIFICATION: 
EPICENTRAL_DISTANCE_KM: 61.81
EARTHQUAKE_BACKAZIMUTH_DEGREE: 
DATE_TIME_FIRST_SAMPLE_YYYYMMDD_HHMMSS: 2020/10/30 11:51:09.0079700
DATE_TIME_FIRST_SAMPLE_PRECISION: millisecond
SAMPLING_INTERVAL_S: 0.01
NDATA: 10501
DURATION_S: 
STREAM: HNZ
UNITS: cm/s^2
INSTRUMENT: sensor = GMS+/GEOSIG | digitizer = 
INSTRUMENT_ANALOG/DIGITAL: 
INSTRUMENTAL_FREQUENCY_HZ: 
INSTRUMENTAL_DAMPING: 
FULL_SCALE_G: 
N_BIT_DIGITAL_CONVERTER: 
PGA_CM/S^2: 48.697
TIME_PGA_S: 
BASELINE_CORRECTION: BASELINE REMOVED
FILTER_TYPE: BUTTERWORTH
FILTER_ORDER: 
LOW_CUT_FREQUENCY_HZ: 
HIGH_CUT_FREQUENCY_HZ: 
LATE/NORMAL_TRIGGERED: 
DATABASE_VERSION: 
HEADER_FORMAT: DYNA 1.2
DATA_TYPE: Acceleration
PROCESSING: Manual Paolucci et al., 2011
DATA_TIMESTAMP_YYYYMMDD_HHMMSS: 
DATA_LICENSE: U (unknown license)
DATA_CITATION: Turkish Accelerometric Archive v 1.0 - Disaster And Emergency Management Presidency, Earthquake Department
DATA_CREATOR: AFAD
ORIGINAL_DATA_MEDIATOR_CITATION: : AFAD - Disaster And Emergency Management Presidency
ORIGINAL_DATA_MEDIATOR: AFAD PROCESS SERVICE
ORIGINAL_DATA_CREATOR_CITATION: AFAD PROCESS SERVICE
ORIGINAL_DATA_CREATOR: network: TK
USER1: GuestUser
USER2: 
USER3: 
USER4: 
USER5: 
[...]
0.012856
0.005322
-0.004549
0.000906
0.001685
-0.008966
-0.012083
-0.003771
-0.000914
-0.006110
-0.004291
0.002722
0.001423
-0.001435
0.005059
0.006098
-0.000916
-0.003774
-0.000397
0.001421
-0.003774
-0.004554
-0.003255
-0.004555
-0.004035
-0.005075
-0.001698
0.004277
0.005056
-0.000140
-0.006894
-0.004037
0.002976
-0.001440
-0.005856
-0.003778
-0.001441
-0.001701
-0.006637
-0.002740
0.006092
0.003234
-0.003520
-0.004040
-0.005080
-0.007158
-0.003781
-0.000145
0.001933
0.000115
-0.000146
0.004011
0.003750
0.002711
-0.000406
-0.003264
-0.001706
-0.003784
-0.008980
-0.006382
0.002969
-0.000408
-0.004824
0.000630
0.002189
0.004526
0.001409
-0.004046
-0.002228
-0.002229
-0.004827
-0.003008
0.001407
0.009720
0.013356
0.001147
-0.003269
-0.007426
-0.016518
-0.009764
-0.004050
-0.006907
-0.001193
0.008159
0.008158
0.005820
-0.002753
-0.007429
-0.008468
-0.012105
-0.005091
0.000363
-0.000936
0.001922
0.005818
-0.000677
-0.005872
-0.002236
-0.001197
-0.003016
0.000361
0.004517
0.002439
-0.000419
-0.000159
-0.001718
-0.008213
-0.007174
-0.000680
-0.005096
-0.006395
0.001138
0.002176
0.002176
0.001397
0.000617
0.000357
-0.003540
-0.000423
-0.000683
-0.005359
-0.002242
-0.004320
-0.001203
0.007888
0.009966
-0.000425
-0.010037
0.002172
0.001652
-0.006920
-0.005102
-0.005362
-0.000167
0.000352
0.000092
0.003729
0.002949
-0.010039
-0.007702
0.004507
-0.001987
0.003467
0.006325
-0.001728
-0.001988
-0.002508
-0.005886
-0.006146
0.001907
0.007102
0.006323
0.001646
-0.004588
-0.000692
0.001386
-0.001732
-0.004849
-0.011343
-0.001213
0.005541
-0.001213
0.000085
-0.001214
0.003721
0.007098
0.002942
0.001383
-0.006151
-0.015762
-0.008749
0.006837
0.003200
-0.003295
-0.000957
0.001641
0.006316
0.005537
0.001120
-0.010310
-0.026156
-0.022260
-0.013428
-0.009791
-0.004856
0.004755
0.026056
0.042161
0.044499
0.046317
0.040082
0.019041
0.005792
-0.000962
-0.007716
-0.005378
-0.008236
-0.014211
-0.011094
-0.018887
-0.033694
-0.043566
-0.035254
0.002932
0.035143
0.060081
0.083719
0.083719
0.054365
0.007087
-0.036035
-0.062272
-0.069545
-0.070325
-0.064091
-0.054999
-0.048246
-0.040193
-0.033959
-0.003047
0.033580
0.028125
0.006304
0.001109
-0.002009
0.010979
0.039294
0.047086
0.020590
-0.036559
-0.077343
-0.083058
-0.078902
-0.069811
-0.053446
-0.029547
-0.014741
0.023185
0.073320
0.089685
0.128390
0.182422
0.190734
0.158523
0.118258
0.025521
-0.091115
-0.093453
-0.055527
-0.061242
-0.071374
-0.089038
-0.119951
-0.111639
-0.029033
0.045780
0.080589
0.092538
0.136179
0.171767
0.135659
0.104486
0.010190
-0.052414
0.037465
0.046817
-0.129826
-0.243864
-0.211134
-0.141776
0.029931
0.121628
0.046815
0.008369
0.060842
0.070973
-0.072679
0.061101
0.275149
0.103183
0.073309
0.111495
-0.022546
-0.201526
-0.382325
-0.152430
0.153576
0.231246
0.192800
-0.064890
-0.114246
-0.036056
-0.086451
-0.184903
-0.211920
0.002129
0.127597
-0.029563
-0.104377
0.184225
0.238776
0.146818
0.346320
0.188900
-0.196336
-0.510915
-0.642618
-0.515851
-0.266215
0.254880
0.598812
0.834681
1.072628
0.546338
-0.361032
-0.565209
-0.191144
0.055116
0.483213
0.962745
0.354108
-0.704187
-0.880050
-0.760557
-0.820823
-0.346228
0.292282
-0.070614
-0.887844
-0.698993
0.246042
0.713624
0.730249
1.133408
1.494745
0.541137
-0.926552
-1.224766
-0.573788
0.277991
0.618806
0.390470
-0.070358
-0.688087
-0.309345
0.487362
0.379559
0.021858
-0.420008
-0.793294
-0.899280
-0.501316
0.296691
0.644000
1.118596
1.348231
0.569187
-0.430920
-1.225031
-1.347382
-1.015139
-0.439234
0.367865
0.652310
0.321626
-0.185182
-0.356369
-0.709134
-1.108138
-0.269348
0.625553
0.519047
0.463457
0.920129
0.962211
0.052243
-0.632245
-0.884220
-1.018780
-0.621336
-0.263376
-0.325201
-0.633026
-0.562629
-0.284418
-0.563669
0.104194
1.748525
2.254812
1.817623
1.337311
0.957011
0.539564
-0.221297
-0.683944
-0.680567
-1.058270
-1.467664
-0.915398
0.290964
0.608920
0.097436
0.341098
1.081956
1.276003
0.653079
-0.157397
-0.271436
0.142374
0.402662
-0.248057
-1.149193
-1.005801
-0.591212
-0.823444
-0.825782
-0.544454
-0.874879
-0.651479
0.301350
0.606057
0.743214
0.801402
0.341093
-0.521597
-1.137247
-1.075163
-0.945019
-0.218448
0.689440
0.959858
0.831273
0.109118
-1.175695
-2.748849
-2.027994
0.708401
2.388840
3.110994
2.446508
0.774122
-1.039059
-2.430376
-2.328028
-1.756798
-1.172840
-0.030641
1.182475
1.178059
0.563707
0.467073
0.003907
-0.177671
-0.061555
-0.390422
-0.101820
0.964268
2.235312
2.605221
2.265444
2.783421
2.753548
0.374073
-3.409966
-5.595134
-4.646982
-3.455686
-2.696904
-1.176483
-0.373281
-0.133775
-0.058443
-0.173260
0.399788
1.387685
2.015284
1.148698
-0.460305
-1.519639
-3.002394
-3.555181
-1.932411
-0.818267
-1.391315
-1.808762
-1.045824
-0.815930
-1.177007
-0.163393
0.527070
-0.541876
-1.434438
-0.889965
-0.125209
0.209892
0.786836
0.821904
-0.435632
-1.653425
-0.665527
0.680849
0.218462
-0.323933
0.177938
1.328190
1.675240
1.790576
2.227766
2.845234
4.416829
4.877657
3.321907
0.602916
-1.900468
-2.296095
-1.249490
0.122085
1.557302
2.588061
2.219969
1.270258
0.420816
-0.689432
-0.063651
1.511321
1.255969
-0.668392
-0.802432
2.060470
3.171757
2.684172
3.436200
3.149935
0.887876
-0.488635
-0.262117
-0.854908
-1.278590
-0.253026
0.906058
1.427672
0.873327
0.571736
0.986585
0.525497
-1.168970
-1.535243
-0.470974
-1.436012
-1.951132
-0.304983
0.728893
-0.363431
-3.857829
-7.446264
-9.447256
-8.271027
-3.227633
3.169151
5.972307
4.252903
1.404028
-2.899288
-6.665404
-7.683434
-4.338923
1.296223
3.152784
3.665565
3.284485
0.895659
-2.121545
-4.990942
-3.475196
1.354668
4.668008
4.774512
2.578174
0.436128
-1.345101
-2.541592
-1.387184
0.869680
1.578326
-0.633338
-2.721093
0.079984
0.702388
-2.530424
-2.922934
-2.855395
-3.613398
-2.643944
4.681511
12.209585
10.779043
7.952768
8.407102
7.479470
2.704416
3.323443
9.481761
6.350258
2.848326
7.064100
8.260850
5.595112
2.254496
-0.749201
-5.128109
-10.829496
-16.460745
-20.273619
-13.293915
1.359334
10.367046
12.042289
11.978126
7.308797
-6.290833
-15.903026
-13.757603
-9.639242
-3.066854
8.688164
14.380198
14.221739
14.450595
6.549233
-10.963281
-25.570551
-26.503378
-17.071984
-6.639965
4.200930
10.673827
11.779659
9.466425
-1.969079
-11.412422
-14.524442
-16.404383
-12.985318
-5.829231
9.851139
17.847315
9.467721
7.747798
5.274287
-3.886429
-9.513002
-12.423442
-14.614845
-11.994046
2.866237
17.420514
20.565264
19.348511
14.782310
4.685650
-5.059024
-4.650669
4.606940
9.994526
6.792107
3.987133
2.455281
-1.183548
-4.853550
-9.118160
-7.078722
2.187199
12.479984
17.305172
8.565280
-3.262213
-7.124703
-6.510871
-3.946962
0.298425
3.214579
-0.700124
-4.048792
1.138773
5.429879
4.147664
-2.040268
-10.167107
-16.237884
-17.761423
-11.184879
1.834689
17.373746
22.489356
17.297374
10.752521
0.906018
-6.635305
-8.064808
-4.742377
-8.323018
-14.671747
-5.990303
1.725583
-1.524893
-1.177064
6.774952
7.569322
-3.385352
-15.478068
-20.897867
-8.430305
10.500022
19.878683
23.396979
20.597720
13.643732
-0.377241
-18.091336
-25.417831
-26.248049
-24.933624
-11.777678
14.513693
34.808322
39.739236
30.929207
6.242682
-21.382079
-38.658204
-38.091651
-21.088282
1.030437
20.514849
24.500728
12.892479
-6.332166
-23.707004
-26.077127
-19.322641
-10.008663
-2.161334
2.405126
4.655236
2.447728
4.208694
7.557622
5.963166
1.658292
-0.266069
-2.368631
-7.768167
0.738453
16.028652
19.609553
10.390129
-4.499509
-8.731128
-7.398519
-7.948448
-4.195841
0.862100
5.592993
8.975431
8.672022
14.987239
26.756544
27.767041
17.563097
1.719332
-11.101774
-12.669993
-10.783559
-5.706914
7.027169
11.115396
4.239079
1.955459
-0.538833
-1.157860
-0.105021
-8.970900
-14.963227
-12.341650
-2.972340
5.562075
1.236679
-4.678757
-9.052989
-16.545995
-20.293148
-11.798477
-0.502729
-0.036965
-1.485431
-3.772169
-13.404883
-20.928542
-16.047762
-6.397125
0.732725
7.004562
6.477233
2.425892
2.376796
4.746918
7.613457
11.872611
14.127916
5.357371
-8.826997
-14.243158
-5.500409
3.240522
1.982725
2.306396
-1.418677
-7.684020
-2.635170
1.927653
3.038940
6.912599
12.314732
17.430342
21.592863
29.236014
34.189269
28.681149
13.409133
0.234743
-4.913858
-11.976428
-14.574368
-11.688606
-12.492068
-17.245042
-20.265364
-12.072544
-4.465241
-4.516155
1.576441
6.996499
0.267990
-7.982240
-6.868355
-0.704063
-0.182709
0.407484
10.827294
16.584011
9.922262
-0.088934
-6.841861
-5.780969
-5.137524
-10.395747
-16.984760
-15.465898
2.512380
20.912262
28.589702
25.893051
13.860601
-1.749633
-21.326264
-32.020130
-24.157215
-6.366749
15.101251
33.669722
32.733258
13.680060
1.095862
-7.797553
-12.383496
-4.113005
-0.545352
-1.237375
-1.784966
-8.711937
-16.922162
-20.797381
-16.581867
-8.981318
-7.581169
-7.765604
-5.904887
-8.419181
-3.279933
13.278454
15.019159
2.062194
-7.056959
-11.196881
-9.854141
-3.717124
6.769447
16.448660
15.017858
10.564656
5.072382
-3.887014
-6.344418
-0.983848
11.233297
19.136996
9.810028
-3.468009
-1.999542
6.899847
9.577275
12.373936
10.827018
-2.383999
-13.262561
-16.419521
-14.674140
0.051843
21.143440
27.880001
23.259769
16.091213
4.089675
-10.499931
-17.023743
-7.105025
-0.148700
-12.192580
-22.263263
-21.286536
-22.385874
-22.807478
-14.923262
-6.562891
-7.117756
-8.228004
-1.681853
2.798884
1.628110
0.061969
5.165109
15.119156
20.552721
23.884764
19.510272
6.106507
-8.181768
-21.027812
-25.447763
-16.372252
7.939688
32.437621
37.243327
24.747191
12.162994
6.749690
-3.006155
-9.021341
0.025077
11.707619
17.404329
12.151822
-1.915391
-11.546287
-14.236184
-17.102723
-15.828042
-8.935880
-4.713872
1.550951
13.598727
26.114345
25.417388
5.490850
-12.575230
-26.109659
-39.416791
-34.684339
-16.248090
-0.488490
6.621098
5.723600
3.381792
-3.571157
-12.510551
-20.476334
-29.490541
-30.258675
-24.698083
-16.025212
-1.164929
17.500695
34.076227
35.769913
22.509540
4.485282
-8.658455
-11.754370
-8.494023
3.682858
20.578943
30.875104
26.152263
10.882065
0.778132
-11.219769
-23.783705
-21.131735
-10.021461
-1.754087
-1.809158
2.993951
18.034253
18.784463
9.115900
4.476445
0.435235
-3.717935
-7.930072
-5.281478
4.930518
12.869545
20.201235
24.690803
19.386082
7.696526
-4.511008
-17.248729
-29.644075
-31.945359
-20.363347
-8.845238
-3.083585
7.239332
20.900787
26.315129
18.345709
5.562269
0.284564
-0.512404
-4.274883
-10.945204
-16.921685
-19.118283
-20.200476
-21.003679
-19.201409
-16.756734
-11.056906
1.762121
9.832071
3.822080
-5.854275
-8.352463
-1.693833
3.999241
3.238900
7.347129
13.805999
14.247085
8.402306
0.896312
1.661068
1.677693
-6.395115
-10.682325
-7.838646
2.964063
21.762168
36.756752
39.889033
29.775748
8.469323
-10.059663
-15.848072
-8.231677
6.944484
14.638031
11.493799
1.567287
-9.447133
-11.555669
-2.705636
6.503397
3.051340
-4.080069
-9.734178
-23.997255
-33.980397
-21.072529
8.762856
32.179116
33.010373
19.124998
4.680602
-14.818098
-34.864389
-36.806674
-24.183771
-2.599395
19.573096
28.987345
24.768194
9.357721
-1.836978
-6.335899
-12.983620
-11.368123
-1.092224
12.452335
23.777177
18.213727
5.592383
3.786476
6.512480
6.739517
3.172124
-2.412887
-2.009467
4.772554
5.368721
0.718095
3.255768
5.636800
1.829901
-8.447038
-22.772719
-22.172396
-3.676401
15.359393
20.919985
12.861983
2.458537
-8.186233
-17.259927
-18.286530
-14.671340
-6.480338
9.742428
21.970224
17.554948
6.827572
5.260911
9.460839
10.078567
-1.668139
-22.849876
-34.250311
-37.116071
-33.862478
-16.495174
0.119842
8.160178
13.637385
15.646430
14.811535
7.713377
-2.441471
-5.613757
-4.321932
-3.568345
-7.908548
-13.417706
-12.654768
-11.591279
-9.424814
-5.043569
-1.628141
4.194557
9.091182
10.126357
7.566864
-3.984237
-15.156596
-10.048520
-3.325206
-2.773979
8.131598
18.451917
14.288616
5.801478
-2.721767
-8.018435
-8.976200
-7.175229
1.480757
10.557568
15.793969
18.209811
15.569529
8.907781
-0.812735
-6.479053
-6.354365
-4.094384
-0.289044
3.062222
13.336562
26.103896
27.647956
20.288990
7.474119
-2.383035
-5.511680
-10.179191
-11.335158
-5.808336
1.470101
6.244116
4.230395
5.276999
6.642079
-9.557568
-29.690621
-35.318494
-31.864360
-23.020301
-9.782009
6.840281
21.213499
19.480587
7.073292
-1.975724
-8.467325
-5.440769
5.753929
14.186775
22.716514
25.107938
22.939135
21.208821
12.150453
1.579976
-1.141872
3.500440
7.425793
8.668003
8.492919
3.775274
-2.496563
-7.173685
-7.565675
-0.846778
7.166543
6.257355
1.997420
-0.382834
-9.827736
-19.458892
-18.911301
-13.207317
-10.609378
-12.781558
-12.919495
-10.936687
-6.475433
7.228364
25.026883
35.413183
33.349846
22.369975
6.798707
-10.345197
-20.387306
-21.517037
-20.134552
-19.908295
-17.230347
-4.703819
11.244113
19.876201
23.357610
23.612702
17.021610
3.843583
-7.988586
-9.617331
-2.871418
9.656669
27.792366
39.957038
36.179493
19.646043
2.443172
-6.441151
-13.474887
-20.450176
-17.411930
-9.222487
-6.508692
-7.667517
-5.808358
1.030552
5.010975
9.835645
18.331354
16.061502
8.450821
7.174841
6.817660
4.351683
-0.042032
-1.671297
-1.810013
-12.767544
-33.509234
-48.697085
-46.594784
-31.138852
-6.413882
23.309543
40.715293
43.353236
37.681982
21.954333
-2.817656
-22.538198
-20.124175
-3.945829
11.930667
22.027326
22.965867
15.896543
3.148951
-4.966459
-2.531914
1.716071
-3.853874
-12.159434
-11.892652
-12.659228
-14.430845
-9.670598
-1.608701
2.027011
-6.888485
-19.715825
-24.263582
-23.988488
-17.543386
-2.139928
10.928996
19.004401
20.798358
9.600802
-4.592658
-13.803769
-21.062984
-23.791067
-14.034444
4.491425
19.682393
26.937451
25.532626
17.195114
6.490857
-3.529431
-14.229012
-20.777242
-22.052963
-27.279753
-34.452725
-31.283297
-14.509044
0.388127
5.584265
9.736914
19.362095
28.722312
25.192845
11.604385
-1.252049
-8.418008
-13.675711
-15.361345
-5.191691
6.597616
12.800874
20.067362
24.975157
17.485009
5.735445
5.815194
7.971008
3.283755
-2.772215
-10.389390
-15.557993
-16.855014
-11.800970
1.070011
8.498075
9.573773
11.284864
7.988149
-4.129765
-16.654735
-18.421937
-11.185582
-2.755074
1.451608
3.394931
10.045250
9.521297
-2.428547
-8.343982
-9.170304
-10.649163
-12.944473
-16.591095
-17.538989
-21.436287
-25.672583
-23.026067
-19.273200
-16.030778
-9.025876
1.793458
8.495730
9.901334
5.919091
-3.322153
-10.798794
-15.642167
-15.355643
-12.075034
-5.890999
7.133245
14.670411
11.599694
3.686643
-3.108886
-2.244638
0.095870
0.103403
0.124704
0.381614
1.305349
-1.694192
-5.602920
-3.586602
-1.251808
-3.149672
-1.104000
5.352791
5.317202
-1.739913
-5.804242
0.741390
8.731331
7.454052
3.071247
1.890862
-0.127016
-6.973979
-14.051876
-16.956341
-14.201503
-7.946032
2.112961
13.048931
13.771086
11.043782
12.650446
12.975416
8.101650
3.494146
5.739060
8.063982
5.874658
1.652390
0.719823
3.578049
1.952941
-1.823566
-0.295871
1.477565
2.929407
7.986309
11.505905
8.659108
1.902804
3.638832
10.079518
8.771067
5.608652
2.115292
-2.405709
-6.824621
-12.517695
-13.229979
-8.758854
-8.395958
-13.533649
-19.262051
-21.111859
-15.903252
-10.604247
-11.426413
-11.377317
-10.338505
-13.135946
-13.507934
-10.003145
-10.182905
-12.353266
-11.985175
-11.463302
-12.760843
-14.055267
-14.220999
-14.384913
-9.370873
-1.713434
-1.131554
-2.387792
0.851773
6.126880
6.239360
2.568839
6.360151
13.275952
15.978578
17.785783
15.919090
8.090464
-1.523028
-12.494326
-21.512949
-24.501579
-24.553793
-17.169630
-2.278174
4.934282
0.488353
-4.303586
-2.950715
-2.145434
-4.900793
-2.899022
5.693582
11.374966
11.718119
15.475921
22.009344
20.737520
11.135198
6.228961
8.897038
9.207979
8.910545
14.482567
20.851556
21.350830
18.813936
16.346141
14.448016
13.513631
11.391327
8.196181
2.240481
-5.659321
-12.064939
-16.191093
-15.478030
-13.285849
-12.381077
-9.233470
-2.632767
1.514687
-4.332429
-13.278577
-16.827007
-17.527601
-17.103660
-14.583912
-6.612154
4.327972
7.598969
3.671538
-0.706851
-6.297057
-11.049251
-13.305076
-15.838593
-17.177437
-15.867688
-14.456369
-13.799935
-9.731710
-1.274446
6.746927
9.920512
9.951164
9.207968
5.266769
-0.432280
-2.859552
-0.232519
2.721302
2.911971
3.490474
7.397383
12.941350
14.390855
10.971529
8.557246
8.906893
7.729365
6.943827
8.807142
8.420867
3.964288
-2.780067
-9.130873
-13.315735
-14.839274
-12.037677
-5.060051
1.965372
5.229615
4.228469
1.999920
3.327594
7.470372
9.147953
6.816536
3.493065
-0.406831
-5.305275
-5.563225
0.918244
8.110179
12.663910
15.691505
17.883167
17.456108
13.051223
10.700583
10.223129
5.327283
0.631977
-1.452920
-2.453547
-3.839928
-6.191348
-3.459888
2.984694
5.255065
5.083618
8.200573
7.973016
-1.655802
-11.027709
-13.403027
-13.486673
-17.276167
-20.340390
-15.247640
-8.468737
-5.393085
-2.778521
0.322848
4.180402
5.631725
2.550877
1.426081
2.373715
-0.397750
-2.048835
2.639197
9.088714
10.423402
7.235270
6.814186
5.809923
1.377502
1.457770
4.038564
5.968900
9.214180
10.610173
8.504234
3.954658
0.641837
1.734681
6.507656
14.558124
22.698991
25.244716
20.095076
10.647057
0.667293
-7.619564
-11.252159
-7.582678
0.515327
3.575913
1.041617
-3.757076
-10.359338
-11.962366
-8.983088
-5.553113
0.214774
5.703670
6.375429
0.522078
-7.955448
-12.711279
-11.757412
-5.134369
2.217323
5.328823
4.080118
0.179443
-1.795573
1.122400
8.305242
16.997077
22.458957
19.928817
11.614425
3.056370
-2.835426
-2.836985
3.521354
12.993531
18.109660
14.697868
6.493877
0.165930
-0.699617
0.988875
2.213680
1.775971
1.363979
1.095119
-0.247622
-0.475439
1.739862
7.579185
14.202747
16.111002
14.954775
12.580496
5.336607
-3.197029
-6.750135
-7.953900
-8.299132
-5.995770
-0.585843
5.581566
9.737074
13.282126
16.841726
19.297312
19.634490
16.025015
8.361081
-0.591561
-8.280432
-13.319670
-13.169524
-5.474160
5.386737
12.515548
14.083247
9.013616
0.884698
-6.569602
-14.372512
-17.958088
-16.992272
-16.421302
-14.795934
-12.087334
-9.926325
-7.671800
-5.361424
-4.032711
-4.365215
-3.645918
-3.711379
-9.284181
-15.001673
-13.782582
-6.405693
2.288219
8.579538
11.229431
9.713944
4.782770
-0.444540
-4.330669
-6.326986
-4.761105
0.324372
6.290981
9.377543
10.003843
9.755764
7.814778
3.461587
-2.484501
-6.149826
-7.259036
-7.104734
-4.031680
-0.328428
-0.688207
-3.989598
-7.104995
-9.976989
-11.450134
-10.163244
-4.911775
3.266238
10.137099
15.154257
17.749338
16.478293
13.598246
11.472825
11.484254
11.404246
9.945389
10.248278
11.435677
12.852970
13.621104
10.039683
3.541588
-1.924708
-3.734512
-3.033398
-2.760902
-0.732894
3.873051
6.911556
7.606175
8.059989
8.503413
7.806975
4.465839
1.153279
-0.788227
-4.535120
-6.150617
-4.751767
-3.818421
-1.040463
1.929204
4.065275
4.971085
1.892575
-1.866786
-3.491895
-4.312242
-3.856869
