EVENT_NAME: 202010301151
EVENT_ID: 10614
EVENT_DATE_YYYYMMDD: 2020/10/30
EVENT_TIME_HHMMSS: 11:51:24.00000
EVENT_LATITUDE_DEGREE: 37.879
EVENT_LONGITUDE_DEGREE: 26.703
EVENT_DEPTH_KM: 16.54
HYPOCENTER_REFERENCE: AFAD
MAGNITUDE_W: 6.6
MAGNITUDE_W_REFERENCE: AFAD
MAGNITUDE_L: 
MAGNITUDE_L_REFERENCE: 
FOCAL_MECHANISM: 
NETWORK: TK
STATION_CODE: 0911
STATION_NAME: 
STATION_LATITUDE_DEGREE: 37.76209
STATION_LONGITUDE_DEGREE: 27.39092
STATION_ELEVATION_M: 67.0
LOCATION: -_-_-
SENSOR_DEPTH_M: 
VS30_M/S: 307
SITE_CLASSIFICATION_EC8: C
MORPHOLOGIC_CLASSIFICATION: 
EPICENTRAL_DISTANCE_KM: 61.81
EARTHQUAKE_BACKAZIMUTH_DEGREE: 
DATE_TIME_FIRST_SAMPLE_YYYYMMDD_HHMMSS: 2020/10/30 11:51:09.0079700
DATE_TIME_FIRST_SAMPLE_PRECISION: millisecond
SAMPLING_INTERVAL_S: 0.01
NDATA: 10501
DURATION_S: 
STREAM: HNN
UNITS: cm/s^2
INSTRUMENT: sensor = GMS+/GEOSIG | digitizer = 
INSTRUMENT_ANALOG/DIGITAL: 
INSTRUMENTAL_FREQUENCY_HZ: 
INSTRUMENTAL_DAMPING: 
FULL_SCALE_G: 
N_BIT_DIGITAL_CONVERTER: 
PGA_CM/S^2: 48.479
TIME_PGA_S: 
BASELINE_CORRECTION: BASELINE REMOVED
FILTER_TYPE: BUTTERWORTH
FILTER_ORDER: 
LOW_CUT_FREQUENCY_HZ: 
HIGH_CUT_FREQUENCY_HZ: 
LATE/NORMAL_TRIGGERED: 
DATABASE_VERSION: 
HEADER_FORMAT: DYNA 1.2
DATA_TYPE: Acceleration
PROCESSING: Manual Paolucci et al., 2011
DATA_TIMESTAMP_YYYYMMDD_HHMMSS: 
DATA_LICENSE: U (unknown license)
DATA_CITATION: Turkish Accelerometric Archive v 1.0 - Disaster And Emergency Management Presidency, Earthquake Department
DATA_CREATOR: AFAD
ORIGINAL_DATA_MEDIATOR_CITATION: : AFAD - Disaster And Emergency Management Presidency
ORIGINAL_DATA_MEDIATOR: AFAD PROCESS SERVICE
ORIGINAL_DATA_CREATOR_CITATION: AFAD PROCESS SERVICE
ORIGINAL_DATA_CREATOR: network: TK
USER1: GuestUser
USER2: 
USER3: 
USER4: 
USER5: 
[...]
-0.000643
-0.008696
-0.009475
0.007929
0.006370
0.002993
0.000914
-0.002982
0.004810
-0.007659
-0.012595
-0.002724
-0.002984
-0.000646
0.002211
0.002471
-0.000387
0.000132
0.000912
-0.001946
-0.008700
-0.009999
-0.001687
0.001949
0.004287
0.006365
0.004027
0.000909
-0.003247
-0.007144
-0.003248
0.000649
-0.002469
-0.000910
0.008181
0.005843
-0.002729
0.005063
0.010778
0.006102
-0.002471
-0.007147
-0.002471
-0.004549
0.001425
0.011036
0.007139
0.007918
-0.001953
-0.010266
-0.001174
-0.000135
0.003501
0.011294
0.009735
-0.001435
0.000123
0.002980
-0.005073
0.002980
0.008175
0.002720
-0.004294
-0.012347
-0.007412
0.000121
-0.004815
-0.006373
0.001939
0.007394
0.003497
-0.002478
-0.002738
-0.001180
0.003496
0.004015
0.000898
-0.005597
-0.006376
-0.002999
-0.008974
-0.000922
0.011287
0.008689
0.003753
-0.007417
-0.015470
-0.003781
0.003753
0.001155
0.004791
0.007908
0.002713
-0.004301
-0.003003
-0.007939
-0.003003
0.010504
0.007906
0.002971
0.000373
0.002970
0.007126
0.011542
0.004009
-0.011838
-0.004305
0.002709
0.001670
0.008423
0.003228
-0.004565
0.000110
-0.001968
-0.004047
0.008162
0.011019
0.003226
-0.000930
-0.002749
0.000368
0.004264
0.002965
0.005043
0.006861
0.003744
-0.000672
-0.001712
-0.003271
-0.008206
0.001665
0.007639
0.002963
0.000105
-0.004051
-0.006130
-0.000675
0.002702
-0.009248
-0.009508
-0.001195
0.000363
0.004519
0.005558
0.006597
0.002440
-0.000677
0.009713
-0.003795
-0.018602
-0.001717
0.000880
-0.000679
0.003737
-0.002238
-0.001199
0.001918
-0.002498
-0.003018
0.002957
0.007632
0.000099
-0.007954
-0.000941
0.003735
0.005813
0.002435
-0.006397
-0.005358
0.001655
0.002694
-0.001982
0.005551
0.014123
0.001914
-0.003282
0.001913
-0.005100
-0.002503
-0.001464
-0.004322
0.000873
0.001133
0.008666
0.007886
0.003730
0.004509
0.005028
0.005547
-0.005883
-0.004324
0.001131
0.000611
-0.002507
-0.006923
0.009702
0.018534
-0.001728
-0.012379
0.002687
0.003986
-0.006924
-0.004327
0.001907
0.003725
-0.008224
-0.014719
0.001387
0.007621
-0.006407
-0.004329
0.011517
0.009698
0.000346
-0.007967
-0.008486
-0.005369
-0.001733
0.002163
0.001384
0.003981
0.005799
0.001123
-0.007709
0.000863
0.008656
-0.003294
-0.012126
-0.001216
0.011772
0.000342
0.007356
0.010732
-0.003815
0.006835
0.004497
-0.009271
-0.001997
0.013588
0.006834
-0.001738
-0.005375
-0.006155
0.005794
-0.000181
0.001638
0.008911
0.006832
-0.001221
-0.007455
0.001636
-0.008755
-0.005378
0.012026
-0.002261
-0.005119
0.007350
0.004492
0.002154
0.015921
0.021117
0.005790
-0.005380
-0.010316
-0.003562
0.001373
-0.010317
-0.014473
-0.013694
-0.007720
-0.013435
-0.026164
-0.011097
-0.003045
0.002150
0.012541
0.019294
0.030204
0.008644
-0.016554
-0.010840
-0.003307
-0.006424
-0.022270
-0.019673
0.005005
0.005524
-0.015777
-0.021752
-0.005387
0.016953
0.015654
0.005783
0.028382
0.034876
0.012536
0.011757
0.002405
-0.017598
-0.025651
-0.032145
-0.024093
-0.003311
0.001884
-0.011105
-0.020717
-0.016561
-0.010846
-0.017600
0.001363
0.040847
0.047341
0.046821
0.043964
0.022143
-0.011367
-0.038383
-0.032929
-0.026694
-0.030331
-0.019421
-0.019162
-0.041502
-0.038645
-0.015785
-0.004616
0.010710
0.032531
0.063183
0.080327
0.080587
0.050973
-0.012151
-0.031893
-0.007735
-0.006956
-0.031894
-0.040726
-0.050078
-0.051637
-0.019426
0.023695
0.059543
0.047334
0.034345
0.009667
-0.031117
0.038760
0.072530
-0.004881
-0.018129
-0.013973
-0.090605
-0.172952
-0.141520
-0.088528
-0.039951
0.079801
0.090711
0.017716
-0.009040
-0.040732
-0.079697
-0.050344
0.029145
0.067590
0.050705
-0.046188
-0.021511
0.061615
-0.032941
-0.050346
0.042911
0.087850
0.050184
-0.029825
-0.087494
-0.129836
-0.052945
0.049403
0.027063
0.085770
0.229941
0.121358
-0.112953
-0.063597
0.054337
0.009917
0.095640
0.239551
0.093561
-0.169844
-0.256347
-0.314275
-0.336615
-0.070873
0.048101
-0.247775
-0.272713
0.095378
0.221105
0.039267
-0.002556
0.227858
0.402942
0.307087
0.128626
-0.068278
-0.202059
-0.114517
-0.024898
-0.054511
-0.149067
-0.135300
-0.004117
-0.013988
0.076930
0.277730
0.177200
-0.094777
-0.111403
0.086281
0.027313
-0.152706
-0.123353
-0.047241
-0.015809
-0.065425
-0.190114
-0.340780
-0.372991
-0.161281
0.150441
0.410988
0.407351
0.109916
-0.196610
-0.283892
-0.050361
0.233305
0.215381
0.072508
0.250449
0.573600
0.282919
-0.314807
-0.423130
-0.270387
-0.059196
0.186804
0.155892
-0.103877
-0.149596
0.027306
-0.122061
-0.432224
-0.185185
0.236678
0.232781
0.270187
0.518525
0.542943
0.247067
-0.132454
-0.315331
-0.390144
-0.487817
-0.390924
-0.091412
0.081593
-0.032964
-0.365468
-0.558735
-0.136093
0.596193
0.891289
0.650224
0.414874
0.581645
0.613336
-0.008808
-0.619783
-0.720053
-0.698493
-0.627057
-0.278968
0.136660
0.393571
0.436692
0.211213
0.124970
0.540598
0.971813
0.639829
-0.262605
-0.583678
-0.266762
-0.081807
-0.153244
-0.299753
-0.329107
-0.242345
-0.169610
-0.524713
-0.951252
-0.669664
-0.094018
0.471496
0.839847
0.768151
0.433829
-0.023363
-0.366257
-0.456916
-0.292483
0.064178
0.429931
0.422657
0.032746
-0.083890
0.055345
0.066255
0.100544
0.263159
0.442138
0.397718
0.267054
0.283160
0.209645
0.194578
0.281341
0.117427
-0.198451
-0.389900
-0.272745
-0.121301
-0.196634
-0.207804
-0.135589
-0.185205
-0.320024
-0.318206
-0.192739
-0.000770
0.553574
1.073110
0.919067
0.584746
0.264192
-0.426531
-0.861643
-0.649413
-0.506541
-0.536414
-0.114032
0.365500
0.354070
0.632281
1.155713
1.026348
0.521619
0.270683
0.069103
-0.197939
0.009096
0.321856
-0.173262
-1.285328
-1.570554
-0.597723
0.216649
0.186516
-0.080266
0.196127
0.686049
1.003485
1.266370
1.054659
0.679554
0.613313
0.486026
0.093776
-0.036627
0.288342
0.242363
-0.291460
-0.446542
0.039483
0.575125
0.605517
0.192226
-0.031434
0.417704
0.926849
1.050498
1.025301
0.933602
1.280652
1.555486
0.613568
-0.711509
-1.157271
-1.012061
-0.580067
0.300546
0.582394
-0.097419
-0.414076
-0.387320
-0.872307
-1.315731
-1.099864
-0.712810
-0.202886
0.441598
0.694352
0.805532
0.670453
0.038437
-0.424210
-0.466033
-0.710994
-1.186110
-1.159614
-1.317293
-1.922033
-1.931645
-1.218582
-0.468373
0.170137
1.000874
1.053087
0.633822
0.663435
0.865794
1.287657
1.045034
0.588621
1.092311
1.470273
0.562903
-1.092338
-2.341303
-2.616137
-1.250018
1.195697
2.501810
1.798098
0.455877
-1.141696
-2.740048
-2.598475
-1.112603
0.431198
1.104516
1.233880
1.640936
1.300640
0.159479
-1.302495
-2.195317
-2.200253
-1.210797
1.379348
3.251236
3.265003
2.704684
2.286717
1.779130
1.391037
2.563889
2.462059
-0.207316
-0.834916
1.201405
2.183847
0.587833
-0.787639
-1.950620
-4.260736
-4.581290
-3.713146
-3.935767
-2.678751
0.007769
0.030368
-1.411084
-0.391495
-0.064188
-2.713301
-3.272322
-1.296008
-0.081074
1.867965
2.937429
1.771331
2.506734
4.222760
2.706495
-0.846092
-2.229616
-1.219639
0.037118
2.474001
4.744373
4.405115
2.730911
-1.526426
-5.195388
-5.160320
-5.825326
-5.504773
-4.483625
-2.951514
0.695108
0.616917
-1.226916
-2.336904
-3.997601
-3.784331
-2.397431
-0.459302
0.507553
0.915649
2.578942
1.784572
-0.432288
0.062570
-0.331498
-4.005396
-3.985394
3.562942
10.149097
9.916865
7.765986
4.526940
-0.735439
-3.945132
-5.861960
-6.205633
-2.551997
2.849357
7.795338
9.675278
7.080716
2.585951
-1.419670
-4.660275
-4.544679
0.666785
4.572915
2.225911
-1.232899
-0.498535
2.182530
1.993158
-1.047685
-4.186461
-6.108484
-4.076060
-0.630499
0.941876
2.312931
2.107714
0.239983
-0.823507
1.317759
3.528384
3.041839
0.731462
-4.721846
-6.390335
-1.477345
0.728344
-2.526808
-5.148386
-4.084637
-1.497868
1.240605
0.988890
-0.502698
1.282168
3.772303
4.221441
2.309549
2.553211
2.624907
-2.608378
-5.832877
-5.197485
-4.206471
-4.235046
-3.213379
0.533254
2.707511
4.343529
3.951799
0.016834
-3.270529
-4.069835
-0.012780
5.573529
9.466671
10.699789
5.241285
-4.310122
-10.485585
-9.560811
-5.640134
-2.218472
0.620532
2.769332
5.560538
4.888518
-0.068374
-4.433774
-5.925881
-5.871849
-4.987340
0.513505
5.761856
7.957415
9.226640
6.926395
0.446224
-8.579672
-11.440237
-7.914147
-4.589118
0.509607
5.337913
6.722995
5.683663
3.460309
0.198144
-3.364574
-4.228302
-2.307319
0.955886
3.573567
3.331723
2.349540
1.443469
1.464250
2.426690
0.555841
-1.736091
-1.499703
0.807816
3.901651
4.549253
3.226774
1.731030
2.433182
5.796397
7.471900
6.034085
3.066236
-0.989521
-6.376069
-7.807131
-2.970772
0.672213
0.654289
-0.949778
-4.079722
-8.427718
-11.262046
-10.957598
-10.023213
-7.887401
-1.748566
4.882789
5.863413
3.725263
2.215232
-1.006410
-3.878405
-3.113128
-0.769762
0.266192
2.156003
5.163856
4.099587
3.138965
4.562233
1.973645
-2.099256
-3.863081
-3.902306
-2.838037
-2.646069
-3.239898
-3.390824
-1.734804
1.402413
3.551473
2.708006
-0.350501
-1.773770
-1.190851
1.540868
5.482327
5.833533
3.326512
1.808948
3.800848
8.907625
11.664542
10.550138
8.819044
6.784022
5.874834
6.783761
6.812076
3.989178
-1.236834
-3.206654
-1.961327
-2.882724
-4.439513
-5.626913
-6.287243
-5.106079
-3.253674
-3.495258
-7.907417
-9.800086
-5.455727
-0.583001
2.979196
5.530377
5.516349
0.044078
-7.127595
-10.031541
-8.803099
-5.504306
-2.200318
0.697133
0.991710
-0.767439
-2.751027
-4.365485
-4.368083
-2.660369
2.271065
6.653610
8.602388
10.129824
6.425013
-1.837166
-6.336346
-6.083852
-4.311196
-0.659119
1.336678
-1.039160
-1.378677
0.663878
-1.535837
-4.520311
-2.891826
0.198893
0.944946
-0.340906
-0.737831
-0.805371
-0.243753
1.694375
-0.271808
-4.755923
-5.984365
-3.647234
0.118102
1.351220
-2.137723
-6.304920
-6.058141
-3.517611
-1.424661
0.041729
0.036533
-0.281683
1.327579
2.837350
0.396830
-0.796803
2.657590
6.274079
8.222338
10.706758
12.593453
8.091155
3.518979
3.323893
-0.805638
-5.210523
-2.249168
2.484582
1.967644
-1.450643
-1.972517
0.512423
3.647042
7.449525
9.427398
7.630583
5.231366
4.930555
4.973936
2.767467
0.659190
0.205375
-0.307147
-2.090714
-6.643667
-13.842875
-20.133675
-20.282522
-12.888229
-3.761023
-1.083855
-3.460212
-3.880777
-2.731044
-1.688336
0.404614
3.480526
5.810124
7.276514
7.997629
6.438242
3.321546
-0.075699
-1.599498
0.463059
5.133167
10.318914
11.886873
10.472696
7.859430
0.745426
-6.569639
-8.340997
-7.542211
-5.346393
-0.788765
4.463742
8.050618
8.856158
7.545109
3.087751
-2.912888
-4.316155
-2.688969
-1.417145
0.941287
2.075953
0.409282
-0.579395
0.432401
-1.091138
-6.153236
-9.926885
-10.623583
-9.396439
-7.126847
-4.279011
-2.410501
-0.197019
3.152948
3.553510
3.328291
5.266159
5.906747
6.279514
8.412208
10.363065
9.215930
4.048366
0.764120
-0.384834
-5.149238
-9.234088
-10.811140
-10.709311
-7.225823
-2.403232
2.988771
5.547744
5.795562
5.885961
3.247239
0.838670
0.776586
3.170347
6.151703
7.904097
10.888311
13.984744
13.123353
7.660694
3.038383
0.792429
-3.083568
-7.361167
-7.934994
-5.836589
-5.339913
-5.828017
-6.792016
-8.803919
-10.216018
-13.569622
-18.841612
-19.622215
-14.494656
-7.688737
-2.428437
-0.387960
-0.545899
-0.716567
0.271330
0.885162
-2.463247
-4.616723
-1.079204
1.959301
2.592355
3.325940
4.661666
4.848959
0.557852
-5.203541
-7.497812
-7.135436
-4.191226
1.686023
8.930171
15.448787
16.635926
11.403420
4.539832
0.709034
1.990729
4.661403
3.081234
-0.245614
-0.309777
-0.608510
-3.270872
-3.829373
-3.446995
-3.444917
-1.465226
-1.005697
-5.136267
-9.855211
-9.577259
-6.546807
-6.374321
-7.657835
-8.298163
-10.008735
-14.790803
-20.745723
-24.527685
-23.860341
-17.716310
-10.652182
-6.361855
-4.721940
-3.990434
-1.086748
2.166325
4.213816
7.699901
12.959422
16.954393
17.520946
16.975953
17.138827
15.888564
12.694717
9.517495
7.087626
6.288060
6.271435
4.704774
3.515037
3.662844
3.653492
3.845201
2.575975
-0.295240
-1.010642
1.536383
7.868745
15.419419
17.047644
13.389592
8.511410
0.514714
-6.918805
-8.926032
-9.645330
-9.394914
-5.726471
-0.679440
2.564281
4.674376
7.341153
7.854714
8.030057
8.209557
5.293662
0.322742
-5.143295
-8.016328
-9.431284
-11.907652
-13.823700
-12.805930
-6.884001
-0.144063
1.854592
1.451432
3.907537
8.939242
13.457904
16.663700
18.222307
18.203604
18.158404
17.525609
15.067944
13.958475
16.429907
19.290991
20.493716
19.478803
14.017442
8.140452
5.465621
0.991378
-4.850543
-8.488073
-10.896382
-13.233514
-17.249526
-21.037462
-22.954810
-25.787060
-25.221805
-18.057925
-8.625752
2.084219
12.682750
19.461654
20.337331
16.876703
11.566267
5.938914
2.942231
1.645469
1.219969
3.208752
6.068277
8.186425
7.706114
4.261850
1.178405
-0.929872
-3.121014
-3.458193
-1.799316
0.344289
2.427887
5.108432
9.699570
12.362971
10.346132
6.623398
2.467890
-2.770071
-8.817208
-12.829064
-12.310568
-10.828592
-11.714661
-11.982482
-12.303035
-13.142346
-12.924141
-14.935524
-17.982602
-21.192295
-24.138843
-25.966051
-29.407976
-33.150972
-35.047538
-32.794311
-28.205251
-25.589129
-25.449374
-28.056665
-31.261682
-33.207603
-30.957234
-21.566364
-7.265880
7.062658
16.655628
22.119326
25.339149
25.934277
24.495682
23.513500
24.453080
22.254144
15.068184
6.751714
-1.140296
-6.051468
-5.532193
0.306871
9.367835
20.897375
34.606627
45.068260
48.479272
46.924301
42.646703
33.502871
17.960956
1.818977
-9.416245
-16.175147
-19.497060
-17.946505
-12.468000
-7.560205
-5.899768
-7.073400
-9.499633
-12.068997
-12.570090
-11.476467
-11.562970
-11.543488
-9.881493
-4.860439
3.427456
10.353908
14.947904
19.592554
24.611270
28.474278
30.078865
32.468210
35.802591
35.268767
31.458231
26.510172
19.093797
8.233420
-3.026481
-11.483745
-19.496807
-27.066704
-30.436414
-30.392513
-30.620330
-31.125319
-27.904717
-20.990734
-14.419385
-7.306160
0.510776
5.235175
6.637142
6.156312
3.520706
-2.614493
-8.496159
-8.279512
-4.917856
-2.360441
0.124499
3.219374
6.010839
7.076927
8.385897
12.018751
14.681372
12.516986
7.114332
-0.953540
-11.954192
-20.255336
-23.940145
-23.624527
-20.227022
-18.822977
-19.369009
-20.185720
-20.518483
-16.889266
-8.376931
2.233550
10.107115
12.539062
10.218815
4.931498
0.261910
-2.647751
-4.679396
-3.705786
1.956895
8.417582
10.260116
9.335602
8.189246
7.865315
9.929431
10.431042
7.559567
2.072230
-7.477879
-20.941910
-34.101753
-42.035066
-45.724810
-45.875475
-38.259600
-23.442438
-10.064909
-3.667345
-2.352920
-3.440568
-6.472060
-8.780878
-6.119815
1.048221
10.323494
18.724908
24.637225
29.068866
30.606692
29.675424
29.548137
29.094582
25.717859
21.354277
19.036367
17.620632
15.531059
15.997602
18.892195
18.960774
16.912763
15.968507
14.983207
13.498633
14.101814
15.774199
14.608880
10.228673
3.066092
-3.707097
-7.010826
-9.543563
-10.904747
-8.439290
-2.234993
5.877818
13.343548
20.199863
24.529934
22.494652
16.331658
11.468802
8.363796
5.429197
4.221536
5.336460
8.219883
11.664925
12.874924
9.199727
-0.534556
-11.686653
-19.085364
-24.590106
-28.060086
-26.765663
-25.373567
-26.888274
-28.056970
-25.799846
-17.994340
-8.367601
-0.288819
4.850949
3.163237
-2.784410
-8.427608
-12.587792
-14.778155
-16.081411
-15.171704
-9.783598
-1.748457
5.356975
7.401088
4.480517
1.201986
-1.894448
-4.397572
-4.052600
-1.096441
2.110393
4.463371
6.852456
8.437300
8.110512
5.194097
0.521911
-5.585753
-12.496619
-17.013204
-18.154624
-17.402077
-16.422752
-13.298523
-8.405795
-4.180410
-1.441937
-2.300730
-5.644203
-10.579274
-16.262997
-19.338909
-17.160755
-11.118553
-5.971252
-1.999401
2.468347
4.384915
2.283652
0.975720
2.978271
7.977504
16.207991
23.600726
24.854626
20.530009
15.221651
11.425662
7.037922
0.125238
-5.673822
-7.348805
-5.429900
0.223949
7.737476
15.566881
24.800072
33.514766
38.585435
39.179005
35.117013
26.211909
14.182576
4.520248
-0.183630
-3.107838
-5.278718
-5.770459
-5.902681
-6.896034
-8.587383
-11.253122
-16.365875
-22.517179
-26.525398
-30.772344
-36.535556
-38.899184
-36.533218
-32.186522
-26.517607
-21.626437
-21.145866
-24.685984
-29.157889
-31.932211
-32.086773
-30.327625
-27.114036
-21.950629
-16.352371
-12.056589
-7.784446
-3.845066
-2.425174
-3.713364
-3.227858
2.593281
10.755969
19.853301
30.466379
39.956740
44.681139
45.267435
45.950105
46.966317
44.141600
35.851107
25.996810
14.488571
0.904787
-7.857965
-9.866231
-7.635084
-2.185933
5.525278
12.555117
14.716646
12.040257
6.050787
-2.409075
-11.849561
-19.089553
-22.192481
-21.720483
-15.713869
-5.730988
2.662373
8.169193
11.216010
10.772586
5.667107
-2.354786
-8.932110
-12.528857
-14.094998
-12.048027
-4.812192
4.862345
14.316078
23.058568
28.955040
30.342460
29.289360
27.485532
25.191781
23.627718
24.706794
27.231218
27.011454
24.755889
22.202110
18.374689
13.260638
7.847334
4.000171
1.300403
-0.517973
-0.692018
-0.231709
0.754889
0.818272
-2.067750
-6.886445
-11.976857
-15.347866
-15.018740
-10.946618
-5.504740
-1.891369
-1.064528
-2.058660
-4.304354
-6.691361
-7.189597
-5.963492
-4.809863
-4.307212
-5.058721
-7.315845
-8.686381
-8.282702
-8.382972
-10.024966
-12.149088
-13.611842
-14.386470
-14.135274
-12.285727
-9.797930
-7.479501
-4.014977
1.922019
8.662736
14.098120
18.758876
21.424355
20.664793
18.174917
14.148774
8.485054
2.184123
-2.491181
-3.617275
-3.283993
-3.916528
-4.337872
-2.685229
-0.388621
1.161155
1.889544
2.858738
4.056267
2.454538
0.714353
2.867828
5.753330
7.103864
8.681174
10.826857
12.758751
14.513223
15.811023
16.543569
17.524192
18.399091
17.423402
15.172772
12.016332
5.956985
-2.795376
-12.534075
-22.557740
-32.078235
-39.232763
-43.154480
-44.990260
-45.637862
-44.064707
-40.594987
-37.743255
-33.682044
-26.291127
-16.959225
-6.673714
3.443207
11.879690
17.478468
21.048718
23.332857
23.377017
21.345892
20.013282
19.760528
17.419759
13.563504
9.567753
5.686560
2.243336
-0.596707
-1.811382
-2.628352
-3.821207
-5.124203
-6.092878
-5.943251
-5.178755
-3.814194
-2.278966
-0.580344
0.503408
-0.474619
-2.249873
-3.667686
-3.775230
-1.773199
2.341784
6.913959
8.635441
7.997191
7.196066
5.840857
3.335395
0.817205
-1.333674
-4.414782
-8.783559
-13.593422
-17.441884
-20.446360
-22.932859
-25.188943
-27.909753
-29.936722
-31.155554
-32.263984
-33.676082
-35.717079
-37.095927
-36.652504
-33.987545
-28.744389
-22.159533
-16.987294
-14.399746
-12.658002
-9.283877
-4.378939
0.291688
4.417062
7.869638
9.655802
10.496410
12.289069
14.619187
16.710318
18.868470
20.492279
21.303534
21.693965
21.747737
22.061796
23.187889
24.874562
27.414833
30.588417
33.248700
35.259823
36.058350
35.121626
33.538600
31.217574
27.763959
23.557537
18.360879
12.744696
6.772891
0.997211
-3.090757
-5.661940
-7.477978
-9.847062
-14.269351
-20.900447
-27.374903
-32.258540
-35.803853
-36.637449
-34.801409
-31.946040
-28.601788
-24.394847
-20.065295
-16.465951
-13.532652
-11.374241
-9.686788
-8.648756
-7.265752
-4.346220
-1.004566
1.817293
4.287426
