EVENT_NAME: 202010301151
EVENT_ID: 10614
EVENT_DATE_YYYYMMDD: 2020/10/30
EVENT_TIME_HHMMSS: 11:51:24.00000
EVENT_LATITUDE_DEGREE: 37.879
EVENT_LONGITUDE_DEGREE: 26.703
EVENT_DEPTH_KM: 16.54
HYPOCENTER_REFERENCE: AFAD
MAGNITUDE_W: 6.6
MAGNITUDE_W_REFERENCE: AFAD
MAGNITUDE_L: 
MAGNITUDE_L_REFERENCE: 
FOCAL_MECHANISM: 
NETWORK: TK
STATION_CODE: 0911
STATION_NAME: 
STATION_LATITUDE_DEGREE: 37.76209
STATION_LONGITUDE_DEGREE: 27.39092
STATION_ELEVATION_M: 67.0
LOCATION: -_-_-
SENSOR_DEPTH_M: 
VS30_M/S: 307
SITE_CLASSIFICATION_EC8: C
MORPHOLOGIC_CLASSIFICATION: 
EPICENTRAL_DISTANCE_KM: 61.81
EARTHQUAKE_BACKAZIMUTH_DEGREE: 
DATE_TIME_FIRST_SAMPLE_YYYYMMDD_HHMMSS: 2020/10/30 11:51:09.0079700
DATE_TIME_FIRST_SAMPLE_PRECISION: millisecond
SAMPLING_INTERVAL_S: 0.01
NDATA: 10501
DURATION_S: 
STREAM: HNE
UNITS: cm/s^2
INSTRUMENT: sensor = GMS+/GEOSIG | digitizer = 
INSTRUMENT_ANALOG/DIGITAL: 
INSTRUMENTAL_FREQUENCY_HZ: 
INSTRUMENTAL_DAMPING: 
FULL_SCALE_G: 
N_BIT_DIGITAL_CONVERTER: 
PGA_CM/S^2: 67.197
TIME_PGA_S: 
BASELINE_CORRECTION: BASELINE REMOVED
FILTER_TYPE: BUTTERWORTH
FILTER_ORDER: 
LOW_CUT_FREQUENCY_HZ: 
HIGH_CUT_FREQUENCY_HZ: 
LATE/NORMAL_TRIGGERED: 
DATABASE_VERSION: 
HEADER_FORMAT: DYNA 1.2
DATA_TYPE: Acceleration
PROCESSING: Manual Paolucci et al., 2011
DATA_TIMESTAMP_YYYYMMDD_HHMMSS: 
DATA_LICENSE: U (unknown license)
DATA_CITATION: Turkish Accelerometric Archive v 1.0 - Disaster And Emergency Management Presidency, Earthquake Department
DATA_CREATOR: AFAD
ORIGINAL_DATA_MEDIATOR_CITATION: : AFAD - Disaster And Emergency Management Presidency
ORIGINAL_DATA_MEDIATOR: AFAD PROCESS SERVICE
ORIGINAL_DATA_CREATOR_CITATION: AFAD PROCESS SERVICE
ORIGINAL_DATA_CREATOR: network: TK
USER1: GuestUser
USER2: 
USER3: 
USER4: 
USER5: 
[...]
0.002150
0.005007
-0.000708
-0.005644
-0.004345
0.002669
-0.002267
-0.004345
-0.002007
0.001110
0.001110
-0.009281
-0.006164
0.008124
0.010721
0.006825
0.001629
0.003448
0.005785
-0.011100
-0.009801
0.006565
-0.002527
-0.006164
-0.000190
0.009682
0.015916
0.005785
0.010980
0.008123
-0.002268
-0.005645
-0.015516
-0.007204
0.006564
0.013578
0.008642
-0.001489
0.001368
-0.004087
-0.005905
0.005265
0.001368
0.002927
0.012018
0.004225
0.005005
0.006823
-0.001490
-0.005906
-0.008763
0.000329
-0.001230
-0.009283
0.002666
0.003186
-0.004867
-0.001490
0.005004
0.001107
0.004225
0.007342
-0.006686
-0.006686
-0.005647
-0.006166
-0.002010
0.001627
-0.000971
-0.004348
0.004744
0.000847
-0.003829
-0.002530
-0.006427
0.002146
0.007081
0.000847
0.003964
0.001626
-0.004868
-0.002790
-0.007206
0.001885
0.014094
0.011497
0.008899
0.001625
-0.000713
-0.000453
-0.001492
0.001625
-0.004090
-0.000973
0.004483
-0.005129
0.002404
0.014613
0.006820
-0.002531
0.004222
0.007859
-0.001752
-0.004610
0.000066
0.005781
0.007859
0.003703
-0.009026
-0.002272
0.010716
0.003962
0.008378
0.007339
-0.005130
-0.010066
-0.005909
0.004481
0.000585
-0.000454
0.003962
-0.006949
-0.000974
0.005260
-0.008248
-0.005650
0.000584
0.008118
0.009157
-0.004611
-0.005391
0.002402
0.002922
-0.007469
-0.009028
0.002142
0.006818
0.003181
0.001623
0.001623
-0.003832
-0.001235
0.001882
-0.001495
-0.001235
-0.003833
-0.010587
0.002921
0.013312
-0.002015
0.004220
0.007337
0.002401
0.012792
0.010454
0.003700
0.002401
0.004219
-0.002535
0.000323
0.007856
-0.002275
-0.006431
-0.005133
0.000063
0.004219
0.015649
0.012272
0.014869
0.034612
0.013570
0.017207
0.019285
-0.002276
0.014349
-0.004873
-0.030331
-0.014485
-0.021499
-0.033188
-0.009030
0.023441
0.028377
0.020583
0.021882
0.014609
0.000062
0.003439
0.023441
0.023441
0.000321
-0.019421
-0.036826
-0.041502
-0.027734
-0.017343
-0.023838
-0.014226
0.017206
0.020583
0.016426
0.032792
0.038506
0.026557
0.025258
0.029674
-0.001758
-0.035528
-0.022539
0.003957
0.016166
0.017725
-0.006174
-0.058388
-0.070337
-0.025917
0.027855
0.054351
0.048377
0.049935
0.028894
0.011230
0.023699
0.013568
0.017464
0.059806
0.074613
0.031751
-0.000200
-0.068000
-0.112420
-0.038646
0.033829
0.070976
0.020841
-0.008773
-0.001240
-0.007215
0.115656
0.114876
-0.013709
0.011748
0.043440
0.020061
-0.037088
-0.063585
0.001098
0.021619
0.076170
0.007072
-0.152426
-0.084886
-0.009553
0.072533
0.196183
0.179038
0.030970
-0.091640
-0.138139
-0.037868
0.117992
0.014864
-0.018646
0.065000
0.107082
0.077988
-0.095277
-0.125151
-0.080471
0.082144
0.154359
-0.073977
-0.071379
0.104484
0.072013
-0.039428
0.055128
0.139033
0.112536
0.239563
0.282424
0.019799
-0.190094
-0.113982
-0.091382
-0.041506
0.243719
0.229951
-0.192172
-0.399467
-0.226462
-0.085148
0.052010
0.356717
0.484783
0.369965
0.112276
-0.244386
-0.421288
-0.195290
0.247355
0.390227
0.326324
0.028890
-0.495582
-0.565200
-0.226462
0.308400
0.667919
0.425035
-0.110346
-0.511688
-0.306731
0.129939
0.227092
0.316712
0.392304
0.263979
-0.123595
-0.556368
-0.569617
-0.159443
0.407890
0.606353
0.232806
-0.293743
-0.560265
-0.429602
-0.021507
0.489976
0.719092
0.363989
-0.314525
-0.668329
-0.383623
0.012003
0.311775
0.693114
0.612067
0.024472
-0.493246
-0.783926
-0.807825
-0.409601
0.034862
-0.125674
-0.188279
0.325802
0.454907
0.023952
-0.170355
0.033563
0.415162
0.734417
0.400355
-0.175550
-0.262053
-0.133728
-0.212438
-0.502858
-0.492208
-0.362584
-0.314267
-0.123597
-0.059954
0.017716
0.115909
0.073307
-0.024106
0.134872
0.657005
0.700646
0.237480
-0.070345
-0.302318
-0.431423
-0.144120
-0.010859
-0.351934
-0.428046
-0.256340
0.158770
0.766626
0.921448
0.467114
-0.335050
-0.508055
-0.343882
-0.548059
-0.379730
-0.142302
-0.075282
0.033821
0.060577
-0.409863
-0.856664
-0.179449
0.365284
0.501662
0.410484
-0.256341
-0.722364
-0.775097
-0.354273
-0.084374
0.065771
0.352555
0.234880
-0.258159
-0.757953
-0.488054
0.073824
0.499064
0.786107
0.555174
0.297224
-0.155552
-0.624433
-0.724184
-0.687816
0.007583
0.860141
0.740128
0.037975
-0.578194
-0.827831
-0.475586
0.046288
0.515948
0.762208
0.329954
-0.477145
-1.102147
-0.770423
0.237996
0.749739
0.594397
-0.125160
-0.434803
-0.167502
-0.789906
-1.301909
-0.666257
-0.083857
-0.085935
-0.663659
-1.536220
-2.054716
-1.129423
0.533351
0.955994
0.732593
0.557250
-0.163087
-1.137476
-1.114617
-0.417140
-0.170880
-0.631968
-1.393348
-1.779363
-2.212656
-2.297081
-1.873399
-0.926805
0.465811
1.293172
1.548264
0.750256
-0.194260
-0.515073
-0.814066
-0.876670
-0.797701
-0.730941
-0.983175
-0.926286
-0.274269
0.262931
0.194612
-0.785232
-1.640129
-1.579343
-0.461042
0.847928
1.196017
0.861956
-0.323365
-1.048897
-0.867579
-1.082407
-0.218939
1.577876
2.104425
1.235242
0.061610
-1.065523
-1.816252
-1.197225
0.014592
0.549974
0.982487
1.521506
0.821431
-0.465979
-0.863164
-0.740034
0.168115
0.300336
-1.288924
-2.122779
-1.106567
1.046649
2.213267
1.836084
0.006279
-2.386703
-2.895589
-1.761702
0.173049
1.186664
1.302001
0.736746
0.316181
1.423312
1.696588
2.434589
2.496154
0.723497
-0.168286
-1.004479
-1.826385
-2.184085
-1.141377
0.682194
1.908298
2.044417
0.433336
-1.547914
-2.283317
-1.322176
0.125251
2.523169
4.141263
2.742413
-0.703149
-4.227421
-3.806597
-0.977464
2.190406
4.458959
3.807461
1.914012
-0.028272
-0.029571
0.309426
-0.653794
-0.312459
0.415930
-0.321031
-0.802121
0.850262
0.989758
-1.382183
-1.229700
0.382420
0.795970
1.193675
2.572004
3.632896
3.536782
4.197371
2.608111
-1.662214
-3.019241
-1.404264
-0.262584
1.454222
4.757171
3.813694
0.018744
0.060826
1.132369
-0.370648
-0.579242
0.973391
-0.507026
-0.715620
1.819195
1.526437
-0.676655
-2.006927
-1.766122
-2.285138
-2.630370
-0.697956
-0.816930
-1.650006
-0.783420
0.197723
3.949291
6.625680
5.525303
0.455673
-6.025797
-4.359646
-1.610262
-0.827841
1.610600
2.107277
3.566913
4.686253
2.990228
-1.734172
-6.503251
-6.940181
-4.159625
0.498274
4.680537
4.668588
-1.016433
-5.649134
-4.389260
-0.869405
0.948191
0.080047
-1.531034
-2.339691
0.612311
1.785943
-1.350755
-1.188660
-1.347378
-1.865615
-0.289863
0.852856
2.590963
4.328291
5.552837
6.386432
9.065938
9.633271
1.932451
-5.189346
-5.362612
-1.553635
3.196482
3.049972
-2.525427
-7.358669
-5.558737
-2.754282
-2.996126
-0.440270
1.480714
2.777735
2.966327
0.750766
-2.092134
-3.329669
0.403196
0.468918
0.776743
5.858063
6.611390
2.942947
0.487101
1.417850
1.538642
3.471575
3.037243
-3.104450
-6.189454
-6.352589
-1.047348
6.497871
9.969669
8.778893
1.051836
-3.354348
-1.560390
-1.163205
-2.854295
-5.213507
-6.338302
-5.544971
-0.569376
3.464820
3.460144
5.543742
8.586144
12.718272
10.733126
2.295344
-2.414508
-5.126225
-2.729347
1.960763
3.536255
3.980199
3.793425
2.665773
-1.796261
-4.090271
-7.581552
-12.727295
-10.161048
-3.929475
3.827974
7.411992
4.618967
-4.301983
-13.990287
-14.651397
-12.615595
-3.726597
8.290267
14.888892
15.473889
5.880919
-2.813773
-5.597446
-5.430935
-3.515406
-3.775434
-5.364954
-4.234184
-0.681078
0.272270
-1.124243
-2.912745
-2.771951
1.078849
4.087221
5.991320
6.808030
1.645143
-2.371908
-2.658173
-5.621345
-5.866307
-3.965325
-0.702900
4.321012
6.838423
9.429608
6.070549
-2.060447
-6.903560
-9.375512
-8.518018
-3.097960
5.035893
7.343151
3.523264
-3.705298
-12.893809
-15.995438
-11.023480
-1.182172
3.160887
1.609553
2.070641
1.191846
-3.296684
-8.002899
-8.428919
-5.396128
0.982993
6.598915
5.183959
0.516969
-2.649083
-3.809206
-6.199331
-3.358509
3.708218
1.133658
-4.105602
-4.504086
-3.206805
0.381629
3.328956
4.887564
4.641304
4.544930
6.862579
6.619436
3.623533
0.130433
0.296425
1.561754
0.481899
-0.185185
-4.087679
-6.440137
-3.696988
0.145240
1.219899
-3.403710
-6.447930
-4.318093
-0.740829
2.250658
4.936139
7.204173
7.187028
4.143067
2.852021
5.451259
5.171748
3.207903
1.618902
-1.642484
-3.930000
-4.176001
-3.287854
-4.632153
-6.616780
-8.410218
-9.669833
-3.398256
5.336440
9.102556
4.451411
-4.788274
-8.443209
-7.291918
-5.343918
-4.794769
-3.094847
-4.026375
-4.774507
0.086011
-0.874351
-1.413889
4.403094
10.437762
12.107810
5.287863
-0.263378
0.140561
4.996403
13.675249
18.233917
16.281501
13.861503
7.894374
-4.916081
-9.732958
-2.478679
5.922995
11.556842
10.242935
1.207687
-8.364501
-12.153476
-7.864448
-2.204105
-0.106739
2.481589
1.936336
-0.688099
-0.621079
-1.900696
-1.501433
3.730033
8.809795
8.084003
2.191688
-6.293112
-11.464312
-7.194507
-2.398412
-4.206397
-10.248599
-14.606985
-13.000061
-6.129459
2.919037
7.009603
5.763756
2.844484
-0.193502
-4.166653
-5.238195
2.181815
7.364705
7.250667
7.476665
0.782186
-11.500681
-16.155462
-10.814374
-5.086751
-4.892185
-5.447049
-4.861013
-4.452398
-0.169864
5.127843
8.080884
8.504826
8.624059
8.531841
3.221665
-0.629914
-2.479461
-2.314249
3.559623
8.525866
7.441595
-0.744731
-7.626243
-9.006910
-7.245943
-6.035944
-6.362992
-3.153819
-1.113083
-3.572306
-8.485816
-11.796039
-9.500989
-2.120723
4.855605
5.792587
5.309679
2.453271
-3.117712
-7.249841
-10.590716
-7.299456
0.401883
7.839818
14.641841
10.703759
-0.885007
-6.400140
-5.647852
-2.198134
2.332218
7.083633
9.602603
7.906578
7.261834
7.461855
7.492508
9.721836
10.388400
7.457958
3.125549
2.474570
3.085285
0.642687
-1.430261
-4.722300
-7.999532
-10.553830
-12.625739
-9.533722
-2.601036
5.951823
9.313480
7.672266
5.496190
-0.290140
-1.669768
2.654069
6.969334
9.594289
6.809057
3.556763
1.641494
0.533064
5.164466
9.985499
8.768746
3.501172
-3.447360
-7.411679
-8.587648
-8.550761
-4.222768
1.599151
5.121084
6.149765
5.336172
1.998933
-1.600930
-0.746814
0.623202
-1.025545
-4.296802
-7.116843
-8.410747
-9.550349
-9.109003
-7.601050
-7.223867
-7.219192
-6.964619
-6.693681
-6.494959
-5.087017
-4.317325
-5.228071
-3.683751
-0.426521
1.975813
4.679218
6.536558
9.438686
15.359316
16.589057
11.127696
4.801308
3.583516
8.225829
8.134650
2.431705
-2.045395
-3.822208
-2.952245
-5.081823
-9.343835
-7.467012
-0.423145
6.512399
10.477497
9.961597
8.726661
8.626390
7.897481
6.440443
2.703941
1.298337
2.744725
0.821922
-3.727913
-9.675040
-12.839533
-9.464368
0.025474
9.474012
12.986854
12.732541
4.995094
-9.531908
-22.814621
-26.053668
-17.714858
-8.473354
-0.841113
3.527404
0.835170
-8.869241
-18.311285
-18.492343
-11.742534
-1.501443
3.926667
2.021270
-3.183181
-9.390076
-9.258114
-5.806577
-0.298198
8.720164
12.617722
10.137458
6.726186
6.029228
11.529554
20.790800
26.466210
28.650858
27.435404
19.930449
10.178761
0.476429
-6.527954
-2.201779
7.443924
9.870416
7.556144
4.482050
5.233039
9.621558
11.429803
13.632635
15.061098
13.429236
7.795909
-5.458749
-17.696416
-22.274566
-23.097771
-23.350525
-24.694045
-27.444468
-31.829350
-34.572500
-33.543299
-33.128190
-31.103819
-24.903158
-18.849527
-15.942984
-20.467102
-24.791199
-20.500352
-14.186433
-10.377716
-14.118634
-23.252074
-30.890290
-36.665970
-35.984859
-27.959069
-16.000393
-2.765477
7.606796
14.689369
17.884774
17.862174
17.072999
16.418903
18.936834
22.095352
21.939491
20.374649
19.176599
17.242887
16.425397
19.787054
20.503753
19.923172
23.830341
26.190593
26.214751
25.625078
25.348165
28.844382
34.149882
39.527337
42.667931
38.587757
31.040459
22.542411
12.447570
3.529477
-4.675292
-11.538361
-17.030634
-19.403095
-19.438683
-20.824025
-20.830000
-20.539580
-17.413273
-9.288771
-1.005811
7.482365
12.408085
12.378731
11.357583
7.408331
0.952319
-4.791150
-8.376727
-6.650049
-1.651335
-0.450168
-1.411310
-3.102399
-5.846068
-4.376301
-0.028046
5.034571
9.737410
10.151220
10.528143
12.161564
9.891712
7.322867
5.801925
6.813462
11.731648
14.927832
17.454335
16.120427
10.387348
4.011864
-3.252806
-10.495395
-21.185624
-32.162638
-41.176844
-46.124904
-42.729997
-34.249354
-21.170558
-5.336145
8.218026
13.902527
12.659538
9.997176
6.184043
4.837925
7.482882
9.238394
4.615824
-5.834900
-15.101601
-23.719662
-31.242800
-32.764781
-28.902811
-21.646454
-13.739378
-6.133114
-1.218045
2.031392
9.967302
20.125786
28.954519
34.582910
35.183234
30.007358
18.343518
6.790860
0.130670
-2.944723
-4.222002
-3.926646
-1.229735
1.749283
5.440845
12.357686
20.138254
25.474147
28.279901
26.500490
19.223871
8.578322
-5.156128
-16.392389
-22.117934
-28.539138
-38.273681
-51.207786
-60.872191
-60.851930
-55.781520
-45.757595
-31.508285
-18.152318
-5.714630
4.419177
12.123374
18.273639
23.105582
27.880896
30.113341
27.909211
22.091968
14.649357
5.676453
-6.463281
-14.905479
-12.299747
-1.002960
9.831441
14.188788
17.356658
21.371111
26.548026
32.177976
31.248526
25.162424
18.557564
13.887197
7.393259
-3.807934
-11.591620
-11.804630
-4.419428
4.579972
8.055407
6.597070
2.981100
5.085480
17.756440
35.201674
46.548337
47.161649
43.036015
34.084412
15.615172
-4.011593
-17.604989
-26.949621
-31.303331
-33.856070
-35.686395
-32.288891
-22.717482
-9.777143
3.440628
15.999628
22.899064
21.925714
14.219179
1.823833
-12.092455
-27.139512
-39.939316
-50.341723
-57.638864
-62.488991
-67.197024
-67.029994
-58.971214
-42.296970
-25.142676
-15.529704
-9.095513
-3.221121
0.433814
4.399691
9.942878
13.532351
15.644784
16.994538
20.259042
24.329605
22.657479
16.887513
10.878562
9.373466
12.125967
16.562803
21.606977
21.626719
20.117727
20.514393
20.750262
21.344611
19.394533
18.293377
20.663499
21.611392
20.360610
14.949124
4.976374
-5.315891
-10.948699
-9.907549
-6.814232
-1.788503
6.593949
14.085655
17.302102
14.471151
11.619419
12.827339
12.407814
9.445421
0.696697
-14.218138
-28.079615
-38.802315
-42.216964
-37.730513
-27.575665
-13.404026
1.662773
15.853375
24.057366
27.125225
26.391121
24.020738
22.675140
21.137314
22.751252
22.907633
20.332813
17.960872
12.789932
8.576756
7.827065
10.945319
15.136155
14.914054
12.435868
7.231677
-1.066350
-8.578059
-13.950579
-14.835608
-10.702961
-5.802958
-3.447643
-1.653945
-0.340558
-0.727613
-2.484163
-6.602005
-11.413686
-18.054913
-26.056025
-31.431662
-34.285732
-36.040205
-36.551688
-33.980765
-29.792267
-24.879276
-20.596483
-16.620475
-10.270708
-3.073578
5.053781
11.476803
14.689353
15.217980
14.339185
13.319856
10.269142
6.298069
0.426015
-4.031083
-5.430712
-9.096038
-12.864491
-14.815089
-17.753843
-21.628282
-24.246223
-23.580438
-21.242007
-18.302733
-10.941689
-3.378027
1.372869
5.730475
6.238062
3.168644
-0.712289
-1.615502
1.956307
5.121839
4.509826
-0.477459
-7.505480
-13.376755
-14.523370
-12.328851
-10.094587
-3.488949
4.968835
9.109016
11.363802
12.239479
11.855802
12.622637
13.522993
14.237354
14.331910
12.356115
7.965258
-0.975695
-12.543940
-23.226376
-31.375556
-33.626964
-29.794089
-23.067918
-18.267147
-12.960608
-1.693174
10.226277
18.786669
26.099396
31.869361
34.655112
35.543778
34.826819
33.224310
32.457995
32.095878
34.277669
39.380290
44.534865
47.316980
46.608852
41.941342
32.985583
24.610925
20.947678
20.780127
19.493756
16.180676
14.766500
14.246964
12.040495
7.775365
2.894066
-2.241026
-7.725247
-11.849842
-13.802777
-13.707442
-13.560673
-12.331452
-10.342928
-10.130698
-12.011677
-16.985454
-21.729855
-23.788516
-21.933773
-16.691657
-12.156369
-9.348277
-8.828742
-10.814148
-14.840291
-17.776188
-19.598980
-23.080389
-24.757191
-23.128966
-20.309965
-18.523281
-17.433035
-14.634555
-12.470429
-14.000722
-16.272652
-16.188227
-16.642042
-17.307308
-16.347725
-15.720645
-15.377492
-14.516621
-13.201156
-11.517601
-8.657816
-5.102112
-2.348832
-1.563294
-1.682008
-2.824987
-6.496287
-8.288945
-5.347334
0.831506
7.780558
15.276941
23.991895
32.195885
39.562384
45.137263
48.373452
49.691514
48.105371
44.099230
40.075165
36.439713
31.363328
24.178148
15.383705
6.356769
-1.417825
-7.730705
-11.760745
-13.180636
-12.716951
-9.796120
-5.054317
1.290775
10.380314
19.778458
26.355002
29.321032
27.668129
20.375664
10.304202
3.374892
1.687440
2.332444
2.922117
3.717786
4.343826
3.066288
-0.391223
-3.917053
-8.572614
-15.673890
-21.387486
-24.401833
-24.070109
-20.705335
-16.397344
-8.966163
0.534069
6.928257
10.183928
12.433259
10.484479
3.085769
-5.844273
-13.719916
-19.500013
-23.209758
-22.066520
-16.178101
-10.345531
-3.715994
2.300491
4.204589
3.800650
1.151277
-3.536235
-7.874100
-11.203805
-14.409082
-16.902334
-14.897705
-8.082434
-0.300047
7.919530
15.723997
19.069289
18.231017
15.985324
12.550672
7.575077
1.471310
-4.054213
-8.893690
-12.956980
-14.809125
-17.036115
-19.880314
-20.299320
-20.211259
-21.731681
-24.107518
-24.055565
-19.575347
-11.594238
0.061289
13.884060
25.295925
30.213331
30.993934
28.733693
23.344288
18.776269
14.195002
9.229538
2.704687
-5.706079
-13.309226
-19.753549
-21.609850
-19.125430
-13.510027
-4.747795
4.205626
12.321815
16.122999
15.063925
11.605894
7.671189
7.095803
9.762061
13.149175
13.788204
10.840877
5.516154
0.183638
-1.695003
-1.153387
0.527051
0.747335
-1.675001
-5.491512
-9.919256
-13.002701
-13.930852
-12.589670
-10.717263
-9.928868
-11.515011
-14.264135
-14.920568
-13.021665
-8.804333
-4.895605
-3.119052
-2.544965
-3.700932
-6.997647
-10.278516
-10.591277
-6.867244
-0.823483
4.660997
8.187606
8.800918
7.748858
7.731454
8.349701
7.648328
5.014021
1.470267
-3.181137
-9.560778
-16.615815
-22.718283
-25.788480
-24.511461
-20.349200
-16.010816
-13.474182
-13.324556
-13.527175
-12.765276
-10.060312
-3.759901
3.112259
7.031638
8.363468
7.618194
6.090758
5.331197
5.720069
6.589512
6.305846
5.387566
4.252120
1.860697
-1.630065
-4.512449
-5.618541
-4.746500
-1.391598
1.096459
-0.075354
-3.354924
-6.992974
-8.918374
-8.647436
-7.565762
-6.328747
-4.947821
-3.710806
-1.707996
0.261824
0.087780
-1.253402
-2.216362
-2.270134
-1.731115
-0.440848
1.590017
4.971936
10.081051
15.577481
20.309933
22.979568
23.938371
23.476504
21.542791
17.985010
12.744192
7.463629
2.771701
-0.729971
-2.956701
-4.062014
-4.369839
-5.443460
-6.241467
-7.049605
-8.451832
-7.954377
-5.892339
-2.626277
0.861367
3.181874
5.181827
5.982172
5.835663
5.252744
3.844022
0.794087
-3.230238
-5.817267
-7.373017
-8.239603
-9.968878
-12.153786
-13.201430
-14.124905
-13.268450
-12.894644
-14.582356
-16.464375
-18.652400
-19.164663
-19.089590
-19.058677
-17.187829
-13.387944
-7.898009
-1.459661
4.836854
8.372036
9.979999
11.599392
13.582460
16.891644
20.326815
23.614178
25.950790
26.235496
26.167437
25.261106
21.247172
15.357454
8.876764
1.257251
-5.572048
-10.321904
-13.937094
-17.079507
-19.536912
-20.624560
-21.002263
-20.335438
-17.772308
-14.901873
-12.250422
-9.369595
-7.458223
-7.724745
-9.781328
-12.605525
-16.240717
-18.606164
-17.685546
-15.271783
-12.637217
-10.947686
-10.690516
-11.654774
