EVENT_NAME: 202010301151
EVENT_ID: 10614
EVENT_DATE_YYYYMMDD: 2020/10/30
EVENT_TIME_HHMMSS: 11:51:24.00000
EVENT_LATITUDE_DEGREE: 37.879
EVENT_LONGITUDE_DEGREE: 26.703
EVENT_DEPTH_KM: 16.54
HYPOCENTER_REFERENCE: AFAD
MAGNITUDE_W: 6.6
MAGNITUDE_W_REFERENCE: AFAD
MAGNITUDE_L: 
MAGNITUDE_L_REFERENCE: 
FOCAL_MECHANISM: 
NETWORK: TK
STATION_CODE: 3524
STATION_NAME: 
STATION_LATITUDE_DEGREE: 38.4969
STATION_LONGITUDE_DEGREE: 27.1073
STATION_ELEVATION_M: 64.0
LOCATION: -_-_-
SENSOR_DEPTH_M: 
VS30_M/S: 459
SITE_CLASSIFICATION_EC8: B
MORPHOLOGIC_CLASSIFICATION: 
EPICENTRAL_DISTANCE_KM: 77.26
EARTHQUAKE_BACKAZIMUTH_DEGREE: 
DATE_TIME_FIRST_SAMPLE_YYYYMMDD_HHMMSS: 2020/10/30 11:51:11.9888620
DATE_TIME_FIRST_SAMPLE_PRECISION: millisecond
SAMPLING_INTERVAL_S: 0.01
NDATA: 10501
DURATION_S: 
STREAM: HNE
UNITS: cm/s^2
INSTRUMENT: sensor = CMG-5T/GURALP | digitizer = 
INSTRUMENT_ANALOG/DIGITAL: 
INSTRUMENTAL_FREQUENCY_HZ: 
INSTRUMENTAL_DAMPING: 
FULL_SCALE_G: 
N_BIT_DIGITAL_CONVERTER: 
PGA_CM/S^2: 68.820
TIME_PGA_S: 
BASELINE_CORRECTION: BASELINE REMOVED
FILTER_TYPE: BUTTERWORTH
FILTER_ORDER: 
LOW_CUT_FREQUENCY_HZ: 
HIGH_CUT_FREQUENCY_HZ: 
LATE/NORMAL_TRIGGERED: 
DATABASE_VERSION: 
HEADER_FORMAT: DYNA 1.2
DATA_TYPE: Acceleration
PROCESSING: Manual Paolucci et al., 2011
DATA_TIMESTAMP_YYYYMMDD_HHMMSS: 
DATA_LICENSE: U (unknown license)
DATA_CITATION: Turkish Accelerometric Archive v 1.0 - Disaster And Emergency Management Presidency, Earthquake Department
DATA_CREATOR: AFAD
ORIGINAL_DATA_MEDIATOR_CITATION: : AFAD - Disaster And Emergency Management Presidency
ORIGINAL_DATA_MEDIATOR: AFAD PROCESS SERVICE
ORIGINAL_DATA_CREATOR_CITATION: AFAD PROCESS SERVICE
ORIGINAL_DATA_CREATOR: network: TK
USER1: GuestUser
USER2: 
USER3: 
USER4: 
USER5: 
[...]
-0.114397
0.214230
0.021489
-0.125332
0.093024
0.631573
1.064224
1.225102
0.965823
0.508492
0.229845
0.500994
0.698108
-0.413042
-1.535125
-1.410172
-0.166572
1.856425
3.784145
4.416097
3.467387
2.513679
2.057286
2.175991
1.669616
1.040163
1.835179
2.445889
2.146625
0.997052
-0.060680
0.156114
0.496612
-0.034754
0.083952
1.416893
2.649559
4.706606
6.992943
7.342813
7.164753
7.553046
8.245288
8.300892
6.511245
4.312374
2.552091
1.011101
-0.270298
-2.752188
-4.508723
-4.991668
-6.233395
-8.543473
-9.772392
-9.036104
-6.596699
-2.857465
0.265436
2.537091
3.538281
4.983993
6.349734
6.171675
5.841797
5.359476
3.917824
3.021595
2.587381
0.929872
-2.186158
-4.636497
-5.021042
-3.804619
-1.695092
0.172651
0.815848
-0.186279
-2.165856
-4.325366
-6.372105
-8.275773
-9.852687
-11.063175
-9.493134
-6.759463
-5.123197
-4.101390
-2.304559
0.414429
2.850398
3.705392
3.880327
5.289490
6.049207
5.749630
4.166156
2.740748
2.971287
4.019335
3.662904
1.788288
-0.160050
-2.111200
-2.651000
-2.302380
-3.360737
-6.157197
-5.950087
-2.470756
-0.003549
1.772665
1.643962
1.475587
2.662333
2.632031
0.710245
-2.133698
-2.840935
-1.419902
-1.690114
-3.522870
-5.027624
-7.484211
-8.516952
-6.066926
-3.405729
-1.737287
-0.114454
2.398362
4.787160
4.233616
1.518375
-1.728855
-2.965583
-1.324944
0.345997
2.759474
4.969277
5.514073
5.978588
6.777978
7.635158
8.026263
8.053752
9.325466
9.234249
3.611965
-2.775348
-6.269049
-7.732568
-10.463115
-11.947251
-8.687214
-3.812465
-0.034808
1.489625
2.271209
2.536422
6.614905
12.449298
14.784366
13.202767
8.923420
4.475386
2.075653
1.742339
0.540598
0.684294
2.952825
4.042107
3.339243
2.929707
1.707662
0.342544
1.247832
2.506113
2.977500
1.457127
-0.868571
0.758949
3.546974
1.794813
-2.976538
-8.207094
-13.236786
-12.533923
-7.833484
-4.696838
-2.328032
-2.211201
-0.435924
-0.068561
-0.663028
2.573580
3.297998
-0.136975
-4.969866
-8.183046
-5.655862
-0.195080
0.852967
-0.541827
-2.256503
-1.990977
0.351902
2.641987
3.531343
0.024834
-3.659733
-3.117748
0.156971
0.466543
-3.758448
-7.636382
-11.106967
-13.100913
-12.212181
-11.425912
-10.409415
-8.881546
-8.935589
-11.283779
-12.223742
-7.268398
-1.104441
2.227757
4.886143
1.823532
-5.415964
-7.230290
-3.662242
-1.396523
-2.498613
-2.806937
-0.579953
1.124413
2.268987
7.164354
12.970007
15.053606
15.174811
14.847432
12.678863
8.797181
6.350591
6.405570
6.490225
3.711571
3.013080
3.330149
3.932737
5.320970
3.103045
1.128466
-0.678362
-1.355299
-3.784708
-7.995955
-11.499340
-14.405447
-12.049449
-4.916165
-0.757399
-1.462137
-1.741721
-0.460323
1.391800
1.144392
-0.453140
-2.415535
-2.487072
-0.612769
2.358001
8.782486
12.111248
12.734141
14.085200
13.106814
11.106619
6.202818
-0.183245
-3.772849
-4.774976
-2.403671
1.980948
3.043053
2.951524
2.011248
0.986316
0.990064
0.338744
0.132257
-1.503072
-4.706881
-7.764182
-7.359021
-6.129479
-5.966415
-9.525404
-11.373155
-7.933497
-2.223746
3.565351
5.441528
5.353435
3.265149
5.548986
8.583170
7.336758
7.154638
10.017948
12.605423
8.186440
1.217157
0.349666
2.279886
1.597639
1.255891
-3.235565
-8.543591
-9.446381
-8.900334
-7.352785
-8.357100
-9.194914
-7.023846
-6.748324
-7.014163
-2.818224
-0.655591
0.639551
0.347472
-1.999780
-5.590945
-7.869473
-5.327607
-0.120481
2.495733
3.134245
7.215852
6.670117
4.882344
4.987929
3.901770
1.400825
1.559828
2.997105
5.494926
3.469741
1.167472
1.932499
0.151286
1.543581
1.604807
0.212512
0.488659
-0.632487
-5.577523
-7.236282
-7.417153
-5.705290
-4.966190
-4.681296
-1.852037
-2.586764
-3.646995
-4.898093
-6.828937
-6.599961
-3.936576
-1.479990
0.529887
2.506651
4.720827
7.200530
8.379466
9.118566
9.379718
9.033596
10.217218
8.754012
4.683962
-1.792067
-4.566661
-7.065107
-10.890560
-10.274540
-7.528374
0.110348
4.481222
5.602055
5.076312
1.589796
-0.693106
-1.594958
-2.442456
-2.611144
-3.003811
-1.369731
0.639521
0.080041
-2.475571
-5.507569
-5.022125
-3.909102
-0.143003
2.783721
4.001080
6.723505
6.443296
5.458662
6.158713
5.712004
8.548449
10.706708
8.034576
3.544371
-1.096404
-3.074731
-5.385747
-5.318585
-1.460020
1.366740
1.299890
2.199243
1.675374
-2.875434
-8.987224
-9.276179
-4.664145
-1.972959
-0.433532
-1.980769
-3.309650
-3.867568
-4.410804
-5.409496
-5.348269
-2.568366
1.271144
3.262278
0.971254
-0.769974
-4.935613
-9.168726
-10.264569
-11.734960
-11.767136
-11.117066
-8.640175
-6.177654
-4.649473
-3.861329
-4.362705
-3.218131
1.907150
4.881981
6.293330
10.071925
12.255800
13.454104
12.685327
11.701317
11.890621
8.019560
2.668425
0.814114
-4.427062
-8.982556
-9.345234
-8.878846
-6.839917
-4.969363
-2.126358
1.453560
7.092713
7.508495
-1.652474
-8.531791
-6.593762
-0.843401
2.457871
2.136115
-2.485916
-6.949569
-9.809131
-8.772017
-4.919388
-4.874718
-3.125993
0.933434
2.262314
4.296558
7.481623
6.352979
5.553589
6.025600
3.404075
2.473483
3.775498
3.307547
2.823976
4.001663
6.003730
4.539587
1.352959
-1.223896
-4.993432
-8.704240
-10.705371
-11.007759
-8.045111
-5.465758
-5.770958
-4.226220
-4.300256
-4.142502
-2.809873
-3.626757
-3.945389
-0.292061
2.456292
4.806980
7.418508
8.379713
6.479169
3.106673
3.397814
4.300290
6.733135
8.808613
6.711580
3.626477
1.097729
0.426103
1.308900
-0.776888
-2.964824
-3.438086
-2.425338
-2.142632
1.129901
3.076989
0.786590
-1.622827
-4.410853
-2.924219
0.743167
4.285287
5.158087
2.768350
-1.783707
-4.962838
-4.487390
-1.747785
-2.864557
-3.615216
0.355807
2.391924
2.982954
6.150526
6.055248
1.702179
0.176496
2.359746
3.365309
-0.013122
-1.688750
-4.608602
-9.024773
-9.211891
-4.497395
1.375421
3.466830
2.293516
0.687551
-2.434414
-5.733188
-6.564441
-6.137726
-9.074446
-10.486109
-8.494038
-8.508408
-6.953050
-4.615482
-3.832336
-2.753363
-2.297283
-3.090738
-0.792531
-0.691319
-1.045875
3.385602
6.923973
5.346747
5.423593
8.563050
5.686619
0.521039
-0.519199
0.425449
2.912649
6.299826
7.406289
8.135393
5.211167
1.988927
1.396960
-2.341338
-3.697709
0.118059
5.188673
5.833745
5.310814
3.544908
-2.446615
-1.232067
2.084200
2.570893
2.091384
0.186154
-1.700957
-4.458682
-3.968864
-0.219634
5.537599
8.055725
3.340603
2.842038
3.185972
3.008225
9.802261
9.491751
2.400637
-4.360286
-6.064341
-2.553771
-3.276940
-5.934703
-9.149445
-11.308955
-9.592094
-4.035411
-0.201524
-1.576638
1.369141
5.368278
1.127042
-0.993107
-0.754446
-2.339170
-3.100450
-4.924772
-3.263203
-3.190105
-4.263457
-3.248210
-3.570902
-6.378609
-10.401488
-6.750346
2.041071
4.128107
4.979665
10.731588
8.543339
3.634227
1.135156
0.102102
2.623039
2.893563
2.069494
1.851762
1.380374
3.512393
7.792051
9.858470
9.723207
6.992660
4.953105
1.056741
-1.636008
0.405420
0.288588
-0.304004
-1.452952
-7.262355
-13.584067
-13.644358
-11.388322
-8.639969
-6.142774
-5.803213
-3.813328
-2.290145
2.176006
7.146345
5.842767
2.881055
-1.057168
0.118956
1.706178
-1.649762
-1.248349
-0.345873
-1.936531
-2.118027
-3.472211
-5.214689
-3.539062
-2.643146
-3.790845
-0.004753
5.270785
5.820892
7.149773
5.210806
0.842742
0.484125
-0.468021
-0.001945
-1.997766
-4.515580
-1.195565
3.479571
8.567678
8.921609
6.818328
2.546166
2.154437
7.746419
7.523064
4.002498
1.868604
-3.046132
-6.830350
-4.697393
-0.602042
1.818932
2.471502
6.004875
8.035682
9.233049
7.571166
3.087833
-0.429297
-6.014096
-5.853843
-3.500969
-4.751754
-4.610557
-6.027218
-5.653607
-5.451808
-7.471370
-6.995922
-6.885963
-3.655290
3.577645
6.772081
3.919079
1.272563
2.418386
6.343489
9.402976
8.384604
5.581896
5.638437
8.396473
11.485324
7.192857
-0.411815
-5.447130
-11.398980
-13.152079
-12.332384
-9.195426
-3.132681
-0.108181
2.826665
5.210153
3.437999
3.914384
10.272956
16.031752
11.078593
3.112805
-3.934262
-8.347621
-4.459068
-0.938190
1.209448
1.615547
2.581125
1.980098
-0.903830
-3.243586
-2.704099
0.377567
5.343220
11.974503
11.296943
9.006856
6.889831
6.157602
7.485546
6.931376
4.908066
1.698321
-1.404900
-4.668374
-6.619837
-9.490332
-10.098231
-6.294959
-4.447834
-7.820017
-11.052878
-9.295407
-7.407047
-6.643269
-3.933965
-0.157245
2.341825
4.446667
9.296738
10.950810
8.209954
7.957547
6.563690
4.053061
2.016630
0.308515
3.402989
4.410739
1.183501
1.219112
1.220674
4.438539
7.960354
5.013949
1.885425
-1.609526
-4.852071
-2.781279
-0.671751
-2.833135
-3.701875
-6.364635
-8.965856
-7.579185
-3.540062
-1.089099
0.492188
4.740607
4.085226
1.127263
-0.279715
-0.381865
-1.613594
-3.975841
-3.826835
-2.622596
-2.436103
0.669304
4.003689
3.615083
2.766648
0.391906
-3.347329
-7.937185
-9.879588
-11.627376
-11.856042
-9.639991
-6.801985
2.480188
10.942353
10.399430
6.493694
1.905088
0.017352
-1.099108
0.447816
5.612457
6.674874
5.939835
5.232910
-0.182889
-11.221910
-13.567600
-10.057344
-7.190910
-4.132360
-2.101553
-3.436370
-10.480938
-14.412602
-14.380114
-14.608467
-13.598531
-10.579029
-3.953993
3.182727
4.189228
4.738086
7.851615
9.451644
12.364623
14.911488
14.176449
14.416359
15.172015
14.203625
13.271158
14.199875
13.095910
12.599844
12.030056
8.792509
9.461635
6.568336
1.552700
5.268505
3.360465
-2.000980
-2.666670
-7.232160
-11.460900
-11.260038
-12.436164
-17.036641
-17.387448
-17.051948
-14.267359
-9.893674
-12.082235
-11.615222
-2.138747
7.871905
20.013015
32.239093
39.083110
43.319347
40.824649
39.883123
34.969013
30.098011
27.527092
16.147886
2.932487
-13.744124
-30.677827
-41.507863
-52.266987
-62.699046
-58.859849
-49.100978
-38.382465
-19.864976
-5.729921
1.915048
7.452988
12.505484
15.717727
14.607514
14.309812
10.554645
5.815782
1.029749
-5.573421
-7.984400
-7.932857
-5.665263
-1.984132
2.934975
7.458918
9.861461
11.789181
9.002717
-2.306203
-9.845275
-12.419318
-14.694722
-13.291807
-6.648653
4.814896
14.200156
14.604692
8.947733
1.848810
-0.490945
-5.487837
-8.856585
-1.491824
0.532110
6.118782
8.573806
8.593174
13.649418
16.435881
17.203720
15.929506
12.075314
2.893103
-4.505396
-10.063954
-14.524796
-18.572666
-20.616594
-21.084233
-23.326525
-28.568013
-31.050216
-28.649234
-21.940167
-7.289053
8.923355
22.719474
35.352588
37.824481
32.045067
25.769588
14.706514
5.633950
-1.034508
-4.178964
-5.156414
-7.139739
-7.463994
-6.298803
-5.035523
0.096943
3.789944
3.731528
12.608227
15.846397
15.413433
16.404001
15.740498
15.473721
7.862176
-2.038830
-7.052903
-12.773588
-15.912109
-11.886419
-3.278058
5.938201
9.211359
12.116528
6.950948
-1.615242
-7.151308
-8.933771
-6.467501
-4.484176
-0.747441
-3.085947
-10.382609
-16.333209
-22.241013
-27.465008
-33.302525
-36.144906
-29.763217
-21.932067
-9.787834
1.817225
2.675968
2.944305
4.006410
4.437811
10.493684
13.091155
12.702861
6.885649
-9.296771
-23.465253
-30.798463
-29.200621
-27.092343
-18.764190
-4.984002
-2.056029
-0.114252
8.894273
14.626828
19.673388
22.898751
24.324158
31.146308
36.854810
45.561259
51.097325
47.127238
37.552361
23.469160
13.838679
6.030020
-8.437413
-13.486161
-10.100858
-7.824830
3.551877
7.990538
6.140288
5.571124
0.314016
0.447404
5.168460
10.882272
20.288774
21.507383
10.700776
-5.725616
-23.308765
-35.379901
-41.761591
-37.642811
-32.010843
-29.995343
-26.644715
-20.161189
-9.516398
-1.143262
2.968021
4.793592
7.849643
14.574954
21.260904
21.000376
14.092007
5.250607
-6.549068
-25.028759
-39.356556
-46.944672
-52.554461
-53.668110
-53.264511
-51.937817
-48.177029
-40.202182
-27.308540
-15.679115
-10.807490
-8.995039
-8.331224
-12.287878
-16.840873
-20.245545
-26.014650
-29.514286
-29.402766
-24.679522
-15.503560
-6.899885
-0.438226
6.055296
7.550990
9.419044
19.636807
31.718876
41.718594
45.926092
44.281703
41.519917
34.643411
22.614446
20.138804
25.848243
32.131843
33.681579
33.220812
37.356149
39.152981
36.750748
35.091365
33.933670
36.400877
40.115121
41.334354
43.659739
42.972807
41.394018
39.352589
37.532641
26.952200
5.863479
-9.890038
-17.569058
-20.183711
-14.670449
-8.417150
-4.279939
-3.697968
-10.124016
-20.800984
-35.641715
-46.531729
-47.824686
-38.044261
-28.902661
-22.117997
-9.901603
-1.255131
-1.247322
-8.516494
-20.406135
-25.702916
-23.606509
-17.456921
-14.168457
-12.397866
-6.351365
-4.331491
0.782544
9.803876
12.003058
14.411224
17.170823
17.848071
20.921615
16.524812
15.576414
17.929289
17.682817
19.453096
19.265041
14.685493
1.240805
-11.437918
-25.186556
-43.083026
-58.143988
-59.563461
-45.195679
-26.899671
-5.467954
5.131542
-0.658806
-5.106839
-9.445539
-7.180757
-1.469131
-5.705369
-6.594413
-5.567921
-8.198818
-8.328145
-6.771537
-4.937532
-3.065728
3.426857
10.913760
14.147869
20.022559
16.125883
8.807041
6.749369
1.340130
2.645581
4.953473
7.592803
9.694209
4.041935
0.694430
-4.219681
-11.218329
-11.942435
-12.024280
-11.680033
-12.497230
-10.332410
-0.017184
5.058428
8.234434
12.229823
7.216062
9.022265
14.051644
17.956754
26.418919
28.169517
33.415066
39.030165
43.933341
48.562557
42.135259
35.711710
29.011389
16.408887
9.459909
2.057661
-2.879878
-0.297089
-4.430553
-5.370204
1.659369
5.116208
8.029187
15.809731
12.188265
-4.829158
-19.474024
-34.697739
-53.543543
-63.537952
-68.230270
-68.819739
-57.253415
-41.178144
-33.938961
-35.904793
-33.615957
-31.237780
-24.981669
-14.625521
-7.064895
3.650495
11.997078
9.047861
7.506559
10.096533
9.391170
7.759901
7.394099
11.818703
11.881492
15.619477
19.413065
17.653719
24.573645
29.921344
32.705933
43.534718
51.319635
49.164186
41.403947
31.710988
25.901898
20.489535
14.742297
7.847048
-1.039023
-8.657752
-15.233432
-20.433999
-28.331375
-39.569384
-51.956028
-56.355330
-49.503503
-39.629988
-26.967510
-19.305047
-21.794747
-27.045607
-31.685132
-35.683958
-37.214327
-37.434558
-32.496082
-21.363348
-12.373254
-2.783071
10.081520
22.328215
34.440273
38.928603
33.371919
25.792862
18.291277
8.523034
-1.032476
-4.157564
-5.443961
2.635534
16.620333
28.077947
36.515746
39.119152
43.013016
43.103920
38.337567
31.366409
23.750178
19.004130
14.615761
8.558951
5.604424
3.414301
1.735862
4.408305
6.982660
11.272627
11.078323
8.400881
9.889077
10.025901
7.476224
-0.420840
-15.426510
-29.175148
-40.419404
-47.470220
-42.577665
-36.834177
-28.308597
-19.143569
-22.830948
-27.286479
-26.059123
-20.754221
-7.589742
7.127284
17.040785
17.736151
14.423632
16.990802
11.656535
2.286894
1.571222
5.443532
16.165169
27.726494
35.480486
42.475696
37.441318
22.948894
15.920258
13.758249
11.878322
13.324972
13.188772
11.472847
13.884450
14.303668
8.847572
1.361918
-5.010088
-15.078844
-24.127667
-28.557583
-29.101444
-24.376638
-22.874697
-20.255984
-13.612205
-2.271423
10.359504
17.718330
20.742517
13.824777
3.144061
-2.357956
-3.715577
-2.590058
-7.133369
-16.961590
-23.393261
-25.985422
-32.179994
-42.945679
-47.232835
-46.404081
-43.684468
-33.596345
-19.645595
-4.043585
4.057776
1.840163
3.543904
3.859099
3.687600
5.987369
7.476815
10.027741
4.785315
0.761186
4.781878
18.499589
40.582938
51.140574
56.579801
58.287915
49.163496
40.659783
30.633511
22.259749
18.955040
14.193998
16.289780
15.168634
1.916375
-3.203284
-7.533862
-13.143026
-15.176646
-24.677488
-32.126281
-34.840897
-36.132292
-30.634649
-23.764705
-18.928066
-16.459922
-19.669354
-24.557849
-29.946470
-32.209067
-30.404114
-23.115575
-12.868448
-9.910798
-11.824462
-13.956170
-11.945668
-5.582722
1.616163
8.803802
14.970258
24.529828
34.104392
34.583276
35.228660
35.974008
36.233598
40.207433
41.917421
42.700255
39.577041
31.262320
16.885166
4.926488
4.681578
2.007885
3.910614
12.533032
15.843363
23.688570
29.348653
28.979102
24.192757
12.921635
1.600220
-3.101782
-7.047190
-12.972487
-17.106888
-24.196752
-27.309969
-25.971405
-21.279400
-17.487061
-13.866533
-8.734379
-2.666012
6.368753
14.142424
17.280632
15.556898
14.003100
7.630782
1.881669
4.371056
4.048363
3.789708
5.913293
4.408227
9.200507
11.466539
12.942240
18.821616
18.645118
17.841979
16.140736
13.665094
11.922617
11.700511
14.941181
11.435609
3.051539
1.395592
-4.536578
-13.523549
-17.676067
-21.643655
-22.415243
-19.315772
-14.615645
-11.828869
-12.683864
-13.746282
-18.354881
-22.704826
-25.490978
-30.391344
-31.163557
-30.187670
-30.147373
-30.677802
-32.448081
-34.398606
-42.754249
-52.601838
-61.108362
-63.956366
-52.972326
-34.669133
-13.222734
1.589257
12.772598
20.533149
21.294116
23.682914
23.347101
17.119729
12.344629
9.497250
5.558402
1.390264
2.983421
4.659360
3.001539
4.373841
1.736383
-0.223201
1.131295
-4.190164
-10.390046
-15.441293
-20.064262
-13.573864
-3.214592
3.854654
11.660813
15.253852
9.031165
4.787743
3.989289
5.796117
13.179308
17.858818
22.457107
24.035270
25.046456
26.306612
24.497909
26.992918
29.198348
31.282260
33.887228
33.627325
35.807138
37.479016
35.624705
29.324860
22.757302
17.114712
10.658988
7.959366
2.030008
-11.744245
-18.423636
-16.310048
-11.033885
-2.639195
1.127529
2.501080
3.687201
2.160893
-2.194363
-6.854505
-12.911316
-18.729465
-20.366669
-20.945204
-20.908031
-19.024045
-14.350471
-12.152226
-13.842848
-16.186352
-21.462828
-25.124279
-23.125335
-18.788511
-13.347097
-12.463989
-11.157600
-10.236068
-17.616137
-20.151132
-21.784587
-24.278348
-17.136941
-12.986923
-12.529281
-10.555640
-9.525711
-3.525443
-0.574978
1.884732
7.352073
8.193947
6.860068
3.586597
-2.223743
-9.493852
-13.304935
-8.151540
1.602020
6.985955
11.820095
14.817417
12.429555
11.558003
12.682585
8.320144
7.319578
10.601170
9.732742
8.552556
5.523057
3.660936
2.339865
1.545785
2.578525
5.822631
11.174703
13.187391
17.251817
22.928768
22.621069
20.958562
12.759736
0.921013
-5.988918
-7.466807
-7.334356
-10.112386
-11.427522
-15.429785
-16.572797
-15.855565
-15.061173
-16.281969
-22.892637
-25.000603
-27.527476
-31.872424
-31.108645
-27.442509
-25.321423
-22.372521
-14.397674
-0.757747
11.209052
13.290778
6.160616
-2.526154
-5.154864
0.631734
6.475498
10.531176
13.752478
16.182512
19.205449
20.796420
25.286937
28.325806
30.442519
33.752537
40.542824
40.476286
31.166310
29.199854
27.408644
21.500529
18.074927
13.371988
2.636605
-8.099716
-13.920052
-14.194637
-14.184329
-9.111529
4.300983
14.442524
19.711502
16.985327
8.698409
-2.914773
-16.096122
-18.253133
-16.726513
-19.747265
-21.136124
-22.549349
-19.439256
-13.862893
-11.981405
-8.829453
-13.712950
-17.448436
-14.693524
-17.381899
-20.940576
-21.090521
-18.813556
-19.327428
-18.050091
-12.883887
-11.687770
-13.003219
-14.647920
-21.674682
-27.563118
-28.362821
-24.437406
-14.682284
-3.724172
7.014334
14.875472
23.436976
29.382264
25.904807
25.279102
24.605289
20.128516
19.293514
15.677358
14.794873
18.071467
17.812188
15.552090
13.225768
12.434187
13.429441
19.511241
23.038679
20.288452
20.460887
20.694862
23.153010
26.749172
25.455903
