EVENT_NAME: 202010301151
EVENT_ID: 10614
EVENT_DATE_YYYYMMDD: 2020/10/30
EVENT_TIME_HHMMSS: 11:51:24.00000
EVENT_LATITUDE_DEGREE: 37.879
EVENT_LONGITUDE_DEGREE: 26.703
EVENT_DEPTH_KM: 16.54
HYPOCENTER_REFERENCE: AFAD
MAGNITUDE_W: 6.6
MAGNITUDE_W_REFERENCE: AFAD
MAGNITUDE_L: 
MAGNITUDE_L_REFERENCE: 
FOCAL_MECHANISM: 
NETWORK: TK
STATION_CODE: 3524
STATION_NAME: 
STATION_LATITUDE_DEGREE: 38.4969
STATION_LONGITUDE_DEGREE: 27.1073
STATION_ELEVATION_M: 64.0
LOCATION: -_-_-
SENSOR_DEPTH_M: 
VS30_M/S: 459
SITE_CLASSIFICATION_EC8: B
MORPHOLOGIC_CLASSIFICATION: 
EPICENTRAL_DISTANCE_KM: 77.26
EARTHQUAKE_BACKAZIMUTH_DEGREE: 
DATE_TIME_FIRST_SAMPLE_YYYYMMDD_HHMMSS: 2020/10/30 11:51:11.9888620
DATE_TIME_FIRST_SAMPLE_PRECISION: millisecond
SAMPLING_INTERVAL_S: 0.01
NDATA: 10501
DURATION_S: 
STREAM: HNZ
UNITS: cm/s^2
INSTRUMENT: sensor = CMG-5T/GURALP | digitizer = 
INSTRUMENT_ANALOG/DIGITAL: 
INSTRUMENTAL_FREQUENCY_HZ: 
INSTRUMENTAL_DAMPING: 
FULL_SCALE_G: 
N_BIT_DIGITAL_CONVERTER: 
PGA_CM/S^2: 30.401
TIME_PGA_S: 
BASELINE_CORRECTION: BASELINE REMOVED
FILTER_TYPE: BUTTERWORTH
FILTER_ORDER: 
LOW_CUT_FREQUENCY_HZ: 
HIGH_CUT_FREQUENCY_HZ: 
LATE/NORMAL_TRIGGERED: 
DATABASE_VERSION: 
HEADER_FORMAT: DYNA 1.2
DATA_TYPE: Acceleration
PROCESSING: Manual Paolucci et al., 2011
DATA_TIMESTAMP_YYYYMMDD_HHMMSS: 
DATA_LICENSE: U (unknown license)
DATA_CITATION: Turkish Accelerometric Archive v 1.0 - Disaster And Emergency Management Presidency, Earthquake Department
DATA_CREATOR: AFAD
ORIGINAL_DATA_MEDIATOR_CITATION: : AFAD - Disaster And Emergency Management Presidency
ORIGINAL_DATA_MEDIATOR: AFAD PROCESS SERVICE
ORIGINAL_DATA_CREATOR_CITATION: AFAD PROCESS SERVICE
ORIGINAL_DATA_CREATOR: network: TK
USER1: GuestUser
USER2: 
USER3: 
USER4: 
USER5: 
[...]
-2.106389
0.103541
2.774811
1.272494
4.662928
6.434930
8.913299
3.683441
-4.062555
-5.581414
-5.048285
-3.379287
-1.660973
-3.064654
-4.619721
-7.508239
-9.387929
-5.689104
-3.219475
0.190311
1.298085
-3.206054
-6.707296
-8.493970
-7.756702
-0.552577
4.560541
9.517591
15.831813
13.063156
9.382435
3.259552
-2.177565
-0.012894
1.821224
4.712238
5.112397
5.368037
4.916687
-0.746106
-2.690096
-1.318253
4.808998
3.192440
-0.174896
-1.629143
-7.886869
-2.689473
-1.822981
1.481927
5.972644
4.649494
8.333024
6.594108
4.402593
0.415977
-7.282262
-10.864660
-10.455136
-11.614102
-9.552124
-8.123785
-7.766388
-2.073007
2.402415
4.147262
1.936706
-2.417919
-1.409092
1.959492
-0.042244
0.617614
-3.327176
-4.679042
-0.312244
-1.640700
3.814833
3.043854
4.194079
6.461755
1.324290
2.304088
-3.365571
-4.487392
-2.627055
-2.122954
3.302613
2.044701
3.019192
4.892951
3.799847
6.716768
3.438704
1.504702
2.059681
-1.264892
1.792804
0.328568
1.170402
0.147216
-5.817725
-3.415206
-2.186946
2.479816
1.946373
-3.995782
-7.167408
-14.745161
-17.033439
-13.754751
-7.647163
-0.713349
0.888226
6.006339
8.397933
5.142655
5.488190
1.168524
-1.215268
0.120991
0.402851
1.534660
-3.380564
-3.334368
0.422202
1.368602
5.017173
2.713288
1.784056
3.355978
3.251100
3.808264
0.561414
0.294848
-1.961279
-4.950617
-7.154305
-8.739026
-9.770327
-11.035107
-7.147752
-7.424930
-7.784200
-8.499306
-8.562358
-2.931716
0.414393
7.410323
11.727804
11.658509
17.403081
15.841146
14.421234
10.687761
2.662715
1.263404
-3.831611
-1.646027
0.518020
-3.332816
-2.750056
-1.300492
-0.714611
-3.722989
-9.496277
-9.853363
-6.456999
-4.539228
-1.123824
1.546821
7.036377
11.366967
9.119580
4.954109
2.809103
1.000268
1.866448
3.584138
4.440018
4.026124
-0.646569
-0.867250
-2.386110
-4.773647
-2.742259
0.756798
4.807402
3.659049
0.406892
-0.984928
-0.663427
1.393556
2.692671
6.841285
8.931668
9.670808
4.992184
-0.705880
-0.161513
-5.524029
-7.076911
-7.713047
-7.233917
-6.226963
-8.027370
-7.063803
-4.468383
0.635059
1.788093
0.841693
-1.916663
-3.921832
-4.245831
-3.860029
-3.355304
-3.250426
-0.938426
0.386595
1.726600
2.442018
0.417496
-2.799701
-1.496217
1.890471
5.171968
7.408118
5.549342
0.941261
-4.818918
-6.098369
-3.465492
-0.744593
3.861614
8.280852
5.609894
1.345788
-1.370429
1.165997
5.693858
3.684631
2.558440
-2.141097
-5.771564
-9.136091
-14.232666
-12.334873
-13.025320
-6.209182
3.408075
8.368871
11.489617
5.815276
7.983693
3.330352
-5.174449
-3.854109
-6.624014
-3.302876
-2.680786
2.508493
9.570284
5.727875
8.302382
3.730509
-0.898797
-3.594414
-10.257293
-6.451093
-5.782184
-1.280854
4.147835
4.143777
5.239378
3.221099
4.869495
4.163440
3.881892
4.984048
0.691226
-2.408608
-2.665809
-0.955610
1.447845
-2.380829
-5.701968
-4.694702
-5.855853
-3.172722
1.155996
6.590927
8.402571
7.249848
10.953667
8.419738
4.336360
0.993995
-0.435906
1.576442
0.882561
0.723683
-2.049656
-2.191054
-0.391272
-0.067586
-3.668088
-8.361382
-7.690912
-4.834545
-1.215003
-2.283761
-5.581802
-6.473266
-5.902055
-0.516753
3.201424
3.889374
5.751584
4.563277
2.153578
-4.334817
-2.836558
3.579732
5.775305
6.465752
3.548206
1.986583
-2.575925
-4.070126
0.011691
-0.671578
-0.567948
-1.441308
-1.542753
-1.214073
-2.790678
3.201419
1.234330
4.380048
6.190131
0.794840
0.401235
-5.049304
2.087712
2.421074
1.639170
7.448042
2.513153
4.045122
-3.978051
-4.478095
2.468517
-0.021089
7.574768
2.968560
0.287926
0.077857
-3.338172
4.213986
-1.205339
-3.520149
0.537010
-1.423212
-1.748771
-6.210772
-5.683260
-3.817617
-6.949913
-6.258842
-3.557295
1.182507
5.435063
5.422577
4.589795
2.220050
-2.795682
-7.312619
-11.202472
-13.999533
-12.240017
-7.419683
-3.888164
1.307671
2.819975
0.656552
0.396230
0.436183
3.116505
1.339195
-0.811118
2.239398
1.258351
5.545554
5.955390
-0.022348
-1.544017
-4.547713
-0.940969
1.950982
-1.681358
-3.080982
-3.093467
-3.355975
1.052650
1.024869
1.951604
5.179102
3.853767
7.252316
6.661440
4.297001
0.578824
-2.506652
0.947145
5.195019
7.547596
9.450384
10.682389
8.953461
9.651712
11.820128
9.220026
5.449721
-1.151980
-5.083972
-7.022344
-12.529067
-11.291756
-7.727150
-1.591783
7.320045
8.782407
4.606948
-0.387246
-5.077419
-3.929379
-4.409759
-2.013170
3.306271
2.701973
5.383855
2.338645
-2.336233
-7.891962
-12.768169
-7.257700
-6.733310
-8.006205
-8.199731
-7.447480
-0.183737
-0.144408
4.629105
5.607654
1.683466
9.909840
9.590211
12.210603
11.514536
6.075234
8.367257
4.847911
4.840107
-0.284249
-9.621832
-5.657066
-3.147171
-0.518353
1.296413
1.616041
5.091063
2.567434
2.269967
1.503046
4.787041
5.351696
5.043929
8.665344
0.852863
-1.961990
-4.452844
-2.432381
1.286421
-2.201088
4.158394
1.256455
-3.458377
-2.945224
-5.927070
-2.472024
-2.475146
2.136992
5.182202
0.815403
0.859726
-6.003233
-4.035209
2.944801
4.288864
6.485373
1.665038
0.705529
-0.262409
0.813215
3.293145
6.032148
10.739488
10.175768
8.889451
-1.760357
-10.995559
-14.224930
-14.976556
-11.795567
-9.785716
-1.784705
5.092612
6.509090
9.752195
10.057465
6.375183
-1.012479
-6.350961
-5.137060
-5.658329
-1.198202
4.605052
6.769098
7.848468
0.977705
-0.783997
-3.920351
-7.702517
-4.569909
-6.643749
-3.943450
-2.683977
-1.363637
4.352530
3.241321
2.643266
3.678625
1.531745
4.176171
5.532094
1.655663
-0.307680
-6.360643
-5.967663
-3.892263
-4.210331
2.663240
7.518221
12.531768
11.971793
9.149449
6.755045
4.424316
4.503599
0.275077
-2.195177
-3.454026
-1.676093
-3.842325
-6.002314
-6.814808
-8.037761
-4.027111
-4.553999
0.323144
4.531064
2.723478
1.925655
-2.165215
-0.931025
-2.772946
-4.841791
-2.200487
-3.383175
-1.431382
-1.685150
-0.710970
-1.304343
-2.947121
6.450392
7.177983
2.229985
-1.072738
-7.050789
-3.537998
-4.687287
0.057509
2.176920
-2.212040
1.889754
-1.225375
2.303335
1.133132
-1.451363
-0.261809
-3.414082
-4.019004
-6.865071
-6.746459
-6.241421
-5.814106
-0.549601
2.617654
4.877527
6.216907
7.710171
11.113402
10.492249
12.165616
15.314455
16.834875
16.508067
16.514309
11.982702
4.036627
-2.823212
-14.875763
-22.689180
-21.498377
-22.030572
-21.332321
-18.814623
-18.668231
-14.781187
-15.170423
-12.336842
-4.955111
0.647438
9.314862
13.483453
17.525941
20.173800
20.323002
21.904912
21.159217
22.967739
20.771542
11.345000
4.690860
-4.298690
-7.066722
-3.143159
-6.867891
-7.451276
-14.365114
-19.106789
-20.315385
-26.047159
-19.439216
-18.742839
-12.939585
-6.650958
-3.507738
3.554989
5.554227
14.658019
18.577213
22.486418
21.247545
18.299098
16.508367
9.690043
7.158610
0.880908
0.584689
1.263900
-2.639688
-5.445801
-10.157511
-12.736076
-10.056379
-9.035379
-9.022582
-11.081438
-10.288298
-11.693852
-18.206594
-15.674537
-14.613896
-3.423155
7.538789
12.739618
19.652831
20.107614
20.942893
12.689675
12.784876
13.714108
9.083553
12.098486
3.456657
4.300987
0.599353
-9.696179
-3.255541
-9.653417
-4.071780
-2.559164
-11.991637
-1.578742
-7.248401
-3.977516
4.076558
1.465843
10.389843
6.239356
3.160122
-0.059572
-8.540339
-9.046001
-14.186900
-15.557807
-17.420954
-18.103286
-11.596163
-8.032493
-2.447112
4.685846
10.446961
15.279468
17.489399
16.525831
17.993500
14.427333
10.662022
6.891405
-1.633997
-2.552617
-5.453932
-7.861134
-10.017689
-11.815287
-9.253578
-8.994817
-6.505211
-3.223089
-0.709761
2.813330
1.723035
-2.326008
-7.487196
-8.816276
-7.521220
1.132782
10.268100
16.460588
22.066259
19.185857
15.827886
4.517284
-4.836842
-11.045562
-9.783904
-3.015835
3.304630
10.192560
7.495071
7.616179
1.237969
-5.144299
-1.758236
-5.389640
-2.527030
-1.408331
1.345967
6.944458
1.420567
2.878872
-5.524797
-13.785819
-19.417397
-23.913421
-19.998285
-21.003679
-14.275251
-5.192373
1.249201
2.074180
0.132374
1.320680
-1.597490
0.115830
1.911243
2.851399
5.826690
4.919308
7.998852
10.202540
10.944490
11.695180
7.822494
5.628482
3.802791
4.048443
8.141809
4.260071
2.480889
-4.269076
-10.868280
-5.652157
-11.219747
-10.374480
-11.119239
-15.208236
-8.572201
-8.727333
0.355857
10.345806
13.312669
15.735166
14.999770
13.540841
12.142778
11.562515
8.296312
15.323767
18.770073
24.023029
22.463279
10.833674
4.226979
-5.092188
-3.129782
-9.164018
-11.240666
-6.961891
-7.339889
-2.636295
-6.312022
-4.322772
-3.296465
-5.178028
-2.266101
-9.723058
-11.936110
-16.327256
-15.299389
-7.584295
-10.276478
-3.136653
-1.813504
-1.226687
2.784275
0.524090
5.043211
3.164145
-0.318681
-0.180717
-6.376015
-12.880017
-21.668550
-26.776051
-28.406343
-28.941971
-22.230086
-11.918948
1.215158
6.626055
6.391328
8.522288
6.123202
3.315840
1.312544
2.214620
5.868809
9.851991
11.111776
12.024777
11.090238
2.323554
-0.304017
-3.106384
-2.597289
1.466112
4.444212
9.156235
10.652620
10.223119
6.793668
12.008231
15.759182
13.913515
15.572524
10.715670
4.948311
1.277578
-0.950457
-1.695528
-3.083290
-1.036607
4.079320
6.041102
3.151024
3.322075
2.839510
0.550921
-6.908533
-14.308681
-15.679587
-16.198671
-11.681735
-9.330718
-10.329870
-9.382846
-14.684808
-15.360585
-5.983361
-1.010080
7.464131
10.475630
14.181009
17.854863
10.170671
7.451956
0.847134
-3.149158
-9.675946
-14.569008
-9.182145
-12.356893
-7.403588
-0.697947
2.461193
9.708081
12.060346
14.616749
14.942932
9.151539
5.328171
7.577431
2.434660
0.394843
-3.387635
-11.952054
-13.182811
-23.085050
-18.141734
-12.036956
-14.997265
-7.291848
-7.262195
-6.856105
-1.494526
2.329466
8.528509
10.751550
11.032785
12.227022
7.043672
3.234662
-3.036485
-7.468209
-8.047848
-9.371309
-7.745387
-8.727683
-5.944669
-5.617861
-6.774330
-4.384608
-3.132314
-1.726448
-1.122151
-1.802298
-2.832663
-1.362498
-2.741208
-5.460859
-6.030509
-6.901372
-2.578585
-2.290483
1.088089
7.858032
4.058386
9.893789
9.128741
6.132224
11.577144
6.331992
12.383394
15.295321
19.086227
29.309030
26.226363
24.615735
10.977215
-1.220481
-0.764761
-8.300064
-5.743349
-4.887157
-11.079334
-5.639096
-2.397239
3.451898
2.493637
0.363301
3.041125
-0.897422
-2.121000
-6.901692
-9.800198
-9.249900
-6.241211
-4.132413
-5.018882
-5.183067
-5.327899
-7.568419
-11.458273
-10.843363
-9.061372
-5.093485
0.453816
7.969454
12.763256
13.166225
10.423788
7.459109
9.379064
3.462816
-0.561568
-0.193871
-5.538595
-4.025667
-6.358580
-8.101242
-6.635758
-10.317728
-8.464258
-7.991058
-3.705104
0.041166
3.193751
6.556404
12.741401
20.497073
17.663804
19.200767
13.262981
8.686114
5.742037
-2.657574
-5.549525
-10.950122
-13.374804
-17.058646
-14.239736
-10.545281
-6.819613
-1.529825
-0.477298
0.504060
-7.938937
-7.641783
-3.563087
-0.510698
4.406398
1.571256
2.490812
4.668904
5.978319
6.021082
3.015825
0.086418
-3.393287
-5.709657
-6.029286
-6.485318
-7.813462
-5.778953
-1.838221
-0.174531
0.862077
2.979927
8.421101
11.024949
12.422387
14.158805
7.289291
5.657750
5.768558
-1.852582
-4.631540
-10.018091
-12.229582
-6.241232
-1.675914
0.643577
-1.730226
-2.289576
-1.718990
1.041863
5.911826
8.813453
9.178029
4.671080
0.890163
-3.617410
-10.740692
-14.143611
-13.996595
-16.657252
-15.449906
-12.888197
-13.593003
-10.810300
-8.070361
-4.170207
-4.049410
-0.495105
8.150781
13.437760
17.687507
14.671325
11.077066
5.408031
3.662872
5.578145
5.378377
6.739607
4.353943
5.437370
1.833435
-0.365884
0.184726
-3.297788
-1.311036
0.738769
1.970774
2.252009
4.137005
10.999652
13.969949
11.574920
6.397813
-1.509557
-3.513478
-5.925050
-9.689736
-9.687239
-10.390172
-7.499783
-5.727468
-4.402758
0.241842
1.044346
1.270333
1.805648
3.796459
6.548884
7.501214
7.634496
7.589236
7.194070
-2.354205
-7.273799
-13.587085
-18.949601
-16.275523
-15.473643
-4.406821
-0.941786
1.583403
7.872966
5.222921
4.815270
3.103822
2.938389
6.072558
7.504018
3.895089
0.716908
0.690376
0.490608
4.814644
7.408191
11.522158
12.121461
8.781906
7.807725
3.436869
2.366238
0.460953
3.043887
4.635474
1.555617
4.272770
3.471514
2.862222
3.209318
2.088122
-0.000076
-3.482590
-11.195812
-16.142561
-14.708291
-13.942307
-4.654667
-1.728693
1.142656
6.694639
2.729249
2.831941
0.045181
-0.002576
2.076257
-0.026612
0.611709
-1.456512
-5.365094
-8.130629
-8.744603
-8.448073
-8.495518
-6.397645
-6.112976
-4.196454
-0.982378
1.509412
5.633680
6.302902
5.231023
5.530674
3.278604
-0.247921
-3.540344
-5.183434
1.190094
1.988852
2.865958
5.574371
0.826765
2.136180
0.627933
4.529647
9.164571
8.829024
13.984281
8.967300
8.335222
6.853195
-0.117452
1.249708
0.896369
1.950768
-0.546642
-7.738282
-11.682135
-11.500783
-5.490271
2.653699
8.659217
13.208928
17.523600
19.365208
18.917603
21.304516
21.178412
17.644395
12.742593
6.064419
-1.339786
-11.712728
-15.194618
-12.205281
-12.525846
-12.465604
-10.643660
-12.587026
-13.239393
-14.388057
-11.576951
-4.216133
-0.040362
7.928811
13.004785
15.054589
16.435483
11.337659
6.162113
2.052828
-0.626558
-3.064349
-9.099833
-8.977164
-6.806562
-5.123831
-0.132134
1.701047
4.280236
3.616944
-1.506787
-1.557666
-2.889867
-2.360171
-1.262385
-3.935528
-1.156259
-5.841125
-11.694321
-10.688303
-12.675993
-9.760632
-4.397804
2.954274
12.285301
19.902383
27.824736
30.401428
28.238941
27.639950
20.997671
8.069887
-0.412440
-7.661825
-7.417422
-9.002455
-16.197216
-17.906479
-23.359515
-21.094024
-18.788268
-19.962528
-18.166491
-16.667921
-10.658969
-8.052000
-0.108110
3.407491
2.942406
3.963094
-2.501266
-3.603111
-5.996578
-5.833955
1.496585
6.119024
10.333499
13.531968
15.800893
15.859262
17.284168
17.154007
16.120208
15.396674
11.147551
13.152408
8.932001
6.280708
9.334345
7.162807
9.440159
9.362749
11.129445
10.803262
4.776517
1.656394
-4.728683
-5.789638
-2.775642
-0.663098
2.311257
-2.553401
-2.095184
-1.097906
0.127232
3.607249
-0.517019
-0.988347
-2.498154
-5.523700
-10.054371
-14.828196
-15.420945
-12.752797
-11.374712
-10.310012
-7.919042
-8.764622
-6.419536
-6.480091
-7.275104
-5.748754
-7.569138
-6.571548
-9.352690
-12.227161
-6.152036
-2.994457
-4.112533
-5.984731
-8.022675
-6.288754
-4.848865
-4.805166
-1.323589
-2.532184
-3.895599
-4.301690
-5.374506
-3.920571
-7.046313
-7.021342
-4.969665
-4.109103
0.092575
4.373848
5.816233
5.755678
4.872954
3.275124
5.754117
9.224145
5.654857
-0.011057
-2.152630
-1.665072
1.936366
3.212695
0.919111
1.618610
0.111611
-1.302994
0.713099
-0.880361
0.590117
3.099387
5.616773
6.270700
2.994508
4.053277
0.765536
3.717105
2.587168
0.145319
0.892263
-9.346148
-5.678537
-10.379010
-10.727668
-8.269276
-16.622066
-15.775238
-17.252583
-10.420838
-8.172202
-6.872776
-4.806428
-5.206276
-1.448145
0.902247
7.074447
5.977285
5.145751
5.945758
3.216743
5.715088
3.204569
-0.359101
-0.982751
-1.857672
3.529191
10.270416
11.320758
12.223146
16.522210
15.389152
12.904853
5.602092
-2.034344
-4.284853
-4.349465
1.126981
2.371159
1.836156
0.819213
1.012113
-2.569973
-7.268574
-6.222914
-7.533891
-3.357808
2.704207
7.282947
12.796537
12.273082
10.899055
9.466345
5.560885
1.607355
1.438489
0.436216
2.259409
3.003232
4.925684
7.787357
-1.704734
-0.940934
-9.066489
-15.102909
-15.037673
-18.784879
-10.598771
-10.336576
-4.745576
-1.545546
-2.534084
-2.898349
-8.770273
-8.284588
-8.368865
-9.864939
-9.613668
-11.329799
-9.521276
-9.362087
-7.774245
-1.467515
1.964433
6.633692
9.043703
11.909122
15.577045
18.867594
19.808688
18.181204
17.730478
12.680723
7.253594
1.248388
-2.829996
-4.572346
-5.598341
-5.506573
-10.777009
-10.920592
-9.834355
-7.885059
-2.574982
1.779955
10.455494
13.395201
14.746131
15.583594
11.668770
11.163108
9.974177
4.764608
0.558560
-0.770833
-2.468235
-1.163502
-4.040470
-5.853987
-3.030707
-4.495567
-0.969354
-3.770472
-4.754329
-0.015151
-1.378878
-2.104910
-7.131566
-12.862092
-14.493009
-17.903420
-17.520428
-15.733443
-15.828645
-10.636868
-8.728774
-5.552779
-0.777393
0.367213
2.549052
3.320030
1.769021
6.190443
7.107189
5.186922
8.891989
1.908857
1.156606
-1.572409
-8.912939
-3.028529
-5.364876
0.837601
5.474398
1.219656
9.343025
6.324971
7.078157
6.752598
2.186031
9.271856
13.199478
18.414041
18.386572
16.598650
17.309386
13.226008
8.950041
3.503872
1.140369
0.827920
-2.563138
-4.548643
-9.000031
-8.307087
-6.418657
-5.882094
1.933196
4.569506
7.398404
11.741168
11.819202
13.749458
12.027709
9.248128
11.275770
8.767124
0.782344
-3.985551
-4.880761
-5.372377
-3.122181
-3.451486
-3.518283
-2.839385
-9.377722
-12.166668
-14.379408
-18.428139
-14.069145
-11.759642
-8.328319
-4.850175
-6.669935
-2.109299
-2.442662
-2.780707
3.400857
7.047867
9.450386
12.317678
13.077732
13.767242
12.309562
8.734655
4.527982
-1.658576
-3.841976
-10.741767
-13.821313
-13.912145
-14.992452
-11.719694
-11.565499
-10.040085
-9.009408
-7.621022
-1.912971
1.743716
4.387205
6.145785
5.343593
6.505991
6.373957
2.174463
-0.308276
1.231497
1.019243
0.261998
-1.927956
-6.519182
-10.673727
-8.324271
-2.206696
1.495875
6.603062
7.707716
9.593648
8.983420
6.634899
8.085088
5.699424
6.030913
7.459565
8.485559
11.383752
10.611213
8.814239
4.365348
-1.074578
-3.167770
-4.002737
-2.254770
-1.279341
1.072300
4.104087
4.404051
2.782498
0.535735
0.566636
-1.594289
-2.654620
-5.753517
-6.595664
-2.747949
-5.197290
-0.494632
4.360037
5.568944
6.626464
1.837968
2.086117
0.747985
0.077514
-1.027764
-4.460024
-4.723468
-6.750175
-6.015717
-6.674326
-9.092765
-11.266488
-13.152109
-13.895620
-12.165756
-8.078321
-4.219057
0.151175
-0.192489
1.647247
4.601625
3.437041
4.947785
1.779593
0.186757
0.325033
-5.880254
-6.915925
-9.656177
-13.081258
-14.576707
-15.810898
-10.566994
-7.318583
-1.883027
0.595653
1.829843
7.521352
8.455266
11.703989
11.394037
11.131217
12.397557
10.326215
11.100002
9.026787
6.996647
3.989518
2.136983
0.731742
-4.137910
-6.949017
-11.169736
-9.943662
-7.072312
-5.316853
-3.784572
-6.560408
-6.445542
-6.264815
-4.012433
-0.608890
2.612677
3.825642
2.584272
1.651294
-0.140686
0.736419
1.561397
0.466420
-1.353652
-2.952418
-4.578341
-7.842047
-9.943355
-7.204039
-5.578117
-2.465798
1.285466
-0.118527
0.144916
-1.826854
-0.520561
4.133404
4.070664
4.628453
2.091090
2.653873
4.044443
5.593892
7.794146
6.480985
9.027712
8.081000
8.567933
7.479199
3.927702
3.586536
1.933770
3.245370
2.978492
3.169208
3.907724
1.271101
0.796965
1.858543
1.584174
0.606872
-0.275852
-1.077108
-2.429911
-5.360254
-6.540757
-6.294481
-5.549098
-2.708338
-0.822406
0.019428
-0.948198
-2.462375
-5.096501
-5.792567
-5.173911
-6.296045
-5.944891
-6.523281
-7.023637
-5.400212
-1.658936
-2.315049
-3.373194
-3.260513
-3.877296
0.568473
2.518706
3.782549
4.620949
3.462608
5.935982
6.455066
5.375383
4.249816
-0.146011
-4.578047
-6.829492
-8.820303
-9.754530
-7.556772
-5.551604
-3.047952
-2.751734
-2.740810
0.726097
1.612567
5.130976
7.536929
6.991313
