EVENT_NAME: 202010301151
EVENT_ID: 10614
EVENT_DATE_YYYYMMDD: 2020/10/30
EVENT_TIME_HHMMSS: 11:51:24.00000
EVENT_LATITUDE_DEGREE: 37.879
EVENT_LONGITUDE_DEGREE: 26.703
EVENT_DEPTH_KM: 16.54
HYPOCENTER_REFERENCE: AFAD
MAGNITUDE_W: 6.6
MAGNITUDE_W_REFERENCE: AFAD
MAGNITUDE_L: 
MAGNITUDE_L_REFERENCE: 
FOCAL_MECHANISM: 
NETWORK: TK
STATION_CODE: 3524
STATION_NAME: 
STATION_LATITUDE_DEGREE: 38.4969
STATION_LONGITUDE_DEGREE: 27.1073
STATION_ELEVATION_M: 64.0
LOCATION: -_-_-
SENSOR_DEPTH_M: 
VS30_M/S: 459
SITE_CLASSIFICATION_EC8: B
MORPHOLOGIC_CLASSIFICATION: 
EPICENTRAL_DISTANCE_KM: 77.26
EARTHQUAKE_BACKAZIMUTH_DEGREE: 
DATE_TIME_FIRST_SAMPLE_YYYYMMDD_HHMMSS: 2020/10/30 11:51:11.9888620
DATE_TIME_FIRST_SAMPLE_PRECISION: millisecond
SAMPLING_INTERVAL_S: 0.01
NDATA: 10501
DURATION_S: 
STREAM: HNN
UNITS: cm/s^2
INSTRUMENT: sensor = CMG-5T/GURALP | digitizer = 
INSTRUMENT_ANALOG/DIGITAL: 
INSTRUMENTAL_FREQUENCY_HZ: 
INSTRUMENTAL_DAMPING: 
FULL_SCALE_G: 
N_BIT_DIGITAL_CONVERTER: 
PGA_CM/S^2: 66.171
TIME_PGA_S: 
BASELINE_CORRECTION: BASELINE REMOVED
FILTER_TYPE: BUTTERWORTH
FILTER_ORDER: 
LOW_CUT_FREQUENCY_HZ: 
HIGH_CUT_FREQUENCY_HZ: 
LATE/NORMAL_TRIGGERED: 
DATABASE_VERSION: 
HEADER_FORMAT: DYNA 1.2
DATA_TYPE: Acceleration
PROCESSING: Manual Paolucci et al., 2011
DATA_TIMESTAMP_YYYYMMDD_HHMMSS: 
DATA_LICENSE: U (unknown license)
DATA_CITATION: Turkish Accelerometric Archive v 1.0 - Disaster And Emergency Management Presidency, Earthquake Department
DATA_CREATOR: AFAD
ORIGINAL_DATA_MEDIATOR_CITATION: : AFAD - Disaster And Emergency Management Presidency
ORIGINAL_DATA_MEDIATOR: AFAD PROCESS SERVICE
ORIGINAL_DATA_CREATOR_CITATION: AFAD PROCESS SERVICE
ORIGINAL_DATA_CREATOR: network: TK
USER1: GuestUser
USER2: 
USER3: 
USER4: 
USER5: 
[...]
-0.285960
-0.192967
-0.038819
0.081915
0.020760
0.053860
0.092003
0.135505
0.084123
0.068362
0.287447
0.123528
-0.077904
-0.010130
-0.167745
-0.229845
-0.208094
-0.123927
0.202022
0.154107
-0.078848
-0.069706
-0.131176
0.070572
0.166403
-0.055204
-0.028724
-0.135272
-0.045431
0.188470
0.395577
0.493929
0.106511
0.047879
0.109979
0.094849
-0.121399
-0.432532
-0.444195
-0.509448
-0.206511
-0.220696
-0.113832
0.249314
0.262239
0.668256
0.426159
0.297545
0.378560
0.329384
0.654072
0.255621
0.021720
-0.280901
-0.498410
-0.192951
0.011949
0.072474
-0.215647
-0.296661
-0.259148
0.222209
0.241439
0.053877
0.241754
-0.123282
0.056715
0.238603
0.483537
0.747071
0.273594
-0.039745
-0.218480
-0.225100
-0.138726
0.124176
0.241443
0.353035
0.219062
-0.430628
-0.337950
-0.447965
-0.366951
0.052937
-0.126745
-0.348036
-0.899374
-0.774543
-0.147233
0.090766
0.193847
0.229153
0.926128
1.772523
1.731228
1.115898
0.185022
-0.890545
-1.169208
-1.030822
-0.654751
-0.272061
-0.379870
-0.107825
-0.451426
-0.458046
-0.111292
-0.278994
0.793105
1.042453
0.801302
0.527367
-0.272058
-0.352441
-0.853027
-0.422107
0.051370
0.280228
1.064522
0.928027
1.196604
0.696333
-0.046980
-0.133038
-0.425257
0.392137
0.258164
-0.231389
0.008817
-0.813619
-0.528966
-0.165820
-0.263541
0.757807
0.684358
0.809505
0.928347
0.394032
0.523277
-0.249038
-0.533691
-0.116326
-0.222243
-0.023962
-0.141543
-0.348649
-0.536527
-0.925836
-1.030177
-0.605561
0.242094
0.523911
0.843240
1.334685
1.672928
1.550303
0.657255
0.015130
-0.250924
0.073764
0.199541
0.024273
0.069667
-0.815501
-1.289608
-1.292760
-1.220572
-0.409798
-0.538727
0.042243
1.177389
1.546525
1.886974
0.765069
-0.034356
0.254711
-0.020170
-0.127979
-0.758125
-1.581507
-1.694674
-1.626269
-1.067365
-0.514450
-0.306397
0.013877
0.185678
-0.116312
0.201125
0.593272
0.655058
0.563957
0.437234
0.932147
0.799120
0.522978
-0.238304
-0.939062
-0.837557
-1.449104
-1.817293
-1.638557
-1.316391
-0.855839
-0.388036
0.316820
1.788002
2.264000
2.207259
2.275349
1.346995
0.930891
-0.032139
-0.026149
0.225721
-0.052628
-0.016061
-1.399608
-1.232220
-1.140803
-1.058843
0.379240
0.434090
1.099858
1.042171
0.829391
2.122782
1.734418
1.265986
0.939092
1.030509
1.747029
1.312011
1.562935
1.192854
0.760988
1.232259
1.190964
0.009164
-1.895144
-2.141654
-2.203755
-1.057575
0.877941
0.577211
-0.308902
-0.944406
-0.546900
0.913564
1.766893
1.979359
1.431804
0.309898
-0.085401
0.084824
-0.061758
-1.169794
-2.009253
-1.629715
-0.929272
-0.477861
-0.128270
0.038487
0.676830
1.441580
1.209570
1.211777
0.854936
0.750595
0.598339
-1.082786
-1.223378
-0.848254
-0.740129
-0.214639
-1.293674
-2.174428
-2.655470
-1.814749
-0.630112
0.090821
1.585960
0.620724
0.215338
0.022732
-0.174602
0.800722
-0.092641
0.246862
0.018320
-0.032432
1.447892
1.621269
1.918217
0.142523
-1.342214
-1.120291
-1.653976
-1.914987
-2.669018
-2.719455
-1.349147
0.229844
1.178689
1.536476
2.154328
2.289247
2.085608
1.509367
0.166169
-0.478477
-0.981270
-0.805686
0.610961
1.142755
1.216520
0.884582
0.222283
-0.079393
-0.718680
-1.386654
-1.063542
-0.086012
0.422771
1.019503
1.216207
0.312441
0.818702
1.980958
2.884094
3.635604
2.783536
1.572735
0.336716
0.282181
0.659828
1.001223
1.259397
-0.264743
0.260117
1.579988
2.911207
4.807951
4.642455
5.259992
5.873746
5.820788
5.480339
5.291831
5.411935
4.656327
4.771386
3.084903
1.230401
-0.875025
-4.147749
-5.427586
-8.109253
-10.373870
-9.735212
-7.960463
-5.696476
-4.137975
-2.744971
-1.834899
-1.587128
0.298583
3.779675
6.375915
7.176602
6.902036
3.551134
0.575042
0.229234
-1.299320
-0.558212
0.051129
-0.192229
1.239865
0.165874
-0.006242
-0.043754
-1.144224
-0.316428
-0.810394
-0.691236
0.265804
1.073741
-0.283012
-4.624999
-7.653420
-10.379850
-9.397906
-6.722858
-4.648325
-2.327281
-4.143324
-2.953328
0.405770
2.357994
3.314404
-0.134219
1.091083
5.114688
7.424068
7.915513
5.213040
3.634996
0.188579
-1.544244
-0.682718
0.179753
0.976342
0.104099
1.146252
1.231364
0.345566
-1.385365
-4.055684
-3.122916
-2.657005
-3.286205
-2.956789
-3.125752
-3.297237
-6.515742
-10.466528
-8.570100
-7.896137
-6.746805
-3.846367
-3.285257
-0.307902
0.501295
2.464552
3.900743
3.530348
4.892775
5.432450
8.444795
7.853738
5.221246
3.775284
3.354766
5.567371
4.775196
5.537739
7.349686
7.350316
6.845632
3.574484
1.377642
-3.424267
-4.355143
2.472754
6.701574
6.895126
2.247680
-0.621865
0.307751
-0.575210
1.278662
5.272635
6.190272
8.977227
7.503523
3.916199
5.163251
4.226386
1.032469
-3.080345
-3.555713
-3.913815
-5.081744
-6.120114
-7.532032
-6.390266
-4.302808
-0.328379
2.653073
5.374775
5.515053
3.757327
3.283851
0.638120
3.368333
5.504652
2.202611
2.352345
-2.154192
-8.182348
-11.915310
-15.964448
-14.647098
-10.800968
-8.500415
-7.572690
-5.330139
-4.287986
-1.087449
4.998080
5.887031
4.448633
-1.735247
-2.647209
3.102599
-0.214258
-0.220247
-5.442673
-11.076791
-8.811858
-10.064269
-1.931002
2.547480
1.034058
-1.418121
-3.991349
-1.441448
1.656325
5.674571
2.218066
-1.950229
-3.491707
-3.385158
3.583016
5.931170
4.308993
4.193304
3.127824
8.578794
11.525255
3.240363
0.218562
-3.632611
-8.641627
-5.251951
-4.232179
-2.503139
-3.907491
-7.859223
-7.246099
-8.217009
-8.746596
-7.379756
-5.102529
-1.624904
2.404690
4.581043
4.898796
2.817328
2.447878
6.264376
10.032644
8.669587
4.541326
5.121036
6.012193
6.727137
1.864073
-4.132560
-5.318142
-4.971388
-0.991916
0.327640
-0.288635
-1.149845
0.558075
4.757263
4.646933
3.530386
4.888400
4.436675
4.682240
5.239883
2.954145
2.976842
3.686742
1.812381
1.064654
2.942483
5.456133
5.793430
0.150171
-7.193443
-10.262529
-6.366277
-3.184969
-2.800072
-1.423774
-2.051083
1.760056
3.269066
4.676571
9.132042
3.232185
3.168508
5.375123
1.366966
5.177474
1.736101
-2.603995
-4.438637
-9.714337
-6.710504
-9.377040
-6.744548
-5.281877
-12.299858
-8.400769
-8.191771
-4.719505
-1.495956
-1.771467
0.862916
-0.286099
4.287268
5.702654
2.747997
3.475865
4.481136
6.569855
4.883055
0.704043
-0.295554
-4.925662
-7.001455
-3.496090
-5.274936
-4.285427
-1.781549
-2.848290
-1.337389
-4.167845
-6.568641
-1.048952
-2.507524
-3.285198
-1.934749
-6.766290
-0.298701
3.578006
2.749265
6.125386
3.243862
4.494698
3.173251
-0.918758
1.133079
4.046126
5.314930
2.554770
2.293444
-1.716605
-3.171710
-4.427273
-7.447813
-0.254564
-2.195439
2.263814
4.493756
-4.091551
-0.601001
-3.616813
-5.782132
-0.134774
2.345146
7.094412
8.665837
3.972998
2.753371
-1.162109
-3.356745
1.357530
1.821235
3.964173
5.838535
0.003931
0.842129
4.587070
4.414009
8.304271
1.146328
1.149796
8.437299
4.696772
9.008813
4.298952
0.543609
1.669298
-2.566457
2.028031
-2.958603
-2.754018
1.796022
-1.242486
0.389463
-4.710654
-7.831122
-10.791453
-11.666848
-1.589238
-1.098424
1.712804
3.307556
-4.286351
-0.520920
-1.514527
-1.253831
-0.598781
-4.304948
-1.327279
-6.096088
-4.460041
-0.157457
-2.727848
-2.668899
-2.715238
2.442882
3.899248
1.967200
1.994310
-4.077348
-5.284051
-7.635671
-10.492607
-2.987910
-1.719736
1.344621
2.565825
-3.553432
-2.745811
-4.514570
-3.067031
-1.062478
-1.001008
3.681114
-1.291020
-5.063070
-5.392801
-4.953369
0.995034
2.690030
3.524446
3.270055
6.406916
7.601956
2.876018
0.237222
1.713447
6.117220
5.363504
7.565706
4.260828
-2.492359
-1.627681
-7.277245
-8.145390
-7.558115
-8.745273
-3.808445
-3.916884
4.715708
9.269846
6.574939
11.426025
8.408952
10.204822
9.254086
2.938440
4.392914
1.701475
1.805501
3.769389
-2.338521
-5.152585
-4.826636
-5.886126
-2.706709
-2.463666
-4.871713
-2.939033
-0.580792
-1.558953
-4.457183
-6.625655
-5.017032
-4.835774
-3.879680
-2.457358
-3.831133
-1.486132
-2.474380
-0.253579
4.008340
2.732286
6.472499
7.215498
4.413412
6.697259
8.612601
9.166146
11.220190
8.442377
-1.312751
-0.947399
-0.877417
-4.200894
-1.785596
-3.868640
-2.393045
-4.689816
-9.605838
-11.643489
-12.707077
-9.880088
-8.971278
-4.230838
1.774307
4.882797
6.177449
5.066892
2.592647
3.331232
3.851363
-0.132837
-0.813735
-0.549571
-2.615908
-4.192692
-3.829546
-2.821123
-1.458065
-2.426453
-4.601229
-3.965094
-2.491390
-2.332828
-2.905602
-1.615048
-0.492196
-1.721595
0.263098
3.617783
2.363165
2.577522
-1.203039
-2.067401
3.166689
5.591129
9.397224
3.776031
-0.931309
-3.190567
-6.683638
-3.492242
-6.608612
-3.979273
-3.701554
-5.747716
-0.014300
-0.641609
5.898482
3.399334
-0.617020
0.898609
-6.703494
0.875598
4.575146
4.366148
3.521645
-3.854122
0.915949
-3.451257
-2.733476
1.716636
-4.829760
-2.673897
-4.855608
-2.207355
1.348448
-1.888025
-0.738694
-2.556944
0.391724
5.001027
6.038452
3.513139
-1.892121
-1.237387
-1.238017
-0.163395
5.397905
3.937756
2.874484
2.083570
0.786396
8.202513
9.147891
6.920471
6.770421
3.416682
3.758708
4.217369
5.995585
5.484912
5.076058
3.367823
-2.579634
-3.800522
-7.930989
-10.078656
-9.445357
-9.569242
-7.696457
-6.460437
-8.399736
-6.759275
3.508735
4.098216
1.499455
6.299473
6.140912
8.172259
8.106376
2.111949
-2.229407
-4.355323
-2.452590
-3.629661
-2.525408
-6.428279
-8.269226
-1.328161
-5.573687
-8.055813
-7.472006
-5.878830
0.686795
5.799837
12.730499
7.668841
1.197155
0.394263
0.071467
5.415888
2.194861
9.281562
7.424854
-2.768130
0.074621
-6.169153
-0.084255
1.162798
-0.041383
0.679865
-9.975562
-5.172077
-11.289128
-12.001864
-8.248412
-13.624671
-2.646762
-6.333385
-2.612086
5.147948
2.958356
14.190340
9.992414
2.996815
0.551886
-1.394348
6.017671
2.496229
1.684511
3.764088
-1.398445
-0.261407
-2.288025
-6.729310
-4.200845
0.645197
3.768503
3.952598
3.694109
3.771971
3.018886
0.163526
-1.314905
-0.676563
-3.012107
-6.588399
-9.420116
-3.152699
4.291789
4.015017
8.131300
6.852409
2.717213
0.052253
-8.119156
-3.843052
-2.097934
-6.647028
-0.266759
4.069555
8.598790
9.154226
1.691140
-1.369434
-2.816973
-3.191467
-2.554385
-8.430285
-6.165983
-5.999226
-8.434067
2.981697
2.133412
-0.932206
2.891542
1.078966
4.862680
7.752085
1.151785
-3.422212
-3.902308
-3.135351
2.482060
4.736590
2.146970
4.205112
0.931441
-0.165561
8.393898
12.565976
12.955917
7.439380
3.017640
4.070510
2.125537
1.854439
-1.390545
-6.083699
0.217132
2.829134
6.749343
7.637348
-1.744863
0.975578
-1.331280
-5.104591
-3.828852
-6.453777
-2.240404
-2.874963
-3.800795
-6.640393
-11.730738
-8.469361
-10.508588
-1.609940
1.286400
-3.058109
3.256907
-5.192221
-4.303900
-3.077022
-5.878792
2.517377
1.642297
9.132179
10.764759
4.434612
10.146592
6.045126
8.015948
10.613134
3.107807
4.132938
6.909174
6.936285
-2.245124
-6.732748
-4.853973
1.171032
5.914308
2.734261
8.188068
-0.721297
-4.641190
2.444565
-3.816861
0.209896
-2.219902
-4.761292
-0.433489
1.903631
10.459623
5.342168
1.505181
-4.390894
-11.719692
-4.206799
-3.478300
3.735124
9.174430
5.424130
5.384096
0.502750
1.572643
3.173384
3.623534
3.232333
1.171986
0.990728
-0.903177
-1.123523
-7.832262
-10.087107
-9.677622
-8.845728
-0.064662
-0.122664
-3.604702
-4.661985
-2.156532
5.115210
5.527847
5.257695
3.292232
-1.831527
-1.849810
-5.010628
-3.430377
-1.936183
-6.026301
-6.069487
-7.249710
-2.716693
-2.034533
-1.152833
3.895272
2.605033
7.483543
4.782016
-0.308959
3.033748
0.350504
4.235723
7.003133
0.266023
3.817413
1.975205
-3.466622
0.863071
-3.527146
-3.477339
2.414638
6.094956
10.674943
7.839759
6.181330
2.485881
-2.951217
-5.176115
-1.669804
4.614005
5.395147
4.443466
-0.464361
-1.965489
-2.374973
-0.952022
-2.985575
-7.846431
-7.226057
-11.638026
-7.145673
-3.409558
-1.924191
2.280041
-5.170121
-5.347596
-4.493005
-2.153993
5.148641
5.376238
7.103072
0.551948
-3.347140
-2.383794
-3.341150
6.255418
10.404800
15.577106
13.090566
3.567763
11.085384
9.071376
9.420021
10.264840
9.868280
15.946558
9.214492
11.526079
7.601772
-1.917564
-3.545099
-9.673814
-10.651029
-11.492379
-9.659313
-3.209377
3.830355
12.718599
16.848437
17.570000
13.581071
12.574540
16.655202
14.491143
12.531039
9.709725
6.240927
4.776050
-0.879503
-10.379610
-20.176034
-31.640343
-43.837879
-47.156943
-45.083040
-44.151218
-35.405457
-30.204151
-26.949709
-12.232533
-3.707750
9.158076
23.409971
26.272265
34.141054
41.490973
47.144636
48.828914
46.211238
41.477735
30.173247
26.340358
17.108827
0.851120
-2.412463
-12.457604
-18.257533
-16.103561
-23.664369
-26.177072
-38.151740
-47.068985
-48.862648
-48.795188
-34.730856
-27.851261
-11.031497
3.317489
10.047349
24.177880
30.584944
33.520057
29.406928
26.700357
23.278213
19.124734
8.754906
-2.280375
0.556702
-7.144383
-16.907078
-20.760457
-22.760280
-18.801613
-14.502812
-9.478035
-10.502219
-14.297911
-10.879549
-12.243552
-11.254358
-11.135516
-13.897252
-12.728376
-21.631436
-19.802467
-16.556536
-9.634386
2.974527
3.539421
12.328683
14.601181
14.069387
5.590628
1.793675
13.307791
2.658983
4.017628
4.273595
3.541315
19.599797
11.913212
21.413950
20.661495
4.655026
13.955908
-2.692055
-0.950720
6.284770
-14.393732
-15.464570
-26.017548
-32.797844
-33.869944
-43.461152
-39.533693
-34.104474
-20.882753
-7.146261
4.362181
24.114221
39.165541
54.610899
66.171354
62.965459
57.173726
47.791200
34.028543
27.877763
18.525184
10.566870
8.745467
1.932072
-3.659490
-12.808430
-21.569636
-30.912128
-38.856886
-33.401819
-27.279093
-17.134339
-0.035911
11.947899
19.678617
24.544833
23.699700
20.959715
19.863974
19.788318
24.222354
21.854656
16.821053
7.706788
-7.798148
-15.746689
-28.295077
-37.585240
-34.757621
-22.486635
-12.280411
-2.326056
4.555430
-1.687398
2.257399
-2.818130
-13.644728
-13.123336
-15.030481
-1.694962
9.748227
18.514478
25.449238
21.813683
20.342501
-3.006320
-21.294743
-27.127456
-34.703710
-30.693976
-23.309382
-12.463554
-5.915267
1.364356
4.122624
0.744928
2.990001
6.974832
19.158499
25.854945
28.339908
33.294074
29.698238
27.251733
22.061775
16.180832
13.172270
3.943577
1.033368
1.216832
-0.420791
0.148201
-8.265621
-14.259732
-24.878593
-30.180142
-20.190166
-18.551597
-2.650100
6.325148
7.183207
20.791085
19.613384
25.313700
32.073192
27.485010
28.852796
23.479689
7.619173
0.867247
-2.648205
-8.031399
-7.177754
-15.701277
-13.298273
-9.066616
-12.949942
-17.138097
-23.734614
-16.156468
-18.368441
-17.958956
-19.960986
-27.866656
-18.962335
-18.016958
-15.992231
-20.212539
-26.203183
-25.953204
-34.419670
-30.206611
-30.475818
-25.958562
-13.937555
-12.171632
-0.837513
-3.214982
-6.137170
-2.215700
-8.145505
-3.027734
-5.558090
-15.770303
-22.214249
-31.611275
-33.239442
-37.059091
-38.764174
-29.953161
-17.666729
-4.031741
8.889250
24.744093
31.423831
30.105537
27.936435
22.753097
28.885910
40.757813
41.149645
34.647698
32.785945
30.815439
31.019393
30.552222
26.033705
28.974177
24.498848
20.685502
22.290027
19.409449
19.586609
20.030139
18.553914
14.026886
13.639783
8.547547
2.619319
4.840750
-2.770179
-13.337342
-23.535370
-30.238750
-22.737205
-12.178868
-5.526240
0.094954
-2.174076
-8.430459
-12.285100
-21.435300
-28.028035
-29.964181
-27.860016
-25.471828
-20.755031
-4.960713
3.548625
8.410743
12.487622
-2.382124
-8.767122
-10.068394
-23.427555
-18.417593
-12.312520
-5.072301
2.558803
-2.533118
-2.630208
-9.756943
-11.579292
-14.885431
-18.473702
-11.904924
-13.176249
1.726912
16.248960
19.397799
30.446950
31.463254
25.154858
21.260814
9.009689
0.002918
1.298831
-7.653720
-15.596587
-27.581657
-31.592652
-16.569703
-15.870521
-2.147268
8.408231
8.056434
24.602578
24.426995
23.300361
28.602226
20.106444
17.139493
15.371680
9.348882
7.435117
3.549584
2.369676
2.708234
6.972360
13.498896
16.105539
15.507862
9.177399
5.486364
-3.253407
-12.497546
-13.020199
-13.779589
-10.870955
1.030895
10.748196
11.960259
12.719965
8.209960
8.227298
10.703120
1.860269
-1.149554
-3.716161
1.525495
1.883597
-13.439766
-7.979971
-16.383075
-23.035703
-11.510238
-16.990523
-7.139564
-1.118343
1.465604
12.107161
8.785261
9.369068
-6.169913
-19.246312
-12.325107
-13.092693
0.964704
5.415762
-0.027641
8.785263
3.133808
4.268008
6.091933
-2.647837
-5.184813
-7.835588
-13.195140
-23.715648
-22.804316
-17.026768
-17.630750
-12.371125
-6.905971
-5.090872
0.522441
6.338447
12.631083
20.106463
18.612901
17.284519
25.479887
34.659720
33.933744
31.257751
28.247613
19.528017
15.568090
9.164179
3.483407
-4.537953
-13.501852
-1.805848
7.435770
15.082006
27.592567
33.818058
41.479740
41.032428
37.661666
35.215161
30.106218
20.829294
15.663294
7.457209
-5.607211
-4.970130
-17.170503
-27.702044
-28.571450
-33.817519
-34.387771
-39.231921
-44.085527
-46.817631
-39.398046
-28.509978
-17.423945
-7.162240
-2.225412
-1.916171
-10.028317
-7.116531
-6.585367
-5.505386
3.985895
1.745551
0.577621
-1.741846
-10.712365
-15.157118
-19.181983
-25.899864
-30.449588
-32.970487
-30.504122
-25.137004
-21.777590
-14.895474
-5.848353
2.254022
9.842255
18.838939
26.869441
27.577765
31.474962
29.924343
12.850188
11.623941
12.227293
2.845713
7.368328
2.720882
-5.278097
-0.078997
4.062504
2.911282
0.435776
6.846938
12.935934
11.257016
8.959615
11.759179
14.733696
9.044728
1.368231
-5.300474
-11.740637
-14.393618
-19.587989
-25.053143
-18.965723
-16.471302
-17.267575
-8.763281
-3.416968
1.954878
11.341503
24.221198
29.668385
26.974739
28.624341
22.231779
12.026185
8.150109
14.634720
16.625402
12.424953
15.047358
14.293326
12.916399
6.894547
3.721436
0.982081
-6.256561
-4.547065
-7.347258
-10.283632
-6.065845
-3.641721
2.245212
8.460301
9.400950
-1.401375
-19.966886
-27.770422
-34.308306
-35.542749
-30.320006
-32.032654
-24.405017
-13.099268
-5.530264
5.433144
13.729070
18.350983
11.002010
-9.789975
-26.706829
-28.973968
-27.467481
-23.163951
-16.517942
-18.353845
-14.448767
-16.738918
-14.937690
-3.537687
-0.829224
9.774821
11.907672
14.931996
22.679105
19.210307
22.604396
21.676988
14.677606
17.719897
19.945111
16.726606
21.833974
22.466012
14.058179
13.833105
15.381833
16.840091
14.523461
16.630778
24.052570
20.665732
18.617993
18.590569
17.986902
9.628561
-3.793331
-6.548132
-11.044582
-14.348514
-11.859137
-13.486043
-16.686580
-19.193609
-24.038074
-19.266111
-12.293524
-9.619106
3.177369
5.572176
9.955775
17.118446
10.253353
8.558358
0.879969
-4.320391
-2.378885
-7.588072
-10.928887
-12.031878
-11.221420
-11.636894
-12.697330
-12.104380
-13.446002
-12.686611
-14.027287
-15.022154
-11.581411
-6.360245
-1.807368
-4.394466
-3.112738
-3.172001
-14.908039
-15.968790
-11.017146
-6.581850
4.056556
3.012827
7.479961
10.184010
-5.333850
-5.923647
-0.809344
7.020672
13.517892
20.008807
28.697511
11.740622
2.577181
0.557814
-9.070592
-6.495157
-8.179119
-9.339798
-7.829212
-8.511056
-1.529326
9.448898
20.573074
28.579303
34.445116
38.843845
39.699697
39.371542
40.406444
