EVENT_NAME: 202010301151
EVENT_ID: 10614
EVENT_DATE_YYYYMMDD: 2020/10/30
EVENT_TIME_HHMMSS: 11:51:24.00000
EVENT_LATITUDE_DEGREE: 37.879
EVENT_LONGITUDE_DEGREE: 26.703
EVENT_DEPTH_KM: 16.54
HYPOCENTER_REFERENCE: AFAD
MAGNITUDE_W: 6.6
MAGNITUDE_W_REFERENCE: AFAD
MAGNITUDE_L: 
MAGNITUDE_L_REFERENCE: 
FOCAL_MECHANISM: 
NETWORK: TK
STATION_CODE: 0920
STATION_NAME: 
STATION_LATITUDE_DEGREE: 37.5604
STATION_LONGITUDE_DEGREE: 27.3749
STATION_ELEVATION_M: 58.0
LOCATION: -_-_-
SENSOR_DEPTH_M: 
VS30_M/S: 894
SITE_CLASSIFICATION_EC8: A
MORPHOLOGIC_CLASSIFICATION: 
EPICENTRAL_DISTANCE_KM: 68.90
EARTHQUAKE_BACKAZIMUTH_DEGREE: 
DATE_TIME_FIRST_SAMPLE_YYYYMMDD_HHMMSS: 2020/10/30 11:51:10.3793730
DATE_TIME_FIRST_SAMPLE_PRECISION: millisecond
SAMPLING_INTERVAL_S: 0.01
NDATA: 10501
DURATION_S: 
STREAM: HNN
UNITS: cm/s^2
INSTRUMENT: sensor = GMS+/GEOSIG | digitizer = 
INSTRUMENT_ANALOG/DIGITAL: 
INSTRUMENTAL_FREQUENCY_HZ: 
INSTRUMENTAL_DAMPING: 
FULL_SCALE_G: 
N_BIT_DIGITAL_CONVERTER: 
PGA_CM/S^2: 26.140
TIME_PGA_S: 
BASELINE_CORRECTION: BASELINE REMOVED
FILTER_TYPE: BUTTERWORTH
FILTER_ORDER: 
LOW_CUT_FREQUENCY_HZ: 
HIGH_CUT_FREQUENCY_HZ: 
LATE/NORMAL_TRIGGERED: 
DATABASE_VERSION: 
HEADER_FORMAT: DYNA 1.2
DATA_TYPE: Acceleration
PROCESSING: Manual Paolucci et al., 2011
DATA_TIMESTAMP_YYYYMMDD_HHMMSS: 
DATA_LICENSE: U (unknown license)
DATA_CITATION: Turkish Accelerometric Archive v 1.0 - Disaster And Emergency Management Presidency, Earthquake Department
DATA_CREATOR: AFAD
ORIGINAL_DATA_MEDIATOR_CITATION: : AFAD - Disaster And Emergency Management Presidency
ORIGINAL_DATA_MEDIATOR: AFAD PROCESS SERVICE
ORIGINAL_DATA_CREATOR_CITATION: AFAD PROCESS SERVICE
ORIGINAL_DATA_CREATOR: network: TK
USER1: GuestUser
USER2: 
USER3: 
USER4: 
USER5: 
[...]
-0.117769
-0.057762
-0.047111
-0.057501
-0.003469
0.018352
-0.009703
-0.002169
0.047967
0.080179
0.097064
0.081478
-0.010739
-0.109969
-0.092045
-0.060613
-0.054897
-0.006840
-0.045804
-0.045024
0.049791
0.085640
0.087978
0.090057
0.113956
0.085902
0.054730
0.051094
-0.021381
-0.058787
-0.061384
-0.121650
-0.184253
-0.148665
-0.092814
-0.073071
-0.023455
-0.002933
0.066166
0.152929
0.077597
-0.027349
-0.033063
0.010838
0.067468
0.063312
-0.006825
-0.021371
-0.010720
-0.052282
-0.060594
-0.006043
-0.007081
-0.017731
0.068772
0.142027
0.127740
0.065137
0.008508
-0.041107
-0.017987
0.023316
-0.055912
-0.094877
-0.138518
-0.157740
-0.067080
-0.058248
0.013449
0.095016
0.076314
0.175286
0.217628
0.077874
0.022544
0.035533
-0.021616
-0.067854
-0.141108
-0.151498
-0.067593
-0.076165
-0.117467
-0.114609
-0.063954
-0.024728
0.068789
0.128536
0.024369
0.080999
0.180231
0.094768
0.018137
-0.055117
-0.070183
0.050869
0.011905
-0.141098
-0.030177
0.157896
0.197121
0.231411
0.288820
0.253233
0.135818
0.073994
0.058408
0.041784
0.035550
-0.006532
0.003339
0.062048
-0.045236
-0.166547
-0.161092
-0.138751
-0.043156
-0.001333
-0.074847
-0.140048
-0.146282
-0.074066
0.026205
0.139724
0.208563
0.242593
0.235061
0.171938
0.096865
-0.014834
-0.148355
-0.115883
0.190124
0.355597
0.267276
0.202594
0.023875
-0.137960
-0.029117
-0.034831
-0.170949
-0.118735
-0.079770
-0.129385
-0.173025
-0.146269
-0.089379
-0.008071
0.218187
0.340538
0.369113
0.363659
0.252998
0.260792
0.208579
0.107010
0.122337
-0.031965
-0.218478
-0.210424
-0.232244
-0.316928
-0.256402
-0.095605
-0.013258
0.100521
0.254044
0.282360
0.364187
0.431208
0.284959
0.109876
-0.073260
-0.200546
-0.143916
-0.104431
-0.178984
-0.187296
-0.102611
-0.043123
0.127804
0.434851
0.405757
0.185215
0.095336
-0.131701
-0.213787
-0.086760
0.001042
0.100793
0.097936
0.017669
-0.046753
-0.050390
0.004941
0.155867
0.269906
0.060533
-0.195338
-0.110653
0.063652
-0.028825
-0.277682
-0.360547
-0.226507
-0.052721
0.022352
-0.119481
-0.169875
0.076905
0.147303
-0.002583
0.023914
0.103663
-0.023363
-0.188835
-0.171949
-0.015049
-0.022062
-0.331965
-0.470680
-0.130384
0.073794
0.009113
0.296157
0.630479
0.572811
0.371751
0.028338
-0.383394
-0.423657
-0.304163
-0.365728
-0.388587
-0.285978
-0.116609
-0.136351
-0.212462
-0.076603
-0.024649
0.159267
0.458261
0.515150
0.422674
0.101081
-0.236876
-0.284673
-0.053219
0.012503
-0.204663
-0.148293
0.041338
0.270714
0.403456
0.176419
-0.060489
0.075630
0.291758
0.097192
0.097972
0.224220
0.137458
0.127587
-0.234529
-0.726269
-0.678471
-0.176859
0.251499
0.631280
0.752852
0.140320
-0.115032
0.105512
-0.017877
0.117202
0.382946
0.162663
0.087590
0.380349
0.625311
0.688435
0.285016
0.030444
0.440358
0.549981
0.220076
0.006288
0.032005
-0.069044
-0.334266
0.094871
0.565571
0.584794
0.878592
0.721693
0.077469
0.009410
0.269958
0.096174
-0.158918
0.295417
0.607139
0.193848
0.095137
0.314382
0.449981
0.432837
0.072280
0.038251
0.075138
-0.475310
-0.673252
-0.555577
-0.338670
0.388681
0.574155
0.315687
0.626889
0.459340
-0.738969
-1.218500
-1.128880
-1.386309
-0.518684
0.314652
-0.241251
-1.034841
-1.209145
-0.177087
0.632870
0.492596
0.546888
1.108247
1.751952
1.604924
0.259847
-1.161083
-1.181605
-0.532964
-0.207993
0.171009
0.413632
0.544556
0.738603
0.238031
-0.761296
-1.124711
-0.661804
0.098278
0.524298
0.435717
0.046585
-0.626992
-0.985731
-0.914554
-0.982613
-0.577634
0.106855
0.647692
1.272694
1.273474
0.446633
-0.424108
0.052566
1.034490
0.347404
-0.637636
-0.705175
-0.731151
-0.345395
0.358576
-0.249020
-1.824252
-2.232347
-1.625269
-1.480578
-1.612280
-1.191455
-0.686206
-0.623342
0.186615
0.812137
-0.218362
-0.212387
0.792656
0.173889
-0.426174
0.152589
0.467948
0.341182
0.191036
0.396254
1.402335
2.118256
1.294792
0.287673
-0.043011
-0.027684
-0.171595
-1.332238
-1.340030
-0.106392
0.324044
0.185069
-0.758928
-1.466015
-0.470584
1.437931
1.818492
1.511187
1.365717
0.179618
0.573946
0.671879
-1.539785
-1.853584
-0.500972
0.431855
1.447548
1.311171
0.336522
0.792675
0.675520
-0.290037
-0.369785
-0.477069
-0.245095
0.425626
1.062058
1.728623
2.246341
1.965792
1.388588
1.621081
1.367029
0.463816
-0.406146
-0.638378
0.950363
1.584197
-1.006987
-2.639368
-1.048289
0.410308
0.398359
-0.183780
-0.818133
-0.677078
0.133917
0.012347
-1.719785
-2.580916
-1.383904
-0.297035
-0.241184
-0.565894
-0.111559
1.023108
1.510173
1.655903
1.298463
0.313943
-0.177277
-0.242478
0.002743
0.757369
1.487837
2.322212
2.672120
1.698511
1.646817
2.163496
1.412508
1.197680
1.130920
0.056261
-1.259723
-1.094770
-0.080895
-0.370796
-0.196751
-0.134925
-1.105418
-0.622768
1.443166
2.243772
0.676073
-0.340139
0.039642
0.276291
-0.538860
-1.701321
-1.810682
-1.863155
-1.961087
-1.458955
-1.582085
-1.350891
0.341758
0.506451
-0.861486
-1.115279
-0.847718
-0.925388
-1.004097
-1.065661
-1.164373
-0.061138
1.393303
1.316413
1.056126
1.021057
0.564646
0.353715
0.864679
1.302648
0.848055
-0.019050
-1.104100
-1.203071
0.218119
0.739994
0.349303
-0.175427
-0.848486
-1.173195
-1.356331
-0.222443
1.571774
2.696310
2.607210
1.857001
1.951817
0.516859
-1.237873
-1.049540
-1.090064
-1.592194
-1.747795
-0.847439
-0.266078
-0.660405
0.107470
0.821312
0.787283
1.225253
1.544508
1.325784
0.240734
-0.578834
-0.378552
-0.581690
-1.084860
-1.543090
-1.774283
-1.326183
-0.934452
-0.779890
-0.470246
0.066955
0.529342
0.240481
-0.031496
-0.180083
-0.827164
-0.603503
-0.268662
-1.573995
-2.067034
-0.095135
1.234617
1.423209
1.772598
0.652219
-0.262683
0.150348
0.140738
0.411416
1.006805
2.019121
2.209272
0.707294
0.683656
1.360871
0.531173
-0.502443
-0.644795
-0.205008
0.296085
0.431165
-0.851049
-1.787252
-1.433448
-1.203033
-0.277739
1.057209
1.494658
0.527023
-0.341121
0.115292
0.425975
1.047341
1.552070
0.417145
-0.685570
-0.644266
-0.491003
-0.678814
-0.679593
-0.428137
0.459750
1.393876
1.640916
1.143980
-0.191226
-0.318512
0.616393
0.946039
0.007239
-1.173926
-0.669196
-0.745827
-1.101968
0.476902
1.755740
1.785873
1.249972
1.045795
1.748728
1.316475
-0.037176
0.534314
1.662747
1.172825
-0.248105
-1.686699
-1.663839
-1.225870
-1.892954
-2.187790
-1.611884
-1.195735
-1.726440
-0.951812
1.143996
1.165038
1.263231
2.611427
2.444916
1.057756
-0.377461
-1.664091
-2.843697
-3.154379
-2.309873
-1.102990
0.034794
0.695384
1.131275
1.710038
2.227237
1.806933
1.484561
1.238042
-0.353036
-0.455124
0.702662
0.866316
1.105563
0.947885
0.227029
0.722667
1.669002
1.036727
0.233525
-0.500319
-1.493671
-0.276657
1.695761
1.710049
0.670458
-0.093779
-0.202361
-0.223142
-0.909708
-1.851886
-1.922542
-1.057774
-0.693060
-1.903837
-2.449350
-0.965555
-0.250153
-0.848658
-0.754881
-0.464460
-0.715136
0.004941
1.106618
0.399530
-0.543687
-0.063375
-0.371460
-1.521192
-2.179963
-2.771194
-2.491424
-1.070233
0.787368
1.693699
1.711883
2.238173
2.474303
2.914350
3.132816
1.730589
1.033892
1.389775
0.441103
-1.031781
-1.283755
-1.267389
-1.117243
-0.756944
-1.054638
-0.204157
1.105593
0.549171
-0.727848
-1.708212
-2.702083
-3.347086
-2.678963
-1.922778
-1.686908
-1.505589
-1.393889
-0.847596
-0.933579
-1.434411
-1.081646
0.277720
1.926208
2.439770
2.308588
2.503674
2.089604
1.315237
1.834253
2.138442
2.044667
2.316644
1.370830
0.542430
0.817005
1.830880
2.555893
1.306410
0.111738
0.189928
0.105504
-0.058149
-0.402341
-1.360105
-1.182943
0.202140
-0.079188
-0.877974
-0.108281
0.281631
0.614395
1.834525
2.251453
2.219502
2.542394
1.961294
0.868711
0.944044
1.902328
2.309125
1.756599
1.167966
0.257220
-0.655084
-0.549099
-0.971481
-1.261121
0.639081
2.398230
1.085104
-0.421030
0.146563
-0.683914
-2.226675
-2.912202
-4.519126
-5.686263
-5.563652
-5.569886
-5.684963
-5.347523
-5.520788
-5.407529
-4.455219
-4.783305
-5.101521
-3.845802
-2.731917
-2.166401
-1.640631
-1.606081
-0.845999
0.451802
-0.415563
-1.620626
-0.671693
0.685335
0.951857
0.444791
-0.536871
-1.754403
-2.220426
-2.270561
-2.323034
-1.842203
-1.977801
-1.876491
-0.683117
-0.292945
-0.061491
0.674172
1.030055
0.709502
0.378038
0.564033
0.174381
-0.063566
0.614429
0.186072
-0.594789
0.995770
3.214189
3.808019
4.072723
4.143900
3.216529
2.480347
2.041599
1.085134
-0.033426
-1.003918
-1.183677
-1.175364
-1.486306
-2.190796
-3.015039
-2.114423
-1.945573
-3.497686
-4.401418
-4.805617
-4.528963
-4.708462
-4.986414
-4.627414
-4.768467
-4.200094
-3.088547
-2.255731
-1.460840
-0.846229
-1.082617
-2.359116
-2.978662
-3.276096
-4.527138
-6.453056
-7.585644
-7.201707
-6.745034
-5.509577
-3.784718
-3.373245
-2.242734
0.314941
1.761070
1.665216
1.926803
2.886646
2.318274
1.055802
1.918492
3.573994
4.537473
5.024539
5.193388
5.328728
5.346133
5.342237
4.390188
2.190474
0.282998
-1.208588
-1.979319
-1.676170
-2.063483
-2.708227
-2.696277
-2.721993
-2.318054
-2.772387
-4.640897
-6.064685
-7.076740
-7.681739
-6.914384
-5.853751
-5.831411
-5.968048
-5.346163
-3.671179
-2.178552
-1.660055
-0.142750
1.463915
1.916432
2.992651
3.193711
1.812266
0.915288
-0.375239
-1.923455
-2.841214
-4.486064
-6.193778
-7.051531
-8.010854
-8.407259
-7.450793
-5.483310
-3.556092
-3.300479
-3.025904
-1.091152
1.260787
3.800539
5.628786
6.454069
7.787198
9.883526
11.793340
12.720453
13.807582
15.675054
16.877261
17.496548
17.970105
17.589546
16.021327
14.242437
13.495865
12.121173
9.398286
6.459792
2.966693
0.010015
-1.950712
-4.243943
-5.888274
-5.918666
-5.755791
-5.568498
-4.543713
-3.585428
-2.664291
-0.540687
1.660067
3.740809
7.114675
9.822756
9.937834
8.418971
6.771783
5.494245
3.617422
0.878949
-1.826533
-5.097011
-8.213706
-9.904015
-12.137759
-14.671535
-16.618755
-17.881486
-17.538332
-17.270251
-17.855508
-17.739391
-16.800069
-16.898261
-17.394937
-16.181560
-14.518785
-12.940695
-11.095303
-9.723988
-7.731307
-4.673579
-2.623490
-2.059273
-1.851199
-1.814311
-2.192533
-3.184586
-5.489506
-8.784921
-11.177383
-11.827322
-10.349242
-7.444257
-4.946848
-3.077557
-1.444396
0.455028
3.093751
6.050949
8.344181
9.907465
10.991217
10.787560
9.863826
10.009556
10.906795
11.333075
10.830424
9.212590
7.539685
6.872861
6.234352
4.515728
2.977643
3.309627
5.106182
7.701784
10.239977
10.288294
8.081047
7.046651
7.042755
6.705577
7.711659
9.524320
9.795518
8.815154
8.304971
7.839727
6.097464
5.397130
6.655966
7.210831
7.294996
8.010917
8.054039
8.109890
9.659925
11.560908
13.284468
13.124711
10.601326
7.995855
4.944881
2.373179
0.609875
-2.797241
-7.493065
-11.606230
-14.879305
-17.424770
-18.908305
-19.380562
-20.202727
-21.960576
-21.284140
-16.986539
-12.767388
-11.093962
-11.876123
-14.204682
-16.474534
-17.456976
-16.845222
-14.810719
-11.431917
-7.214584
-3.375733
0.548322
3.929202
6.545585
9.885162
12.436083
12.786770
11.514687
8.840117
5.168298
2.281498
0.788352
-0.581923
-1.447209
-1.619954
-3.464046
-7.800092
-12.660090
-15.697036
-16.392954
-15.670798
-13.164297
-8.974240
-3.724590
2.321250
9.047681
16.022970
21.395230
24.119417
23.916539
21.200146
16.564848
11.222202
7.887821
7.330619
8.613614
10.997504
14.293700
17.243106
17.868108
17.503394
18.120343
18.629489
18.156193
17.995916
16.855276
13.414650
10.075594
6.455728
3.232528
2.820017
3.407093
3.140053
2.529858
1.639374
-0.633854
-3.811595
-8.737314
-15.165790
-18.489520
-18.750846
-17.182626
-11.955316
-6.574483
-2.857723
0.617193
0.383403
-3.807173
-8.996297
-12.263917
-11.039630
-7.114536
-3.304520
-0.981414
0.123899
0.798776
1.120889
0.980875
1.000098
0.471211
-3.400630
-9.069544
-12.333008
-13.458063
-13.832128
-11.924911
-8.311799
-5.097430
-2.123606
-0.620589
-2.696653
-6.161697
-7.130111
-5.938036
-3.227097
1.526396
5.696711
7.287011
7.299740
5.753082
2.108539
-2.425450
-6.538355
-9.184870
-8.989784
-5.460576
-1.583539
-0.176896
0.816977
2.872002
5.386036
7.480545
8.262707
7.064138
5.236412
5.216410
5.260311
4.748309
5.373311
6.369002
6.675789
6.969587
7.032451
6.576299
7.578484
8.807187
8.372856
7.202862
5.703741
4.268524
3.826919
4.658177
5.700367
6.210291
6.146909
6.047678
6.476295
7.708895
9.213991
9.156063
8.140890
7.506797
6.136003
4.650390
4.406209
3.696523
2.443404
1.832949
1.619940
3.193875
6.187181
8.035430
8.878378
9.309593
8.247922
5.865591
3.544825
1.605917
-0.372475
-1.392583
0.038220
1.603062
2.108311
3.292853
3.269475
1.490325
0.515936
0.132259
-1.105534
-2.688040
-2.882346
-1.951597
-2.197597
-3.313040
-4.164558
-5.137389
-4.940484
-4.890089
-7.259431
-9.471095
-9.769048
-8.737250
-6.997583
-4.952170
-2.116023
1.755039
5.695199
7.492014
6.162263
4.321808
4.120488
4.113475
2.335104
-0.932516
-3.054560
-2.969615
-1.128380
2.944003
7.850759
11.808584
14.551474
16.411673
16.803403
14.981132
12.953644
11.331913
8.227947
4.130628
1.303054
0.721694
2.110674
3.806439
3.473677
0.726112
-3.031950
-6.587393
-10.527812
-13.944539
-14.433681
-12.533998
-9.322487
-5.472985
-1.365534
1.739732
1.394761
-2.236794
-6.408407
-7.801802
-6.772081
-5.593773
-4.859149
-4.174400
-2.170290
1.112657
5.310248
10.549767
15.599137
19.169388
22.165032
25.121191
26.139742
25.016246
22.732367
19.106267
14.418236
9.391727
4.957749
1.694025
-0.736103
-2.426413
-3.591991
-5.268273
-7.192373
-7.534487
-6.908965
-7.564099
-8.311451
-7.874521
-7.994793
-8.318723
-8.329113
-8.781369
-8.840076
-8.751494
-9.087374
-9.319606
-9.656005
-9.930579
-9.259078
-7.614227
-4.572344
-0.990664
1.635071
4.183654
6.599237
8.033676
7.732605
5.327934
2.646610
1.211653
0.541712
0.901491
3.353441
7.158002
10.419649
11.705501
11.513533
10.407701
8.464378
6.976947
5.770845
4.322899
3.030035
1.329595
-1.216131
-4.043704
-6.098208
-7.368213
-8.221550
-8.082314
-7.104027
-6.075605
-5.736348
-6.335632
-6.983233
-7.763835
-10.009009
-13.030629
-13.958000
-12.200929
-9.471287
-6.871789
-5.874020
-6.222888
-6.388619
-6.329651
-5.825441
-5.147187
-4.145261
-2.610032
-1.654346
-1.578753
-1.388082
0.195723
2.582212
4.218230
4.293304
3.477373
2.517791
0.872422
-0.553184
-1.045444
-0.394465
1.884999
5.027672
8.712740
12.019586
13.277383
12.283771
9.781687
6.402367
3.021228
1.475869
2.176983
3.653245
4.580357
4.674394
4.548147
4.627896
4.800383
4.377741
3.640260
2.941225
2.047624
1.418467
1.320535
1.641608
1.662910
1.513024
1.651221
1.699279
1.839294
2.540149
3.404137
3.166970
1.853843
-0.337298
-2.666637
-4.223426
-6.170126
-8.093967
-9.554901
-10.590855
-10.600985
-10.502792
-9.906365
-8.453482
-7.158019
-6.324683
-6.055044
-6.447552
-7.422461
-8.882616
-11.273000
-13.370885
-14.658554
-16.495632
-17.735764
-17.767195
-16.863462
-15.167956
-13.277365
-10.594221
-7.718850
-5.465363
-3.568277
-1.890435
0.328762
2.607447
4.258273
6.045996
7.688769
8.641858
8.783172
8.028547
6.877516
5.871695
5.197078
4.555452
3.759264
2.737337
1.649690
0.647246
0.116281
0.099136
-0.588209
-1.656374
-3.019636
-5.154668
-6.999279
-8.046663
-8.817394
-10.225076
-10.913720
-9.259777
-6.756133
-4.474072
-2.501134
-1.165407
0.271370
1.827381
1.799326
0.184350
-2.518275
-5.644842
-7.830269
-9.427581
-10.526918
-10.579131
-9.121053
-6.128007
-2.981957
-0.587935
0.987038
1.302397
0.211372
-1.116821
-2.046010
-3.026893
-3.889062
-4.763701
-5.778094
-6.457127
-6.355817
-5.593397
-4.806560
-3.952962
-3.064555
-2.518262
-2.125753
-1.217084
0.206445
1.687902
2.804904
2.535526
1.464763
0.808330
-0.019290
-1.099924
-2.208354
-3.704357
-5.485065
-7.153554
-8.414727
-9.181561
-9.346254
-9.168052
-8.846199
-8.470574
-8.420958
-8.167684
-7.143678
-6.123309
-5.751061
-5.590524
-5.649491
-6.029791
-5.861461
-4.478456
-1.958447
1.080319
3.799570
5.826020
7.685959
9.210538
9.666950
9.306393
8.069638
6.214117
4.473153
2.621008
0.681062
-0.601932
-0.967944
-0.899105
-0.368918
1.245280
3.369143
5.460535
7.798187
9.426673
10.204419
11.152832
11.787965
11.630806
10.707331
9.205354
8.039256
6.937061
5.319487
4.139621
3.514361
3.060806
3.060807
3.178482
3.262907
3.397208
3.320577
3.077694
2.775325
2.668301
2.884948
2.596606
1.192561
-1.026376
-3.000352
-3.661721
-3.389483
-3.206606
-3.653926
-4.380237
-4.792488
-4.660006
-4.471154
-4.625196
-4.442578
-3.547677
-1.907502
-0.256676
0.926307
2.137865
3.103423
3.147584
2.547781
2.113969
1.792636
1.838616
2.131635
1.734450
0.912804
0.246760
-0.871540
-3.103466
-5.426570
-6.717616
-7.185457
-7.177664
-6.275230
-4.571931
-2.890453
-1.181439
0.274301
0.926319
1.024772
0.851767
0.793579
0.799814
0.787865
1.264280
2.266465
3.692592
5.244186
6.443275
7.511442
9.049528
10.608136
10.792572
9.617642
7.504950
4.805702
2.572478
1.442228
1.137521
0.751246
0.403418
-0.005976
-0.798008
-1.478859
-1.967742
-2.211923
-3.280088
-6.027393
-8.588185
-9.526986
-9.836889
-9.783895
-8.735731
-7.440268
-6.556537
-5.876984
-5.302377
-4.569830
-3.260600
-1.561457
-0.029865
1.738116
4.100446
6.211061
7.200777
6.932438
5.913888
4.633492
3.906143
3.673911
3.099564
2.675624
2.667312
2.779272
2.745763
2.518726
2.512492
2.359229
1.727994
1.162480
0.355381
-1.245568
-3.038486
-4.175489
-4.419671
-4.464870
-4.443568
-3.964036
-3.545809
-3.186290
-2.755854
-2.847811
-3.164728
-2.993021
-2.676623
-2.254759
-1.364274
-0.984233
-1.368689
-1.714440
-1.907187
-1.665083
-1.049692
-0.637180
-0.696407
-1.343488
-2.403860
-3.245768
-3.309930
-2.722854
-1.809509
-0.932272
-0.500797
-0.062309
0.809993
1.601246
1.932451
1.793216
1.378107
0.982221
0.450217
-0.721076
-2.187206
-3.184454
-3.832834
-4.177286
-4.018308
-3.710222
-3.503187
-3.165748
-2.972220
-3.156135
-3.517991
-4.412112
-5.640554
-6.729241
-7.927810
-8.456956
-7.780780
-7.180196
-6.878085
-6.663776
-7.002773
-7.475810
-7.707782
-7.885203
-8.040024
-7.335273
-5.989935
-5.572227
-5.858491
-6.339581
-6.838594
-6.491024
-5.342330
-3.645785
-1.357749
0.954446
2.658004
3.571089
4.017890
4.110368
4.119721
4.626009
5.211266
5.580917
5.854453
6.260211
7.180569
8.181455
8.804379
8.913223
8.643584
8.263544
7.803236
7.504503
7.505543
7.962215
8.965180
10.170244
11.029037
10.932144
9.947105
8.466428
6.744167
5.071522
3.878668
3.693974
4.382619
5.558849
6.773005
8.093665
9.875933
10.948775
10.180382
8.251606
5.937334
3.130283
0.607417
-0.553226
-0.530106
0.191270
1.012917
1.045388
0.207378
-0.448276
-0.833512
-1.497997
-2.152092
-2.594736
-3.158692
-4.318296
-5.229561
-5.199427
-4.804580
-3.919290
-2.615774
-1.587872
-1.025734
-0.773758
-0.991703
-1.579297
-1.813608
-1.663721
-1.581894
-1.479285
-0.565161
1.498956
3.668018
5.048425
5.747981
6.223097
6.471176
6.102566
4.950496
3.351624
2.469193
2.605052
3.021981
3.267202
2.783515
2.206571
2.597782
3.539441
4.528378
5.227414
5.504587
5.416006
4.967128
4.350180
3.496323
2.768454
2.316718
1.804456
1.252190
0.406906
-0.545403
