EVENT_NAME: 202010301151
EVENT_ID: 10614
EVENT_DATE_YYYYMMDD: 2020/10/30
EVENT_TIME_HHMMSS: 11:51:24.00000
EVENT_LATITUDE_DEGREE: 37.879
EVENT_LONGITUDE_DEGREE: 26.703
EVENT_DEPTH_KM: 16.54
HYPOCENTER_REFERENCE: AFAD
MAGNITUDE_W: 6.6
MAGNITUDE_W_REFERENCE: AFAD
MAGNITUDE_L: 
MAGNITUDE_L_REFERENCE: 
FOCAL_MECHANISM: 
NETWORK: TK
STATION_CODE: 0920
STATION_NAME: 
STATION_LATITUDE_DEGREE: 37.5604
STATION_LONGITUDE_DEGREE: 27.3749
STATION_ELEVATION_M: 58.0
LOCATION: -_-_-
SENSOR_DEPTH_M: 
VS30_M/S: 894
SITE_CLASSIFICATION_EC8: A
MORPHOLOGIC_CLASSIFICATION: 
EPICENTRAL_DISTANCE_KM: 68.90
EARTHQUAKE_BACKAZIMUTH_DEGREE: 
DATE_TIME_FIRST_SAMPLE_YYYYMMDD_HHMMSS: 2020/10/30 11:51:10.3793730
DATE_TIME_FIRST_SAMPLE_PRECISION: millisecond
SAMPLING_INTERVAL_S: 0.01
NDATA: 10501
DURATION_S: 
STREAM: HNZ
UNITS: cm/s^2
INSTRUMENT: sensor = GMS+/GEOSIG | digitizer = 
INSTRUMENT_ANALOG/DIGITAL: 
INSTRUMENTAL_FREQUENCY_HZ: 
INSTRUMENTAL_DAMPING: 
FULL_SCALE_G: 
N_BIT_DIGITAL_CONVERTER: 
PGA_CM/S^2: 22.758
TIME_PGA_S: 
BASELINE_CORRECTION: BASELINE REMOVED
FILTER_TYPE: BUTTERWORTH
FILTER_ORDER: 
LOW_CUT_FREQUENCY_HZ: 
HIGH_CUT_FREQUENCY_HZ: 
LATE/NORMAL_TRIGGERED: 
DATABASE_VERSION: 
HEADER_FORMAT: DYNA 1.2
DATA_TYPE: Acceleration
PROCESSING: Manual Paolucci et al., 2011
DATA_TIMESTAMP_YYYYMMDD_HHMMSS: 
DATA_LICENSE: U (unknown license)
DATA_CITATION: Turkish Accelerometric Archive v 1.0 - Disaster And Emergency Management Presidency, Earthquake Department
DATA_CREATOR: AFAD
ORIGINAL_DATA_MEDIATOR_CITATION: : AFAD - Disaster And Emergency Management Presidency
ORIGINAL_DATA_MEDIATOR: AFAD PROCESS SERVICE
ORIGINAL_DATA_CREATOR_CITATION: AFAD PROCESS SERVICE
ORIGINAL_DATA_CREATOR: network: TK
USER1: GuestUser
USER2: 
USER3: 
USER4: 
USER5: 
[...]
-0.001007
-0.000748
0.000290
0.000549
0.000289
0.000029
0.000807
-0.001791
0.000546
0.001844
0.000805
-0.001014
0.000803
0.001842
-0.000237
0.002360
0.000022
0.001060
0.001579
0.000799
0.002877
0.001317
0.001576
0.000537
0.002095
0.003393
0.002353
0.001573
0.001573
0.002871
0.002351
0.004688
0.002609
0.004167
0.004686
0.001049
0.003126
0.002086
0.003904
0.002345
0.001305
0.002084
0.000005
0.001823
0.002342
0.003900
0.003639
0.003639
0.002859
0.003897
0.005715
0.003896
0.006233
0.004934
0.005193
0.005712
0.004153
0.005970
0.006749
0.008307
0.009345
0.009345
0.005707
0.005966
0.005966
0.005705
0.006224
0.003886
0.003625
-0.002350
-0.005208
-0.009884
-0.016379
-0.014302
-0.007808
0.003361
0.005439
0.008036
0.011152
0.011152
0.011930
0.005955
0.003097
0.004655
0.001797
-0.013530
-0.030416
-0.033014
-0.020026
0.003872
0.020756
0.024392
0.016339
0.002570
-0.017952
-0.030421
-0.018992
-0.003407
0.003866
-0.006525
-0.030684
-0.041076
-0.021853
0.015552
0.049062
0.061011
0.046203
0.020745
-0.001855
-0.008090
-0.003935
0.003338
0.017625
0.041003
0.068019
0.073993
0.066978
0.060224
0.058405
0.051910
0.033725
0.022555
-0.004462
-0.035894
-0.045247
-0.035896
-0.011998
-0.001867
-0.009401
-0.018753
-0.029145
-0.040056
-0.029406
-0.013561
-0.017977
-0.013302
0.009297
0.039689
0.048261
0.026180
0.014750
0.020984
0.016567
0.009552
0.039165
0.094495
0.136317
0.150084
0.142810
0.113196
0.055267
-0.013832
-0.059552
-0.064488
-0.061631
-0.047085
-0.020069
0.000971
0.037858
0.050586
0.012659
-0.059297
-0.145801
-0.190741
-0.174896
-0.156193
-0.140608
-0.084239
0.011615
0.127471
0.184099
0.172929
0.155783
0.129027
0.094477
0.028495
-0.038526
-0.069958
-0.102170
-0.097495
-0.015409
0.090576
0.177857
0.265398
0.322807
0.266436
0.098885
-0.066587
-0.129452
-0.099839
-0.041132
0.035499
0.076801
-0.012560
-0.142184
-0.204270
-0.215440
-0.177255
-0.088155
0.072641
0.220967
0.272661
0.266166
0.171350
0.051077
-0.023477
-0.042441
-0.016465
-0.088681
-0.198564
-0.198824
-0.103750
0.032108
0.116013
0.158874
0.114973
-0.045565
-0.131808
-0.101416
0.009244
0.149259
0.203290
0.152634
0.031842
-0.059078
-0.119864
-0.152595
-0.134412
-0.064795
0.117042
0.245107
0.257835
0.253418
0.259652
0.285108
0.195488
0.030015
-0.100389
-0.193906
-0.272097
-0.345092
-0.260928
-0.074675
0.017802
0.028711
0.036504
0.064298
0.065077
0.063777
0.106898
0.187685
0.250289
0.250288
0.267952
0.234181
0.084035
-0.035719
-0.126379
-0.139887
-0.042994
-0.025590
0.024544
0.172351
0.193392
0.120397
0.017788
-0.091316
-0.135217
-0.216785
-0.301470
-0.244581
-0.220683
-0.321474
-0.484349
-0.664888
-0.681254
-0.504613
-0.234974
-0.064307
-0.033915
0.008946
0.003750
-0.025345
-0.032879
0.069729
0.322483
0.386125
0.202988
0.017773
-0.066652
-0.052625
0.023746
0.161942
0.236754
0.042447
-0.356297
-0.591648
-0.505665
-0.262263
-0.036006
0.106606
0.205057
0.152324
-0.075493
-0.293179
-0.350848
-0.169531
0.108940
0.345328
0.404554
0.165567
-0.104332
-0.114724
0.071269
0.215440
0.208685
0.118805
-0.062254
-0.228766
-0.221753
-0.265135
-0.370341
-0.171360
0.237255
0.450783
0.443249
0.327392
0.143476
0.122434
0.243226
0.403502
0.552088
0.489224
0.333363
0.001119
-0.440228
-0.598167
-0.507249
-0.263587
-0.079413
-0.017588
-0.011874
-0.067725
0.090993
0.327121
0.301663
0.200873
0.115408
-0.043570
-0.188521
-0.224370
-0.136309
-0.130855
-0.240478
-0.215281
-0.170341
-0.203852
-0.183071
0.001103
0.262949
0.329189
0.203461
-0.050853
-0.311660
-0.482848
-0.508046
-0.153204
0.322950
0.688703
0.904569
0.702469
0.361393
0.139291
0.113054
0.529981
0.970806
1.030812
0.737793
0.344504
0.251766
0.357231
0.538289
0.606867
0.336968
-0.042035
-0.211404
0.046545
0.385801
0.453860
0.527114
0.761164
0.912089
0.598288
-0.073212
-0.503908
-0.511442
-0.359219
-0.322332
-0.522095
-0.571711
-0.364676
-0.188035
0.236425
0.759857
0.890520
0.436185
-0.377669
-0.760048
-0.770699
-0.954096
-1.127621
-0.834863
-0.365723
-0.368581
-0.398715
0.007042
0.471247
0.622950
0.428643
0.061591
-0.480805
-1.081649
-1.232315
-0.808115
-0.379498
-0.248316
-0.370668
-0.650958
-0.794610
-0.655375
-0.191690
0.335378
0.701651
0.959859
0.965054
0.677750
0.190944
-0.016091
0.175357
0.043394
-0.394575
-0.495366
-0.007522
0.542666
0.532534
0.063393
-0.260539
-0.043373
0.064690
-0.185208
-0.509399
-1.014648
-1.248700
-1.167912
-1.377286
-1.692125
-1.574191
-1.158044
-0.593829
0.030653
0.074293
-0.297955
-0.720078
-1.379370
-1.656543
-1.071546
-0.110405
0.670196
1.003478
0.960876
0.674091
-0.020789
-0.633322
-0.479021
0.284696
1.012046
1.065558
1.230250
1.809012
1.611068
0.888393
0.511210
0.528873
0.593295
0.439772
0.459773
0.600567
0.444705
0.130385
0.110383
1.096461
2.496869
2.831190
2.030844
0.870980
-0.014050
-0.543458
-1.068189
-0.944541
0.037122
0.166226
-0.861417
-1.961015
-2.157920
-1.050789
0.059978
0.968385
2.045123
2.409317
1.728464
0.735111
-0.034842
-0.834927
-0.506841
1.300364
2.523610
1.860162
-0.198239
-1.226401
-0.417745
0.620287
1.076699
1.428164
2.263318
2.471651
1.062409
-1.350835
-3.460671
-3.965661
-2.934642
-1.363826
-0.546857
-1.153416
-1.743869
-1.573721
-1.384091
-1.501247
-1.592167
-0.929499
-0.362686
-0.297485
-0.068111
0.102556
0.393495
0.750416
0.792238
0.158144
-1.125110
-1.529310
-0.183713
1.565044
2.256806
1.621932
1.035376
1.765583
2.357853
2.113151
1.657517
0.987575
0.806776
1.360601
1.887669
0.864183
-1.196037
-1.511396
0.110075
1.372546
1.008870
0.314510
-0.492070
-1.284622
-0.751579
-0.212042
0.204365
1.218499
0.894308
-1.109543
-3.173400
-4.520816
-4.378464
-3.015203
-1.605183
0.423864
2.506942
2.485380
0.874559
-0.529747
-1.266190
-1.198131
-1.169298
-1.554274
-1.191639
-0.111525
0.864423
0.117330
-2.404238
-3.297840
-1.243856
0.383589
-0.166600
-1.305423
-2.994175
-3.732955
-3.214200
-3.680484
-3.333954
-1.782101
-0.152837
2.212089
3.586001
3.048021
2.141431
1.103397
0.442547
0.305649
-0.315457
-0.492100
0.346171
1.644490
3.368569
4.862494
4.662992
2.790324
1.222104
0.622040
0.184850
-1.054244
-2.906130
-2.687146
0.010803
1.023118
-0.667972
-1.514037
-0.153893
1.955422
2.246621
0.265111
-1.252973
-1.931488
-2.158266
-1.219985
-0.319370
-0.395223
-1.435074
-2.366083
-1.950195
-0.741236
0.904133
1.829166
1.065188
0.280428
-0.572130
-2.427913
-3.413733
-3.044863
-2.113076
-1.182328
-0.932432
-0.575772
-0.602788
-0.067407
1.848381
2.220108
1.961119
2.837835
3.398933
1.895396
-1.158956
-2.778350
-2.491048
-0.605653
1.632247
2.227635
1.285196
0.275218
0.707991
0.521996
-1.023883
-2.317009
-2.872393
-2.725625
-3.107744
-2.921491
-1.789683
-1.000768
0.592128
2.100859
2.318544
2.640656
2.758070
2.001625
0.953981
0.662780
1.673017
3.054722
4.540854
4.701649
2.925356
0.883319
-0.461500
0.124276
0.926179
0.729015
1.283099
2.364512
3.154206
3.019905
2.892619
2.279046
-0.111599
-1.133526
-0.470080
0.508725
1.034495
-0.748553
-2.784874
-4.904841
-6.917783
-6.082630
-3.675881
-1.868416
-1.210684
-0.313187
0.297007
-0.878443
-2.403801
-3.036337
-2.780726
-3.305198
-4.055928
-3.150637
-2.680458
-2.383284
-0.454767
0.659377
0.714447
1.351657
2.615167
3.514224
1.726240
-1.597231
-3.176881
-2.945168
-1.749977
-0.047978
0.898616
0.648978
-0.516861
-2.534998
-3.806563
-2.553703
-0.394513
1.401262
3.356795
4.067519
3.630849
3.772681
4.682648
5.704574
6.419195
6.610903
6.285673
4.837206
1.764151
-0.598958
-2.008719
-2.966225
-2.427467
-1.705572
-0.866522
-0.401279
-2.156531
-4.379106
-4.725637
-3.828919
-3.160537
-3.357701
-3.374847
-2.350842
-1.683499
-2.230051
-2.474753
-1.771302
-2.186932
-3.049881
-2.055231
0.111233
1.616848
1.896877
2.490186
3.301960
3.601991
3.522502
2.793852
1.608271
-0.451949
-1.627140
0.065767
2.186512
2.499791
2.163391
1.695808
1.056259
0.760383
-0.128544
-0.327007
1.529813
3.998647
4.380245
1.791138
-0.111403
-0.495600
-0.483652
0.037442
0.670756
1.057030
0.028608
-0.900842
-0.149594
0.547103
0.246031
0.689714
2.937485
4.871457
4.667539
1.743330
-1.836272
-3.871035
-5.196631
-5.189878
-3.172001
-0.896955
-1.177245
-2.976658
-2.746244
-2.143583
-2.542847
-2.136831
-0.407816
1.713448
1.598370
-1.192057
-4.187702
-6.554448
-8.100327
-7.611445
-4.385647
-0.526016
1.513941
2.443390
3.306338
3.159828
2.406501
3.161645
4.490358
4.888581
4.067195
2.161796
0.951277
0.187819
-0.613566
0.057414
1.938912
3.279054
3.385039
2.186989
0.524473
-0.047017
-0.052732
0.581620
2.047230
2.192180
0.832294
-0.136381
-0.831261
-1.857085
-2.018661
-1.347421
-0.686313
-1.619659
-4.302024
-5.584758
-5.266543
-4.193702
-1.794227
0.416138
0.887876
0.568880
0.757471
0.809684
0.163381
-0.162369
0.034275
0.629922
0.727594
-0.655411
-1.410557
-0.556181
1.220371
3.535682
5.225732
5.449651
4.295501
3.430733
2.736893
1.164257
0.446258
0.454829
-0.338502
-1.995822
-4.118387
-5.559840
-5.240326
-3.947721
-2.701095
-0.220832
2.498678
3.133030
2.528030
1.124244
-0.780375
-2.224945
-2.773576
-1.846205
-0.466838
-0.593605
-1.318618
-0.511780
1.250485
2.232407
1.611821
0.600025
1.402447
2.439440
1.416473
-0.035890
-0.964561
-1.588784
-1.383568
-1.808549
-2.521872
-1.646715
-1.275247
-1.789328
-1.721270
-1.027430
0.222832
-0.278521
-2.680336
-4.311159
-4.215825
-2.109887
0.244908
0.980051
1.317749
2.016784
1.737792
0.557406
0.669365
2.143548
3.120275
2.838166
1.984568
1.864035
2.230827
2.148220
1.825328
1.197468
0.691439
0.698193
-0.154886
-1.067191
-0.706894
-0.103454
0.871195
1.653615
1.518016
1.690501
2.263029
2.087945
1.394624
1.693876
2.511365
2.752688
2.215747
1.161089
0.288268
-0.756519
-1.767017
-2.174334
-2.304478
-2.538010
-1.926257
-0.152303
0.557642
-0.230494
-0.934726
-0.334143
0.805978
0.632193
-0.499097
-1.558432
-1.879505
-1.814824
-1.614803
-0.392336
1.207834
2.304054
2.508750
1.734901
0.575816
-0.610285
-1.734821
-2.455678
-1.880552
-1.168529
-0.914217
0.011336
0.547756
0.248503
-0.763554
-1.516102
-1.314523
-1.844970
-1.777950
-0.337018
0.546192
1.089107
1.656179
2.065573
2.112331
0.936361
-0.752651
-1.462338
-1.826793
-1.414801
0.368505
1.186773
0.983634
1.218983
1.540575
2.095958
3.008782
3.513770
2.712126
1.095849
1.043375
2.520155
3.058134
2.310521
1.545504
1.225470
0.018847
-2.275684
-3.505686
-3.489061
-3.323590
-3.470359
-3.409834
-1.966304
-0.318856
0.175741
0.211069
0.625138
1.330408
1.703174
1.331965
0.529281
0.290814
0.181970
-0.501480
-1.214283
-1.581336
-0.963609
0.979195
3.469330
4.875972
4.706863
4.657506
4.095887
1.714594
-0.591886
-1.200523
-0.443819
0.074417
-0.088458
-0.213147
-0.540456
-1.035314
-1.716686
-3.064882
-4.263712
-4.472046
-3.621307
-1.593559
-0.467726
-1.222872
-1.971004
-2.080107
-0.596054
2.190217
3.349300
3.038877
2.866650
2.647406
3.235260
4.448375
5.625903
6.322859
4.567867
2.347889
2.189170
1.982914
1.204389
0.669786
0.005819
0.540940
1.587284
1.789643
2.806114
2.897552
0.873180
-1.038972
-2.991129
-4.350235
-4.125277
-3.934868
-4.074883
-4.637801
-5.645182
-5.133699
-4.474409
-4.669236
-3.444171
-1.584753
1.054489
4.219760
4.745270
3.948561
3.638917
3.747500
4.604214
4.990228
5.320652
6.024883
6.145155
6.060989
5.778621
4.777994
3.625923
4.112727
5.863822
6.973290
7.001085
5.757575
4.366517
3.105084
0.931345
-0.396070
0.018000
0.137492
-1.180051
-3.319241
-5.377383
-6.923262
-7.202773
-6.240853
-4.626656
-2.403563
-0.106176
1.997944
3.950359
5.027876
4.307798
2.080547
-0.094750
-0.770926
-0.933022
-1.413593
-1.166295
-0.764175
-0.669880
-1.984306
-4.652903
-5.252448
-3.922177
-3.047798
-2.599699
-1.225788
0.081364
-0.785222
-2.395265
-3.087807
-1.974702
0.347883
1.217325
0.893914
0.912357
0.159029
-1.867681
-3.656703
-4.287940
-3.466035
-2.473203
-2.139661
-2.060173
-3.292772
-7.020962
-11.237256
-11.775236
-8.752317
-4.031815
1.220951
5.234885
7.845292
8.816823
8.783832
9.585475
11.363846
12.130940
10.128908
7.034812
6.044056
7.679554
9.451171
8.712130
5.579588
3.090232
3.122442
3.304020
1.251073
-1.562474
-3.068090
-2.774812
-1.124767
0.712051
1.101443
-0.732519
-3.509439
-6.127381
-7.162037
-5.333012
-1.978369
0.846087
2.172980
3.179581
3.107884
0.455133
-2.579216
-4.779192
-5.373022
-4.114707
-2.416864
-0.137921
1.832678
3.145545
5.205244
5.900122
4.390091
3.148140
2.864732
3.112031
2.762902
2.096597
1.173381
-0.694351
-1.741736
-1.515479
-0.825276
-0.866580
-2.703140
-5.265491
-6.687461
-5.967905
-4.376307
-2.011121
0.925814
2.173479
2.234524
1.467169
-0.364715
-1.917608
-3.289444
-5.023395
-6.198846
-5.141071
-1.979696
1.457033
4.571390
6.337032
5.501098
3.037199
-0.546560
-5.228878
-9.029023
-9.443614
-6.879705
-4.145908
-2.121018
-0.380573
2.475055
7.759253
13.906141
19.368800
21.469543
18.376486
12.194268
4.891672
-0.535141
-2.140507
-0.859592
1.886674
4.168994
5.939831
7.710409
8.516988
8.077200
7.625203
7.909648
7.694560
6.166085
4.321472
2.497901
-1.187687
-6.597355
-9.973040
-9.829908
-8.674981
-8.825906
-9.738991
-8.766421
-3.913697
1.453887
3.460853
3.982726
4.411862
4.604090
4.196514
1.244510
-3.898895
-8.083757
-11.808830
-15.502990
-16.552973
-17.773623
-20.736277
-22.757531
-22.323979
-17.200317
-8.327685
0.271932
5.627306
7.179679
5.340781
1.693639
-1.203553
-3.634462
-5.450500
-5.689488
-4.649377
-2.807883
-0.947166
1.158512
3.888153
5.864726
5.356100
3.105989
0.238670
-2.974919
-5.113070
-5.805871
-4.695104
-1.630882
1.404505
2.842580
2.765428
2.716331
2.123800
0.227493
-0.156184
2.508514
7.418387
12.495551
14.383024
11.828985
6.705841
1.033548
-3.982571
-7.020557
-7.741674
-7.843504
-9.262357
-11.278676
-11.532989
-9.316910
-4.882152
1.529439
7.507737
10.268550
9.752910
7.040153
3.466525
0.828321
-0.015405
-0.197763
-1.890931
-5.916295
-9.808659
-10.584067
-8.764653
-6.430638
-4.231444
-1.848334
-0.462732
-2.364494
-7.018237
-11.711984
-15.013375
-16.767589
-16.700829
-14.563199
-9.838281
-2.508150
4.397779
8.118175
9.067886
8.722653
9.365838
10.640259
9.346095
6.696201
4.843276
2.305343
-0.585355
-2.286576
-2.702465
-1.959529
-0.802264
-0.117516
-0.346113
-1.373496
-2.092534
-2.569468
-3.577369
-4.019234
-3.603347
-2.219823
0.317070
1.782680
0.761791
-2.506610
-6.221032
-8.334504
-8.697401
-7.219841
-5.117021
-4.479031
-3.784412
-1.325190
1.998540
6.521618
9.887690
9.265546
6.599547
3.223602
-0.365612
-4.211477
-8.841321
-12.930069
-14.283200
-11.786831
-7.832904
-5.195481
-2.714698
1.631478
7.045301
11.101057
12.590306
12.596539
11.528633
7.397283
1.369887
-3.228525
-6.053502
-7.915259
-9.081098
-9.507898
-9.667915
-8.627286
-5.951677
-3.103841
-0.441221
1.218955
1.883441
2.603777
3.872743
5.361991
6.380021
7.229202
6.990475
4.685813
1.403385
-0.694761
-0.924657
-0.530070
0.025313
0.176498
0.156495
0.925407
1.859792
2.156187
2.004481
1.848101
1.660288
2.058771
3.398913
4.805296
4.862964
2.911327
0.300918
-1.967895
-3.588069
-3.913039
-2.418854
0.251559
2.320091
3.827004
5.731102
7.863796
9.746593
10.577590
9.529426
6.108022
1.416093
-2.065057
-4.080078
-5.388530
-4.869514
-2.119092
0.814727
2.808445
4.110141
4.274314
4.191188
3.778156
2.380604
1.962117
2.397487
2.780125
2.769214
1.188006
-0.737394
-2.178328
-4.098013
-6.214083
-7.942580
-8.687335
-8.147538
-6.916239
-4.607422
-1.408121
-0.378661
-2.331337
-4.362723
-5.575840
-5.912240
-5.620781
-5.440503
-4.074644
-2.141451
-0.984186
-0.831443
-1.929223
-2.502012
-2.103009
-1.781157
-1.873635
-2.607480
-3.738510
-5.733269
-7.374743
-6.918851
-5.248804
-3.083119
-1.546852
-0.196839
2.019241
2.902970
2.712040
3.373149
4.045947
3.582261
2.413565
2.310436
3.874238
5.132294
3.952167
1.545417
0.457248
0.571806
0.890280
1.117317
1.295777
1.636072
1.579962
0.125261
-1.538554
-2.621007
-3.585007
-3.224969
-2.534766
-2.130568
-1.784558
-2.459175
-2.572435
-2.498921
-3.316412
-4.008694
-4.626942
-4.712926
-3.690999
-1.461152
1.541245
4.303876
6.398384
6.883110
5.534655
3.562756
1.776591
0.458528
-0.679256
-1.492331
-1.424012
-1.289453
-1.824316
-1.944070
-1.052807
0.446314
2.025442
3.027366
3.922526
4.283862
3.360127
1.986733
0.762187
-0.195578
-1.057748
-1.570271
-1.271799
0.094580
1.817620
3.184259
4.266711
3.645345
1.717607
-0.223899
-2.385429
-3.791813
-4.929077
-6.110503
-6.413912
-5.993349
-4.197054
-1.449489
0.975703
2.938769
4.355543
5.352271
6.336012
7.158696
6.809048
4.963656
2.711987
1.491857
0.682159
-1.002696
-2.167756
-2.150092
-1.325849
0.476420
2.727049
5.748668
8.880690
10.022109
9.107466
7.278959
5.561892
4.742324
4.724139
4.749856
4.443329
4.319159
4.600227
4.529050
3.704027
2.747821
2.010599
1.373907
0.565508
-0.510191
-0.780351
-0.413039
-1.044536
-2.925516
-4.757660
-5.229139
-5.561643
-6.353156
-6.191062
-5.216413
-3.306080
-0.954142
0.285470
1.080359
2.243859
3.555167
5.051689
6.312342
6.723034
5.968668
4.066387
1.571575
-0.895182
-2.835389
-3.583002
-2.436127
-0.169912
1.822767
3.083679
3.229149
3.168882
3.691794
3.932339
4.112617
4.495514
4.421740
3.424490
1.772106
0.763686
0.325716
-0.237201
-0.349162
-0.134854
-0.413066
-1.070280
-1.118077
0.046721
1.897048
3.216148
3.577745
3.578004
3.405517
3.267840
3.164971
2.651669
2.097324
2.081477
2.632444
2.807527
2.112647
1.268661
0.396619
-0.638297
-2.080009
-3.567961
-3.865915
-3.078559
-2.324454
-1.851936
-1.127185
-0.157472
0.536108
1.007846
1.858585
2.751927
3.249641
3.952053
4.889295
5.721071
6.314381
6.626361
6.861970
7.042768
7.111606
6.930028
6.035906
4.539642
3.519013
3.363152
2.951679
1.934687
1.248119
0.970167
1.292798
2.098078
2.706973
3.936195
5.425184
6.333332
7.723869
9.078038
9.261694
8.220803
5.784179
2.959462
0.290866
-2.439556
-4.747334
-6.046434
-5.536511
-3.595525
-1.490886
-0.221141
0.207215
0.868584
1.817256
2.357572
2.270030
1.507610
0.246177
-0.609499
-0.649245
-0.535986
-0.906416
-1.687539
-2.046279
-1.471153
-0.645092
-0.712373
-1.365690
-1.951986
-2.288127
-1.994590
-1.299711
-0.032564
1.638523
2.438088
2.352883
2.036485
1.378233
0.703615
0.331107
0.075495
-0.408194
-1.361283
-2.555697
-3.787776
-4.472266
-4.012737
-2.463482
-1.170617
-1.375055
-2.067857
-2.185273
-1.669114
-1.165165
-1.207768
-1.218159
-1.225433
-1.459485
-1.966552
-2.845868
-3.311372
-3.549580
-3.588546
-2.937049
-2.615457
-2.886135
-3.070311
-2.434400
-1.185437
-0.315215
0.070800
-0.049214
-0.348207
-0.269238
0.215488
0.699695
0.895559
0.414728
-0.760463
-1.370918
-0.757866
1.090382
3.232687
3.807553
3.004350
2.223227
2.041649
2.150751
2.083990
2.156984
2.527412
2.618330
1.580817
-0.599156
-2.491047
-3.116828
-2.655481
-1.088821
0.952434
2.447658
3.578687
3.924957
3.037069
1.574835
-0.067678
-1.597452
-2.736795
-3.430116
-3.916142
-4.482957
-5.170823
-6.071439
-7.070767
-7.604590
-7.699926
-7.377554
-6.210678
-4.755458
-3.743403
