EVENT_NAME: 202010301151
EVENT_ID: 10614
EVENT_DATE_YYYYMMDD: 2020/10/30
EVENT_TIME_HHMMSS: 11:51:24.00000
EVENT_LATITUDE_DEGREE: 37.879
EVENT_LONGITUDE_DEGREE: 26.703
EVENT_DEPTH_KM: 16.54
HYPOCENTER_REFERENCE: AFAD
MAGNITUDE_W: 6.6
MAGNITUDE_W_REFERENCE: AFAD
MAGNITUDE_L: 
MAGNITUDE_L_REFERENCE: 
FOCAL_MECHANISM: 
NETWORK: TK
STATION_CODE: 0920
STATION_NAME: 
STATION_LATITUDE_DEGREE: 37.5604
STATION_LONGITUDE_DEGREE: 27.3749
STATION_ELEVATION_M: 58.0
LOCATION: -_-_-
SENSOR_DEPTH_M: 
VS30_M/S: 894
SITE_CLASSIFICATION_EC8: A
MORPHOLOGIC_CLASSIFICATION: 
EPICENTRAL_DISTANCE_KM: 68.90
EARTHQUAKE_BACKAZIMUTH_DEGREE: 
DATE_TIME_FIRST_SAMPLE_YYYYMMDD_HHMMSS: 2020/10/30 11:51:10.3793730
DATE_TIME_FIRST_SAMPLE_PRECISION: millisecond
SAMPLING_INTERVAL_S: 0.01
NDATA: 10501
DURATION_S: 
STREAM: HNE
UNITS: cm/s^2
INSTRUMENT: sensor = GMS+/GEOSIG | digitizer = 
INSTRUMENT_ANALOG/DIGITAL: 
INSTRUMENTAL_FREQUENCY_HZ: 
INSTRUMENTAL_DAMPING: 
FULL_SCALE_G: 
N_BIT_DIGITAL_CONVERTER: 
PGA_CM/S^2: 31.253
TIME_PGA_S: 
BASELINE_CORRECTION: BASELINE REMOVED
FILTER_TYPE: BUTTERWORTH
FILTER_ORDER: 
LOW_CUT_FREQUENCY_HZ: 
HIGH_CUT_FREQUENCY_HZ: 
LATE/NORMAL_TRIGGERED: 
DATABASE_VERSION: 
HEADER_FORMAT: DYNA 1.2
DATA_TYPE: Acceleration
PROCESSING: Manual Paolucci et al., 2011
DATA_TIMESTAMP_YYYYMMDD_HHMMSS: 
DATA_LICENSE: U (unknown license)
DATA_CITATION: Turkish Accelerometric Archive v 1.0 - Disaster And Emergency Management Presidency, Earthquake Department
DATA_CREATOR: AFAD
ORIGINAL_DATA_MEDIATOR_CITATION: : AFAD - Disaster And Emergency Management Presidency
ORIGINAL_DATA_MEDIATOR: AFAD PROCESS SERVICE
ORIGINAL_DATA_CREATOR_CITATION: AFAD PROCESS SERVICE
ORIGINAL_DATA_CREATOR: network: TK
USER1: GuestUser
USER2: 
USER3: 
USER4: 
USER5: 
[...]
0.000102
0.002181
-0.007170
0.006339
-0.006909
0.003223
-0.004569
-0.000932
0.001927
-0.006645
0.005825
-0.005864
0.004008
-0.004823
0.000633
0.000633
-0.004561
0.005051
-0.006378
0.002975
-0.005857
0.002457
-0.001179
-0.002737
0.004537
-0.006632
0.003759
-0.005851
0.001683
-0.004291
0.000126
0.003244
-0.007665
0.005843
-0.005066
0.003507
-0.002467
-0.000128
-0.000647
-0.004543
0.004810
-0.007398
0.005071
-0.005579
-0.000123
-0.000901
-0.004017
0.004036
-0.007653
0.005337
-0.004794
0.000143
-0.001935
-0.002973
0.001704
-0.005049
0.004303
-0.005567
0.004045
-0.004527
0.000929
0.001190
-0.006602
0.007946
-0.006601
0.004570
-0.002962
0.000415
0.000936
-0.004778
0.005094
-0.005556
0.005095
-0.005554
0.001200
-0.000877
-0.001396
0.005619
-0.005810
0.007958
-0.004510
0.006142
0.002506
-0.001650
0.005884
-0.003207
0.006925
-0.003465
0.006667
-0.000086
-0.000086
0.003552
-0.002162
0.006151
-0.003459
0.007192
-0.002938
0.004336
0.004337
0.000441
0.008755
-0.003194
0.010055
-0.001634
0.006160
0.005122
0.003044
0.009280
-0.000591
0.010580
-0.001888
0.012400
0.006946
0.005388
0.009026
-0.001624
0.011885
0.000456
0.011626
0.004094
0.003835
0.004355
-0.004736
0.001759
-0.013306
-0.002915
-0.004733
0.010075
0.011894
0.009297
0.018390
0.002805
0.010079
-0.000571
0.009042
0.005925
-0.002387
-0.008360
-0.028102
-0.015113
-0.008878
0.016061
0.018659
0.024375
0.018661
-0.011211
-0.019523
-0.039525
-0.019781
-0.000558
0.020224
0.009835
-0.018999
-0.024453
-0.019517
0.033736
0.056597
0.060754
0.025167
-0.016915
-0.036397
-0.046007
-0.014835
-0.013535
0.016339
0.041538
0.060501
0.074789
0.070114
0.078168
0.039463
0.020241
-0.004955
-0.014566
-0.014046
-0.030150
-0.022097
-0.020018
0.009337
0.018689
0.025184
0.016353
0.001027
-0.000530
-0.012739
-0.008841
-0.022608
0.010123
0.038179
0.053246
0.054026
0.016880
0.010387
-0.001561
0.006232
0.007532
0.048057
0.094296
0.097674
0.108845
0.075335
0.033773
-0.009867
-0.006229
0.003123
-0.005189
-0.000252
-0.008564
0.027545
0.062095
0.105217
0.093009
0.014040
-0.054019
-0.115323
-0.136363
-0.141038
-0.116360
-0.083628
0.014046
0.117174
0.154062
0.168090
0.120034
0.108086
0.086266
0.029377
-0.038941
-0.109077
-0.144665
-0.172719
-0.091670
0.042371
0.154072
0.263175
0.360589
0.323183
0.131215
-0.055557
-0.199727
-0.205701
-0.115821
0.042638
0.204215
0.214606
0.125507
0.005235
-0.071655
-0.139194
-0.148285
-0.098669
-0.018660
0.098497
0.189936
0.234097
0.136685
0.042909
0.008621
0.048106
0.097463
-0.015275
-0.073203
-0.038133
0.012003
0.052268
0.108638
0.100326
-0.061768
-0.193729
-0.224381
-0.104887
0.068119
0.254114
0.323472
0.175925
0.104490
0.080072
0.040329
0.013573
-0.032405
-0.024611
0.051502
0.096702
0.061375
-0.003307
-0.047466
0.058520
0.157232
0.129698
0.090733
0.011245
-0.077335
-0.079932
0.059045
0.121909
0.041902
0.041383
0.094636
0.048139
-0.003554
-0.007190
-0.089016
-0.037322
0.103213
0.161402
0.233359
0.221410
0.119062
0.037756
0.016975
0.027107
0.081399
0.080101
0.128938
0.224794
0.019838
-0.129528
-0.105109
-0.087704
0.007112
0.005814
-0.012888
0.036728
0.079850
0.039327
-0.135755
-0.335256
-0.393444
-0.210047
-0.048470
-0.051327
-0.041715
-0.019893
-0.100680
-0.140164
-0.092886
-0.028982
0.239879
0.353138
0.150520
0.107659
0.140131
0.069994
0.002715
-0.060927
-0.220424
-0.542535
-0.775546
-0.629816
-0.338875
0.005059
0.309508
0.320938
0.246645
0.091565
-0.081959
-0.102220
-0.055981
0.063773
0.150796
0.091310
-0.053640
-0.095202
-0.006620
0.024033
-0.090783
-0.096498
0.055208
-0.038308
-0.220404
-0.188452
-0.053892
0.003518
0.031314
0.227440
0.341998
0.274719
0.309009
0.216532
-0.066094
-0.086355
-0.082978
-0.146100
0.072106
0.244073
0.060418
-0.319622
-0.463533
-0.284812
-0.018289
0.225894
0.311618
0.317593
0.231871
0.085622
0.048996
0.077311
0.085884
0.127968
0.056013
-0.231030
-0.171023
0.168754
0.330591
0.355529
0.216554
-0.015418
-0.195956
-0.291030
-0.366622
-0.208942
0.033682
0.036021
-0.002164
-0.100615
-0.234655
-0.275178
-0.066323
0.273973
0.589332
0.960282
0.987558
0.592192
0.135001
-0.170225
-0.076968
0.392953
0.685713
0.507772
0.247746
0.031879
-0.036699
0.373216
0.908339
0.924185
0.430367
0.135012
0.359452
0.646237
0.733779
0.650135
0.512978
0.589870
0.701831
0.356081
-0.137218
-0.300871
-0.282426
-0.149165
-0.050971
-0.049412
0.130088
0.306991
0.446487
0.742624
0.889913
0.687814
0.063852
-0.575436
-0.602451
-0.318524
-0.250723
-0.247605
0.045154
0.041778
-0.260072
0.103864
0.576902
0.485205
0.331163
0.061525
-0.668942
-1.061190
-0.721933
-0.334878
0.111404
0.644449
0.913569
0.582106
-0.163427
-0.593342
-0.539829
0.011919
0.399753
0.237399
0.097904
-0.216414
-0.454360
-0.144976
0.249872
0.328063
0.018420
-0.279792
-0.050417
0.436909
0.694080
0.630697
0.051156
-0.516436
-0.539295
-0.473313
-0.336934
-0.216401
-0.643718
-1.211311
-1.239365
-1.019340
-0.558252
-0.008322
0.059998
0.239238
0.628631
0.434845
-0.195091
-0.913608
-1.818899
-2.106721
-1.439117
-0.625782
0.495377
1.462494
1.403267
0.656175
-0.286781
-0.696175
-0.332239
0.197688
0.473822
0.480058
0.339264
0.313288
0.390180
0.363685
0.214319
-0.308593
-0.561346
-0.159225
0.058202
0.257704
0.641642
0.624758
0.331741
0.568390
1.192873
1.215733
0.831278
0.272258
-0.439246
-0.459767
-0.169605
0.204721
0.572294
-0.198177
-1.110481
-1.032290
-0.711736
-0.226748
0.631785
1.533181
2.382103
2.417692
1.069757
0.013282
-0.379746
-0.551452
0.759078
2.561089
2.881643
1.542281
0.031212
-0.150365
0.403980
0.764279
1.030802
1.400972
1.259139
0.988722
0.039271
-2.154468
-3.368623
-2.893507
-0.781852
1.886225
3.029724
2.624747
1.015225
-1.056163
-2.276292
-1.960674
-0.793535
-0.248022
-0.769116
-1.559329
-1.813901
-1.777013
-1.122916
0.166053
0.774950
0.678577
0.271521
0.306591
1.291112
2.212769
2.324470
0.915750
-0.796640
-0.559211
0.508436
1.087459
1.762597
1.712982
1.215008
1.647782
0.926407
-0.920022
-1.463716
-1.011199
-0.125390
0.577283
1.539724
2.070171
0.306607
-0.993530
-0.532182
-0.057065
1.024609
2.527627
1.749104
-1.369669
-2.568238
-1.907387
-2.142217
-2.208976
-1.620341
-0.035756
1.726510
1.546752
0.224534
-1.560851
-2.341452
-0.755049
0.383255
0.277530
0.528467
1.032677
1.392197
0.451578
-1.868928
-2.800195
-1.278734
-0.032626
0.209738
-0.575020
-3.233224
-4.336977
-3.280241
-2.797331
-1.479788
1.117373
2.446866
3.435803
4.602941
3.311895
1.562359
-0.059371
-2.329742
-3.320496
-3.830679
-2.916036
-0.580461
0.491861
1.438976
3.014989
2.672875
0.640192
-0.651114
-0.824897
-0.079622
0.102476
-1.114017
-1.126485
0.432903
0.621235
0.359910
1.755124
2.312327
1.243902
0.869578
0.232368
-1.715891
-2.463243
-2.059562
-2.061120
-0.922297
0.819967
1.156108
0.500195
-0.020120
0.685930
1.924764
2.055429
0.592416
-2.339324
-4.428117
-3.876369
-2.859636
-2.473880
-1.623659
-0.794479
-0.338326
0.804134
1.555904
0.713997
-0.302215
-1.364405
-1.691192
-0.140896
1.235874
0.975068
0.186414
-1.026962
-2.201891
-1.138141
0.851163
1.144701
0.187977
0.476580
0.451383
-1.478692
-2.422428
-2.256955
-1.244119
-0.736272
-0.861998
-0.276481
0.215261
2.075979
3.882666
3.487819
3.058164
3.397162
1.960386
-1.486214
-3.230814
-2.620878
-1.100196
1.169657
2.957381
3.062587
2.307443
1.699327
1.463978
1.496450
1.319549
0.251384
-1.532702
-2.131726
-1.488280
-1.086678
-0.942765
-1.024332
-0.386081
1.663748
3.257166
2.908558
1.853901
1.140839
-1.127454
-4.070884
-5.025270
-4.767579
-3.197801
-1.548534
0.068522
2.118871
1.821178
1.015379
0.542862
-1.076531
-1.969352
-1.115494
-0.145000
-0.608945
-0.794419
0.335573
0.902647
0.542349
0.782895
1.674939
1.844309
1.367635
0.558719
-0.863250
-2.642140
-3.603280
-2.573819
-0.317215
2.712979
3.853361
1.365824
-1.011311
-2.128832
-2.224426
-1.188471
0.609124
1.896015
0.678484
-0.467352
0.114789
0.385468
1.850560
5.138184
5.837740
4.062746
1.815495
-1.010520
-2.594844
-3.384278
-3.843546
-3.165551
-1.968540
-0.536439
-0.337456
-2.881102
-4.593751
-3.118788
-2.544181
-3.614943
-3.643777
-2.603146
-1.345089
-0.294846
-0.136647
-0.424469
-0.538506
-1.402494
-2.007492
-1.283258
-0.087026
0.301587
-0.258472
-0.510186
-0.660591
0.112220
2.330379
2.762893
0.992835
0.109625
-0.175339
-0.197159
1.309236
3.004222
3.534409
2.458192
0.992062
0.207824
-0.794360
-0.858002
0.686838
1.700973
0.796722
0.044954
0.012224
-0.557446
0.107561
2.104397
3.482727
3.395705
2.220776
-0.170127
-2.584410
-2.942888
-2.702602
-1.661971
-0.021016
1.143524
2.354303
1.964392
0.914671
0.157708
-0.685498
0.279021
2.910471
4.151643
1.750089
-0.731213
-0.781088
-1.201651
-0.345975
2.013758
0.739597
-2.681806
-3.185755
-2.303842
-3.571768
-5.201551
-4.952953
-3.295113
-0.904987
1.173676
1.771923
-0.272450
-3.221595
-5.729653
-6.656764
-4.803319
-3.290430
-1.724548
-0.092425
-0.257377
-0.231659
0.205791
0.743251
1.853760
2.563187
2.403171
2.298745
1.521001
-0.481290
-0.734303
1.080696
1.460738
0.392573
0.009156
1.276045
3.693186
4.154015
2.256412
0.565583
0.366082
0.887957
-0.311911
-2.455775
-3.537967
-4.079322
-3.668369
-1.344484
0.883286
0.905108
0.456489
0.131520
-1.537488
-2.549023
-0.704151
1.357888
1.713771
1.821575
2.021597
1.833007
1.461280
1.587787
1.704944
0.791600
-0.690375
-2.029478
-2.815275
-3.066729
-3.287791
-2.773969
-0.630364
0.411047
-0.582825
-1.110932
-1.129115
-0.393451
0.199080
-0.626462
-0.835054
-0.374745
-1.015072
-2.228967
-3.118151
-4.313862
-4.568954
-2.288191
0.265329
1.588068
2.231774
2.127867
1.823680
1.767051
1.927069
1.968633
1.368830
1.093736
0.834489
-0.074179
-0.024303
-0.254196
-1.400292
-0.917382
0.277551
1.533270
2.728982
1.889673
0.275476
-0.272893
0.275478
0.667208
-0.731641
-2.490009
-2.680159
-1.262344
1.157914
2.943560
2.874462
2.745618
3.569083
2.264789
-0.473683
-1.062577
-0.944901
-0.886972
-0.662532
-2.409990
-4.431243
-3.586737
-1.899024
-1.358965
-0.668761
0.684111
1.396395
-0.007909
-2.172035
-2.915490
-2.282954
-0.569784
0.394995
-0.285596
0.090808
1.389649
0.301741
-1.827316
-1.560273
-0.645630
-0.139081
1.044942
0.571905
-1.321802
-1.487534
-0.617830
0.331363
0.808817
-0.215187
-0.132580
1.371217
1.216656
0.459174
0.529312
0.240970
-0.149200
0.548277
1.220038
1.888941
3.256620
3.219734
2.479136
2.690069
3.003350
2.652404
1.903494
1.370711
0.009008
-1.715591
-3.147171
-4.301319
-3.869324
-2.595421
-0.688724
1.638538
1.968704
0.248261
-0.972647
-1.288784
-2.055358
-2.239793
-1.949111
-2.824269
-3.903604
-3.427188
-1.988853
-1.522568
-0.781190
0.618700
0.494272
-0.018769
0.174240
0.589350
1.579845
2.713993
3.574345
3.740078
2.893755
2.838685
3.722416
3.342896
0.995634
-1.843109
-2.550197
-2.061313
-2.092484
-1.475015
-0.899109
-1.384354
-2.400306
-2.588897
-1.526445
-1.026651
-0.913911
-0.274101
0.205691
0.284401
0.043857
-1.078859
-2.891779
-3.472879
-2.215082
-0.789215
-1.400967
-3.068936
-3.295973
-2.878785
-1.761002
0.087507
-0.148362
-1.488504
-0.635425
1.128400
1.669757
1.357777
0.868635
-0.479560
-2.664987
-3.589760
-2.662388
-0.254078
3.327343
6.142708
6.664323
5.649670
4.479677
3.428137
2.421537
1.759649
1.055679
0.857996
2.037084
2.609353
2.140473
1.871094
1.691855
1.954222
1.696792
-0.068590
-2.225442
-4.554001
-6.929578
-7.842661
-6.986205
-5.356161
-5.007551
-6.409518
-6.637594
-5.832832
-5.931283
-5.444737
-4.322539
-4.378128
-4.093162
-2.657943
-1.699659
-1.109465
-1.018805
-1.652898
-2.230881
-3.252547
-3.851571
-2.597671
-0.911516
0.505778
1.898395
3.980176
6.937115
8.408181
8.634180
9.814826
11.638398
12.947629
13.039068
12.010648
11.781533
13.843572
16.492686
18.293658
20.086577
21.244883
20.585593
18.854500
16.833506
15.033315
12.797753
10.498548
9.551176
8.056472
5.504512
2.560304
-2.077332
-7.232945
-10.735396
-13.999119
-16.893193
-17.336875
-18.290742
-21.278852
-22.873826
-21.868264
-18.721434
-13.383463
-8.267333
-4.826706
-1.445046
1.295247
2.226256
1.708020
0.883777
0.127853
-1.326847
-2.287987
-2.464369
-2.912468
-1.582715
1.767513
3.511336
1.921557
-2.006393
-4.738891
-4.718109
-4.207664
-4.243252
-3.942439
-3.018184
-3.720336
-4.983327
-4.704595
-4.889549
-4.634456
-3.313536
-3.102344
-3.183910
-1.926632
-0.446214
0.297762
1.539973
3.422772
4.949429
5.828744
5.105551
2.625547
0.565069
0.890559
4.582122
10.118296
15.151041
19.430978
22.953692
25.959467
27.170246
25.042488
19.890252
13.734272
9.975171
9.298477
9.985824
9.458755
6.724179
4.440300
4.548884
5.885131
6.130872
4.702669
2.130708
-1.395381
-5.088761
-8.555363
-12.285370
-15.350371
-15.095538
-13.069866
-12.769834
-11.846098
-10.549596
-11.276945
-10.522059
-7.255216
-4.331787
-3.325965
-2.898646
-2.781750
-6.038200
-10.330085
-11.187318
-8.982667
-4.030710
2.931850
7.629494
8.256575
7.193346
5.766441
4.397985
3.433207
4.275895
6.872536
5.958933
0.214426
-5.237842
-9.406856
-12.959442
-14.589744
-16.566578
-20.282817
-23.303138
-24.219338
-24.074127
-22.983361
-19.162953
-14.080333
-11.845029
-12.606668
-12.249227
-9.909756
-6.604988
-3.331651
-1.990728
-1.130116
2.302717
9.132277
16.377465
23.281837
29.338587
31.252558
29.538350
25.392455
21.204997
18.878256
18.340278
20.460504
24.026599
27.016269
27.250321
24.478338
21.015632
19.810310
21.855723
22.487220
18.797477
11.699839
2.028680
-6.668090
-12.415194
-15.761004
-15.840492
-13.239695
-9.516701
-5.768249
-2.468416
-0.278571
-0.153363
-2.258261
-6.506765
-10.716563
-13.016028
-13.734545
-13.850661
-14.269665
-14.794136
-15.714233
-16.657710
-16.222338
-15.252104
-14.538261
-12.925880
-10.692914
-8.774008
-7.293850
-5.983839
-4.651748
-4.408085
-4.482638
-5.481964
-10.710572
-17.987710
-22.309988
-21.877473
-20.492650
-21.001015
-19.903235
-16.405719
-9.788130
0.787023
9.334947
12.535029
13.409149
13.253549
11.860674
9.778375
5.869128
1.898317
0.513495
0.996924
4.832138
12.261501
20.650967
27.457407
29.221232
25.940883
21.149725
14.413164
5.700289
-0.800403
-4.010354
-4.508328
-2.587604
-1.146670
-1.907530
-3.405610
-4.071135
-4.055288
-3.818119
-2.560842
-1.366428
-1.221477
0.745227
4.583039
7.178641
8.331752
7.047200
1.932890
-4.255301
-8.603815
-10.545320
-9.839789
-5.855468
-0.466062
3.380322
5.144927
4.612144
2.376062
0.790699
0.790180
-0.530998
-4.518955
-8.082450
-8.917084
-7.170923
-4.022535
-0.841676
2.087728
5.256637
6.471833
4.882054
2.753776
0.719274
-0.209395
0.100768
-0.236410
-2.655887
-6.319653
-8.169719
-7.179483
-5.088091
-2.674846
1.336751
5.647860
8.154881
9.611920
9.697125
8.176704
6.232082
3.611544
0.407827
-1.718892
-3.184502
-5.430974
-8.158796
-9.898721
-8.744052
-5.057165
-1.278060
1.404304
3.762218
6.302490
7.267268
5.167565
1.940989
-1.171290
-3.580377
-4.126149
-6.287157
-10.313819
-12.415341
-13.476232
-13.587412
-11.567975
-8.300873
-4.588789
-0.811243
3.041636
6.604873
8.415716
8.745622
8.299342
6.316014
3.792889
1.052858
-2.873014
-7.111127
-10.156645
-11.724863
-12.536637
-12.477929
-10.682932
-6.505343
-0.014781
6.392656
9.671967
10.624277
10.923790
10.662724
9.823934
8.056214
6.121463
3.610547
0.931562
0.340331
0.780638
0.815708
1.109766
3.001137
7.013253
11.600755
14.459243
14.825256
14.590427
15.266344
15.736005
14.417164
12.137961
10.329717
8.642006
6.719205
4.285700
2.437711
1.041200
-0.848351
-1.388148
-1.404513
-2.582559
-4.501464
-5.922134
-6.661953
-8.391487
-10.831746
-12.555305
-11.685341
-8.915955
-6.946134
-5.920569
-6.325547
-8.124698
-9.695255
-9.788510
-7.695819
-5.120739
-5.412198
-7.833754
-9.628489
-10.991491
-11.191771
-10.095550
-9.146097
-7.558395
-5.394267
-3.877482
-3.928395
-6.847147
-10.681061
-12.042764
-11.844820
-11.461401
-10.847049
-10.818474
-10.790418
-8.763449
-5.494009
-3.916177
-2.867494
-0.061220
2.840648
4.219497
4.083380
2.843768
1.133717
-0.654785
-1.904527
-1.014822
2.121617
6.071649
9.985573
13.028755
15.242758
15.750865
13.276836
9.047295
4.412257
1.362063
1.610402
3.746215
5.866961
7.618057
9.725555
11.691999
12.822250
13.906262
13.754039
11.343394
8.486727
6.509634
5.572652
4.940377
4.129902
4.358239
6.459243
9.865321
12.703546
13.868346
14.722983
16.091441
17.354953
17.072327
14.363987
10.793478
8.444397
6.724735
4.203428
2.143989
0.547975
-1.095835
-1.720317
-2.929536
-4.944554
-5.964922
-6.029344
-5.486168
-5.471620
-6.970740
-8.826002
-9.772076
-10.331875
-10.187963
-8.580258
-6.121814
-3.800787
-2.602217
-2.264258
-2.560133
-3.052912
-3.293975
-3.608034
-3.971708
-4.454876
-4.099513
-2.792619
-1.001519
1.062078
2.045041
2.334164
1.717216
-0.089470
-1.121786
-1.794585
-2.437769
-2.827420
-3.941824
-4.965309
-4.773339
-4.067549
-4.302119
-5.022195
-5.378855
-5.550041
-5.544326
-5.479902
-6.158675
-7.906133
-8.085892
-5.555232
-2.363982
0.313966
2.306647
3.366501
4.309979
6.578273
8.643948
8.909172
7.481488
5.279696
4.566894
5.077079
5.582328
6.491777
8.102338
10.616113
13.366018
15.118932
15.421563
14.625894
13.102876
11.731302
10.797177
8.777483
6.375929
4.749003
2.731127
0.279698
-1.480489
-2.553330
-4.384433
-6.401790
-6.389060
-4.358973
-1.807272
0.039938
0.446216
-1.484638
-4.899287
-7.374095
-8.566169
-9.316378
-8.888539
-5.606111
-0.625320
3.007535
4.202988
3.789958
3.571753
3.555389
2.964677
2.551907
2.699456
3.502140
4.299108
4.475492
4.521991
4.103506
2.968321
1.823524
1.286585
0.806015
-0.288906
-0.438532
0.999804
2.892734
4.927756
6.292318
6.204258
5.345725
4.305615
1.856005
-1.658914
-3.730043
-5.102656
-6.656847
-6.703864
-5.070183
-2.883975
-0.816221
0.973321
1.645081
0.592502
-0.823232
-1.867238
-2.944755
-3.436235
-3.088665
-2.812790
-2.767070
-2.327802
-1.162742
0.379241
2.387508
4.824132
6.802265
8.163450
7.804451
4.698407
1.151277
-0.304981
-0.408888
-0.909460
-1.434710
-0.664497
1.573924
4.468519
6.982034
7.820046
6.483281
4.170568
1.857596
-0.360042
-2.812251
-5.621640
-8.466618
-11.320427
-13.043987
-13.083211
-12.245718
-10.610218
-8.710535
-7.299994
-6.634468
-5.760348
-4.216287
-3.139808
-2.531950
-2.048261
-1.371305
0.084435
2.282072
4.456590
5.847908
6.304062
6.174438
5.828428
4.410616
2.089590
-0.197926
-2.445437
-4.011057
-4.907256
-5.467574
-5.805272
-5.842158
-4.440969
-2.405946
-1.713404
-2.122019
-3.000293
-3.867398
-4.019361
-4.129242
-4.451873
-3.789204
-1.997065
-0.071664
0.518270
-0.701599
-2.043040
-1.926144
-0.072439
2.774099
5.350737
6.913762
7.526815
6.918179
5.553360
4.856923
4.380249
3.093879
0.814676
-1.413352
-2.122258
-2.217592
-3.002091
-3.893873
-4.327425
-4.839686
-5.610417
-6.076959
-5.807839
-5.493259
-5.796408
-5.700553
-4.616280
-3.076635
-1.905341
-1.309952
-0.822107
-1.086550
-2.882325
-5.149578
-6.235407
-6.334898
-6.221638
-5.908617
-5.859000
-6.008886
-5.423368
-4.479890
-4.651336
-5.988101
