EVENT_NAME: 202010301151
EVENT_ID: 10614
EVENT_DATE_YYYYMMDD: 2020/10/30
EVENT_TIME_HHMMSS: 11:51:24.00000
EVENT_LATITUDE_DEGREE: 37.879
EVENT_LONGITUDE_DEGREE: 26.703
EVENT_DEPTH_KM: 16.54
HYPOCENTER_REFERENCE: AFAD
MAGNITUDE_W: 6.6
MAGNITUDE_W_REFERENCE: AFAD
MAGNITUDE_L: 
MAGNITUDE_L_REFERENCE: 
FOCAL_MECHANISM: 
NETWORK: TK
STATION_CODE: 3519
STATION_NAME: 
STATION_LATITUDE_DEGREE: 38.4525
STATION_LONGITUDE_DEGREE: 27.1112
STATION_ELEVATION_M: 10.0
LOCATION: -_-_-
SENSOR_DEPTH_M: 
VS30_M/S: 131
SITE_CLASSIFICATION_EC8: D
MORPHOLOGIC_CLASSIFICATION: 
EPICENTRAL_DISTANCE_KM: 73.08
EARTHQUAKE_BACKAZIMUTH_DEGREE: 
DATE_TIME_FIRST_SAMPLE_YYYYMMDD_HHMMSS: 2020/10/30 11:51:11.2564700
DATE_TIME_FIRST_SAMPLE_PRECISION: millisecond
SAMPLING_INTERVAL_S: 0.01
NDATA: 10501
DURATION_S: 
STREAM: HNZ
UNITS: cm/s^2
INSTRUMENT: sensor = CMG-5T/GURALP | digitizer = 
INSTRUMENT_ANALOG/DIGITAL: 
INSTRUMENTAL_FREQUENCY_HZ: 
INSTRUMENTAL_DAMPING: 
FULL_SCALE_G: 
N_BIT_DIGITAL_CONVERTER: 
PGA_CM/S^2: 34.423
TIME_PGA_S: 
BASELINE_CORRECTION: BASELINE REMOVED
FILTER_TYPE: BUTTERWORTH
FILTER_ORDER: 
LOW_CUT_FREQUENCY_HZ: 
HIGH_CUT_FREQUENCY_HZ: 
LATE/NORMAL_TRIGGERED: 
DATABASE_VERSION: 
HEADER_FORMAT: DYNA 1.2
DATA_TYPE: Acceleration
PROCESSING: Manual Paolucci et al., 2011
DATA_TIMESTAMP_YYYYMMDD_HHMMSS: 
DATA_LICENSE: U (unknown license)
DATA_CITATION: Turkish Accelerometric Archive v 1.0 - Disaster And Emergency Management Presidency, Earthquake Department
DATA_CREATOR: AFAD
ORIGINAL_DATA_MEDIATOR_CITATION: : AFAD - Disaster And Emergency Management Presidency
ORIGINAL_DATA_MEDIATOR: AFAD PROCESS SERVICE
ORIGINAL_DATA_CREATOR_CITATION: AFAD PROCESS SERVICE
ORIGINAL_DATA_CREATOR: network: TK
USER1: GuestUser
USER2: 
USER3: 
USER4: 
USER5: 
[...]
7.737889
6.285902
6.339435
6.848621
6.476729
4.857848
2.529190
1.040361
1.581667
4.057696
7.142733
8.403892
5.538337
-0.334162
-5.429182
-8.472339
-10.300626
-10.349435
-8.429199
-5.470119
-2.902771
-2.249677
-3.094229
-4.566368
-6.387728
-7.619917
-6.697901
-2.407441
3.287141
7.417004
8.433489
6.141359
2.076365
-1.377417
-2.358633
-1.631223
-1.217765
-3.229007
-8.452190
-14.979673
-19.652102
-20.385180
-16.502196
-9.624864
-3.210115
0.478894
1.815628
2.106592
1.904113
2.695447
4.476185
5.653581
6.214726
6.452787
5.729786
4.568763
4.081619
4.504524
6.341313
8.783018
8.723502
4.544515
-1.493934
-5.978055
-6.849688
-3.183037
4.438079
12.333785
16.214251
14.886333
9.799815
3.497169
-0.923344
-1.900467
-0.247577
2.723153
5.799059
6.986847
5.305931
2.017470
-1.647292
-3.934383
-3.539818
-1.121416
2.441949
5.507463
5.858572
3.262253
-0.876742
-6.276582
-12.278818
-16.639185
-18.572333
-18.185956
-15.765034
-11.577230
-6.089535
-0.587355
4.267084
7.494455
8.854491
9.220086
7.954518
4.722108
1.578500
0.882264
2.419902
4.503885
5.786142
4.931198
2.176487
-0.852815
-2.174119
-0.995778
1.192750
3.063548
4.200008
3.870627
2.340861
1.208179
0.173745
-1.537086
-3.425204
-5.471084
-6.915513
-5.037473
0.757876
6.962275
10.654747
11.077968
8.552500
5.257427
3.198950
3.030795
4.399019
5.732604
5.566024
3.147936
-0.733159
-4.996224
-8.425443
-9.384617
-8.278387
-5.360559
-0.000082
5.383382
8.261218
9.066722
8.469364
6.682958
4.339816
2.217415
0.288676
-2.423840
-5.466367
-6.662028
-6.284467
-5.798268
-5.954456
-7.932634
-11.680529
-15.170523
-16.657463
-15.971619
-13.349164
-8.868507
-2.625376
4.595508
11.977618
18.562097
21.721135
19.581101
14.036409
8.417402
5.189401
5.955228
9.293757
11.904876
11.999030
9.251245
4.957321
0.884454
-2.885798
-6.493249
-9.179313
-10.975796
-12.810066
-14.331960
-14.673307
-13.519843
-9.858230
-3.451983
3.455579
7.818465
8.783937
6.958798
3.344420
-0.139591
-2.427627
-4.080832
-5.831340
-7.694581
-9.354714
-10.454646
-10.847322
-10.014107
-6.791145
-1.258105
4.085368
6.575252
5.157274
0.736447
-3.752398
-5.141720
-2.220743
2.735092
6.004659
6.440160
5.526646
4.687133
3.811091
2.155997
-0.311530
-2.492501
-3.401921
-3.054591
-1.496799
1.218550
4.144565
6.329629
8.626167
11.519747
13.213259
11.554386
6.527383
0.681336
-2.872898
-1.937341
3.036443
8.607271
11.507780
10.393992
7.168195
6.169344
8.028491
10.262364
12.104192
12.764844
11.342772
8.876820
7.385472
7.802709
8.636554
7.976846
5.173641
0.287712
-5.729325
-10.885749
-14.673006
-17.298610
-17.525965
-14.177990
-7.360173
0.407056
6.089042
8.465563
8.130513
7.041917
7.325323
10.257321
15.518921
20.216227
21.096991
17.920948
12.920397
9.152350
7.987863
6.789683
1.948784
-6.762818
-16.569315
-23.809722
-25.546375
-22.604930
-18.754695
-16.363059
-16.021711
-17.294207
-18.956229
-19.418182
-17.482515
-13.879789
-10.736495
-9.241683
-9.855101
-12.287674
-15.042386
-15.936692
-13.316126
-7.867793
-1.505316
4.368127
9.079288
12.183220
13.858152
14.515025
13.598992
10.903166
6.848878
1.590741
-3.229059
-5.170709
-4.366150
-3.428389
-4.172804
-6.202940
-8.209458
-9.322931
-8.958597
-6.509020
-3.239138
-0.936617
-0.183071
-1.266944
-3.177104
-3.693219
-1.381252
2.422694
4.887701
5.550242
5.044204
4.615945
6.684497
11.273164
16.269621
19.518405
19.260190
16.045415
12.375615
9.470067
7.119053
4.425745
0.262188
-5.253218
-10.096321
-11.694105
-8.488462
-1.453997
5.171418
8.003909
6.765737
3.152933
0.361064
0.856080
4.304823
7.836698
9.120215
8.537971
7.445911
6.966954
7.459766
8.901676
11.014629
12.495270
12.056620
9.955947
8.642830
9.436053
11.404154
13.479005
14.360084
12.700266
7.999496
1.598602
-4.965724
-10.827831
-14.763719
-16.529656
-16.829123
-15.776740
-13.141374
-8.370383
-3.061234
-0.576703
-1.246172
-2.858441
-4.058196
-4.568013
-4.523927
-5.154980
-6.953352
-8.752669
-9.080161
-8.335746
-7.259432
-5.207253
-2.639590
-0.265588
1.977102
3.960003
5.154404
5.235332
4.493122
3.142217
0.870556
-1.830624
-3.954599
-5.109953
-5.039101
-4.496850
-4.972029
-6.958079
-9.054658
-9.611080
-8.959245
-8.618842
-9.544952
-10.192694
-8.829194
-6.634997
-4.548495
-1.272316
2.891241
5.568803
5.813477
4.107369
1.307942
-1.034885
-0.486966
2.741034
5.689722
6.861765
6.151044
2.879273
-2.344225
-6.853853
-9.653280
-10.424776
-9.488590
-8.331347
-7.651171
-6.219968
-3.121075
-0.028795
3.205503
7.120922
9.713147
9.720074
7.937132
6.060666
5.361911
5.691607
5.378915
2.343316
-3.074788
-8.716153
-13.735913
-16.802057
-15.692993
-10.874452
-5.048558
-0.862644
0.634687
0.085508
-1.371202
-1.388521
1.125295
4.238043
5.969342
6.573942
6.187880
5.364741
5.309634
5.841178
6.340603
5.550529
3.564793
2.006057
2.617585
4.343531
5.072201
4.529005
2.367872
-0.327639
-1.093782
0.676879
3.316968
5.388670
5.650034
3.511259
-0.843756
-6.174633
-10.362752
-11.105277
-7.637956
-2.153410
2.921457
5.535410
5.353714
3.699879
1.352958
-0.781093
-1.778370
-1.961639
-1.642335
-3.218076
-8.065272
-13.552653
-17.419578
-17.886254
-15.400464
-10.796998
-5.066202
-0.749606
0.623026
-0.650729
-3.680345
-7.052883
-8.796464
-7.505075
-3.011192
3.010568
8.815993
13.652798
17.080757
17.771010
16.621953
15.220350
14.361313
13.913531
12.741172
12.339679
13.949428
16.509219
17.831783
16.292885
11.776329
5.675846
-0.226253
-4.522382
-7.128148
-7.998836
-6.295563
-2.768096
1.296268
5.240658
7.212852
5.306470
0.330796
-5.748275
-10.443692
-12.075799
-10.243733
-5.476520
-0.024723
3.922500
6.696105
10.199640
13.871959
15.602313
14.012087
9.474433
4.747212
2.585450
2.882711
4.469158
6.793092
6.587779
0.991759
-7.135711
-12.903664
-14.908293
-14.675270
-13.434580
-11.151268
-8.310275
-6.330208
-6.242037
-7.665998
-8.885276
-8.927157
-8.789548
-9.283305
-9.436975
-8.700118
-7.310481
-7.202157
-10.622875
-16.216060
-20.780480
-21.711314
-17.804397
-10.041892
-1.628182
3.260581
2.918604
-0.624923
-5.035359
-9.124601
-10.029927
-6.995903
-3.563535
-1.471050
-1.349500
-4.446819
-9.917511
-15.034573
-17.574526
-16.082863
-11.101521
-5.464250
-1.148598
1.537466
2.690300
2.715492
2.460741
2.701321
2.560562
0.862957
-1.723285
-4.350464
-5.906681
-4.487130
0.007698
6.302157
13.788499
19.871348
21.481411
18.562954
14.163224
10.915385
8.946339
8.137686
8.608770
8.840533
6.971310
3.572005
0.044538
-2.734421
-3.838762
-4.062653
-5.390255
-5.979741
-3.470649
0.923097
5.383286
8.813765
8.824156
4.549441
-1.941829
-7.227991
-8.787672
-5.932509
-0.713420
2.438061
0.942934
-3.863327
-7.888015
-9.031718
-8.070655
-6.283934
-4.142326
-3.600390
-5.516218
-9.485799
-11.687868
-10.773725
-6.737386
-0.165189
4.847014
7.350123
5.692509
1.872819
-2.087631
-4.045025
-2.660427
0.228115
2.721463
4.451817
5.547656
6.259006
7.120247
7.708158
8.128859
6.570752
4.459688
2.871667
1.614916
2.100171
3.823282
6.328911
8.662921
10.493412
13.012896
15.342498
16.949413
17.051754
15.099083
12.473478
10.280856
10.092233
13.310157
18.287720
21.846676
22.138900
18.885707
14.603749
11.516192
10.046571
9.497392
8.864136
7.036164
3.315665
-1.921058
-8.022801
-14.298367
-19.279080
-21.897127
-23.130260
-23.029179
-21.687407
-20.557244
-19.283805
-16.633324
-12.969507
-9.051884
-4.396459
0.972520
5.701001
8.873579
10.597950
12.017502
13.379113
14.734426
16.134139
15.659905
12.642255
8.947263
5.946303
3.574190
-0.127100
-7.045684
-15.623770
-22.593997
-25.135209
-22.162275
-15.904973
-10.374767
-8.841538
-11.972236
-17.063792
-19.998939
-18.364313
-14.255863
-10.757367
-9.123686
-8.930655
-8.173645
-4.716085
2.234303
10.105447
15.895443
17.610997
14.621372
8.273380
1.157042
-4.333173
-7.284695
-8.893185
-10.219842
-11.244200
-11.667106
-12.625650
-14.736714
-17.553460
-20.430981
-20.872466
-18.982459
-14.124871
-7.411915
-1.218223
3.374223
5.858123
7.049690
7.672555
8.350841
8.743201
9.279154
10.471036
12.372379
13.757922
13.632278
12.085823
10.017270
6.663625
1.387855
-4.054496
-7.300760
-7.130087
-4.543530
-1.199018
0.468042
0.229666
-0.425634
-1.756070
-4.140464
-8.531691
-15.126562
-20.380604
-21.784412
-18.823128
-10.907584
1.027925
13.372170
22.149585
25.859692
25.275874
23.423025
22.958553
23.962126
24.892330
23.967164
20.479059
15.773251
12.210201
11.520578
13.743115
16.608040
17.272471
14.971524
10.939594
8.186771
9.570740
14.377314
19.025811
19.944993
16.311721
10.446150
4.822734
0.288859
-2.504585
-4.421358
-5.796825
-5.624262
-3.412746
-0.673465
1.711558
3.210464
3.279741
1.595991
-1.147070
-3.016294
-2.553711
1.408312
4.365502
4.673155
1.487665
-3.982711
-9.736809
-14.427817
-15.601435
-14.578338
-12.154897
-10.620723
-11.447011
-14.410814
-17.348795
-19.648797
-20.691733
-19.843088
-18.381341
-17.731710
-17.074207
-15.134762
-12.455625
-8.949257
-5.298351
-2.901047
-3.305059
-5.731019
-8.233499
-9.827503
-11.122986
-12.852711
-14.450809
-15.500988
-16.344280
-15.774633
-13.194374
-10.804943
-9.555750
-8.787403
-8.942017
-10.302054
-11.282956
-10.116896
-6.551327
-1.279650
4.959387
10.233583
13.036159
13.994702
13.680121
12.446043
11.376025
11.240620
11.976847
13.280202
14.651260
16.360516
19.302590
21.992433
22.084698
20.696950
20.125098
19.589775
18.291458
17.734721
19.433271
22.745348
25.324348
26.357207
26.820734
26.452935
24.876250
22.226084
18.181242
13.249968
9.855702
9.733522
11.544490
12.539562
10.145721
4.001467
-3.984300
-10.917054
-13.309951
-9.270778
-1.128823
7.688900
14.396188
17.206321
15.182168
10.061012
4.091525
-0.755672
-4.771543
-9.950011
-15.036529
-20.607357
-25.292697
-26.582827
-24.139233
-20.119268
-15.650892
-11.003025
-8.342153
-8.652325
-11.628094
-15.444951
-18.952894
-20.587835
-18.332549
-12.713542
-7.271192
-4.672669
-5.364811
-8.787418
-13.367583
-17.323623
-18.933373
-18.411275
-18.121571
-19.336126
-20.780869
-19.694793
-13.951717
-3.881967
7.579938
16.888898
20.935943
19.172840
14.430188
9.958033
7.819888
8.404965
10.795656
13.161471
13.027640
10.135633
7.693928
7.008399
6.496692
4.756576
1.654534
-0.359227
1.777973
8.429839
17.109952
24.432547
28.775280
30.417778
29.655414
28.073690
27.445472
27.953085
29.581727
31.665710
32.772255
31.483070
27.506561
21.683816
14.623214
6.209188
-2.543981
-10.785443
-18.703822
-25.444175
-30.274052
-32.690566
-32.598931
-30.749546
-27.641206
-23.326814
-18.973060
-16.358792
-15.894950
-16.452317
-16.909861
-16.010518
-12.558311
-7.522492
-2.853212
0.356209
1.632483
1.742697
1.297748
-0.300035
-3.258485
-6.792564
-9.478629
-10.528178
-9.588213
-7.390868
-5.006474
-3.092221
-2.823300
-4.893742
-7.758038
-9.577193
-9.821868
-8.745238
-7.145566
-5.982654
-5.746482
-6.726124
-9.439900
-13.331702
-17.603898
-21.669208
-23.815225
-22.914622
-20.102915
-16.947970
-14.913111
-13.820422
-12.838576
-11.514753
-9.340395
-6.381631
-4.097059
-4.041323
-5.732001
-7.404414
-7.801184
-4.599005
2.745003
10.977963
16.731746
18.447930
16.087153
11.411890
7.759409
5.537186
5.581901
6.360325
7.571100
9.839297
12.470569
15.687233
18.246394
20.483416
21.649792
20.608745
17.439944
14.202182
12.656356
13.216556
15.209849
18.431551
22.329336
24.303735
23.038797
19.637603
15.134273
9.507078
3.360620
-1.305197
-2.780171
-1.502322
1.385590
4.770094
7.917796
9.532268
8.409978
5.600159
3.346133
2.095680
1.128318
0.086957
-0.832225
-1.483746
-2.107240
-3.788786
-7.148413
-10.342091
-11.743694
-11.308822
-9.193980
-5.718786
-1.781954
1.455808
2.756644
1.874619
-0.605188
-3.945292
-6.910669
-8.638190
-10.028142
-11.545941
-13.017766
-15.117494
-17.278626
-18.271179
-17.494016
-15.695014
-13.883417
-12.176995
-11.541849
-12.223600
-13.390605
-14.422205
-13.270945
-8.629376
-2.285793
3.392100
6.387707
5.278013
0.594247
-4.824172
-8.408320
-9.593904
-8.789974
-7.515275
-6.718273
-5.580868
-4.201938
-3.331880
-2.437575
-0.615901
1.772901
4.451407
8.180723
12.865747
17.449691
20.735632
22.243040
21.227185
18.088614
14.590748
11.652766
9.602792
9.317496
10.659898
12.826698
14.554848
15.912995
17.514557
17.334436
15.965267
14.087226
11.629777
8.225434
5.082140
4.408577
6.171681
10.083321
14.815895
17.887077
17.037172
12.616345
7.020640
2.101017
-1.770947
-4.386789
-6.409683
-8.603879
-11.055031
-12.686823
-13.436906
-13.653240
-12.761769
-11.167450
-8.988054
-6.128797
-3.143896
-1.175166
-0.641102
-1.908874
-4.373567
-6.481482
-7.326663
-7.542052
-7.443805
-7.234714
-7.813808
-9.683662
-11.656802
-12.074039
-11.401106
-10.493576
-9.188331
-7.666123
-7.509305
-8.843836
-10.529475
-11.908405
-13.148782
-13.788336
-14.174714
-14.647688
-15.000057
-14.536215
-13.386214
-11.627834
-10.582064
-10.549945
-10.549631
-10.847208
-10.410762
-10.419894
-9.862213
-10.137432
-11.276727
-11.430711
-11.376864
-11.355137
-10.987968
-10.039501
-8.248057
-5.819263
-4.057419
-3.156816
-3.324971
-3.867852
-5.586241
-7.657313
-9.119376
-9.939051
-9.455056
-6.900303
-3.050383
0.352385
3.316817
5.455277
6.565600
8.105757
11.591658
16.640388
22.096278
25.195486
24.418007
22.093759
21.042320
22.438255
25.591625
28.845446
31.450582
33.502445
34.422887
33.261864
30.602251
27.481630
24.001712
20.750094
18.453871
16.192917
13.396953
11.303524
10.968474
12.081002
13.388136
13.981715
13.050252
10.363557
7.388733
5.815827
5.611144
6.491279
8.283352
9.364706
9.188364
8.740581
8.656504
9.132626
9.777848
9.524042
7.967510
5.470698
3.642411
3.367191
3.901255
5.164933
5.105418
1.744531
-4.905132
-11.667842
-16.862684
-20.603966
-22.594110
-24.166701
-24.570083
-23.888333
-21.571957
-17.793519
-13.812916
-11.248087
-11.190776
-12.418557
-14.353279
-15.898790
-15.914849
-14.436097
-12.725267
-11.773021
-12.602457
-14.799173
-17.321177
-19.646685
-21.828286
-23.256340
-22.920976
-20.316155
-16.085525
-12.013603
-8.843859
-6.520555
-5.474785
-5.824005
-6.886780
-7.981674
-8.437959
-8.993121
-8.800720
-8.695859
-7.342121
-6.451280
-7.156333
-7.728184
-8.752227
-7.689137
-4.704867
0.807705
6.803958
10.537367
10.678440
8.006861
4.873959
3.103612
3.697191
5.957831
9.434284
12.242213
13.014338
12.121607
11.306341
10.799043
11.186365
14.010669
19.308796
25.249942
30.070057
32.616308
32.858148
31.727355
30.462417
29.701313
29.342961
28.964141
27.164194
23.249090
17.745650
11.911883
6.341999
1.606591
-1.386497
-2.341263
-2.203653
-1.677462
-1.934732
-4.308420
-8.563927
-13.259659
-16.132771
-16.442315
-14.318655
-9.893419
-4.770374
-1.208898
-1.017442
-4.656067
-10.120146
-14.871614
-17.701271
-18.379873
-17.233336
-16.048697
-16.365167
-18.220221
-20.344826
-21.640938
-21.476563
-20.424495
-20.082203
-20.313967
-20.509517
-20.966117
-21.083573
-20.379151
-20.299482
-21.291720
-22.495569
-23.222034
-23.319022
-22.357645
-20.839845
-18.890009
-17.912256
-17.651522
-17.514543
-17.040939
-14.583804
-11.876957
-9.152476
-5.962578
-1.829566
2.772012
7.667387
12.627631
16.438504
18.461712
18.750472
18.307727
18.197199
18.803059
19.519762
19.377429
17.300689
13.231285
8.411484
4.695709
2.639437
2.179059
2.749336
3.309536
3.511069
3.811165
5.271968
8.656787
13.260254
17.680766
20.929864
23.046596
24.677443
26.715136
29.329089
31.497778
32.799559
32.872615
31.187290
28.108550
24.941010
22.222511
19.606038
17.289977
16.132104
15.631104
14.120861
10.931908
6.157767
0.654956
-4.059355
-6.622609
-6.587656
-4.674032
-2.375605
-1.049893
-0.675167
-0.414118
-0.121894
0.149231
0.456255
0.888922
1.283171
1.257980
1.573190
3.355503
6.436446
9.814652
12.583534
13.767858
12.286272
7.882764
1.887140
-3.328485
-5.707211
-4.780786
-2.033632
0.417519
1.414165
0.519545
-1.808482
-4.314111
-6.080364
-7.134007
-8.348877
-10.444511
-13.832164
-18.304949
-23.077830
-27.066305
-29.098645
-29.208544
-28.118059
-26.635843
-25.810186
-26.034707
-26.857216
-27.748372
-28.791623
-29.520293
-28.828152
-26.358736
-22.821508
-19.478885
-16.460920
-13.025718
-9.247909
-5.682025
-2.784981
-0.512375
1.850920
4.443775
6.898390
9.028348
10.076322
8.831852
4.988544
0.046564
-4.118253
-6.660095
-7.418365
-6.949800
-6.176100
-5.992516
-6.473992
-7.063793
-7.017504
-5.507577
-2.497799
1.063361
4.031887
5.914966
7.204151
8.455548
9.942802
12.177935
15.173542
18.026186
19.608854
19.294587
17.939274
17.084016
17.222570
18.218272
18.882072
18.694394
17.228867
14.175319
10.133627
6.533733
3.651804
1.265520
-0.982839
-2.732087
-3.874530
-6.184609
-7.712170
-8.547275
-7.685090
-4.802845
-1.382758
1.930579
3.455306
3.942765
4.042587
4.736618
6.484291
9.387319
12.384815
14.218141
14.686706
14.517292
13.850341
12.563990
11.060361
8.818300
5.736411
2.098101
-1.714977
-5.179465
-7.670609
-9.153770
-9.882125
-9.495118
-7.612669
-4.767897
-1.530764
1.886174
4.502646
4.629549
1.917663
-1.631847
-3.758656
-4.025373
-3.102728
-1.708997
-0.108380
1.297631
1.844290
0.873465
-1.221539
-3.056439
-4.010575
-3.832344
-2.682658
-0.627016
1.625436
2.586499
2.123916
0.848587
-0.781316
-2.135055
-2.717928
-2.508522
-1.754976
-1.065039
-1.412684
-3.093285
-5.367151
-7.047437
-7.572369
-7.338401
-6.932500
-6.556829
-5.944041
-4.976681
-3.561852
-1.512193
0.978950
3.080252
3.852062
3.158975
1.685576
-0.230882
-2.992837
-6.176122
-8.669470
-10.048086
-10.488311
-9.538584
-6.906997
-3.972165
-2.416263
-2.495617
-3.311828
-3.678683
-2.637951
-0.118467
3.142283
6.044051
7.983811
8.743025
8.101897
6.023267
2.742993
-0.923028
-3.930602
-5.893664
-7.252756
-8.345446
-9.635891
-11.908182
-15.110991
-18.564457
-21.316335
-22.384148
-21.523222
-19.507887
-17.694085
-16.060719
-13.940838
-11.607143
-8.824721
-5.315833
-1.884095
0.490537
1.247232
0.260662
-2.027058
-4.246447
-5.035262
-4.245817
-2.398952
-0.274977
0.999407
0.778980
-0.719296
-2.739670
-4.219682
-5.018259
-5.198065
-4.687619
-3.650666
-1.740191
1.090096
4.731555
9.066415
13.701686
17.721965
19.886876
20.175006
19.851293
19.822007
20.541230
22.068161
23.488343
23.794107
23.188876
22.213327
20.876593
19.170171
16.807190
13.584227
9.471683
4.984727
1.201250
-1.034828
-1.502764
-0.654119
0.611449
1.188968
0.408970
-1.435062
-2.993169
-3.015841
-1.404833
1.166294
3.531479
4.601181
4.305808
3.300345
2.417061
2.678425
3.897387
4.769020
4.886476
4.821607
4.663214
4.538200
4.349577
4.164418
4.930875
6.501892
7.590173
7.431465
6.408997
4.697536
2.309678
-0.554303
-3.047021
-5.062042
-6.514658
-7.657416
-8.875750
-9.767221
-9.347464
-7.805733
-5.133524
-2.714492
-1.907413
-1.516628
-2.814630
-3.820408
-4.273544
-3.332634
-1.347214
-0.129511
0.724172
0.385659
-0.059605
-0.957374
-2.076515
-4.024778
-6.927491
-10.137228
-12.625537
-13.587230
-13.052222
-11.469554
-10.160531
-9.420840
-9.273784
-8.917636
-8.247223
-7.541855
-7.368033
-7.926974
-8.439940
-8.215104
-6.352808
