EVENT_NAME: 202010301151
EVENT_ID: 10614
EVENT_DATE_YYYYMMDD: 2020/10/30
EVENT_TIME_HHMMSS: 11:51:24.00000
EVENT_LATITUDE_DEGREE: 37.879
EVENT_LONGITUDE_DEGREE: 26.703
EVENT_DEPTH_KM: 16.54
HYPOCENTER_REFERENCE: AFAD
MAGNITUDE_W: 6.6
MAGNITUDE_W_REFERENCE: AFAD
MAGNITUDE_L: 
MAGNITUDE_L_REFERENCE: 
FOCAL_MECHANISM: 
NETWORK: TK
STATION_CODE: 3519
STATION_NAME: 
STATION_LATITUDE_DEGREE: 38.4525
STATION_LONGITUDE_DEGREE: 27.1112
STATION_ELEVATION_M: 10.0
LOCATION: -_-_-
SENSOR_DEPTH_M: 
VS30_M/S: 131
SITE_CLASSIFICATION_EC8: D
MORPHOLOGIC_CLASSIFICATION: 
EPICENTRAL_DISTANCE_KM: 73.08
EARTHQUAKE_BACKAZIMUTH_DEGREE: 
DATE_TIME_FIRST_SAMPLE_YYYYMMDD_HHMMSS: 2020/10/30 11:51:11.2564700
DATE_TIME_FIRST_SAMPLE_PRECISION: millisecond
SAMPLING_INTERVAL_S: 0.01
NDATA: 10501
DURATION_S: 
STREAM: HNN
UNITS: cm/s^2
INSTRUMENT: sensor = CMG-5T/GURALP | digitizer = 
INSTRUMENT_ANALOG/DIGITAL: 
INSTRUMENTAL_FREQUENCY_HZ: 
INSTRUMENTAL_DAMPING: 
FULL_SCALE_G: 
N_BIT_DIGITAL_CONVERTER: 
PGA_CM/S^2: 150.019
TIME_PGA_S: 
BASELINE_CORRECTION: BASELINE REMOVED
FILTER_TYPE: BUTTERWORTH
FILTER_ORDER: 
LOW_CUT_FREQUENCY_HZ: 
HIGH_CUT_FREQUENCY_HZ: 
LATE/NORMAL_TRIGGERED: 
DATABASE_VERSION: 
HEADER_FORMAT: DYNA 1.2
DATA_TYPE: Acceleration
PROCESSING: Manual Paolucci et al., 2011
DATA_TIMESTAMP_YYYYMMDD_HHMMSS: 
DATA_LICENSE: U (unknown license)
DATA_CITATION: Turkish Accelerometric Archive v 1.0 - Disaster And Emergency Management Presidency, Earthquake Department
DATA_CREATOR: AFAD
ORIGINAL_DATA_MEDIATOR_CITATION: : AFAD - Disaster And Emergency Management Presidency
ORIGINAL_DATA_MEDIATOR: AFAD PROCESS SERVICE
ORIGINAL_DATA_CREATOR_CITATION: AFAD PROCESS SERVICE
ORIGINAL_DATA_CREATOR: network: TK
USER1: GuestUser
USER2: 
USER3: 
USER4: 
USER5: 
[...]
-11.849697
-10.159604
-6.594278
-2.384370
1.318417
4.118109
6.037304
7.340401
8.138854
8.509443
8.771982
8.672912
7.323687
4.293657
0.171986
-3.274763
-4.371976
-2.394266
2.180967
8.390256
15.383755
21.555583
25.239175
26.009145
24.526792
21.681592
18.467351
15.975092
14.446610
13.797075
13.601101
13.173857
12.061783
10.212558
8.333612
7.211941
7.134852
7.506989
7.648166
6.561170
3.219994
-2.100439
-8.029849
-13.442233
-17.652449
-19.952757
-20.168546
-18.619938
-15.610650
-11.861732
-8.720246
-6.869471
-6.046869
-5.348726
-4.071945
-2.158012
-0.203213
0.781618
0.043538
-1.973180
-4.130764
-6.069153
-7.978131
-9.802279
-10.856457
-11.190512
-10.888654
-10.028901
-9.311562
-9.562336
-10.988960
-12.882767
-14.664810
-15.737565
-15.901960
-14.731371
-11.944064
-8.118057
-4.124558
-0.583999
2.733648
5.980708
8.943867
11.520029
13.872042
15.977925
16.947585
15.820961
12.685667
9.186287
6.891551
6.146970
6.693410
8.189696
9.967715
11.221277
11.124992
9.559359
7.463694
5.464004
4.702705
5.626544
8.218496
12.029023
15.864627
18.791563
19.761843
18.345435
14.767417
10.597449
7.703332
6.267110
5.488163
4.252870
2.177638
-0.443413
-3.477778
-6.339697
-8.086135
-8.321119
-7.611830
-6.985514
-7.628857
-9.862912
-12.853932
-15.772198
-18.414612
-19.947429
-19.387366
-16.770028
-13.085816
-9.716466
-6.957332
-4.613678
-2.792005
-1.848661
-1.773428
-2.193551
-2.688596
-2.764137
-2.781783
-3.217386
-3.437200
-3.069088
-2.001904
-0.679303
0.564351
1.944848
3.011412
3.260948
1.780144
-1.330691
-5.053600
-8.518306
-10.974342
-12.039976
-11.728520
-10.198798
-8.072791
-6.366598
-5.089507
-3.929754
-2.488577
-1.189505
-0.648328
-0.939039
-1.979905
-3.285477
-4.548015
-5.115197
-4.104979
-1.551108
1.629388
4.647345
7.431247
10.359731
13.042084
14.527224
14.369021
12.814533
10.770261
8.245494
5.166857
1.625991
-2.385773
-5.988249
-8.734688
-9.852024
-9.456358
-8.009298
-5.392579
-1.602486
2.864079
6.500612
8.313616
8.105257
6.523525
4.100306
0.750771
-3.508981
-7.897215
-11.728793
-14.460372
-15.812693
-15.989163
-15.378945
-14.653557
-14.075538
-13.699686
-13.554484
-13.677703
-13.759745
-13.058196
-11.019186
-7.843953
-4.193798
-0.491939
2.575554
4.010229
3.830973
2.942739
1.809922
0.481130
-1.049209
-2.225060
-2.180787
-0.816390
1.458534
3.947699
6.156368
7.252654
6.537794
4.474637
2.191356
0.291976
-1.551057
-3.396567
-5.684183
-8.567154
-11.465296
-13.666843
-14.636192
-14.238049
-12.189441
-8.556313
-4.131854
0.144927
3.877745
7.047405
9.548025
10.630379
10.131928
8.964746
7.405923
5.223571
2.241838
-1.325344
-4.771783
-7.125342
-7.992215
-7.577972
-6.087569
-4.236485
-2.635245
-0.766204
2.267852
5.914912
9.062281
11.153303
11.992314
11.491386
9.955163
8.541232
7.685506
7.363215
7.129780
6.460740
5.762908
5.283342
5.332879
6.028236
7.601302
10.122355
12.675297
14.570963
15.644958
15.929788
15.205331
13.174991
9.780255
5.480256
1.120505
-2.867420
-5.729958
-6.589710
-5.686923
-3.638934
-1.421596
0.033204
0.559520
0.739397
1.530110
2.888315
4.214322
4.457357
2.676243
-0.668648
-4.490319
-8.033352
-11.172051
-13.471740
-14.300222
-13.424370
-11.192481
-8.092790
-4.294647
-0.699599
1.851795
3.301331
4.036626
4.086472
3.534770
2.811551
1.780902
0.427342
-0.994639
-2.626526
-4.555937
-6.397113
-7.832406
-8.277297
-6.681011
-2.735190
2.626730
8.000415
12.451190
15.733853
17.829520
18.759242
18.310945
16.819615
14.714353
12.050886
8.836336
5.348720
2.019309
-1.125272
-4.139513
-7.037964
-8.943845
-8.766136
-6.590903
-3.192450
1.348418
6.833868
12.273807
16.539442
19.100434
19.795171
18.271643
14.837588
10.352140
5.289292
0.295794
-3.644143
-6.587486
-9.167361
-11.674791
-13.482839
-13.877266
-12.474479
-9.321227
-5.400793
-1.922154
0.250292
0.961129
0.044102
-2.345990
-5.480664
-8.667660
-10.949393
-11.515956
-10.513788
-8.611310
-6.158059
-3.154343
0.034512
2.665783
3.799220
3.275691
2.311296
1.719656
1.748140
2.006345
1.814395
1.050309
0.210991
0.446596
2.003562
4.657123
8.299849
12.152481
15.170129
16.409139
15.423381
12.099234
6.919049
1.318740
-2.964541
-5.064231
-5.472899
-4.833579
-3.350606
-1.359274
0.748157
2.884071
5.171688
7.783144
10.302959
12.093982
12.926800
12.836398
11.649402
9.345688
6.659311
4.324946
2.654668
1.162409
-0.368860
-1.245329
-1.074121
-0.283099
0.564890
1.148792
0.965201
-0.312507
-2.045324
-2.886809
-2.419625
-1.570089
-1.490522
-2.388663
-3.595164
-4.696711
-5.229218
-4.669155
-3.293922
-1.862033
-0.997326
-0.866056
-1.719306
-3.668222
-5.813422
-7.148716
-7.435712
-7.344999
-7.365432
-7.183697
-6.773170
-6.392674
-6.388029
-6.779979
-6.876572
-6.009079
-4.365425
-2.575022
-0.520841
1.982874
4.735816
7.113526
8.349440
8.389070
7.409813
5.746037
3.202075
0.184738
-2.171298
-3.087706
-2.217736
-0.297302
1.607962
2.510749
2.556571
1.719420
0.103941
-1.715563
-3.891104
-6.189555
-8.383053
-10.421752
-12.396364
-13.691100
-13.386765
-11.081501
-7.076547
-2.308434
2.739244
7.661227
12.451011
17.459990
22.390641
26.223459
27.413862
25.325937
21.156279
16.624081
12.669283
9.284145
5.901483
2.281670
-1.517401
-5.539381
-9.644024
-13.287987
-16.057955
-18.713991
-21.726065
-24.514918
-26.261048
-26.203462
-24.216154
-20.542779
-16.033800
-12.133180
-9.483643
-7.800361
-7.081475
-7.507790
-8.867851
-10.874042
-13.184877
-15.320789
-16.694473
-16.983636
-16.176824
-14.307474
-11.933169
-9.390444
-6.901898
-4.540597
-1.937191
1.048878
4.043616
6.351356
7.816682
8.532782
8.693464
8.748573
9.268079
10.749194
13.304613
16.459722
19.598422
21.820405
22.478919
21.712976
20.394710
19.205547
18.142080
17.569635
17.816695
19.241154
21.860969
24.919793
27.795336
30.899052
33.412985
34.072119
33.707104
33.607414
34.062833
34.468716
34.477695
33.509894
30.939616
26.899989
21.878318
16.157885
9.714233
2.659125
-5.000007
-12.991338
-20.388551
-26.541181
-31.013007
-33.686071
-34.271210
-32.063160
-27.239629
-20.721981
-13.748916
-7.415788
-2.305570
1.146752
2.665019
2.272451
0.796290
-0.006805
0.348924
0.613940
-0.623830
-3.630641
-7.745191
-11.991010
-15.281103
-17.219182
-17.834352
-17.533113
-16.793174
-16.370882
-16.956949
-18.375524
-19.927226
-20.941157
-21.116698
-20.398431
-19.369328
-18.691928
-18.177995
-16.916385
-14.700904
-12.356012
-10.275206
-7.791614
-4.390684
-1.484801
-0.614212
-2.218545
-5.682322
-10.429999
-15.689441
-19.888821
-23.072411
-25.676435
-27.198416
-26.563121
-23.342996
-17.934946
-11.447948
-4.818845
1.741217
7.912425
13.040909
16.973108
20.369394
22.468156
22.455464
20.796331
17.925125
13.337200
7.635033
2.379616
-1.383231
-3.560320
-4.781991
-4.887563
-3.658770
-1.345766
1.011201
2.146805
2.309964
2.283339
1.769099
0.270028
-2.605822
-6.564645
-11.019753
-15.417275
-19.094054
-22.308295
-25.766499
-28.810461
-30.006126
-28.338632
-23.592192
-15.769281
-6.019745
3.183662
10.258895
14.746202
16.783045
16.011529
12.455492
7.165710
2.014008
-1.169892
-1.570511
0.244970
3.181813
6.775622
10.739400
14.443116
17.446522
20.545284
24.470053
29.704110
35.319590
38.836309
38.930428
35.131667
28.044980
19.369130
11.541576
6.471918
6.283374
9.729505
14.839103
21.088330
26.586473
31.173161
34.405050
37.087404
38.976879
40.384929
42.131989
44.355828
45.454281
44.793291
43.221775
40.617441
36.227969
29.069455
19.802274
8.876578
-2.116610
-14.152832
-23.390602
-30.962428
-38.170477
-41.024346
-40.031776
-36.620320
-32.641062
-26.924033
-20.708862
-15.802670
-14.030533
-14.597405
-16.021243
-17.545700
-18.690591
-19.161179
-18.427741
-17.002663
-14.588421
-11.881299
-9.828977
-8.831762
-7.369532
-4.941668
-2.005444
0.942235
2.883722
2.873815
0.362052
-4.754047
-11.415656
-17.931135
-23.120608
-26.117821
-26.681907
-25.348160
-22.842896
-19.835155
-17.146300
-15.137320
-14.152490
-14.240105
-14.532365
-14.428649
-14.658988
-15.138554
-14.609142
-12.653104
-10.502638
-8.752483
-6.350624
-2.600159
1.759284
5.623991
8.554332
10.526469
11.220588
9.708824
5.610992
-0.512537
-7.330802
-14.071049
-20.325847
-25.595196
-28.843802
-29.334204
-27.088692
-22.140394
-14.820579
-5.458040
4.358680
13.109764
20.407598
25.749394
28.663017
29.248776
28.340418
25.967973
21.309460
14.660854
6.771691
-1.590228
-8.895800
-13.642239
-15.305086
-14.798894
-13.601370
-12.900130
-12.891151
-13.020872
-13.239447
-13.780932
-14.610033
-15.743469
-17.842230
-21.611579
-26.944396
-32.808172
-38.385570
-42.735105
-45.600430
-46.885878
-46.351202
-43.996402
-39.867919
-33.583707
-25.242840
-16.700114
-10.215284
-6.676274
-6.242836
-9.272247
-14.434166
-19.031689
-20.101657
-17.623637
-11.862027
-3.880911
5.804229
16.708874
27.837048
37.601754
45.035192
50.833025
55.113212
57.340457
57.775752
56.893710
54.374515
50.577303
45.419409
39.683496
33.940773
29.699287
27.012291
26.443252
26.707339
29.439538
30.174833
35.097744
39.593410
39.027157
43.153164
43.693103
45.505178
45.037377
43.679174
41.124066
35.358123
31.465864
28.720973
27.998063
28.743575
29.099613
29.556270
31.893422
29.470823
28.622836
26.427790
22.920361
20.471445
13.597762
8.364016
1.515101
-8.385827
-18.364464
-27.429169
-34.337837
-41.431025
-47.785204
-53.379631
-58.718639
-62.742477
-64.079938
-61.747429
-57.446809
-52.269719
-47.446808
-44.088602
-43.374051
-44.949901
-47.487052
-49.447423
-50.848351
-51.723892
-51.265067
-48.787358
-44.515530
-39.467851
-33.698810
-27.883020
-22.444939
-17.275588
-11.331315
-4.676515
1.844848
6.840205
9.175499
8.502435
5.775811
1.962499
-3.083011
-8.504373
-12.812731
-15.335640
-16.532234
-16.019540
-13.167217
-7.989198
-1.119228
6.653528
14.027833
20.325357
25.452912
29.798423
33.327526
35.731242
36.844556
36.817312
36.718551
37.431865
38.886045
40.382331
41.402765
42.321651
43.466544
45.098742
47.265616
49.629394
52.051067
54.226609
56.318561
58.290079
60.250141
61.343640
62.110205
62.218565
61.776460
60.888535
59.595966
57.342097
54.298135
50.177393
45.663152
40.452317
34.117953
25.996591
17.307118
8.304333
-3.086069
-9.459752
-17.684210
-26.137769
-31.240245
-33.997210
-35.105569
-37.153556
-36.091635
-34.470272
-32.668723
-31.470580
-28.820734
-26.295037
-24.979866
-24.907729
-25.173672
-26.586055
-30.266550
-35.082648
-40.067477
-44.014535
-47.887599
-50.410199
-51.242706
-50.172736
-48.206481
-45.508029
-41.917316
-37.299978
-32.127531
-27.371803
-24.295022
-23.454154
-24.267775
-25.186041
-25.057247
-23.872727
-21.855079
-18.847648
-14.339907
-9.375819
-5.029379
-1.507706
2.063812
5.595701
9.305609
12.484557
14.684558
15.646478
15.488275
14.696634
13.658555
13.335336
14.508402
17.066607
20.466917
24.724813
29.557012
35.178994
40.402834
44.722649
47.244321
48.974663
50.325747
51.810578
52.538133
52.478071
51.030085
47.886742
41.194483
30.338137
16.641853
3.190770
-8.055669
-15.524399
-20.791271
-27.333376
-24.866502
-27.085077
-30.989101
-33.316964
-37.069595
-40.352256
-47.157209
-48.509840
-48.489715
-46.289405
-44.144822
-38.759372
-31.472065
-25.219742
-19.989710
-14.680112
-8.090947
-2.985064
1.228869
4.250232
7.349613
8.722679
10.399770
12.720823
15.492960
17.717729
19.875624
22.245285
23.602561
23.168196
21.366649
19.701325
18.236620
16.986466
15.849005
14.675631
12.413713
9.301020
5.687399
1.241579
-4.180711
-10.253775
-16.400524
-22.219718
-27.190925
-31.016311
-33.464917
-34.515690
-34.995566
-35.816308
-36.570487
-36.487204
-35.775129
-34.540763
-32.622805
-30.498656
-28.817850
-28.061812
-28.955929
-31.283792
-34.101748
-36.058403
-36.302675
-33.927752
-29.081621
-23.152827
-17.109173
-10.389668
-2.875735
4.859869
12.040056
19.325815
27.286807
35.027984
41.206313
45.008481
46.744395
46.990835
47.111579
47.553066
48.398578
48.617154
47.981551
45.576289
41.497962
35.578458
29.644093
24.337283
21.233259
19.613446
20.260815
18.553385
16.321498
17.116545
12.262056
10.821810
10.414999
9.496115
11.732338
16.487138
19.750916
20.724291
22.754323
23.370113
24.067637
24.269186
25.147515
25.539157
26.742563
28.876000
31.852781
34.548138
36.001080
36.913155
35.893342
33.441021
29.889009
24.508205
16.400775
6.435761
-3.829873
-12.997055
-19.899222
-24.387766
-26.809746
-27.777238
-27.938228
-27.920270
-28.596740
-29.842250
-31.613457
-33.165159
-33.719337
-32.856488
-31.156797
-29.452152
-28.860201
-30.384658
-33.780633
-37.892397
-41.473201
-44.030785
-45.088370
-44.582486
-42.799204
-40.705395
-39.458335
-39.897963
-41.801677
-44.006011
-45.693936
-46.962666
-48.819631
-51.364522
-53.750899
-54.971022
-54.663900
-53.439132
-52.338512
-51.722102
-51.351823
-50.732627
-49.634793
-48.749344
-48.482160
-49.268537
-51.333242
-54.729836
-59.039432
-63.884014
-68.824880
-73.297634
-76.452123
-77.488345
-75.976579
-72.253978
-66.243141
-57.162026
-45.029208
-31.186792
-17.304129
-4.362023
7.490919
18.142933
27.061200
34.501138
40.772656
46.711357
52.324670
58.198355
64.818170
71.929936
78.775447
85.313219
91.887523
98.647586
105.146658
111.069569
116.831489
122.720345
128.679479
134.055331
138.609511
142.331184
145.590937
148.307656
149.949143
150.019113
148.359671
144.755028
140.022211
134.556577
128.654411
121.581966
113.717261
105.714475
98.538315
91.755034
85.143270
78.530268
71.690021
64.290022
57.308908
50.374544
43.021913
34.475784
24.325320
12.529965
-0.548982
-13.607185
-31.803779
-44.517401
-59.904397
-80.124520
-94.809349
-106.528852
-113.561669
-120.031328
-122.096342
-121.356403
-120.005009
-117.744018
-113.846184
-108.647732
-104.097886
-100.753303
-97.774664
-95.328533
-94.947728
-95.824816
-96.626983
-96.395713
-94.770635
-88.381470
-76.644008
-63.124812
-51.540910
-41.883943
-33.178370
-25.706852
-20.484560
-17.471866
-15.336880
-13.765363
-12.582390
-10.530686
-7.694462
-4.297558
-0.780838
3.355076
8.220711
13.620093
19.279846
24.281704
28.928145
33.298734
36.906165
38.214215
37.356940
33.682947
26.818242
16.312670
2.830009
-11.344604
-22.688566
-29.860701
-35.071536
-38.160699
-39.528810
-39.077726
-37.010233
-34.001873
-30.310850
-26.778961
-23.632520
-20.786080
-18.727875
-17.436543
-16.286387
-15.111773
-13.449234
-11.399078
-8.684836
-5.176166
-1.100005
3.702783
9.450152
16.171824
23.499379
30.680804
37.081115
41.831270
44.718578
45.740869
45.958517
46.197527
46.105887
45.547065
44.669356
44.674930
45.193197
45.801247
46.085768
46.301559
45.721064
44.319517
41.687319
37.476484
30.625402
21.444907
10.089799
-0.582336
-10.478001
-19.492551
-23.120724
-28.672426
-33.241156
-35.103693
-36.269947
-37.699977
-39.606477
-39.145796
-38.557559
-37.768704
-37.132480
-35.860034
-35.310497
-35.845172
-37.213282
-38.441145
-39.201516
-39.192537
-38.434332
-36.340213
-32.692225
-27.993462
-21.375814
-14.059715
-7.368692
-2.330920
1.948957
6.008710
10.220475
13.949888
17.046793
19.523264
21.198807
21.845247
22.482709
23.628530
25.549584
28.178377
31.035344
34.270948
37.851135
41.694170
45.738443
50.298196
54.493243
58.020489
60.108415
61.403772
61.589841
60.875600
58.543713
55.409658
51.152073
46.632569
41.798824
37.970032
34.852077
32.912449
31.521118
31.303163
30.312451
26.400997
27.554249
21.602547
15.840318
11.440938
3.084902
-2.597760
-11.106118
-19.920978
-24.578253
-30.114785
-38.292183
-43.434288
-47.212615
-50.141407
-54.504254
-56.604873
-57.179175
-57.800537
-57.731186
-56.737068
-54.314466
-52.663691
-51.407653
-50.124061
-48.745732
-48.423440
-48.190003
-47.921272
-47.323128
-47.600217
-48.365232
-49.111981
-50.528388
-52.377923
-54.026529
-54.626219
-53.598664
-51.192162
-47.848817
-43.738600
-39.305472
-34.989062
-30.459959
-25.640454
-21.291537
-17.275746
-13.298037
-9.469243
-6.261812
-4.042926
-3.319396
-3.609178
-4.154688
-3.303294
-0.260259
4.406305
10.403519
16.932003
23.675657
30.075039
36.235411
41.691139
46.243772
49.366373
50.748727
50.100121
47.627366
44.077212
40.382786
37.082167
34.459877
33.510033
33.244089
33.976598
34.552760
36.525206
37.012823
39.711276
43.011277
42.726138
45.859885
46.930474
48.291466
49.224903
50.788681
53.950601
55.739147
57.826454
59.056177
61.493948
64.251534
68.040080
72.001691
75.649060
78.379711
80.885594
82.498907
83.517174
84.042562
83.479715
82.518106
81.407580
80.118726
78.012226
75.192412
71.114704
64.927398
56.212848
44.867957
31.109134
16.552789
0.814399
-14.054640
-28.878788
-39.967023
-55.572904
-63.296123
-67.300457
-80.335440
-86.817483
-93.120888
-97.583426
-106.037604
-112.410049
-114.783423
-117.386828
-119.661440
-121.625216
-120.341624
-119.439766
-118.197969
-116.998588
-113.779702
-111.138215
-108.524592
-104.960814
-99.700441
-94.702608
-89.837282
-83.137900
-74.505392
-64.772264
-54.556164
-43.703222
-33.392076
-24.065759
-16.223344
-9.201671
-3.108481
1.723098
5.391520
8.852821
11.916290
14.718767
16.780688
18.563970
19.892144
21.030535
22.668926
25.301125
28.590290
31.407319
33.549734
34.587196
34.486887
33.150356
30.571719
27.028995
23.508253
21.136117
20.786892
21.801444
23.805779
26.283180
29.312902
32.997423
37.677609
42.568012
47.881326
52.939841
57.521266
61.793093
65.662134
69.226531
71.535201
72.679164
72.305481
70.777618
68.320962
65.515390
61.838611
57.522513
52.144805
46.156261
39.287221
33.109823
27.252857
23.706419
17.245429
13.001467
10.884130
1.608279
-2.653020
-8.685527
-16.580573
-21.627321
-27.640943
-35.072521
-41.534749
-44.981188
-48.450537
-52.096047
-53.914932
-52.683662
-49.317097
-43.828242
-37.620811
-30.900377
-25.525763
-22.096660
-20.406876
-20.384584
-21.058267
-21.721424
-21.822043
-21.141547
-20.507490
-19.917706
-19.153309
-18.132256
-16.707797
-14.727300
-12.087362
-9.250209
-6.331013
-3.483954
-0.433179
2.772704
6.043293
9.071777
11.982924
14.340509
16.053204
17.198096
18.042060
18.084476
17.525653
16.522867
15.179215
13.976429
12.312653
9.701508
6.077051
1.854451
-2.737808
-7.042761
-10.850810
-13.939973
-16.540282
-18.683315
-20.649259
-22.520465
-24.325728
-26.208699
-28.066902
-30.176190
-32.306839
-34.462566
-36.531605
-37.872471
-38.189808
-37.691974
-36.620456
-35.185162
-33.146771
-30.622002
-27.751413
-24.021381
-18.679894
-12.472154
-6.495682
-1.335310
2.921657
6.602772
9.505869
11.611752
13.009895
14.069648
14.962838
15.475223
15.227855
14.232810
12.403399
9.885133
6.947982
3.822286
0.562535
-3.062542
-7.331272
-12.139011
-16.820744
-21.139628
-24.849225
-27.726624
-29.472134
-30.272442
-31.026621
-32.225072
-34.140242
-36.363151
-38.040550
-38.906493
-38.832808
-37.770269
-35.232497
-31.431258
-27.507109
-23.838996
-20.081720
-15.957571
-11.643019
-7.224132
-2.527537
2.303114
7.153269
11.768131
16.179277
20.248009
24.011477
27.742437
31.723243
36.120148
41.140273
46.707456
52.204051
