EVENT_NAME: 202010301151
EVENT_ID: 10614
EVENT_DATE_YYYYMMDD: 2020/10/30
EVENT_TIME_HHMMSS: 11:51:24.00000
EVENT_LATITUDE_DEGREE: 37.879
EVENT_LONGITUDE_DEGREE: 26.703
EVENT_DEPTH_KM: 16.54
HYPOCENTER_REFERENCE: AFAD
MAGNITUDE_W: 6.6
MAGNITUDE_W_REFERENCE: AFAD
MAGNITUDE_L: 
MAGNITUDE_L_REFERENCE: 
FOCAL_MECHANISM: 
NETWORK: TK
STATION_CODE: 3519
STATION_NAME: 
STATION_LATITUDE_DEGREE: 38.4525
STATION_LONGITUDE_DEGREE: 27.1112
STATION_ELEVATION_M: 10.0
LOCATION: -_-_-
SENSOR_DEPTH_M: 
VS30_M/S: 131
SITE_CLASSIFICATION_EC8: D
MORPHOLOGIC_CLASSIFICATION: 
EPICENTRAL_DISTANCE_KM: 73.08
EARTHQUAKE_BACKAZIMUTH_DEGREE: 
DATE_TIME_FIRST_SAMPLE_YYYYMMDD_HHMMSS: 2020/10/30 11:51:11.2564700
DATE_TIME_FIRST_SAMPLE_PRECISION: millisecond
SAMPLING_INTERVAL_S: 0.01
NDATA: 10501
DURATION_S: 
STREAM: HNE
UNITS: cm/s^2
INSTRUMENT: sensor = CMG-5T/GURALP | digitizer = 
INSTRUMENT_ANALOG/DIGITAL: 
INSTRUMENTAL_FREQUENCY_HZ: 
INSTRUMENTAL_DAMPING: 
FULL_SCALE_G: 
N_BIT_DIGITAL_CONVERTER: 
PGA_CM/S^2: 110.261
TIME_PGA_S: 
BASELINE_CORRECTION: BASELINE REMOVED
FILTER_TYPE: BUTTERWORTH
FILTER_ORDER: 
LOW_CUT_FREQUENCY_HZ: 
HIGH_CUT_FREQUENCY_HZ: 
LATE/NORMAL_TRIGGERED: 
DATABASE_VERSION: 
HEADER_FORMAT: DYNA 1.2
DATA_TYPE: Acceleration
PROCESSING: Manual Paolucci et al., 2011
DATA_TIMESTAMP_YYYYMMDD_HHMMSS: 
DATA_LICENSE: U (unknown license)
DATA_CITATION: Turkish Accelerometric Archive v 1.0 - Disaster And Emergency Management Presidency, Earthquake Department
DATA_CREATOR: AFAD
ORIGINAL_DATA_MEDIATOR_CITATION: : AFAD - Disaster And Emergency Management Presidency
ORIGINAL_DATA_MEDIATOR: AFAD PROCESS SERVICE
ORIGINAL_DATA_CREATOR_CITATION: AFAD PROCESS SERVICE
ORIGINAL_DATA_CREATOR: network: TK
USER1: GuestUser
USER2: 
USER3: 
USER4: 
USER5: 
[...]
1.950416
2.291251
4.053635
6.529154
8.098935
7.740168
5.336410
1.698985
-1.718771
-3.565491
-3.135907
-0.216646
4.610707
9.763471
13.772261
15.531498
14.287450
11.091565
8.602205
6.815595
5.163052
4.141819
3.218461
1.952697
-0.178521
-2.982906
-5.060309
-4.987293
-3.341037
-0.673545
2.384504
5.253726
7.633258
8.890846
9.970937
11.208069
12.157555
12.239698
11.061109
8.908176
6.521098
4.039291
1.303199
-1.273965
-2.711876
-2.698340
-2.066397
-1.246257
-0.551687
-0.566160
-1.542390
-2.492813
-1.736245
0.683885
3.224549
4.338000
3.215429
0.716943
-2.489957
-5.873409
-9.214691
-12.713328
-16.062792
-18.183310
-17.985983
-15.306847
-10.915368
-6.580537
-3.946404
-3.331141
-3.343097
-2.781964
-1.416430
0.008899
0.478451
0.079086
-0.501552
-1.135376
-1.928759
-2.481702
-2.561950
-2.703882
-3.885303
-5.611488
-5.884654
-4.520064
-2.782542
-1.166184
1.302726
4.950543
8.314805
9.160122
6.787520
2.260408
-3.417287
-8.398212
-11.979303
-13.394240
-12.637357
-11.876068
-12.291168
-13.834192
-14.469904
-11.968894
-6.354764
0.170454
4.998122
7.142565
6.273337
3.208057
0.375034
-0.562801
-0.249031
0.061592
-0.369559
-1.939333
-4.397851
-6.478086
-6.457626
-4.191075
-1.002107
2.652634
6.939943
10.980519
13.655250
14.804577
14.627713
13.117104
10.768735
8.290391
6.305828
5.063038
4.414108
3.944877
3.080370
1.521611
-0.677900
-3.160651
-5.170705
-5.951185
-5.329942
-3.921922
-2.052851
0.047217
1.612907
2.243277
1.961614
1.274918
0.611826
0.113013
-0.887135
-2.799630
-5.321719
-7.796287
-9.506737
-9.720107
-8.062522
-6.172365
-5.212494
-5.836247
-7.958024
-10.406471
-11.590095
-9.802534
-5.943546
-1.207774
3.121706
5.947184
7.461261
7.679044
7.373778
7.443333
7.704861
7.469146
6.489454
4.942969
3.283187
1.853459
1.118613
1.513263
2.850159
4.647161
6.352268
8.080663
10.270110
12.459871
14.106127
14.348143
12.873726
10.435665
7.486198
4.452074
2.158465
1.692067
2.467518
3.342417
3.899459
4.421253
5.646740
7.474899
9.582836
11.198879
11.639793
10.716120
8.632108
6.348570
4.643470
3.618145
2.799586
1.276074
-1.514149
-4.703111
-7.049277
-8.086560
-8.067359
-7.820308
-7.860902
-8.361289
-9.712654
-12.082423
-14.687911
-16.326922
-16.474518
-15.017718
-12.595070
-10.645433
-10.423873
-12.125511
-14.315266
-15.755379
-16.081102
-15.688654
-14.828860
-13.063014
-10.966407
-9.030932
-7.497972
-7.283336
-9.382454
-12.898086
-16.168872
-18.005836
-17.473971
-15.013558
-10.624597
-5.245556
-0.107584
5.060916
11.040740
17.294678
22.302675
25.027444
25.105181
23.649333
22.023540
21.247781
20.830163
19.909322
18.659294
17.180157
14.863259
11.787593
8.965585
7.421931
7.280000
7.809033
9.182434
11.137736
12.650869
12.432463
9.608881
4.850771
-0.644706
-4.407386
-4.661354
-2.230839
1.446561
4.330575
5.614913
6.208776
7.041504
8.215694
9.375721
10.440706
11.398375
11.990034
11.779181
11.082415
10.397922
9.777001
9.068591
7.946335
6.356734
4.682476
2.409638
-1.275308
-6.119019
-10.293026
-12.462324
-13.130137
-13.329031
-13.725878
-14.249868
-14.696125
-15.090454
-14.923339
-13.420277
-11.386927
-10.017302
-10.827364
-13.218534
-15.728664
-17.276723
-17.355397
-17.158070
-16.794891
-16.824155
-17.293386
-17.513680
-17.176621
-16.222415
-14.932097
-13.846026
-12.789538
-10.934629
-8.082716
-4.450950
-0.925241
1.560349
2.831784
3.147128
2.830532
1.481370
-0.378253
-1.227339
0.426470
4.419839
8.690783
11.866534
12.638838
10.732952
6.764767
2.136003
-0.699224
-0.066337
2.846315
6.125921
8.221584
9.102463
10.275393
12.145409
15.502118
19.740647
22.990354
22.657394
17.935161
10.874941
3.691670
-1.772651
-5.262476
-6.721472
-7.185038
-8.402336
-11.052198
-14.078769
-15.024157
-12.387191
-6.548358
0.866863
8.188929
13.922334
17.140256
16.713197
12.704728
6.720505
0.559729
-4.444170
-8.428406
-11.497463
-13.181792
-13.262669
-11.492732
-7.680636
-2.591758
2.476034
6.563816
8.524154
7.979707
6.116308
4.284694
2.914447
1.390620
-0.916207
-4.007294
-7.432603
-10.896307
-14.336093
-17.189573
-19.049825
-20.420702
-21.507710
-21.405740
-18.606699
-13.337177
-7.016206
-2.052584
-0.178792
-0.534412
-2.195767
-3.322428
-3.151851
-2.778286
-3.354518
-5.494863
-8.483984
-10.747695
-10.551942
-7.057389
-1.271742
4.759066
9.907424
14.404016
18.582120
21.674787
23.278872
23.517741
21.882192
18.294806
13.032530
6.620615
0.327345
-4.669315
-7.712881
-8.132387
-6.077951
-3.472771
-1.776791
-0.642570
1.372842
4.483762
8.465802
13.336585
17.924443
20.521126
19.753549
16.066715
10.587603
5.057192
0.825279
-2.768715
-6.026284
-8.890464
-11.606415
-13.494991
-13.541565
-10.766127
-5.080872
1.981872
8.245566
12.927207
15.712087
15.448363
12.629816
8.235197
2.568202
-3.841195
-10.287414
-15.996265
-20.670662
-24.204232
-25.815548
-24.893127
-20.966477
-14.491298
-7.239412
-0.889488
3.998289
7.344613
8.381904
7.468931
5.606790
2.813735
-1.450594
-7.335683
-13.924466
-19.802002
-23.715428
-24.079545
-20.129291
-13.497386
-6.212141
0.640061
6.527675
11.492242
15.280105
17.538159
18.031944
16.832899
14.115689
10.540577
7.803540
6.905673
6.866023
6.493094
5.846052
5.387522
6.154161
8.563591
12.368448
16.702020
20.684060
23.273189
23.517093
22.205067
20.027586
17.438149
14.958231
12.210494
9.467792
7.768987
6.553892
4.984747
2.988854
0.771090
-0.877991
-1.463665
-0.984986
0.439713
1.733178
1.939947
1.288813
0.338075
-0.076710
0.381827
1.325648
1.902831
1.320620
-0.505329
-3.758807
-8.660739
-14.758888
-20.383397
-24.393124
-26.567143
-26.644244
-25.585239
-24.005072
-21.348594
-17.486460
-13.075784
-8.764871
-5.587232
-4.406119
-4.948992
-6.730567
-9.372246
-12.405426
-15.062526
-16.326401
-15.740092
-13.977393
-11.993767
-9.967026
-6.966884
-2.960611
1.447547
5.585683
8.034766
8.658841
8.119745
7.187260
6.301667
5.099790
3.468333
1.769842
0.383544
-0.635172
-0.829660
0.267740
2.608563
5.941354
9.893496
13.981279
17.203921
18.347269
17.179066
14.346987
10.608540
7.091020
5.117787
4.826053
5.060516
5.278929
5.711030
6.500014
7.204969
7.033455
6.049043
5.042287
4.637572
4.675970
4.656147
4.605482
4.194788
3.128551
2.022975
1.867196
2.605511
3.171994
2.890332
1.990262
1.345738
1.204121
1.058099
-0.196965
-2.720942
-5.987323
-9.102327
-10.494919
-10.310181
-9.241419
-7.153624
-4.416895
-1.663487
0.405111
2.270721
4.683927
6.928448
7.958185
7.716176
7.015948
5.648532
3.362476
-0.037656
-4.484202
-9.040583
-11.890601
-11.868882
-9.974319
-6.893611
-3.291428
0.319253
4.276431
8.017402
11.567344
14.710364
16.121846
14.084726
8.635511
1.951371
-3.357168
-5.478316
-6.139520
-7.027631
-9.018803
-11.030746
-10.874960
-7.584970
-1.857544
3.857923
8.112188
11.043408
13.438676
15.237566
16.847316
18.597426
20.113706
20.223544
17.934655
13.771978
9.035269
4.472595
1.009835
-0.839088
-1.574564
-1.216105
0.153520
2.385767
4.713372
6.152863
6.409356
5.892289
4.914486
3.137632
-0.051959
-4.302755
-8.444346
-11.243381
-12.554148
-13.248397
-13.480021
-13.302520
-13.314476
-13.769544
-14.081105
-13.595503
-12.021001
-9.601815
-6.774449
-4.511990
-3.576666
-3.657543
-4.887430
-7.625411
-11.406658
-15.200808
-17.581593
-17.623446
-15.674438
-12.774374
-9.507358
-6.844271
-5.189833
-4.015643
-3.288658
-3.191409
-3.960558
-5.344653
-7.038738
-8.648481
-9.850988
-10.336268
-10.184889
-10.221707
-11.137512
-12.349775
-13.044653
-12.681788
-11.205791
-9.622792
-9.212405
-10.527893
-12.332756
-12.756039
-10.824026
-7.034904
-2.612584
2.206587
7.553213
12.323603
16.175038
20.240476
24.522120
27.952787
29.885429
30.504784
30.336732
29.318960
27.776566
25.780673
23.145288
19.568288
15.194440
11.218072
8.184577
6.287504
5.287041
4.175171
1.788408
-1.565147
-3.664265
-3.358363
-1.895898
-1.103768
-2.505486
-6.059827
-10.187257
-13.221695
-14.513265
-13.977309
-11.153405
-6.590724
-1.558809
2.854070
6.279701
9.084093
11.050095
12.113506
12.455285
12.188729
11.601796
11.105186
11.209359
12.237523
14.183068
16.661420
18.788554
20.284378
21.467379
21.686736
20.542766
18.173626
15.609365
13.204034
9.614760
4.142886
-1.734650
-6.156020
-9.709731
-12.797041
-14.610716
-14.806463
-13.051002
-9.300275
-4.452151
-0.336674
1.702656
1.409034
-1.191733
-5.462041
-10.299773
-14.180469
-16.162829
-16.348190
-15.466997
-13.735454
-10.427840
-5.628181
-0.566369
3.534632
6.382768
7.662386
6.257205
1.833633
-4.870019
-12.651871
-20.635767
-28.434298
-35.101758
-39.610303
-41.413592
-41.016424
-39.009824
-35.100483
-28.591944
-20.710008
-13.674014
-8.601501
-5.553523
-3.675955
-2.536698
-1.535600
-1.146614
-2.055495
-3.961695
-6.433116
-8.403203
-9.169205
-7.919485
-4.615962
-0.069016
4.521359
8.806780
13.224065
15.846239
14.737831
9.463281
1.160897
-6.845028
-11.158766
-11.264821
-7.663266
-1.059056
6.089290
12.549677
18.174822
22.620116
26.302551
29.010327
29.800884
27.704913
22.725562
15.906096
8.860982
3.023729
-1.021246
-2.978429
-3.433183
-2.540030
-0.456641
1.076319
-0.011948
-2.982500
-6.866343
-11.137281
-15.188550
-18.644386
-20.855541
-22.683693
-25.162352
-28.348482
-30.913057
-31.437991
-28.510547
-22.382809
-14.172944
-5.593294
1.808079
7.179882
9.564450
9.145888
7.099326
4.423973
1.786070
0.137933
-1.710675
-4.092089
-6.475705
-8.793233
-11.600765
-14.546455
-16.903321
-18.741543
-19.511323
-19.131463
-17.752082
-15.380418
-11.449676
-6.775272
-2.115660
2.361105
6.372727
9.564213
11.670262
12.992366
13.756172
14.467107
15.930201
18.014535
19.869759
20.718537
20.818619
21.355519
22.882814
25.623005
29.076645
32.592283
36.427353
41.191134
45.880644
49.296519
51.531913
52.634664
51.717914
48.993151
45.738100
42.250164
37.808338
31.883595
25.587179
20.129781
15.515494
11.176265
7.433727
5.142950
5.204007
6.791098
8.897775
11.020503
12.866286
14.524501
14.966988
12.595645
7.645561
1.772431
-4.403136
-10.014113
-15.278592
-20.290359
-25.103229
-30.192100
-34.589551
-37.614233
-39.150648
-38.596754
-36.775833
-35.718401
-36.376144
-38.327662
-40.527802
-42.141636
-42.611181
-41.523537
-38.353451
-33.714925
-29.252322
-26.283966
-25.132750
-25.453752
-26.657517
-27.808097
-28.544831
-28.870554
-28.988567
-29.583052
-31.095549
-32.833694
-33.919128
-33.993082
-32.413230
-29.319619
-26.068338
-24.495724
-25.425062
-27.784446
-29.650048
-30.578442
-30.746808
-29.544610
-26.241087
-21.408698
-16.238625
-12.032826
-8.538588
-5.427353
-3.342076
-2.654114
-2.690932
-1.431456
1.321323
5.565832
10.394129
15.190326
20.543875
27.007410
34.781715
43.868365
53.404736
62.554643
69.873247
74.354103
76.238281
77.289733
78.121202
78.103267
77.185574
75.535548
74.080329
72.344072
69.513567
67.282899
66.450807
65.743970
66.281185
65.033045
62.198448
55.896367
46.559214
36.728910
26.839754
19.555461
12.541189
5.553667
-1.236845
-8.923339
-17.822415
-26.697257
-36.745341
-46.535992
-55.630817
-63.418963
-67.733960
-70.104044
-71.107968
-70.893332
-70.202853
-69.143533
-66.323721
-60.695428
-51.625458
-39.019083
-24.092344
-8.723122
5.273017
15.020874
21.149871
25.336473
27.884375
28.851485
27.658420
24.105023
18.748018
12.943495
7.328428
1.891172
-2.861273
-6.099015
-7.567452
-6.994046
-4.620493
-1.174091
2.657202
6.578817
10.091308
13.705136
17.684343
21.341602
24.504134
26.823871
27.814584
26.899409
24.422638
20.904803
17.591531
15.248198
14.317916
15.779122
19.447395
24.484660
30.231598
35.120949
38.087417
39.112119
38.014725
34.637567
27.889226
17.402749
4.250357
-9.512260
-22.559538
-34.290067
-45.006283
-55.165460
-65.139273
-74.358723
-81.773937
-85.778314
-85.718830
-83.203343
-80.199110
-78.169851
-77.465525
-77.508637
-77.019888
-75.029338
-71.285220
-66.649211
-61.571663
-56.150765
-50.236086
-44.082227
-37.358111
-30.833838
-24.732850
-19.785277
-15.366733
-11.269195
-6.717529
-0.491600
6.084286
13.594549
22.047056
29.315621
34.513389
38.480637
39.708013
38.193943
33.760300
26.994964
17.465838
6.716892
-2.732297
-10.135552
-15.341810
-18.069405
-18.870026
-18.962548
-17.354687
-14.114421
-9.694303
-6.081105
-3.935717
-2.560428
-0.603238
1.878576
4.494456
6.817340
8.891602
11.593084
15.414306
20.099095
24.798990
29.164977
33.136002
36.885156
40.187105
43.484334
46.924127
50.318287
52.733381
52.594912
49.528373
45.076477
40.827569
38.277785
37.170636
36.627763
36.482370
35.771127
34.319369
32.170842
29.809885
27.094248
23.805838
19.456852
14.433441
9.735441
6.643096
4.953102
3.430849
0.613561
-3.601043
-7.573950
-10.890999
-13.204435
-15.344150
-17.283395
-19.442937
-20.131521
-18.469530
-14.057595
-8.965570
-3.388891
1.877484
6.190914
9.819219
11.295846
13.699610
18.499584
23.592553
26.527235
28.392215
27.760908
25.398692
21.678813
18.093001
14.741963
12.286908
11.452613
11.244907
12.914451
17.040314
23.007235
29.924268
37.802428
44.287678
49.417153
53.043569
55.695956
57.412392
58.208929
56.780145
52.589459
45.812164
36.800737
26.969174
18.410931
12.348344
7.834765
4.937540
3.080750
1.253857
-1.015520
-3.954601
-8.477937
-14.928876
-23.557929
-34.272886
-46.883031
-60.254147
-73.268696
-84.989154
-94.506951
-101.205882
-105.691767
-108.859329
-110.260732
-109.349012
-106.256660
-101.151417
-94.283479
-86.189112
-77.685622
-69.798335
-62.517182
-54.993072
-47.506727
-40.916364
-34.805305
-28.287640
-21.357074
-15.046489
-9.771932
-4.840095
0.266092
4.440735
7.655509
10.844163
14.524395
18.771107
23.568247
27.818421
30.716596
32.634133
34.352772
35.665749
35.912171
34.327291
31.770583
29.282798
27.831669
27.978328
28.919002
29.421284
28.429948
28.001630
28.133497
29.532076
30.708154
31.444266
32.719478
33.056851
29.948141
24.517808
16.557831
6.116043
-2.754394
-9.396992
-13.642753
-16.567042
-17.049805
-15.923452
-13.507099
-10.517027
-7.550560
-4.203292
0.096606
6.307428
14.366232
22.860910
29.596985
34.175716
37.246039
38.849494
38.050132
35.072026
30.506520
24.928588
18.361206
11.601220
5.718019
2.010099
0.986034
2.224109
4.804112
7.463108
8.830530
9.076008
9.004257
8.672240
7.336926
4.642690
1.043345
-3.686441
-9.245805
-14.600921
-19.419455
-24.315723
-29.778470
-35.876304
-40.855026
-42.662407
-41.087591
-37.381553
-33.313282
-30.065463
-27.396082
-25.104669
-23.320570
-21.981157
-20.987297
-20.070855
-19.070701
-18.585099
-19.422541
-21.710171
-24.899447
-28.524598
-32.722207
-37.337753
-42.205697
-46.957198
-50.805479
-53.261164
-54.040070
-53.412533
-51.968636
-49.732613
-46.112805
-40.817792
-34.663303
-28.376950
-21.850159
-14.716919
-6.841907
1.774880
10.475694
18.508377
25.587801
31.897442
38.106375
44.635999
51.119990
56.872593
61.668790
66.080410
70.926016
76.300966
81.641927
86.717902
91.689392
96.089683
99.305402
101.933555
104.761550
107.550836
109.506138
109.642411
107.529446
102.991948
96.387115
88.071199
78.624527
68.490527
58.189100
48.707181
41.218325
35.813170
31.880861
27.906381
23.167154
17.688356
11.545519
5.220778
-1.455494
-8.829795
-17.389927
-26.306940
-35.409633
-43.729326
-50.850285
-56.233725
-61.428968
-67.316260
-74.564677
-82.772018
-90.416341
-95.591443
-98.801175
-99.984799
-98.672451
-98.161987
-95.455470
-92.790810
-91.453286
-91.070909
-91.705362
-93.227615
-94.838617
-95.740260
-96.404296
-94.920746
-91.012349
-84.997906
-77.087960
-67.899974
-60.438806
-54.632073
-49.300868
-42.664557
-34.538405
-26.107298
-18.229767
-10.859550
-4.066513
1.717246
6.899278
11.542525
16.224797
20.657187
25.528600
31.450203
37.891708
44.149107
49.681097
54.272732
57.968385
61.095670
63.693297
65.252378
66.312327
67.673455
69.235683
70.129780
69.617119
67.729487
64.757361
60.946216
56.958204
53.927542
52.122364
51.345976
51.497670
52.027961
52.463839
52.667460
52.483987
51.594618
50.093450
48.362230
46.183490
43.138351
39.243493
34.660992
29.793048
25.090327
20.877297
17.806981
16.456245
16.416281
17.045706
17.996136
18.649479
18.705501
18.147207
16.954142
14.592240
10.495653
4.326694
-3.727068
-12.215130
-19.654891
-25.895604
-30.347500
-32.283283
-31.196898
-27.070406
-20.217888
-11.725098
-3.526877
2.977885
7.499339
10.253377
11.347000
11.662973
11.202240
10.599887
9.682194
8.647428
7.503457
5.057843
1.292960
-2.722747
-7.599503
-13.500013
-19.478257
-26.305905
-33.562189
-40.849001
-47.249587
-52.351046
-55.745199
-57.790816
-59.561691
-61.529889
-63.708943
-65.846141
-67.356435
-68.147929
-68.955159
-69.562548
-69.949009
-70.029257
-69.664504
-68.487482
-66.979384
-64.968693
-62.183184
-58.332694
-53.571430
-48.630466
-44.051735
-40.073471
-36.201581
-32.278706
-27.601785
-21.909607
-15.472822
-8.975614
-2.643943
2.784508
7.429643
11.729856
16.803627
22.653476
28.449824
34.128784
39.614198
44.103551
46.931861
48.217144
47.956252
46.148241
42.805386
38.852936
34.822752
32.368955
31.569593
33.427335
36.590497
40.143271
43.066309
43.835151
43.536808
41.941228
37.571156
32.360492
26.233076
18.404017
11.866218
6.169640
0.232938
-5.667257
-9.945433
-14.645007
-18.223895
-21.182803
-24.481284
-27.587476
-30.556140
-33.584914
-36.440912
-38.278820
-40.232856
-41.831584
-43.244632
-44.420703
-46.395825
-48.125157
-49.468025
-50.118529
-49.244259
-45.911782
-39.282710
-29.671752
-19.502182
-11.230634
-4.745384
1.051908
7.358402
13.581498
18.930956
24.004098
29.299426
34.210178
38.319361
41.629178
44.298559
46.225222
47.868645
49.495704
50.547471
49.963056
47.646158
44.074508
39.620095
34.280714
27.796415
20.625732
13.709020
8.264211
5.034023
3.686434
3.524991
3.594860
2.471031
-0.823044
-6.056052
-12.474891
-18.453135
-23.355068
-26.756774
-28.968243
-29.796559
-28.702306
-25.542920
-19.998971
-12.392406
-3.276174
4.234089
10.294794
15.652435
19.421730
21.593238
22.283088
20.473819
17.005708
11.454842
4.176213
-2.482750
-8.611426
-12.622097
-15.264406
-15.734581
-14.140252
-10.491806
-5.140774
1.518511
9.543641
17.874040
25.875881
32.670807
38.787530
44.200875
49.628381
54.819225
60.549798
67.015851
74.723438
82.163520
89.114227
94.473127
97.723779
97.817566
94.526638
89.076164
81.563390
73.516552
64.884667
55.195353
43.906049
33.342153
19.958448
6.187335
-7.912652
-22.224753
-34.496585
-44.147504
-51.732976
-58.465582
-63.395209
-68.558981
-72.210253
-74.026760
-73.239980
-71.821575
-69.372491
-67.124194
-66.094142
-65.583048
-65.430095
-65.202870
-63.774395
-59.529571
-53.393021
-45.962380
-38.827252
-32.554118
-27.250607
-21.926955
-16.221559
-10.060461
-4.519659
-0.265394
1.993919
1.834678
0.196612
-2.222567
-5.155983
-8.845965
-12.688581
-16.139696
-18.293889
-19.199623
-19.102689
-18.073581
-16.366901
-13.193353
-8.591333
-3.562250
0.858182
3.558719
4.021662
2.041190
-2.410706
-8.754329
-15.089140
-20.094613
-23.084363
-24.461219
-24.876949
-24.869078
-25.489684
-26.467802
-27.692653
-28.449214
