EVENT_NAME: 202010301151
EVENT_ID: 10614
EVENT_DATE_YYYYMMDD: 2020/10/30
EVENT_TIME_HHMMSS: 11:51:24.00000
EVENT_LATITUDE_DEGREE: 37.879
EVENT_LONGITUDE_DEGREE: 26.703
EVENT_DEPTH_KM: 16.54
HYPOCENTER_REFERENCE: AFAD
MAGNITUDE_W: 6.6
MAGNITUDE_W_REFERENCE: AFAD
MAGNITUDE_L: 
MAGNITUDE_L_REFERENCE: 
FOCAL_MECHANISM: 
NETWORK: TK
STATION_CODE: 3528
STATION_NAME: 
STATION_LATITUDE_DEGREE: 38.30393
STATION_LONGITUDE_DEGREE: 26.37256
STATION_ELEVATION_M: 17.0
LOCATION: -_-_-
SENSOR_DEPTH_M: 
VS30_M/S: 532
SITE_CLASSIFICATION_EC8: B
MORPHOLOGIC_CLASSIFICATION: 
EPICENTRAL_DISTANCE_KM: 55.40
EARTHQUAKE_BACKAZIMUTH_DEGREE: 
DATE_TIME_FIRST_SAMPLE_YYYYMMDD_HHMMSS: 2020/10/30 11:51:09.4239460
DATE_TIME_FIRST_SAMPLE_PRECISION: millisecond
SAMPLING_INTERVAL_S: 0.01
NDATA: 10501
DURATION_S: 
STREAM: HNE
UNITS: cm/s^2
INSTRUMENT: sensor = CMG-5T/GURALP | digitizer = 
INSTRUMENT_ANALOG/DIGITAL: 
INSTRUMENTAL_FREQUENCY_HZ: 
INSTRUMENTAL_DAMPING: 
FULL_SCALE_G: 
N_BIT_DIGITAL_CONVERTER: 
PGA_CM/S^2: 153.861
TIME_PGA_S: 
BASELINE_CORRECTION: BASELINE REMOVED
FILTER_TYPE: BUTTERWORTH
FILTER_ORDER: 
LOW_CUT_FREQUENCY_HZ: 
HIGH_CUT_FREQUENCY_HZ: 
LATE/NORMAL_TRIGGERED: 
DATABASE_VERSION: 
HEADER_FORMAT: DYNA 1.2
DATA_TYPE: Acceleration
PROCESSING: Manual Paolucci et al., 2011
DATA_TIMESTAMP_YYYYMMDD_HHMMSS: 
DATA_LICENSE: U (unknown license)
DATA_CITATION: Turkish Accelerometric Archive v 1.0 - Disaster And Emergency Management Presidency, Earthquake Department
DATA_CREATOR: AFAD
ORIGINAL_DATA_MEDIATOR_CITATION: : AFAD - Disaster And Emergency Management Presidency
ORIGINAL_DATA_MEDIATOR: AFAD PROCESS SERVICE
ORIGINAL_DATA_CREATOR_CITATION: AFAD PROCESS SERVICE
ORIGINAL_DATA_CREATOR: network: TK
USER1: GuestUser
USER2: 
USER3: 
USER4: 
USER5: 
[...]
-1.094087
-0.771384
-0.508290
-0.305430
0.032878
0.828710
1.835516
2.646328
2.582664
1.333992
0.032577
-0.362840
-0.193998
-0.013295
-0.055738
-0.209909
-0.608134
-1.505080
-1.870537
-0.792263
0.600911
0.732302
-0.437411
-1.386164
-1.096542
0.107192
1.303749
1.705411
1.111817
-0.245463
-1.933246
-3.301136
-3.244958
-1.519409
0.823144
2.152650
1.537210
-0.520712
-2.582068
-3.249003
-2.531505
-1.460409
-1.001011
-1.316532
-1.829919
-1.723183
-0.252299
1.674549
2.644840
2.591474
2.193560
1.603399
0.785412
0.122222
-0.562815
-1.234744
-1.230061
-0.493213
0.098200
-0.032877
-0.657992
-0.646443
0.241768
0.951151
0.248638
-1.383593
-2.444699
-2.181605
-0.449814
1.570349
2.427351
1.452383
0.232423
0.571043
1.887130
2.708865
2.498830
1.617801
0.443719
-0.698842
-0.861752
-0.366463
-0.618942
-2.482744
-4.565321
-4.306285
-1.797076
1.005809
2.699526
2.816249
1.253302
-0.528108
-1.042743
-0.012219
1.677128
3.219480
3.962569
3.520651
1.992034
0.590750
-0.314622
-1.649119
-2.718963
-3.486080
-3.852784
-3.007954
-0.835179
1.390652
2.043547
1.070763
-0.463160
-1.178469
-0.340817
0.860421
1.133814
0.640401
0.927525
1.431241
0.582045
-0.716874
-1.424381
-1.628486
-2.376877
-3.839643
-4.952867
-4.890448
-3.671733
-2.026703
-0.308019
1.555162
2.737986
2.664647
1.543932
0.451305
0.141089
0.747483
1.561728
2.476155
2.316366
-1.448066
-6.257689
-9.051521
-8.240708
-3.621145
1.217506
2.804800
1.507130
0.365817
0.505635
1.611373
1.800502
0.159220
-2.306916
-4.365775
-3.185447
0.655763
2.954623
1.449412
-2.355592
-5.000556
-4.564564
-2.867415
-1.579728
-0.379115
0.843345
1.568021
1.853273
1.468155
0.858020
0.998463
0.774384
0.063756
-0.921824
-1.338775
-0.416858
0.892363
1.988738
1.839560
0.674841
-0.638122
-2.150822
-3.171668
-3.469088
-3.151066
-2.045953
0.318134
2.122330
2.047430
0.450778
-1.552841
-2.030962
-0.519506
-0.138754
-2.709441
-4.320762
-4.026147
-3.115153
-2.599578
-2.476613
-2.103039
-0.659619
2.186335
5.512284
7.328027
5.959201
2.228162
-2.706609
-6.752547
-7.968450
-6.477592
-3.646619
-2.559918
-4.738307
-6.113688
-3.915321
1.518486
7.478790
9.948051
7.091489
1.678283
-1.963498
-3.015240
-3.159112
-4.348175
-5.269776
-4.304167
-1.564636
-0.335310
-2.308968
-3.467757
-0.959173
3.377012
5.326955
3.760887
0.524824
-3.425615
-6.608623
-5.469803
-0.238230
3.753719
1.758527
-2.968392
-4.820022
-1.833316
2.857093
4.057706
3.076808
0.693375
-3.458361
-6.299318
-3.495185
3.257517
7.465121
6.984504
5.294848
3.909793
3.299658
4.052109
4.571742
5.398159
7.208909
6.674300
1.391236
-4.225453
-6.615752
-5.700701
-3.472998
-0.493782
2.668320
4.730927
5.461844
5.088586
4.380455
3.596798
3.722572
4.010633
3.927619
3.636440
2.082856
-0.998411
-3.530710
-4.739123
-5.256255
-6.185658
-5.084913
-0.738429
4.038116
8.897677
10.656620
6.862539
0.299592
-3.651782
-2.551974
0.877277
3.572491
3.548150
0.328315
-4.989703
-11.165970
-13.742898
-9.601145
-1.110725
6.715568
10.994016
9.315596
1.157867
-5.817039
-7.237048
-2.997611
3.783803
8.035100
8.874312
6.141651
-1.776080
-12.183981
-17.342833
-11.454310
2.014889
13.276672
12.868459
1.259635
-10.617587
-14.732497
-10.708402
-5.048953
-0.427205
0.087434
-2.614643
-2.544421
1.474681
5.686343
5.687281
2.267708
-0.382562
1.245928
5.438552
8.177146
6.229392
-1.553204
-11.652135
-17.077824
-13.895437
-3.277496
7.269288
11.011253
7.885670
2.071740
-4.900670
-9.515860
-7.788438
-0.180609
8.821015
13.689627
13.865960
7.886622
-1.059759
-4.942786
-0.747041
6.602689
12.946240
14.261078
7.923149
-2.621135
-13.900080
-21.886159
-21.679553
-14.585737
-3.677865
6.389861
10.012920
6.600837
-1.764743
-8.556141
-8.074583
-2.290923
1.316220
2.482503
2.924737
1.200440
-1.708241
-3.725904
-1.900173
2.719078
5.351250
6.450747
7.092406
3.790180
-3.083921
-9.038604
-8.521781
-1.260060
7.634518
12.226305
10.269812
5.756675
1.271626
-4.609091
-10.047265
-9.754834
-2.769001
7.550269
13.316141
10.019532
2.294984
-4.092880
-7.894139
-8.422506
-3.649394
5.726427
13.919737
11.746966
0.800085
-8.190300
-10.353397
-8.983943
-8.381919
-7.738387
-4.562865
0.465849
3.621084
4.536447
6.519159
9.208756
8.279664
5.989547
8.060268
10.357255
7.144287
-1.927555
-11.776501
-14.959509
-9.736363
-0.737235
6.479857
8.454454
3.871721
-3.555404
-2.684046
7.496344
15.131637
14.611072
8.706324
6.532928
8.282820
7.796585
4.033713
-0.226943
-1.047427
1.552600
3.737547
3.178907
-0.627346
-4.474170
-5.959094
-8.460497
-9.487585
-5.793681
1.463982
7.552867
9.570845
7.539139
3.358066
-0.754035
-3.928617
-4.121799
0.218131
3.849305
-0.717824
-10.336448
-14.032533
-9.307170
-3.832791
1.484919
5.673485
6.798573
4.168277
-1.155359
-5.416951
-6.047996
-3.729787
1.342619
9.059992
11.959626
6.486498
-2.420559
-7.045425
-7.555691
-7.372180
-6.647817
-5.079561
-1.696499
1.919070
3.203323
2.783876
0.395138
-3.055020
-3.029739
2.933686
11.628838
13.384036
5.045607
-5.899713
-10.949022
-7.038527
2.784831
9.779715
9.382113
3.213961
-5.347301
-11.536988
-12.454532
-8.560578
-5.656576
-3.929154
0.319023
3.649965
2.753643
-2.310646
-7.599016
-8.191986
-4.003107
3.587869
10.981917
14.914257
12.955580
6.201633
-2.004469
-9.530527
-13.751236
-12.177050
-5.116003
1.379848
5.312188
3.320429
-3.410735
-6.903336
-6.099390
-0.526390
8.643763
16.435102
16.969402
10.873654
4.186184
0.879588
0.574053
1.562445
4.542910
9.154359
11.906998
11.637978
12.118911
13.127277
12.255922
8.125408
1.473515
-3.508694
-5.777902
-6.376489
-4.644698
-0.352205
3.482763
1.204817
-4.396267
-5.720153
-0.246710
6.238530
6.939175
2.646373
-6.549368
-16.231034
-19.986728
-15.591245
-6.508789
0.569422
2.987188
-0.256365
-3.968366
-6.385817
-9.066984
-7.770558
-2.472198
2.970348
6.131825
6.718869
1.970415
-5.713560
-12.956240
-16.988134
-12.912544
-3.772039
3.140765
1.723564
-6.772783
-13.901861
-11.383914
-0.052223
8.161373
7.704475
1.166807
-8.955218
-14.396200
-9.935491
1.846235
12.359313
16.723275
15.496449
10.429352
5.888126
3.368310
2.441716
2.825901
2.958229
2.195794
1.009540
0.507388
-0.312159
-3.207732
-4.454844
-0.243806
6.420573
7.328446
1.636856
-1.453462
0.210918
-0.234433
-1.281495
-0.045303
3.181714
6.451798
5.623512
1.486756
1.031730
5.468409
6.657475
1.504240
-5.700989
-9.954155
-7.887803
-1.974937
1.989549
1.629711
-4.173608
-9.676384
-10.197261
-8.644922
-7.343503
-6.311418
-5.914126
-4.968178
-3.124970
1.339484
10.829218
18.266334
18.064413
8.696710
-6.796703
-20.029958
-20.218147
-2.985762
19.048133
29.716632
23.353423
8.423021
-5.391658
-11.003978
-3.741009
9.141148
17.425277
15.124236
4.415792
-7.743559
-16.590383
-14.983740
-5.925003
1.340151
4.781261
6.488085
6.431910
3.751680
1.194725
1.641016
4.223254
1.550513
-7.384320
-16.086647
-17.365903
-13.591793
-11.185886
-8.112418
-5.827603
-3.999376
-1.356281
4.769743
15.142069
22.546415
20.625188
6.274026
-9.991187
-15.992371
-5.897494
10.004137
15.087467
7.958388
-7.050661
-20.311379
-23.578964
-17.921388
-9.954030
-2.877067
2.096407
4.330664
6.283727
11.621723
17.411313
15.429229
7.614800
2.421929
1.136431
0.232931
-2.527195
-3.121413
3.676542
17.356713
28.799197
27.431306
17.594219
8.110106
1.098998
0.868677
8.846333
18.726492
21.286571
15.957005
14.664017
22.408853
35.486066
46.536252
52.396687
55.250755
55.050083
51.364609
42.808653
33.650051
28.011515
26.243525
26.982557
26.018824
22.743437
14.909034
2.352079
-8.340136
-13.773315
-18.989904
-28.022110
-38.399114
-46.026601
-52.305858
-60.153993
-70.199868
-79.971416
-87.034332
-92.806442
-95.576866
-94.176827
-91.324944
-86.203539
-75.133067
-60.493842
-48.341977
-45.079694
-48.888756
-54.005164
-55.246033
-49.487340
-36.070884
-18.630336
-4.255763
-0.383968
-2.374167
0.884995
11.994478
26.870268
32.152711
26.871207
17.303454
10.268315
9.099538
12.259767
16.163707
17.168016
15.181562
14.550829
18.267515
19.949060
16.995751
14.758376
19.167279
29.133263
38.495040
44.146686
45.363216
40.680614
33.703835
31.102564
37.417402
46.595046
53.426082
53.567149
45.542682
36.604728
32.830933
34.607353
34.975621
31.400940
26.575088
22.492323
18.896420
15.743372
15.970576
22.945798
31.734889
35.303020
32.354392
26.466496
19.137055
10.822657
7.638713
12.162153
18.822787
22.345041
18.813116
9.314335
-2.179016
-9.035640
-7.390922
-5.660691
-11.711185
-22.230814
-28.925151
-34.213833
-38.185805
-41.059220
-43.873649
-45.497141
-45.375112
-40.858227
-30.852295
-16.460557
-0.000597
16.115440
25.909774
24.440767
9.590572
-11.208690
-22.876499
-21.861892
-16.008947
-7.214550
4.177375
16.330176
22.945557
20.169203
13.472682
12.783588
20.036570
28.739524
32.574180
27.537980
15.851757
2.113228
-12.829970
-24.820168
-28.510323
-26.018592
-15.457764
0.221659
9.257301
8.020177
4.768509
1.528388
2.464349
3.005203
0.423281
-7.143972
-19.385092
-31.400569
-41.400256
-44.361055
-43.984673
-35.426528
-23.198826
-12.421719
-7.521898
-9.494307
-14.009317
-19.605408
-20.312915
-12.945084
-2.623005
6.931956
7.096742
-7.241313
-21.791901
-26.615568
-22.194494
-12.731912
-1.641154
5.845271
5.896768
3.877233
7.269657
12.176032
22.765884
33.363539
37.913195
42.701911
41.254126
31.050020
20.540066
14.461172
9.576023
7.703170
12.755603
21.892987
28.743373
30.222995
25.526036
16.899860
7.299962
-0.384326
-7.326775
-13.493991
-21.286574
-29.698344
-36.038459
-43.258044
-46.954441
-48.392239
-51.696338
-57.478123
-64.007676
-67.922536
-64.831591
-53.694956
-36.976273
-21.443533
-9.627789
-0.785331
1.514465
4.927175
13.304931
24.836985
35.209310
34.559228
24.723077
15.411550
9.226857
3.549622
-0.169869
1.191159
8.983121
24.760540
42.682332
52.490710
53.624848
50.131310
45.617861
41.378115
37.148356
34.356085
30.617868
23.866418
14.450653
1.738902
-12.343863
-25.285625
-31.095498
-28.496407
-17.543281
0.513958
17.666447
28.178901
24.687548
8.962563
-10.902924
-19.140860
-11.781143
6.849406
30.301752
45.377280
52.664592
49.796171
36.119124
20.680326
16.671215
25.077995
37.463928
48.031310
51.335413
46.408756
31.758299
14.803366
7.163708
3.838699
3.276001
-1.675623
-10.568324
-16.544229
-21.894705
-22.229888
-19.048125
-13.870544
-10.146368
-10.532110
-18.950746
-27.038879
-27.710495
-27.235180
-27.272941
-22.489842
-14.961596
-11.160958
-17.094730
-29.850799
-38.563112
-40.989613
-35.376042
-28.799671
-25.951221
-33.603363
-48.241961
-58.833370
-56.173734
-38.412045
-16.389385
2.122258
12.333232
18.079130
21.917219
20.364259
10.748444
-1.000508
-8.687605
-8.705080
0.141124
10.697895
10.891080
2.308284
-4.571122
-6.697704
-3.683534
-3.756873
-6.396532
-11.107534
-15.729591
-20.849744
-31.780708
-40.427482
-44.625720
-39.376046
-25.714288
-7.445764
12.750231
29.765088
43.657793
53.840680
54.659919
48.202146
36.755609
24.908036
14.217382
1.725030
-6.078477
-11.235768
-11.304427
-9.554846
-6.345307
-2.375828
3.112908
11.796824
19.725482
23.061418
21.142064
20.635543
23.510833
34.791342
46.580558
51.234452
45.957317
29.962375
12.304303
2.701907
2.488439
3.287705
5.816887
8.333585
7.683503
9.079173
12.535888
14.343205
13.144467
13.750549
17.566167
25.231421
27.259074
16.465118
0.022638
-17.678815
-29.110372
-29.844406
-20.492928
-11.097758
-8.102001
-9.208671
-11.894519
-14.906190
-20.482307
-28.432808
-36.002246
-35.850256
-27.283686
-17.263710
-11.645457
-11.741891
-16.734399
-24.277934
-28.347903
-28.545767
-24.576912
-21.454134
-20.570604
-18.348207
-15.424854
-12.578588
-10.903597
-9.343768
-6.837992
-5.452309
-7.732128
-11.694113
-17.109504
-18.552608
-10.149573
7.080939
24.284299
36.254839
40.271132
36.228939
27.896128
22.094057
18.087130
9.004990
-3.493604
-17.561700
-34.428311
-53.991071
-72.379434
-88.538224
-91.682845
-81.382612
-66.883203
-54.718543
-42.994242
-28.394652
-12.258017
0.520525
11.120989
23.389264
33.718209
40.308623
38.286903
29.676331
22.051965
23.117756
31.587578
40.050847
44.197594
46.616296
46.458692
46.206213
50.501826
57.987316
64.753437
69.179192
67.358459
59.380182
44.669492
30.461891
28.130265
35.953749
50.540543
59.425134
57.299176
45.124844
25.404167
2.872491
-11.306085
-15.038997
-17.689266
-30.857294
-56.324492
-84.117699
-107.727022
-123.549379
-128.512238
-126.399697
-124.835810
-127.316615
-131.472096
-128.538757
-114.669771
-88.662966
-59.123921
-29.665708
-1.752967
23.229558
50.372060
78.526359
102.721480
119.976959
126.266830
122.448718
115.709440
109.940451
104.363710
94.186756
78.155611
59.369957
46.304607
41.625125
37.200622
28.047949
8.764510
-20.274562
-46.054474
-64.123569
-71.984812
-73.001913
-70.174996
-60.107583
-43.690691
-25.893423
-8.015636
11.583954
28.532336
43.487397
56.485963
59.076315
44.748559
14.399020
-20.704280
-48.098636
-68.259049
-80.323525
-88.754021
-98.321462
-111.203927
-109.147561
-87.941954
-58.943763
-32.203545
-14.943697
4.528560
29.242999
59.818183
81.168600
101.841157
122.278397
138.111680
149.315103
142.851400
129.781993
107.935980
76.724447
33.315174
-12.478470
-45.625588
-72.614850
-92.775263
-105.068814
-110.051023
-114.332589
-126.776255
-144.478956
-153.861015
-141.369284
-105.093768
-62.482194
-22.470021
5.318196
21.427367
32.071835
40.499214
54.871602
70.038884
77.614568
64.532989
32.276889
-6.292175
-35.762867
-46.337112
-37.202225
-16.403584
8.031534
28.525887
37.625820
39.093895
37.734743
41.470467
66.264177
106.445191
143.579267
150.958958
128.250327
84.000282
33.140475
-1.610787
-21.588627
-28.466161
-34.672077
-41.253437
-53.929298
-66.696602
-79.494178
-88.157805
-87.635364
-78.207736
-66.321772
-53.292933
-41.362341
-36.311780
-36.245927
-36.346731
-25.532485
-11.098927
7.424575
9.146691
-0.103666
-13.288235
-24.723849
-24.163020
-13.132184
6.439318
20.619458
27.723885
29.422907
34.971251
46.111007
60.528336
72.790993
80.220619
80.080804
65.145408
43.457001
26.815408
17.949546
20.253399
27.067582
26.116020
14.862355
-4.232269
-25.738416
-47.855635
-68.502597
-79.557148
-80.680984
-78.315649
-75.223456
-69.314959
-54.929151
-29.817421
2.725493
35.313348
62.765444
81.464965
86.160367
78.164613
61.245883
49.526267
43.372782
37.013943
30.363922
14.002586
-8.833690
-32.917391
-50.817645
-52.245144
-41.409365
-27.450808
-15.395691
-5.653164
2.591641
5.141109
4.419246
-2.915188
-15.797965
-30.999574
-46.558526
-54.644786
-51.744216
-42.885529
-30.164724
-21.836902
-12.187378
7.313591
25.811190
41.964990
44.398360
37.592919
28.815691
21.006255
13.731430
1.377334
-14.898802
-31.320371
-43.610489
-51.974197
-58.267186
-53.130177
-39.569224
-26.602803
-19.950595
-24.243708
-26.304439
-23.445689
-8.192582
11.648877
26.475669
32.699689
31.017524
28.991435
29.043244
28.102293
25.809054
23.845696
21.169210
18.081078
11.574307
4.275451
-8.530240
-19.413766
-25.573804
-20.018593
-5.621238
7.393245
22.560215
33.298622
41.869250
50.021053
50.546615
42.530263
22.828935
-3.732764
-25.547879
-37.519665
-37.725955
-30.430216
-19.732692
-15.309122
-10.210187
-3.151949
9.730831
24.885006
27.271875
18.389160
3.493088
-1.657650
2.811798
7.499709
11.491659
12.280313
5.379373
-9.945824
-30.375883
-44.671493
-50.950125
-45.818734
-34.168086
-21.713493
-1.812112
15.012682
19.706523
12.216980
-0.785640
-8.905293
-4.724841
2.588687
9.748978
18.444442
24.479023
35.526401
48.237219
55.948662
53.310876
41.147779
26.687698
19.028377
21.610927
23.858291
21.769472
20.346966
24.011845
24.965595
20.373187
16.623735
15.197484
14.447844
17.422067
23.842392
27.541601
24.969978
17.806570
4.282447
-11.933768
-25.591777
-34.834332
-38.478610
-45.047174
-58.939564
-75.545891
-81.972455
-73.253584
-52.297961
-27.531403
-5.980936
5.294579
6.783252
0.787373
-7.431213
-10.269362
-9.081232
-7.566968
-10.539627
-12.140961
-13.329711
-13.557535
-14.337135
-13.811261
-11.934036
-11.814816
-7.812255
-0.045260
8.649892
8.019783
-2.998878
-20.293989
-33.420820
-36.069218
-32.116279
-20.726851
-6.286427
11.071729
26.296748
40.982475
56.466217
67.492060
72.304183
63.652727
44.715709
19.116497
-8.260382
-25.810782
-30.268680
-24.755913
-19.023123
-25.766459
-40.556108
-51.286085
-49.331774
-32.391194
-10.178784
8.946117
21.704061
28.347843
30.076513
25.506888
16.574551
8.607509
2.520188
-4.676614
-9.442545
-10.172210
-9.448783
-8.646085
-10.032077
-10.055794
-0.964911
18.381885
32.193135
25.690421
3.467091
-17.173628
-26.133117
-27.897363
-27.189852
-22.729142
-12.289717
-0.324482
5.903907
9.788186
13.707731
15.506621
18.377855
24.001725
29.024821
31.971893
28.860353
19.429608
8.943685
2.474365
4.894940
9.979518
20.403027
31.738775
35.879280
30.624304
19.718619
18.581052
24.893706
34.112545
40.464834
40.707018
33.723374
20.650846
3.355110
-15.588462
-24.654998
-27.243474
-22.213199
-11.877076
-3.086737
-3.456874
-15.747928
-33.609795
-45.935803
-43.939047
-33.379155
-20.308808
-10.703288
-5.272602
-4.764205
-5.976674
-8.800154
-5.948271
7.566805
25.967032
43.634470
55.695517
56.959172
50.170584
36.538790
17.437612
-0.694213
-19.102550
-31.689778
-32.738088
-26.217894
-22.987132
-23.898435
-25.206404
-19.724534
-9.830331
0.595986
8.540873
12.614590
14.410048
16.342513
20.987668
25.574774
29.563915
25.288279
17.187351
7.991297
-1.498121
-10.372409
-18.714584
-21.592679
-20.970057
-23.651848
-33.265166
-48.380638
-59.240757
-57.354481
-42.658144
-21.285568
-3.469263
9.035576
12.629299
4.921604
-9.677358
-16.210968
-11.095805
-6.524303
-11.204721
-19.411448
-18.996054
-7.811669
2.685492
5.981481
9.717516
17.770698
30.007452
37.016379
35.238402
27.929871
22.711722
21.159386
23.701052
28.507558
36.174996
39.816780
27.262322
4.601442
-17.506415
-31.445930
-36.232771
-34.853642
-34.039084
-32.438059
-31.689040
-31.819804
-31.051124
-22.914614
-4.148305
18.624308
40.228766
51.138199
48.585302
38.496358
26.275836
17.685862
11.403485
4.210427
-2.867781
-7.347212
-8.176123
-8.946360
-9.088047
-5.724023
2.023622
13.168060
22.553555
28.385590
31.553933
29.187042
25.476601
21.574849
18.355950
13.893684
6.629470
-5.477451
-21.268910
-33.709767
-44.482813
-52.415213
-57.761007
-58.948821
-53.578993
-45.922165
-37.202671
-24.329253
-7.348413
10.584302
21.730299
17.962122
18.100692
18.600662
9.469836
10.842723
14.374964
13.384079
6.561785
-3.537458
-12.110891
-23.598625
-35.028933
-42.261626
-40.279226
-26.224234
-3.719083
16.844554
29.616231
34.509810
29.441152
19.733582
10.212330
4.464251
2.636964
2.641335
4.958296
3.610691
-1.269464
-10.283569
-14.450286
-10.023906
-1.317831
7.848889
11.876105
12.042451
9.081339
6.091203
1.336508
-2.376430
-3.987438
-3.538026
-3.633836
-6.381790
-10.652746
-14.867212
-11.147405
-0.193343
9.383464
12.335216
12.092100
8.679081
3.019636
0.267001
4.679648
