EVENT_NAME: 202010301151
EVENT_ID: 10614
EVENT_DATE_YYYYMMDD: 2020/10/30
EVENT_TIME_HHMMSS: 11:51:24.00000
EVENT_LATITUDE_DEGREE: 37.879
EVENT_LONGITUDE_DEGREE: 26.703
EVENT_DEPTH_KM: 16.54
HYPOCENTER_REFERENCE: AFAD
MAGNITUDE_W: 6.6
MAGNITUDE_W_REFERENCE: AFAD
MAGNITUDE_L: 
MAGNITUDE_L_REFERENCE: 
FOCAL_MECHANISM: 
NETWORK: TK
STATION_CODE: 3528
STATION_NAME: 
STATION_LATITUDE_DEGREE: 38.30393
STATION_LONGITUDE_DEGREE: 26.37256
STATION_ELEVATION_M: 17.0
LOCATION: -_-_-
SENSOR_DEPTH_M: 
VS30_M/S: 532
SITE_CLASSIFICATION_EC8: B
MORPHOLOGIC_CLASSIFICATION: 
EPICENTRAL_DISTANCE_KM: 55.40
EARTHQUAKE_BACKAZIMUTH_DEGREE: 
DATE_TIME_FIRST_SAMPLE_YYYYMMDD_HHMMSS: 2020/10/30 11:51:09.4239460
DATE_TIME_FIRST_SAMPLE_PRECISION: millisecond
SAMPLING_INTERVAL_S: 0.01
NDATA: 10501
DURATION_S: 
STREAM: HNN
UNITS: cm/s^2
INSTRUMENT: sensor = CMG-5T/GURALP | digitizer = 
INSTRUMENT_ANALOG/DIGITAL: 
INSTRUMENTAL_FREQUENCY_HZ: 
INSTRUMENTAL_DAMPING: 
FULL_SCALE_G: 
N_BIT_DIGITAL_CONVERTER: 
PGA_CM/S^2: 120.293
TIME_PGA_S: 
BASELINE_CORRECTION: BASELINE REMOVED
FILTER_TYPE: BUTTERWORTH
FILTER_ORDER: 
LOW_CUT_FREQUENCY_HZ: 
HIGH_CUT_FREQUENCY_HZ: 
LATE/NORMAL_TRIGGERED: 
DATABASE_VERSION: 
HEADER_FORMAT: DYNA 1.2
DATA_TYPE: Acceleration
PROCESSING: Manual Paolucci et al., 2011
DATA_TIMESTAMP_YYYYMMDD_HHMMSS: 
DATA_LICENSE: U (unknown license)
DATA_CITATION: Turkish Accelerometric Archive v 1.0 - Disaster And Emergency Management Presidency, Earthquake Department
DATA_CREATOR: AFAD
ORIGINAL_DATA_MEDIATOR_CITATION: : AFAD - Disaster And Emergency Management Presidency
ORIGINAL_DATA_MEDIATOR: AFAD PROCESS SERVICE
ORIGINAL_DATA_CREATOR_CITATION: AFAD PROCESS SERVICE
ORIGINAL_DATA_CREATOR: network: TK
USER1: GuestUser
USER2: 
USER3: 
USER4: 
USER5: 
[...]
0.460326
1.117253
1.031758
0.305995
-0.565298
-1.095555
-0.814554
-0.083762
0.437379
0.529789
0.226785
0.076854
0.437378
0.956633
1.148368
0.993722
0.677203
0.270159
-0.045417
-0.095394
0.062080
0.284932
0.139087
-0.327048
-0.529784
-0.426059
-0.097282
0.452148
0.788155
0.680029
0.388969
0.385826
0.779039
0.956943
0.529155
-0.309449
-1.105934
-1.514234
-1.164397
-0.157634
0.724660
0.791924
0.172087
-0.537961
-0.843793
-0.549591
-0.308508
-0.265447
-0.022478
0.400281
0.969512
1.268744
0.901305
0.015239
-1.070734
-1.599733
-1.088650
-0.013365
0.821781
0.829324
-0.094460
-1.227266
-1.511411
-0.936207
-0.038826
0.862012
1.493793
1.560115
1.150242
0.901930
1.041487
1.064747
0.677191
0.092872
-0.294684
-0.410039
-0.491763
-0.453416
-0.342147
-0.135954
0.388644
0.641985
0.211054
-0.533254
-0.812055
0.017747
1.526164
2.251298
1.255849
-0.505595
-1.771359
-1.862826
-0.631324
1.119434
1.711925
0.743193
-0.772139
-1.766645
-1.457041
0.159187
2.124625
3.154334
2.526953
0.441131
-1.647834
-2.293446
-1.258393
0.052317
0.651095
0.509651
-0.203539
-0.767742
-0.603039
0.034400
0.578486
0.826169
0.716472
0.223305
-0.539548
-1.311202
-1.019199
0.697926
2.080301
1.746808
-0.384276
-2.824335
-3.120424
-0.989340
1.514840
2.675934
2.256947
0.825223
-0.809551
-1.687445
-1.457049
-0.216746
0.845338
0.865769
-0.071217
-0.713685
-0.102649
1.210890
2.222055
1.640250
-0.096049
-1.670159
-1.916586
-0.799182
0.568735
0.593880
-0.718402
-1.791802
-1.000347
1.393507
3.400749
3.576139
2.115183
0.521900
-0.587961
-1.053468
-1.198998
-1.523690
-1.753143
-1.471514
-0.940314
-0.120885
0.794412
1.208056
0.200663
-1.171654
-1.742144
-1.322842
0.241838
1.232886
0.645423
-1.131423
-2.479852
-2.293775
-0.774357
1.098670
2.153840
2.012710
1.075096
-0.048909
-1.035872
-2.046722
-1.804697
0.263209
2.249077
2.925805
1.768482
-0.118061
-1.055990
-0.640774
0.942765
2.542649
2.850053
1.972788
0.397106
-0.365118
0.312868
0.821751
-0.113035
-2.396249
-3.543828
-2.301011
-0.065259
1.584288
2.352798
2.754497
2.414404
1.828513
1.135125
0.189652
0.572179
2.696033
3.153052
0.358127
-3.403645
-5.805986
-5.003530
-2.698942
-0.652096
0.920757
1.423667
1.288510
1.244190
1.496903
1.769732
2.218579
1.820651
0.732792
0.011115
-1.034310
-1.169154
0.369124
2.790324
4.158555
3.156505
0.449275
-2.476408
-2.346594
1.668203
6.702967
7.181360
2.638506
-2.574791
-6.137599
-5.856598
-2.772184
1.219040
4.408121
4.516876
2.513091
0.409667
-0.413220
-0.511917
-1.884234
-3.101907
-2.741069
-1.400498
1.766896
5.523952
6.370727
3.656582
0.062028
-2.416064
-2.456297
0.397091
3.966499
5.212460
2.834950
-1.262200
-2.998813
-1.481595
-0.019069
0.225157
-1.276660
-3.464635
-2.320828
1.222177
5.175997
9.336639
10.617489
7.237615
1.247007
-4.294754
-6.792962
-5.038433
-0.777209
4.418171
5.967136
2.768939
-0.939399
-4.231263
-5.083382
-2.071262
3.644631
7.612281
5.715364
1.269949
-0.917712
-0.276816
0.486351
-1.596957
-3.483186
-2.508168
-0.907341
0.861647
3.758412
5.288831
4.378248
1.581122
-0.749240
-1.016411
-1.628391
-2.706506
-3.103491
-1.771721
0.689712
2.302169
0.942424
-2.439964
-3.065460
1.286603
6.499900
8.543602
5.428385
-1.599476
-8.452891
-10.617607
-7.380434
-3.458989
-1.894309
-0.547766
1.268370
0.592269
-1.004472
-1.691888
-1.519641
-1.337022
-1.729293
-2.038583
-1.266930
1.105551
2.733724
0.751941
-2.871844
-5.419715
-4.543079
0.423163
6.905051
10.642934
7.998882
0.737167
-6.260206
-8.457925
-6.168425
-1.423150
3.070356
4.475048
4.246224
2.615222
-1.655747
-5.457751
-7.134958
-4.924981
0.311890
4.916665
7.408273
5.297934
-1.867914
-10.355788
-14.029550
-10.920619
-3.168253
5.759982
10.291206
7.747735
0.267254
-7.296207
-10.210888
-7.192796
1.071910
8.047594
7.317117
-1.006997
-10.545954
-11.581636
-2.669746
7.549083
12.871449
11.756244
4.470327
-2.217127
-1.681842
3.215878
3.728533
-2.317396
-8.581148
-9.185898
-4.328096
0.564281
-0.444055
-5.371950
-7.542324
-4.518574
1.631708
5.905190
6.729335
7.428695
6.352466
1.996003
-2.428982
-4.033582
-1.126130
4.192149
8.100079
7.059054
2.097526
-4.125050
-10.668545
-13.770561
-11.138453
-4.708113
3.514790
8.945281
7.538388
0.217582
-7.447719
-7.606136
-0.384969
8.800693
14.519729
12.765828
7.682031
5.258316
4.737803
2.388267
-2.939442
-5.499571
-1.749430
2.781165
3.072539
-0.378685
-5.541691
-10.195500
-10.348574
-6.788596
-2.184764
2.710442
6.574367
7.782609
5.078207
-1.849072
-8.513581
-8.845502
-4.041134
3.975260
9.219675
7.002782
1.006516
-4.095513
-5.759518
-3.295885
2.607656
7.192001
7.474573
4.288320
0.112590
-3.535712
-2.989111
1.803941
4.216969
4.419704
3.453173
0.195569
-3.634410
-5.905051
-5.916053
-4.053712
-2.147995
-1.996494
-1.448007
1.181901
3.919620
3.454428
0.727395
-1.231757
-0.788252
3.304497
7.950762
7.577036
2.728035
-1.841851
-3.931445
-4.005624
-2.448802
0.724564
-0.088580
-6.906476
-12.044337
-8.292310
0.860663
6.845927
6.256264
-0.269629
-7.596408
-9.984920
-7.481997
-5.108573
-3.985197
-1.720214
1.079427
5.532700
9.919966
10.593866
8.484156
4.427867
0.189588
-3.931136
-5.581311
-3.519064
-0.262089
2.567411
1.917085
-2.394117
-7.527262
-10.436286
-7.001721
0.721099
7.103663
8.180835
2.663277
-5.418183
-11.493028
-9.184983
-0.973082
4.660145
4.389516
-0.015352
-2.191070
-1.909754
-1.504283
-1.032490
-2.166868
-5.590118
-7.962284
-6.231958
-3.081852
-2.367719
-5.873320
-9.145068
-7.340562
-3.124600
-0.303272
0.286705
1.696740
2.730536
-1.317581
-7.951286
-9.807341
-4.840470
4.057904
9.529257
7.719093
2.416529
-4.100564
-8.404221
-5.488283
4.491034
11.424600
9.043947
1.928390
-2.860576
-1.442369
1.780031
1.745455
0.277585
-1.529436
-1.185571
3.051451
5.700846
4.550438
2.628376
2.975070
3.744209
2.783335
2.689353
2.973183
1.096069
-0.598740
-2.575807
-5.551466
-6.585262
-5.661164
-3.409068
-0.471127
0.535322
-1.839987
-6.548488
-9.410364
-6.179164
-0.431524
3.501551
4.203739
3.966743
2.232958
-3.441131
-9.559039
-10.047176
-2.925963
6.711062
12.520622
10.990830
4.318149
-2.520806
-5.891250
-4.635546
-1.859479
-0.097092
3.378648
5.183783
3.705540
0.736167
-2.533381
-3.477281
-1.861053
0.451707
4.128298
9.098940
14.135590
17.092075
13.928138
9.139486
3.742313
-0.991648
-3.540148
-4.475876
-0.389413
6.448285
10.528461
8.977610
3.305722
-1.251591
-2.963374
-0.948274
0.807198
0.513310
-1.473502
-5.933062
-10.320643
-12.222902
-6.962143
1.510643
7.381810
8.568364
6.570237
3.029432
0.763820
1.837219
3.988419
2.324099
-2.749012
-5.187500
-3.751062
-1.617149
-1.053261
-0.641189
1.468207
6.950246
12.158828
12.481005
6.639698
1.490837
1.011185
2.659789
5.306670
5.425797
2.980079
2.312780
1.608705
-0.514207
0.964664
7.341571
11.709035
8.658253
1.356934
-3.693232
-3.792557
-1.608353
0.238271
0.992323
0.063824
-2.545025
-2.648122
0.849935
2.374068
0.675488
1.575697
0.782356
-4.450115
-8.866613
-8.900245
-5.127788
0.312762
2.227279
-5.701735
-16.199051
-17.561624
-5.556206
7.716862
12.016433
7.609364
-0.265273
-6.170072
-7.638571
-5.014007
-0.471153
4.254949
4.287638
-0.980350
-6.248025
-5.446197
1.461280
10.988921
14.398340
7.797010
-4.743695
-16.351814
-17.659068
-6.677386
8.874809
16.103206
8.832061
-6.219424
-16.023981
-15.603108
-8.926656
1.999391
12.800653
14.435113
9.251361
2.530590
-2.060984
-1.561217
2.756899
5.980241
3.526980
-0.555711
-4.316540
-7.664981
-8.877625
-8.561106
-9.222433
-10.353982
-10.572120
-5.712747
7.073441
20.782469
27.425603
23.868139
11.216480
-3.516600
-13.107734
-13.159283
-4.404552
4.866290
8.709470
4.988560
-3.559663
-8.525906
-8.550423
-2.717603
5.826219
10.913474
14.054150
11.674754
4.570513
-1.287138
-2.339479
-1.624403
-1.302540
-2.464893
-2.419002
3.343096
10.340782
17.146105
20.299669
18.889319
15.690807
12.294274
9.092934
6.042467
5.439288
8.135517
10.594121
6.944247
-1.526967
-7.697366
-3.992173
5.901336
15.367370
21.230365
21.382809
19.674484
16.553924
9.027238
-1.031288
-6.740267
-5.042629
3.939354
12.480976
12.253094
2.851809
-6.528103
-8.713564
-1.729079
11.122173
18.170465
18.995552
17.768764
16.425678
14.871056
12.665164
10.150611
4.913740
-1.287148
-7.366080
-12.785256
-14.196235
-13.385606
-10.069854
-5.249142
-3.634170
-8.112904
-15.879730
-20.489848
-20.687241
-19.058754
-19.329068
-22.584157
-27.225394
-32.300705
-37.765143
-43.409057
-43.609593
-35.073943
-24.950039
-21.646231
-27.128900
-34.812116
-38.274342
-38.324633
-35.959382
-29.066992
-22.174288
-18.481982
-19.916220
-24.015885
-27.936073
-30.775004
-27.283861
-16.761086
-6.445133
-4.681488
-6.772968
-6.926985
-1.899136
7.405338
15.447507
19.159930
20.235216
20.579395
19.296344
15.910184
14.588472
21.652480
33.573346
43.620243
45.081198
34.836909
22.188707
13.252614
9.638258
15.495909
29.314635
42.503779
47.338322
45.852221
44.065316
45.254699
47.900323
49.511523
44.713127
30.047939
12.750329
2.577705
2.040219
7.131874
13.529526
18.164475
18.691588
18.684044
20.898737
23.084826
22.289913
19.021936
16.624939
15.010595
15.033541
15.616917
15.196043
12.353655
6.320614
-1.495246
-9.805529
-16.366627
-19.282880
-18.671529
-17.556325
-17.509806
-16.993380
-15.827571
-13.319619
-13.948257
-16.914487
-18.312579
-18.437049
-19.036770
-20.653000
-19.153698
-18.195653
-22.791627
-29.695647
-35.168572
-37.138724
-31.434461
-19.152756
-3.866789
9.926163
21.954841
27.750257
24.723992
15.091682
4.961491
0.052141
-0.417138
4.705006
10.765393
9.798233
0.470813
-12.025887
-25.535009
-29.165081
-20.532306
-8.729623
-1.792601
-0.868188
-2.509563
-5.911753
-6.647260
-4.310612
1.165770
7.410033
9.356297
4.322476
1.291811
8.436599
16.652272
22.379794
24.847199
19.687336
5.779029
-14.438920
-30.658415
-37.799117
-35.072085
-28.109602
-20.437073
-15.977199
-17.342601
-16.503055
-18.947829
-26.617216
-34.299804
-32.631084
-20.433302
-7.164007
1.836207
2.034856
-0.590337
-1.070303
0.464203
2.148639
1.312236
2.538709
4.463599
2.654692
-0.883284
-9.499715
-21.210617
-31.871378
-35.361893
-29.444207
-17.852746
-5.906734
2.170324
7.004238
6.543446
4.888555
1.851918
-4.412148
-10.949043
-13.881012
-11.005621
-0.163183
14.537837
28.647308
38.600537
37.501048
28.854443
17.791039
11.447450
11.128101
13.979919
18.445764
17.134111
9.926773
0.658130
-10.053865
-15.881028
-11.495019
2.787642
19.647719
31.064418
35.553838
35.296725
32.267945
25.285032
14.479683
3.556465
-4.138068
-9.425544
-9.327163
0.301689
13.336503
20.459288
20.768892
11.994674
3.713937
4.523622
13.257922
25.046146
31.402307
25.905494
13.169283
2.637706
-2.812902
1.934574
8.415206
16.321903
20.158167
13.408164
0.388752
-10.826469
-17.444459
-18.777486
-11.187937
0.814339
9.812352
11.394006
11.445239
5.183688
-4.161020
-8.270114
-8.527856
-10.041303
-12.516566
-12.518452
-10.064563
-6.770184
-5.137297
-4.509602
-8.182421
-18.638247
-28.082593
-35.063621
-43.432997
-50.006981
-49.761498
-42.429376
-35.729665
-32.983773
-35.901912
-42.150576
-47.764945
-45.403151
-31.423808
-11.694311
5.857897
14.467412
13.365094
4.577989
-6.840597
-15.447597
-18.462547
-13.947353
-0.778953
11.892822
14.161577
5.262888
-8.833382
-24.486160
-34.287887
-36.710659
-37.663675
-32.035792
-21.463982
-11.471149
-6.245908
-6.299028
-5.638958
-0.778013
7.246868
13.164868
16.971587
25.719402
38.425438
48.007456
46.006500
37.331921
26.044407
10.324679
-4.349938
-13.942015
-18.769328
-21.638434
-24.173732
-27.787459
-28.594316
-29.612396
-28.436529
-21.496048
-10.532283
-1.793269
-0.993641
-3.173445
-4.486670
-4.236158
0.558466
5.952496
11.975479
17.402827
18.107844
17.470405
17.173059
20.196180
23.357287
24.428487
22.307147
17.848844
10.452915
5.042225
3.305612
7.055753
14.815349
28.485402
44.704268
51.192443
41.287305
18.582463
-2.427256
-14.673129
-12.989951
-2.908479
12.466126
18.679272
16.076395
16.747152
20.142427
25.076922
23.820274
18.106581
12.922201
9.272956
9.400569
11.068661
5.499869
-4.189961
-9.424318
-7.757484
-0.243371
8.951406
18.352691
25.222763
27.317700
23.235638
13.903817
4.286909
-4.354353
-11.235741
-14.591098
-17.482520
-21.533779
-26.030743
-31.470350
-33.228023
-29.207567
-17.840845
-6.876451
-1.052747
-0.717683
-1.062806
0.910490
4.961434
12.650309
17.936527
19.266097
11.568736
-3.736405
-22.597439
-35.655827
-37.444932
-29.491715
-21.083993
-17.734294
-19.223853
-23.701643
-29.017094
-34.420869
-38.471500
-40.714481
-36.844584
-24.819678
-9.364607
-0.194661
4.355108
4.229380
3.398949
9.018660
14.283820
10.944493
0.975548
-11.868160
-18.247896
-15.443227
-1.207399
13.241850
17.351573
13.508393
12.519544
17.729384
20.536567
18.199290
7.128971
-6.267311
-20.732277
-34.860922
-45.672242
-42.189901
-26.539952
-7.334740
6.180354
8.564150
-1.295098
-18.334338
-34.318094
-42.235479
-44.152511
-46.850941
-50.677462
-56.075265
-56.769910
-51.271526
-41.071557
-32.058456
-23.020210
-9.970309
10.438117
33.198908
55.441386
74.307134
82.614902
74.593478
58.446904
40.423846
28.014212
27.517588
30.802851
30.728672
20.686804
10.462317
8.612863
13.788756
27.279961
46.670622
67.152599
90.668698
112.110291
120.292646
108.072861
82.855352
54.246340
28.375990
3.133650
-25.343034
-55.296704
-82.446647
-102.326703
-115.666092
-113.948967
-91.398771
-59.659140
-36.280398
-26.992897
-24.737343
-17.701624
-10.097931
-11.665440
-15.847457
-13.944883
-5.996067
1.854681
4.565055
3.588151
2.509722
6.484916
19.371056
36.310342
48.004271
51.107229
52.245378
48.237495
45.748402
47.773245
49.129532
51.235155
45.085816
33.660316
17.371984
2.124049
-5.786420
-3.686769
-0.774602
0.638890
-6.606794
-26.118783
-45.897313
-63.576507
-66.777533
-59.359602
-38.964692
-24.947631
-18.434624
-16.895718
-22.679505
-27.714268
-21.075535
1.826699
21.396208
36.532245
24.665126
-10.339023
-45.110262
-72.398505
-86.528093
-84.307114
-74.238530
-65.454254
-60.342168
-51.675132
-34.673297
-7.380025
30.121704
73.438336
107.855965
116.466737
97.008812
62.224686
28.593797
10.783218
22.604760
35.700552
30.475625
2.045774
-28.600340
-51.732028
-52.603320
-37.765258
-21.982981
-2.536057
12.897012
25.832501
24.847425
18.452287
10.210526
5.138358
9.310315
20.173498
22.879471
23.398726
17.420691
4.626016
-9.878554
-17.955613
-20.121586
-18.806161
-14.260478
-19.163542
-20.166220
-10.473247
12.310174
36.597298
58.278088
68.085159
63.205354
49.013531
31.461637
14.212432
1.419958
-3.055318
-2.286494
0.155137
1.430329
0.261376
-5.499465
-9.246149
-12.648025
-12.282158
-5.390397
3.465230
11.054151
13.503011
11.350867
7.765743
1.704727
-7.654439
-18.259252
-29.452785
-40.159437
-40.733699
-34.286385
-29.009910
-24.611957
-19.223270
-5.954603
6.661852
9.937686
0.162989
-11.200590
-13.069532
-9.250555
-3.260890
-2.902880
-8.741673
-20.182260
-26.388177
-29.735676
-33.782535
-37.758043
-38.336076
-32.177936
-18.985020
4.080660
28.617039
52.292498
63.594785
59.123909
41.969629
21.164846
5.022358
-3.167855
-3.922221
-2.764270
3.397013
13.990825
22.479327
25.201959
25.985242
25.978327
25.607430
20.099301
10.824058
1.758466
-9.321598
-13.005104
-5.949897
6.464765
21.145354
28.718559
23.892817
16.072557
13.365326
7.144636
-1.544087
-9.166012
-14.865561
-19.181791
-26.011003
-30.867548
-38.894316
-49.001247
-57.223207
-54.941250
-36.675224
-9.060403
19.528493
30.433166
28.178554
17.984871
-2.197246
-11.241465
-6.821509
4.521639
18.840446
23.272660
15.081818
6.898834
6.583257
11.421885
17.363460
17.389548
8.841953
-3.907773
-13.527825
-14.001818
-11.258441
-12.066556
-10.832539
-11.112283
-7.342654
0.730318
7.141485
12.008088
16.138555
16.744248
11.499519
6.567851
0.757662
-1.841443
-3.008824
-6.308861
-13.976676
-23.251919
-27.325181
-27.677533
-20.892012
-5.317500
8.496197
18.212115
26.566088
29.452481
26.596263
18.801148
7.153110
-5.150284
-21.432643
-32.514278
-34.078330
-33.952603
-26.580877
-15.307822
-2.518177
10.483319
14.107418
6.086937
-3.483452
-2.045128
3.996086
7.017635
5.854340
-0.283684
-2.900391
0.308807
8.790708
11.467764
4.151986
-2.348448
-2.088820
1.302369
0.215767
-3.409275
-7.240197
-7.483795
-9.739978
-16.871250
-25.711475
-32.976334
-35.298838
-32.826404
-26.953980
-19.098517
-7.992994
-1.343887
1.978780
4.758304
9.351449
14.160846
20.700569
32.459876
41.288471
41.244781
31.016208
20.994771
17.302150
20.569182
25.534167
28.393528
22.212128
11.249305
5.146485
2.642933
3.371524
3.030488
-2.930889
-11.860067
-15.834632
-9.967552
4.314481
19.878620
27.943734
25.353745
18.329969
7.246763
3.615748
11.354599
21.623090
31.269858
31.765853
20.321180
4.080625
-12.528941
-23.344034
-25.271439
-22.056897
-14.462633
-5.938613
-2.761476
-2.794165
0.774300
5.557294
9.212511
7.158121
-0.641709
-7.335449
-10.186009
-11.232063
-18.091450
-32.117941
-44.888413
-51.368416
-51.131734
-48.084724
-40.893417
-29.483634
-14.455408
-0.233725
11.067619
19.347098
19.392046
17.103174
14.924628
11.511436
2.768650
-8.467002
-21.170838
-30.727711
-36.767039
-40.676226
-38.904409
-34.049122
-25.434264
-14.257390
-2.374556
5.497880
10.121200
10.658371
1.977191
-13.392071
-25.805791
-30.608902
-28.436642
-22.292018
-16.802435
-18.746813
-23.213917
-25.864884
-20.174137
-5.152512
7.870672
19.034973
24.709690
29.838435
37.686669
42.568988
40.366239
33.305374
27.357827
21.577184
16.776274
13.772011
14.183141
18.552490
19.592258
13.310904
1.517651
-9.379165
-14.539971
-8.858967
5.221901
21.012350
34.899597
41.159577
34.891739
19.686237
3.986625
-4.671924
-1.503273
5.227871
11.438188
11.977874
6.168942
4.691013
8.224903
11.153099
14.939702
17.921647
18.464790
17.899958
16.269899
14.912669
19.085570
24.891986
26.691778
22.095175
10.188452
-1.784907
-9.035935
-10.842956
-8.074119
-4.080380
-7.380103
-13.736264
-21.466629
-25.783802
-24.617678
-24.101881
-23.604628
-22.067608
-20.162834
-14.863414
-5.572770
5.302357
16.898532
23.295241
25.249362
28.038002
31.361926
29.025592
20.182537
4.444264
-14.425570
-31.658745
-42.499926
-47.596925
-47.744026
-44.821487
-41.037714
-36.198143
-33.591180
-33.343183
-30.287687
-16.325003
1.696798
16.178737
18.873395
13.534370
7.795846
3.255191
3.747415
6.147241
6.444273
8.023726
10.522877
6.542968
-0.440260
-9.169217
-14.140174
-11.839672
-8.515119
-7.138716
-6.943524
-5.940217
-4.635165
1.345071
13.776706
26.311438
31.622488
29.641649
24.035138
16.728476
9.750277
2.894662
-3.021138
-7.192467
-9.161363
-10.151468
-10.594030
-9.390187
-2.090440
11.181056
26.930015
39.546784
44.269743
40.517716
30.275313
22.266461
17.539101
11.388505
-1.160687
-17.564059
-34.560866
-43.966551
-39.276910
-28.855345
-21.010255
-13.779029
-3.192761
9.514218
24.237868
36.396674
43.571008
46.392336
42.282928
32.890758
20.769355
7.658790
-3.378840
