EVENT_NAME: 202010301151
EVENT_ID: 10614
EVENT_DATE_YYYYMMDD: 2020/10/30
EVENT_TIME_HHMMSS: 11:51:24.00000
EVENT_LATITUDE_DEGREE: 37.879
EVENT_LONGITUDE_DEGREE: 26.703
EVENT_DEPTH_KM: 16.54
HYPOCENTER_REFERENCE: AFAD
MAGNITUDE_W: 6.6
MAGNITUDE_W_REFERENCE: AFAD
MAGNITUDE_L: 
MAGNITUDE_L_REFERENCE: 
FOCAL_MECHANISM: 
NETWORK: TK
STATION_CODE: 3528
STATION_NAME: 
STATION_LATITUDE_DEGREE: 38.30393
STATION_LONGITUDE_DEGREE: 26.37256
STATION_ELEVATION_M: 17.0
LOCATION: -_-_-
SENSOR_DEPTH_M: 
VS30_M/S: 532
SITE_CLASSIFICATION_EC8: B
MORPHOLOGIC_CLASSIFICATION: 
EPICENTRAL_DISTANCE_KM: 55.40
EARTHQUAKE_BACKAZIMUTH_DEGREE: 
DATE_TIME_FIRST_SAMPLE_YYYYMMDD_HHMMSS: 2020/10/30 11:51:09.4239460
DATE_TIME_FIRST_SAMPLE_PRECISION: millisecond
SAMPLING_INTERVAL_S: 0.01
NDATA: 10501
DURATION_S: 
STREAM: HNZ
UNITS: cm/s^2
INSTRUMENT: sensor = CMG-5T/GURALP | digitizer = 
INSTRUMENT_ANALOG/DIGITAL: 
INSTRUMENTAL_FREQUENCY_HZ: 
INSTRUMENTAL_DAMPING: 
FULL_SCALE_G: 
N_BIT_DIGITAL_CONVERTER: 
PGA_CM/S^2: 81.403
TIME_PGA_S: 
BASELINE_CORRECTION: BASELINE REMOVED
FILTER_TYPE: BUTTERWORTH
FILTER_ORDER: 
LOW_CUT_FREQUENCY_HZ: 
HIGH_CUT_FREQUENCY_HZ: 
LATE/NORMAL_TRIGGERED: 
DATABASE_VERSION: 
HEADER_FORMAT: DYNA 1.2
DATA_TYPE: Acceleration
PROCESSING: Manual Paolucci et al., 2011
DATA_TIMESTAMP_YYYYMMDD_HHMMSS: 
DATA_LICENSE: U (unknown license)
DATA_CITATION: Turkish Accelerometric Archive v 1.0 - Disaster And Emergency Management Presidency, Earthquake Department
DATA_CREATOR: AFAD
ORIGINAL_DATA_MEDIATOR_CITATION: : AFAD - Disaster And Emergency Management Presidency
ORIGINAL_DATA_MEDIATOR: AFAD PROCESS SERVICE
ORIGINAL_DATA_CREATOR_CITATION: AFAD PROCESS SERVICE
ORIGINAL_DATA_CREATOR: network: TK
USER1: GuestUser
USER2: 
USER3: 
USER4: 
USER5: 
[...]
-1.694263
-0.417146
-0.276286
-1.037232
-1.300166
-0.515740
0.421439
0.433335
-0.344201
-0.764583
-0.562684
-0.161393
0.179486
0.343823
0.294054
0.231765
0.610833
1.327960
1.523911
0.840593
0.373885
0.798965
1.184919
0.701307
-0.183281
-0.570483
-0.385801
-0.019567
0.411461
1.038125
1.501081
1.231887
0.642788
0.039290
-0.833403
-1.544266
-1.707347
-1.417490
-0.795834
-0.310341
-0.320356
-0.577968
-0.886915
-1.060952
-0.599248
0.124139
0.339811
0.547031
1.282939
1.775945
1.679850
1.228479
0.272209
-0.493432
-0.285586
0.529203
1.122687
1.156808
0.644086
0.072516
0.484763
1.725257
2.832091
3.436532
2.463672
-0.713776
-3.717186
-4.059627
-2.576231
-1.664719
-1.926714
-2.448201
-2.380274
-1.425879
-0.115269
0.755237
0.537691
-0.310274
-0.558496
0.035301
0.909877
1.885870
2.802703
3.047798
2.466211
1.637966
1.286135
1.581939
1.674282
0.357728
-1.804289
-3.204732
-3.194400
-2.430634
-2.006179
-1.913524
-1.669367
-1.732282
-1.902563
-1.335059
-0.573170
0.252887
1.275520
1.653961
0.882373
0.097950
0.608485
1.489634
0.740582
-1.447102
-2.646274
-1.582635
0.739024
2.227429
1.229215
-1.930705
-4.451753
-3.528347
-0.186874
1.836792
1.083985
-0.176226
0.255115
1.513764
1.261786
-0.850461
-2.251843
-1.841787
-1.015103
-0.678920
-0.228171
0.783819
1.100282
0.409765
-0.187785
0.093620
0.777880
1.165399
1.572638
1.295931
0.175014
0.102395
1.890671
3.608205
3.583479
3.035385
3.078270
2.169266
-1.036041
-4.083899
-3.545193
-0.407494
1.566089
1.635580
1.649981
2.189940
2.167404
1.549507
1.471881
1.819646
0.540967
-2.089012
-2.843385
-1.063247
-0.234686
-3.445314
-7.410317
-8.497741
-6.981478
-2.999256
2.306409
6.249191
7.250225
6.142455
5.380570
5.617213
6.350617
6.955997
5.138300
0.610490
-2.103378
0.161938
3.772295
2.849205
-2.870266
-6.463403
-3.999946
0.110614
1.669760
1.480386
0.562931
-1.384668
-3.635269
-3.852502
-2.519981
-3.238669
-5.508677
-4.473524
0.389219
4.193334
5.081369
4.129795
2.906208
1.563986
-0.072472
-0.683170
-0.212701
0.256202
-0.928571
-3.237393
-3.294674
0.081858
4.372403
6.437388
5.399733
2.968208
1.724587
2.464565
3.125661
2.324649
0.836561
-0.946077
-1.627517
-0.053971
1.904274
3.830904
4.738972
3.108461
0.791187
-0.738532
-0.886275
0.789941
1.962196
0.308835
-1.269716
-0.188861
2.314975
3.920761
2.671507
-1.613088
-4.667833
-2.688303
0.041220
-0.372902
-1.692586
-2.419413
-3.478040
-4.458412
-4.309100
-3.280520
-2.577166
-1.403658
1.996976
6.079677
8.016637
7.393106
5.315918
3.473180
2.089014
1.397245
2.954827
2.227999
-3.620122
-7.781388
-5.379595
-0.653954
-0.461133
-4.727886
-7.818315
-7.638954
-5.193965
-0.949746
2.549489
1.054201
-4.139086
-6.301103
-4.978911
-4.674342
-6.833542
-8.879115
-7.358157
-2.536106
2.582686
4.447965
1.443302
-3.835126
-7.160632
-6.731482
-2.928619
1.501845
2.757364
-0.087972
-4.315597
-6.415636
-5.913240
-4.898745
-4.406365
-3.523339
-1.828342
-0.010955
1.159422
2.578337
3.074160
0.168411
-4.263615
-4.579762
-0.216283
2.528264
2.314161
2.590245
3.716174
3.169020
2.415899
5.380186
10.631385
11.832751
6.771245
-0.371521
-4.849874
-7.027855
-9.046822
-11.610128
-14.560638
-13.994386
-8.301831
-0.448510
4.250212
2.630343
-0.083838
0.975105
4.171964
6.412239
6.003125
4.474971
3.474879
3.582246
4.255237
6.218491
7.719103
5.544253
4.113447
5.423118
5.891082
4.808666
1.558285
-3.689155
-7.200907
-8.107720
-9.135044
-8.329333
-2.419543
3.811090
4.298775
0.956053
0.130625
0.869663
0.111847
-1.129582
-0.566147
3.245480
7.513175
8.658511
5.450387
-0.293186
-4.366807
-3.454043
2.397525
7.985219
6.773527
-0.655338
-7.441263
-7.453782
-3.586751
-2.728765
-5.364066
-6.864675
-3.519132
3.359137
7.749848
6.452702
1.586519
-1.860125
-0.892584
2.648283
5.619142
2.540608
-5.145245
-8.276993
-5.588163
-2.302406
1.872322
7.085646
9.728775
9.429845
9.013845
10.653750
12.510577
9.247049
1.798777
-3.736640
-5.219719
-3.621445
-2.060734
-3.175390
-6.929732
-7.894766
-3.978278
0.298495
0.146370
-3.591695
-5.252256
-4.733895
-4.440282
-3.132803
0.957411
6.581728
10.723590
9.654634
4.421593
0.284743
-1.203032
-2.665765
-3.864937
-3.554108
-3.939119
-3.890599
-0.566968
0.570856
-5.201828
-11.484733
-11.098153
-3.510897
5.487445
9.719143
8.126194
3.842852
-0.746310
-5.051251
-6.135858
-3.728744
-1.852510
-1.680974
-0.613267
-0.382570
-6.306442
-13.501170
-14.172279
-11.149772
-8.687254
-5.442816
-2.728318
-1.480625
-0.894027
-1.498151
-1.128161
3.350821
9.634355
9.988694
5.307818
5.369171
9.100040
3.626288
-9.556169
-15.432462
-9.151119
-2.927685
-5.609312
-10.396301
-10.397865
-8.269651
-7.970403
-6.428473
-1.932587
2.602739
4.444854
4.025098
5.210188
6.107613
4.367232
5.004227
4.850536
-1.728483
-9.874473
-10.586589
-2.455620
6.179934
8.471544
6.358358
5.073732
4.713763
4.803288
5.848771
4.008225
0.183767
-1.524373
-1.026359
1.780792
3.972862
2.541118
-2.810557
-8.138442
-8.522201
-2.332572
5.157021
3.120838
-6.456272
-9.828105
-3.398391
2.126699
-0.571205
-6.413693
-8.861808
-7.918995
-6.241527
-0.853852
8.111936
11.474382
6.483305
2.951207
8.541718
15.301666
13.926264
6.717138
1.744842
5.237191
11.950186
10.066443
0.990162
-4.025018
-0.518271
6.548435
10.499669
7.354774
-3.664725
-13.482233
-9.710673
3.718446
11.949581
7.942947
-0.219321
-1.711791
-0.471923
-1.994756
-3.297850
-3.352313
-3.787094
-4.841026
-4.223438
-0.789311
2.138352
1.940839
0.736346
2.039130
4.961785
5.352434
0.833075
-3.432738
-4.295102
-4.527673
-5.630122
-7.923294
-7.951777
-4.427500
-1.137362
-0.780206
-1.317031
-2.035093
-3.976432
-5.377188
-5.447302
-5.585342
-4.816880
-0.328193
2.543439
-1.663840
-6.061434
-0.647152
10.760493
13.670001
4.433768
-4.748313
-3.546007
-0.534768
-3.875612
-6.931609
-3.237051
2.919084
4.792814
4.474476
6.925099
9.346612
5.239812
-1.636576
-2.338361
1.657321
4.790324
9.141595
11.046627
4.725221
-6.498679
-13.639880
-10.843684
-2.874233
1.373116
0.484771
0.953362
2.230791
1.322727
-0.010104
-2.618798
-3.771330
0.470071
6.349186
9.035198
8.500565
7.910527
9.160098
7.477939
0.861670
-2.790628
-1.857205
-2.603126
-6.095784
-9.787835
-15.715150
-22.604684
-25.774620
-22.485108
-10.855219
2.481872
5.935406
3.118555
4.413514
5.303741
0.925240
-1.895054
-0.121177
1.868683
5.560424
11.936612
15.449306
11.854917
2.927946
-3.015020
0.161493
5.255557
2.415542
-5.076866
-8.759213
-4.140624
5.803974
10.519285
6.425006
3.576853
8.630537
13.270724
11.873099
7.124924
1.279932
-2.614329
-4.922212
-8.382942
-13.730860
-16.608750
-12.231185
-4.108981
-0.708034
-2.500063
-3.587800
-3.103872
-3.512046
-6.885757
-8.963572
-1.653338
12.095373
19.869501
17.660218
9.523619
-2.087172
-11.354708
-14.751582
-15.647439
-14.110830
-8.099622
-0.305148
5.886358
10.609182
12.276946
8.714798
4.936041
7.088358
13.970070
18.330732
15.080350
10.081760
8.679752
5.481645
-5.387606
-17.089485
-19.795215
-13.494778
-4.796620
-0.250025
-0.100714
0.674948
3.376924
6.249183
11.369854
14.970820
11.199262
3.276454
-3.033057
-7.342693
-9.764515
-9.070864
-6.794592
-7.703909
-14.794088
-20.535157
-12.972943
3.389158
13.198532
12.175902
8.400276
10.452113
16.469268
20.219857
17.391111
7.691924
-2.861491
-4.312330
4.117258
9.237929
2.891482
-9.881547
-14.733644
-5.603834
4.019294
4.232774
-3.292187
-12.604484
-18.968147
-19.121524
-14.871358
-12.801679
-15.620408
-18.433503
-9.961031
8.461045
24.280059
27.941751
21.443803
11.440048
1.673562
-2.080154
0.007055
-0.644335
-6.866826
-11.619384
-8.624734
0.647499
7.199916
4.677615
-1.614680
-2.421639
-0.075251
1.827902
4.584971
5.621376
1.573737
-3.491213
-1.623117
7.947736
14.379954
8.832017
3.416800
9.903169
21.010630
24.660114
20.464730
16.106576
16.581114
16.405825
8.561585
-1.890412
-5.814097
-4.457473
-2.964999
-0.358493
3.055601
6.802433
8.899345
8.354695
7.393417
11.356858
15.206048
10.547083
0.967782
-6.093912
-5.688552
-0.481801
3.659747
1.484897
-4.505022
-6.635737
0.713938
10.914584
10.115137
-1.633695
-12.898601
-19.815994
-22.320140
-18.468446
-12.387435
-9.720516
-14.172889
-22.018381
-23.534015
-19.068179
-21.020786
-30.068582
-35.827181
-34.612667
-25.117564
-10.397245
0.664829
1.521249
-3.045062
-2.331066
5.192021
15.037392
18.874061
13.111393
3.477000
-5.187974
-10.082329
-8.976120
-2.819046
0.680189
-1.536606
-1.000090
5.658440
7.932833
0.975687
-5.402688
-7.657671
-11.051728
-16.302610
-18.444907
-13.768723
-6.631588
-3.086339
-0.311429
8.346663
20.953482
28.971451
26.364322
16.118292
7.335309
8.143211
13.964417
14.262725
7.596999
-1.418243
-6.680707
-5.430510
-0.225950
2.971222
3.544986
3.000336
4.347569
8.627159
10.284906
5.167996
-0.081009
2.394656
6.023167
1.335092
-8.674923
-13.844421
-9.504732
0.848981
9.769382
14.361051
14.395798
14.986779
21.490365
29.544331
29.514283
18.471620
6.082665
5.067548
14.352303
20.030772
15.945883
5.976247
-2.811430
-7.747729
-10.947715
-11.770013
-9.531303
-6.164475
0.035796
9.006280
13.071139
12.286717
12.086073
9.487709
0.994895
-7.897018
-11.980029
-11.623812
-6.470588
-0.332295
-1.627876
-11.431612
-20.463131
-23.392982
-22.747849
-20.621826
-16.635222
-10.988994
-2.064210
9.401657
16.871531
17.188620
12.605093
5.378438
-3.923529
-13.016087
-17.789303
-17.861922
-19.830493
-25.305497
-31.055644
-31.299483
-22.621985
-9.839562
0.640923
9.874969
19.848051
25.011605
22.981682
18.398468
15.206933
8.890849
2.268946
0.620593
1.774693
2.312461
0.220560
-1.859446
0.608394
6.294062
7.106034
5.697766
9.903796
17.351132
21.612567
18.903081
12.873722
13.570816
18.410082
17.129839
11.217861
5.582279
-0.343158
-2.208433
3.538587
10.719232
11.081396
3.049657
-3.010378
-4.477806
-8.358920
-16.692408
-24.077451
-25.153606
-23.351557
-20.946635
-11.200804
6.188937
18.871819
18.540648
8.668674
0.521745
-1.350730
-3.723408
-11.234596
-19.536157
-24.190426
-25.164538
-25.398674
-25.592117
-26.300163
-29.749938
-37.491508
-44.066458
-36.576239
-15.524808
3.862930
12.017688
12.256836
10.040041
10.913990
15.328804
16.683236
11.226075
3.726781
-1.103405
-1.836492
0.905551
2.472523
-3.169007
-12.999662
-18.632114
-14.668047
-5.058692
0.617586
1.710961
-0.092649
-2.370170
-2.152620
2.157019
1.801119
-4.814524
-10.472643
-7.041646
2.521382
3.892717
-2.230861
-8.298095
-8.669334
-5.756069
-5.593298
-5.875952
0.083608
10.181897
15.111940
11.346956
8.004546
10.220406
11.481559
8.905106
9.813800
20.094892
31.865326
32.003682
21.723845
12.022154
6.697712
3.341843
2.822234
6.534948
10.331863
10.834572
8.522620
7.088997
9.260095
12.692344
11.770819
7.783905
7.233933
8.815617
7.187610
4.229588
2.455088
0.734114
-3.756447
-12.370399
-19.039881
-16.813066
-9.097473
-5.320904
-4.463545
1.238401
9.898997
9.976627
-0.959296
-14.390916
-22.567269
-21.676103
-16.149761
-12.829260
-14.121398
-13.529792
-2.451754
12.458881
17.753902
13.722227
12.640750
19.896519
27.423049
29.814198
23.372594
10.785811
-3.843730
-19.469296
-26.606427
-22.540942
-13.314096
-8.147099
-7.443431
-9.744741
-14.562719
-15.305197
-10.256834
-4.774315
-3.947318
-11.014334
-18.755904
-14.965875
-3.355393
3.170417
3.748564
2.664270
-0.036452
-3.129072
-7.012690
-6.845537
-3.552581
-2.246040
-4.311960
-7.559212
-5.825401
1.412213
3.751715
-4.421508
-16.422320
-21.313231
-16.597920
-5.764976
5.605107
14.053164
22.687153
30.185824
36.491583
39.377301
34.548055
20.786827
9.466830
7.434403
9.025790
9.837762
7.982190
3.234328
-4.907279
-10.957298
-10.722219
-9.139910
-13.337172
-21.566112
-26.113329
-20.912526
-7.598911
1.772863
6.419936
11.452022
12.705663
10.009637
7.734621
6.372366
-2.205589
-18.907625
-33.633889
-39.120162
-34.452742
-26.792240
-24.116244
-22.968403
-15.951154
-2.295097
7.198754
5.435836
1.676799
6.584617
13.518603
9.448426
-2.313240
-8.475945
-4.455848
-0.649229
-3.924652
-8.686913
-5.159819
3.108252
12.823407
21.683708
22.035543
12.331347
-2.067813
-14.690279
-22.417451
-26.440675
-33.782834
-42.837203
-44.230447
-32.701663
-8.549784
16.599684
24.650207
15.121614
3.485781
-0.330225
-1.859005
-5.467167
-9.424657
-9.498528
-7.124907
-1.390408
6.710511
9.612194
4.892817
0.043537
5.111933
13.567189
14.677780
7.614208
5.231513
10.793852
11.315656
0.228545
-9.511335
-8.491832
0.888706
10.563794
16.581576
18.963022
17.914099
14.321901
12.440975
18.199577
26.954078
30.909381
25.467557
12.762453
-0.503579
-5.685911
-10.322651
-19.659363
-29.302834
-35.701555
-34.508640
-24.614751
-13.993721
-16.793669
-31.700231
-38.805435
-30.491038
-15.231387
-2.475571
2.222524
7.495635
21.237459
36.564408
40.832729
32.926512
21.065619
14.603355
17.628367
26.737205
32.271999
31.609027
26.034171
13.053924
-1.683295
-7.332963
-8.874264
-18.620405
-33.346668
-40.066546
-31.564338
-14.326411
5.472633
23.992997
35.171826
34.407750
24.962733
14.280355
8.353352
5.656074
-1.326739
-7.594619
-4.565851
6.147520
15.090458
12.386294
0.327886
-14.167996
-28.916171
-42.591944
-50.375459
-51.819411
-48.066319
-40.157906
-33.473709
-26.487135
-21.283202
-19.479275
-15.600975
1.364000
31.772178
58.847335
69.735370
67.807805
73.298463
81.403138
77.804367
58.187503
30.391154
8.429157
-9.332760
-24.668157
-43.589807
-57.269024
-63.529391
-67.152265
-63.486817
-47.801148
-25.060670
-12.992869
-9.678628
-4.578930
8.611356
19.931670
20.943034
15.737226
5.282725
-0.612663
5.701547
18.680232
24.526479
14.376545
-4.764530
-22.199343
-25.412162
-15.963073
-4.240218
2.787674
5.032644
5.563838
4.812909
11.155290
23.945851
39.725112
51.175015
52.730093
47.544318
43.350812
38.393540
28.478683
13.044372
-6.749660
-21.079643
-26.113916
-21.154137
-13.621347
-11.197330
-11.802393
-10.323066
-6.323002
-2.437190
-1.832123
-6.355238
-14.820507
-15.977734
-8.777369
-1.578256
-0.739365
-10.698045
-23.929333
-30.493328
-26.471665
-21.296216
-18.032058
-16.154259
-13.909602
-9.794973
-4.752557
0.581905
4.935680
7.158738
7.988239
16.631932
33.434763
44.411696
35.334163
19.731447
13.513025
8.657485
-4.095198
-13.841338
-8.268669
3.488305
10.618554
12.784643
19.380569
27.223561
26.815387
15.572705
-2.827456
-20.170866
-31.704342
-33.874184
-29.803064
-23.134205
-15.249269
-10.551799
-5.637721
-1.255461
-1.363451
-1.637340
1.945470
4.479669
1.262781
-1.885870
-1.590066
0.404489
-3.386788
-3.802788
4.935749
13.571617
10.673068
0.526890
1.321020
7.967029
11.779908
14.756402
24.553255
37.228938
41.644691
38.062197
32.688611
26.340286
19.709305
12.206255
3.276154
0.574180
6.887764
10.053947
4.390819
-5.560661
-17.665395
-23.055258
-15.436075
-2.653339
-2.376629
-15.087367
-25.414156
-23.000469
-10.862865
0.389837
3.640222
-1.327692
-7.457217
-12.468641
-16.799875
-19.965429
-21.784377
-21.080397
-17.211800
-5.349652
14.835344
30.564835
40.251818
42.206620
33.329732
21.695151
14.641283
14.897334
15.210980
14.796232
12.329023
5.974124
2.718734
8.981609
24.375857
35.438869
29.899384
14.979049
8.393143
10.866616
12.095215
9.161295
1.801607
-11.533289
-29.092057
-42.915575
-44.736402
-39.215694
-35.810678
-30.682808
-19.865202
-5.208738
7.484788
11.610998
8.933753
8.944398
10.510744
6.018618
-3.113693
-10.928823
-8.723919
-1.137603
0.843806
-4.001092
-5.930849
0.557712
9.214552
9.185443
-1.620578
-13.966023
-21.299731
-21.812140
-20.165974
-19.731190
-16.057604
-4.123774
9.485956
11.810120
3.245311
-1.579866
2.198581
6.858488
5.196049
1.476453
2.068998
1.377542
-3.854872
-11.331003
-16.287335
-21.744497
-29.879531
-28.872549
-11.127219
12.960177
23.919894
21.953201
20.132061
20.625380
17.612266
8.344105
-5.433713
-18.710388
-22.082847
-13.142413
5.538216
24.574121
29.102561
21.174432
16.089762
14.034172
6.563675
-2.351401
-5.258402
-2.683197
-1.511880
-0.095157
-0.298304
-4.135909
-9.924870
-13.626311
-7.969440
2.966174
9.788412
3.777834
-9.378016
-15.126285
-6.989995
-1.903131
-13.916464
-33.596557
-40.498299
-27.420074
-8.777007
-1.343130
-8.333143
-14.919050
-14.060438
-8.109956
-1.563487
1.613965
1.375134
0.862411
0.580071
4.432390
15.669754
29.052859
35.526082
34.126578
36.485487
45.707951
48.398972
34.012646
10.431404
-6.311011
-10.222801
-9.263085
-12.607372
-20.717678
-27.686092
-28.626711
-22.303424
-13.058736
-1.751569
7.206081
9.727447
9.515535
8.861954
7.395152
4.835288
2.642283
1.611202
3.751311
6.129940
1.009586
-10.780878
-20.703248
-24.772485
-26.136931
-25.596973
-20.479119
-12.323109
-1.065712
9.835469
16.698400
18.226245
14.946753
7.992111
3.592951
6.669924
9.430749
4.283475
-5.199417
-10.249341
-8.202825
5.020015
23.146601
33.104971
28.416270
14.544234
3.784540
-0.154796
2.863017
8.552442
12.516509
18.838857
19.604815
11.344573
0.900402
-10.885993
-19.755369
-22.430422
-19.254223
-14.898256
-7.738584
2.742214
10.848768
10.852525
2.881513
-3.666205
-3.837112
-0.512228
2.691204
1.276363
-4.627789
-8.125768
-2.674551
6.592675
10.100987
10.211172
10.301323
9.015758
8.209737
10.885107
14.718959
15.059838
13.115682
11.077308
6.774558
0.639711
-8.209631
-16.277367
-20.488402
-19.024413
-11.532941
-7.954512
-16.326189
-29.778780
-34.202355
-26.797902
-16.971313
-14.526011
-17.084309
-13.925951
-4.529136
2.623963
3.368323
1.724038
0.474158
-2.699848
-3.811687
2.867189
14.491130
20.688897
19.054316
10.892362
6.370500
12.250553
16.945205
15.597976
10.818499
4.390980
-2.673844
-7.680260
-11.297812
-12.806559
-11.584846
-10.665822
-10.440447
-8.386419
-3.508338
3.260688
7.526505
4.592898
1.488696
5.042083
8.076485
3.724905
-4.285862
-9.558029
-9.321073
-7.681480
-7.981037
-4.868380
4.495255
10.529939
7.789152
4.263001
7.458295
12.817172
11.785465
5.122556
-1.393547
-5.430231
-5.944205
-1.345024
5.728569
10.260138
7.746602
-1.160649
-10.215018
-15.998032
-20.877675
-26.868846
-29.995899
-25.427080
-14.066387
0.173450
13.348397
20.628582
25.709186
30.700267
28.095329
19.366812
12.229680
8.288467
2.517973
-3.836612
-6.922972
-8.047020
-9.932015
-11.904655
-10.989701
-3.503863
7.372903
14.840273
14.844031
7.803935
3.061394
3.155302
7.289025
8.183633
2.831020
-7.717700
-17.629427
-19.744804
-19.828691
-23.120078
-29.078695
-31.217236
-29.212351
-22.531909
-10.736121
1.524187
12.672653
22.693940
28.459429
26.683364
18.385873
6.642988
-1.147726
-3.583321
-7.748969
-9.490288
-3.200181
5.506115
3.940712
-6.805209
-14.028734
-16.051770
-15.436687
-14.240329
-11.752770
-8.383438
-3.045220
5.078863
9.983863
10.464661
10.723842
11.495434
10.527896
5.573129
-1.823495
-9.069557
-12.888067
-11.504211
-7.414623
-5.068548
-4.763980
-0.634326
8.415978
19.775419
24.594027
17.744559
6.854962
0.105661
-4.175178
-11.179277
-17.931709
-21.905476
-24.122271
-23.724423
-16.300876
-6.091778
-1.497291
2.589166
13.919183
24.787811
23.699135
12.283354
1.892396
2.867450
