EVENT_NAME: 202010301151
EVENT_ID: 10614
EVENT_DATE_YYYYMMDD: 2020/10/30
EVENT_TIME_HHMMSS: 11:51:24.00000
EVENT_LATITUDE_DEGREE: 37.879
EVENT_LONGITUDE_DEGREE: 26.703
EVENT_DEPTH_KM: 16.54
HYPOCENTER_REFERENCE: AFAD
MAGNITUDE_W: 6.6
MAGNITUDE_W_REFERENCE: AFAD
MAGNITUDE_L: 
MAGNITUDE_L_REFERENCE: 
FOCAL_MECHANISM: 
NETWORK: TK
STATION_CODE: 3517
STATION_NAME: 
STATION_LATITUDE_DEGREE: 38.3756
STATION_LONGITUDE_DEGREE: 27.1936
STATION_ELEVATION_M: 136.0
LOCATION: -_-_-
SENSOR_DEPTH_M: 
VS30_M/S: 695
SITE_CLASSIFICATION_EC8: B
MORPHOLOGIC_CLASSIFICATION: 
EPICENTRAL_DISTANCE_KM: 69.93
EARTHQUAKE_BACKAZIMUTH_DEGREE: 
DATE_TIME_FIRST_SAMPLE_YYYYMMDD_HHMMSS: 2020/10/30 11:51:10.6026560
DATE_TIME_FIRST_SAMPLE_PRECISION: millisecond
SAMPLING_INTERVAL_S: 0.01
NDATA: 10501
DURATION_S: 
STREAM: HNN
UNITS: cm/s^2
INSTRUMENT: sensor = CMG-5T/GURALP | digitizer = 
INSTRUMENT_ANALOG/DIGITAL: 
INSTRUMENTAL_FREQUENCY_HZ: 
INSTRUMENTAL_DAMPING: 
FULL_SCALE_G: 
N_BIT_DIGITAL_CONVERTER: 
PGA_CM/S^2: 40.827
TIME_PGA_S: 
BASELINE_CORRECTION: BASELINE REMOVED
FILTER_TYPE: BUTTERWORTH
FILTER_ORDER: 
LOW_CUT_FREQUENCY_HZ: 
HIGH_CUT_FREQUENCY_HZ: 
LATE/NORMAL_TRIGGERED: 
DATABASE_VERSION: 
HEADER_FORMAT: DYNA 1.2
DATA_TYPE: Acceleration
PROCESSING: Manual Paolucci et al., 2011
DATA_TIMESTAMP_YYYYMMDD_HHMMSS: 
DATA_LICENSE: U (unknown license)
DATA_CITATION: Turkish Accelerometric Archive v 1.0 - Disaster And Emergency Management Presidency, Earthquake Department
DATA_CREATOR: AFAD
ORIGINAL_DATA_MEDIATOR_CITATION: : AFAD - Disaster And Emergency Management Presidency
ORIGINAL_DATA_MEDIATOR: AFAD PROCESS SERVICE
ORIGINAL_DATA_CREATOR_CITATION: AFAD PROCESS SERVICE
ORIGINAL_DATA_CREATOR: network: TK
USER1: GuestUser
USER2: 
USER3: 
USER4: 
USER5: 
[...]
-1.689869
-1.464904
-2.069279
-1.673953
-2.771938
-4.590680
-2.989723
-2.080507
1.702693
1.789122
2.619711
4.327378
3.115507
4.134242
3.906159
4.430347
3.576671
4.158895
3.674335
4.092125
2.739223
2.033131
0.622818
1.290847
1.002856
-1.080476
0.862451
-0.634602
2.199755
2.046868
0.158234
0.833751
-0.699497
0.680865
-0.427729
-1.558163
-0.970011
-1.960350
-0.263604
-1.334755
-1.279527
-1.238340
-1.017119
-0.728815
-0.111022
0.319874
0.164803
1.095237
2.059680
3.490276
1.213806
2.128327
-0.106645
0.070893
-0.362185
-1.989973
-2.665176
-3.158785
-0.714447
-0.631450
1.789798
-1.125058
1.201649
0.717089
-1.925065
-1.887934
-2.923203
-2.604009
-3.803399
-2.422414
-3.405264
-2.970313
-3.485451
-0.931595
-1.021143
-1.175278
-0.895399
-0.423005
-0.877612
-3.310402
-4.394970
-4.648326
-2.029260
-2.257343
-1.243601
-1.545632
0.194173
0.484037
-0.162148
-1.409588
-0.763401
-1.509432
-1.450459
-2.193369
0.432561
1.941474
-0.030157
3.654757
-0.446697
1.410114
-0.205818
0.463458
0.238183
-0.846073
2.286885
-1.057306
1.089992
0.228516
-0.907223
0.815733
0.197005
0.853177
0.200127
0.777359
1.017612
-1.341230
0.013234
-0.874764
0.786724
1.792354
1.320274
0.615430
-0.534037
-1.210488
-1.057286
-0.287229
1.942129
2.834185
2.140885
4.761512
2.254461
2.286912
-0.985827
-2.269149
-2.126868
-2.576171
-2.456044
-3.238892
-3.097547
-2.987717
-0.143374
-1.416088
-0.561474
-1.366475
-1.806105
-1.444478
-2.819533
-2.453848
-3.456356
-4.262293
-4.912846
-3.265399
-2.871633
-2.827638
-0.787050
-1.126211
-0.228539
-0.135245
1.697541
0.734035
1.056349
2.852628
1.593331
1.831401
0.819533
1.980234
2.257930
2.032655
2.907550
3.996800
3.578699
4.894161
3.336889
4.195871
2.783374
-0.620724
-0.688118
-4.163044
-3.004214
-4.640115
-4.178018
-5.563681
-6.398948
-3.902504
-4.320917
0.317831
-0.200115
0.869790
1.605526
-0.430692
1.705061
-0.734594
-1.094348
-1.758941
-2.011986
-0.288094
-3.420738
-1.470322
-0.340198
-1.745207
0.702563
-0.613209
1.056703
-1.981087
-2.415413
-2.728052
-7.060398
-5.611393
-7.402678
-6.331837
-7.411101
-6.292833
-5.666927
-4.435710
-3.162058
-3.929305
-2.081231
-1.718043
-1.885283
-0.584173
-1.673110
-3.145826
-0.516775
0.175903
1.973430
0.797753
0.477001
1.418356
3.717293
5.283929
5.596570
5.735106
4.326353
4.508884
2.877351
0.598073
-1.171683
-1.578551
0.280443
-0.846247
-0.848118
1.115402
-0.718317
2.785628
2.543192
2.292644
3.855223
3.297963
6.662748
3.123548
1.358160
0.825549
-2.117388
0.080456
-3.331754
-2.985415
-1.554507
-1.872763
2.272376
-0.994122
0.729769
-0.021877
0.986873
3.309211
-1.093339
1.996249
-0.098316
-0.361033
1.390316
-2.210352
-1.882110
-1.171648
-1.125780
-0.322961
-1.182253
1.432757
0.847727
1.685492
4.532331
1.745402
3.587547
2.591904
2.296114
0.813725
-1.317346
-0.279267
-0.318268
-1.216874
-1.415627
-0.196578
0.570983
2.479276
0.716697
1.813435
2.119212
3.681167
4.163546
1.066160
1.292685
-0.421844
0.533239
0.642446
-1.205938
-1.207185
-1.610621
-0.919504
-1.748530
-3.507678
-1.116383
-2.712658
-2.287691
-0.522925
-0.680804
-0.169096
-2.510154
-1.251791
-2.153206
-3.525765
-4.615013
-4.388176
-4.606586
-2.707966
1.567596
0.089263
1.752000
1.191931
0.925158
2.492105
1.403481
4.421617
3.835963
2.569177
3.642203
2.790087
2.404436
0.549500
-0.621185
-0.105109
-0.395283
-1.606530
-0.204639
1.050292
1.880880
3.191350
4.193548
4.676862
2.542359
1.608495
2.194463
1.369805
2.138926
1.055918
0.658410
1.137045
-1.156587
1.783545
-0.276699
0.247802
0.926751
-1.853314
-0.133479
-2.637097
-2.760031
-3.272049
-4.637743
-5.913889
-6.258666
-5.489545
-4.721984
-2.079516
-1.713208
-1.706654
0.370752
1.005706
2.852220
3.970488
1.773269
4.213238
4.410122
6.185808
6.638857
7.391753
10.530639
6.678798
8.513767
6.949318
5.223556
6.532154
4.326199
4.409509
2.714949
1.057207
0.637546
0.734272
-1.689782
-1.976524
-0.985559
-1.095700
-1.663881
-1.874491
-1.545001
-3.010228
-1.554359
-3.756258
-3.574663
-1.814266
-2.095391
0.271254
-0.256677
0.406983
0.230695
-0.397393
0.671576
0.093099
-0.520013
-0.661355
-0.102221
0.026643
-0.521569
-1.264167
-1.673843
-1.747790
-1.101291
-1.530312
-0.253228
0.318387
-0.768053
1.979876
2.833554
5.878522
6.551855
7.964978
8.710074
7.805228
9.644877
7.350622
8.125047
7.638303
8.504149
8.667959
8.868586
9.426473
9.163756
9.254866
8.889184
9.839586
8.642069
11.643355
12.380963
11.743514
12.000929
11.380329
12.735418
10.054262
6.130033
6.688231
1.208289
-2.037617
-3.261032
-6.878237
-5.882903
-7.842053
-5.734070
-6.789308
-6.523781
-3.999568
-4.002375
-0.387664
2.178984
4.709438
5.681994
6.284186
4.865449
4.061696
3.305369
0.243553
-2.758043
-3.360234
-5.770247
-6.962461
-5.778358
-5.307212
-4.310319
-6.563388
-4.191126
-6.586475
-8.653895
-10.222400
-12.186854
-10.480747
-13.076411
-9.685728
-10.120677
-6.958702
-2.314962
-1.830399
3.718501
3.717254
5.044885
6.906687
4.649562
5.815256
2.316617
-1.225079
-2.074387
-6.830452
-7.944973
-8.276021
-8.904733
-7.904096
-6.962741
-8.610187
-8.704103
-8.674460
-8.665099
-9.454187
-12.267950
-10.099123
-10.181806
-11.059195
-11.252957
-12.744706
-11.087274
-9.325004
-7.510940
-4.264721
-1.739883
1.034567
0.543767
1.601191
0.864522
0.451101
1.927875
1.913836
3.833673
1.722572
3.126022
4.315118
4.974409
7.536065
8.009707
7.791296
6.848696
5.815299
5.814675
5.115760
4.842747
4.369419
-0.599441
-0.618473
-1.164189
-2.658746
-0.595069
-2.037831
-1.210363
-1.493673
-3.309295
-3.461870
-6.492172
-6.602313
-7.201383
-8.695317
-7.181100
-9.702816
-9.586433
-11.510324
-13.540926
-12.403313
-15.692277
-14.378687
-13.557771
-10.495641
-6.182950
-2.985717
3.210617
8.528937
12.276255
14.714664
15.167713
16.193000
16.932791
19.783998
23.494186
21.714445
23.026163
18.697873
16.155253
14.265995
8.160459
7.021912
2.786603
2.140730
2.320765
0.140083
0.056464
-2.371022
-2.041532
-0.459608
0.175346
3.229988
2.431851
2.586612
2.882404
3.525783
5.409115
4.354813
7.714294
6.561706
6.155774
7.362031
7.704626
10.805445
8.682175
9.747712
8.506824
8.789824
9.548648
9.197943
12.615771
11.862877
7.143006
3.820033
0.162578
-2.981610
-2.586596
-6.147326
-4.753236
-8.805080
-10.569219
-11.196995
-16.960249
-15.121535
-17.888495
-14.898753
-13.636646
-11.466259
-8.538609
-12.714323
-7.890237
-7.836881
-6.988507
-2.648982
-3.477385
1.636564
4.099311
6.177965
6.820720
3.513659
4.986377
3.812885
2.380107
2.143911
0.399741
-0.111965
-1.869240
-2.843354
-3.332907
-7.335764
-7.494892
-8.001293
-11.103983
-9.272758
-10.234079
-8.718615
-6.727325
-7.053693
-3.289839
-3.480480
-0.299472
2.627243
6.346167
8.408596
8.253837
11.385858
9.762750
11.804586
10.667600
12.606783
16.098871
16.345677
19.016538
15.986236
15.327882
12.923485
9.853557
8.417971
3.722125
3.966435
2.440052
1.053140
-0.395863
-2.634267
-3.715715
-6.295153
-9.098619
-13.389467
-16.260641
-19.775505
-21.231372
-22.407049
-21.601733
-21.186439
-20.040713
-19.028531
-17.469696
-16.188244
-15.252506
-10.793479
-11.044339
-8.303586
-6.703565
-6.527899
-4.570931
-5.750664
-5.657058
-2.651404
-3.091346
-0.656993
-0.638583
-3.972165
-3.027378
-5.459857
-3.275741
-3.410843
-5.772806
-4.593695
-5.689496
-5.802133
-6.848947
-8.524786
-8.172206
-8.085777
-6.142538
-2.710669
0.696551
4.268204
6.581182
8.934411
9.033945
10.301668
11.092943
8.803056
8.582149
6.250452
2.761174
0.969889
-1.346520
-3.560899
-5.564979
-10.705760
-11.619031
-13.771007
-15.458390
-12.493610
-16.137960
-13.788476
-12.079249
-9.336312
-2.558067
-0.726218
2.621407
7.360936
9.593415
12.345712
16.237493
16.524237
18.744859
16.844368
13.827171
12.977239
7.255796
6.430202
6.491982
3.879470
2.430467
-3.572103
-4.449180
-8.676377
-15.030902
-14.262716
-17.696143
-16.759469
-15.655554
-15.639952
-11.146292
-12.868621
-12.209953
-10.646126
-13.661140
-11.639896
-13.677986
-13.282349
-13.510432
-14.493282
-13.615579
-14.137269
-10.879817
-9.074178
-5.545271
-4.373337
-1.378603
4.427399
9.314200
13.779156
19.222906
23.999566
29.443317
34.449933
36.206586
36.602224
35.730139
35.218121
32.381893
32.003418
29.683266
26.589936
25.845778
22.595817
18.756768
16.289344
13.406937
10.811274
8.761016
2.783095
-0.151418
-3.973930
-7.183953
-5.583620
-5.400465
-1.410087
-0.255625
1.937851
2.606191
3.240521
8.811262
6.466148
6.526057
4.935086
1.447368
2.516961
0.068882
1.120378
0.718814
-1.205078
-2.750494
-7.403905
-8.148375
-10.431710
-13.344694
-13.791813
-14.810545
-15.814925
-17.030852
-18.668937
-18.666751
-17.806521
-16.151585
-19.741333
-19.523232
-16.816801
-16.935366
-12.588977
-11.923445
-8.825434
-7.107471
-6.765812
-4.307746
-3.571386
-3.611635
-0.807855
0.241145
1.815269
5.042767
5.829985
9.134240
10.194473
13.121499
15.273477
14.862553
15.590800
14.786735
14.706859
15.852897
16.335275
16.732161
16.967734
16.168973
12.816046
10.394488
7.589774
6.942341
6.530168
4.875235
6.292102
4.717356
4.756359
3.726394
1.190326
-1.644966
-5.035646
-7.815087
-9.949902
-7.902138
-6.300245
-3.915503
-1.346983
1.246498
4.201294
5.966060
9.636310
13.084404
14.064448
16.133430
16.178673
13.913123
12.991428
10.673147
10.256606
9.309950
6.985429
3.102074
-3.214697
-6.024715
-7.747044
-13.310919
-14.208278
-15.778655
-19.140630
-17.491623
-17.987728
-16.019527
-15.321546
-15.608600
-14.521846
-15.872252
-16.101895
-14.095316
-13.045068
-8.476212
-7.720195
-4.634976
-0.932589
-2.481749
4.496498
4.108663
8.605132
10.948064
6.925862
10.152736
7.452548
9.998914
12.935613
11.044795
13.831102
13.350286
11.797382
13.267604
12.424537
14.423315
16.369674
16.619912
16.993396
15.125043
14.389934
11.479758
5.878441
2.518962
-1.199960
-4.317315
-3.995937
-5.914213
-9.171039
-12.320531
-16.606075
-18.363974
-18.801732
-19.365857
-18.071300
-14.801367
-15.400749
-14.031309
-13.863443
-15.613542
-14.032866
-15.505270
-13.966092
-14.252522
-13.916791
-12.421608
-10.856533
-11.137659
-12.491185
-10.044351
-8.649637
-3.048630
0.901498
3.098407
2.840058
2.851604
4.821988
4.496556
5.284086
7.158058
9.624236
9.869482
13.054858
12.788709
11.855157
11.600553
8.759333
7.612362
4.738380
5.817022
4.282838
2.925880
3.529321
3.964896
6.433883
8.306606
11.870458
13.319151
14.940701
17.013427
16.460535
18.333259
20.574161
17.737309
17.500178
17.253998
15.046795
15.712015
14.058017
11.882640
9.708823
6.832033
4.696282
2.061617
-1.777432
-2.064174
-2.598033
-5.311950
-5.701658
-9.085162
-10.321994
-11.657735
-11.506718
-12.076459
-14.601607
-12.633094
-11.810930
-7.479518
-4.290397
-0.886922
3.175532
0.476904
-0.762736
-1.121866
-3.967454
-3.374622
-3.127816
-4.173070
-1.914383
-0.942763
0.612328
2.210165
1.490656
0.475356
-1.402358
-3.935306
-5.788994
-6.679800
-8.445187
-8.585594
-6.040475
-3.581473
-3.657292
-0.061614
2.993339
7.061410
9.515107
6.156876
5.551565
-0.450068
-3.655412
-7.131273
-11.449579
-13.722305
-19.269643
-21.343303
-21.675599
-20.314895
-18.503951
-16.331068
-12.219627
-9.115375
-5.465095
-1.908419
0.876952
3.648283
3.515677
3.431121
3.152180
2.184930
3.286349
4.798693
6.443333
8.578774
6.865805
9.075506
8.494844
9.819979
16.319905
16.369205
18.200742
17.140199
13.329544
8.341339
4.661419
3.165302
4.408376
4.649566
5.122583
2.738467
-0.074983
0.637975
-0.871871
1.062007
0.392421
0.865127
1.374651
0.739075
-0.253137
-2.954573
-4.168628
-6.393616
-9.149031
-10.957789
-11.424877
-10.488827
-8.051666
-6.910933
-6.548057
-6.201094
-8.004547
-9.924383
-10.854815
-10.004569
-9.831399
-10.354337
-9.037627
-10.554026
-11.671043
-14.398690
-17.118535
-16.214311
-15.868908
-12.157472
-9.876007
-7.068795
-3.067808
-0.845938
2.904812
4.978785
8.082101
11.122078
12.083713
13.289346
13.118362
11.012876
10.790410
8.308008
6.212195
6.808148
5.270220
6.810958
8.699282
9.892745
11.821632
12.245351
11.885285
10.284642
8.056846
7.127350
5.385052
4.064600
2.375344
-1.292407
-1.091468
-2.664341
-2.534542
-0.396292
-2.757007
-0.374137
-0.814703
-1.772904
-1.367906
-3.630648
-4.066222
-6.747378
-6.847222
-8.124304
-10.949611
-10.315593
-12.746511
-13.034189
-12.812033
-14.663537
-13.620153
-13.517811
-12.614522
-12.037915
-9.795140
-6.146420
-5.144534
-1.927332
1.667721
2.519527
4.339520
4.151999
6.056236
8.187309
6.589162
8.008837
7.323338
6.342984
5.976678
6.816939
8.482171
6.785739
4.586025
2.673365
-0.209041
0.602827
-0.524487
-3.087077
-4.495206
-8.407266
-5.874316
-6.307082
-4.579134
-1.559439
-2.893932
-0.160667
-1.893293
0.465240
3.175103
2.400367
3.130487
0.687399
0.677416
2.447174
3.629093
6.889353
8.305284
8.958647
11.877562
11.343391
11.121548
9.864123
9.077219
7.375482
1.927054
0.126096
-0.924462
-2.613094
-1.730086
-0.502301
-0.236150
-0.179050
-1.615260
-1.599034
-4.585654
-7.645598
-8.428758
-10.877773
-11.891513
-13.494653
-14.301526
-15.327435
-17.614826
-17.389237
-18.759612
-21.321577
-22.421434
-22.160275
-22.072910
-19.867265
-17.356468
-15.499346
-10.930801
-8.637792
-3.474544
-0.143456
3.440989
8.221705
9.280066
12.297577
14.135667
16.079530
19.806878
24.096480
26.319286
29.625725
34.930316
37.307258
38.155319
40.827117
40.484836
36.687597
36.178076
33.426716
30.357100
28.944291
22.554197
20.003464
16.675186
9.978692
6.725922
-0.208641
-3.757202
-4.634279
-7.785019
-9.035580
-10.766334
-12.548570
-14.150149
-15.794163
-17.174834
-18.655039
-18.691544
-18.534910
-17.161725
-15.781364
-14.881820
-11.509546
-8.693597
-4.804312
-1.001767
0.747398
3.103122
3.804224
3.780824
4.310629
4.357120
6.049810
6.383356
8.425817
10.565626
10.542850
12.178753
10.264533
9.088232
8.842677
6.579623
5.834841
3.902524
1.919973
1.225426
-2.146846
-3.222365
-3.744368
-3.764336
-0.988949
-1.735915
-1.891923
-2.661354
-3.813005
-4.414884
-6.016463
-6.818032
-8.875467
-9.597160
-8.781860
-6.809604
-3.444818
-2.678817
-2.395193
-0.407960
-1.394554
-1.277235
1.090346
0.982389
2.887874
3.758401
3.012371
3.359334
0.048530
-2.527789
-4.465097
-6.032355
-4.581477
-3.656348
-1.697508
-0.659117
0.392380
1.791462
2.518149
2.929700
2.898811
2.625174
2.462302
2.563397
1.083192
-0.781417
-4.242925
-5.929373
-8.215828
-9.096961
-9.663894
-12.485457
-13.622132
-16.512338
-18.127958
-19.051213
-19.720488
-19.893968
-18.976951
-18.109232
-17.704858
-16.247116
-14.026807
-10.048285
-7.304724
-2.990160
2.568412
5.905116
8.624964
9.316081
10.951360
11.980391
11.264003
11.881796
9.879900
9.350721
6.735401
2.593073
0.079158
-2.433821
-3.239758
-4.353032
-2.960502
-3.568309
-2.532725
-2.155496
-2.306199
-0.811640
-3.477819
-3.969244
-6.095946
-7.521548
-7.438551
-8.699408
-6.849774
-5.929012
-4.636015
-3.561118
-3.873757
-4.327116
-4.869088
-5.446941
-6.299057
-4.399812
-3.488099
-3.335210
-4.362367
-5.350522
-6.724641
-7.647272
-7.756477
-8.960859
-7.291883
-6.239762
-6.252866
-5.519939
-3.296509
-0.942344
1.712292
4.918885
6.982563
7.688345
9.475575
10.675279
12.227562
13.484053
14.559574
16.470364
15.535564
15.812635
14.186095
12.049720
10.882779
9.285881
9.624731
9.137987
8.838140
8.304281
5.934830
4.784738
3.424036
1.448349
0.212766
-1.141696
-1.914872
-1.451527
-2.340148
-2.826893
-3.079001
-4.452808
-4.818178
-6.477168
-6.019439
-5.799779
-6.216320
-6.581378
-6.150170
-4.987284
-4.490241
-1.107046
2.021543
3.452763
5.067137
6.079007
4.854655
5.460592
5.611609
5.925187
6.691812
7.020054
8.227871
7.615695
8.530528
8.573276
8.259700
9.420402
9.003237
9.408860
9.141775
8.003852
7.987316
6.489014
4.613485
2.832809
1.489891
0.822489
-0.290472
-0.872382
-1.454291
-2.554772
-3.679590
-5.001602
-6.564491
-8.211625
-9.066549
-9.861253
-10.562977
-9.553915
-8.985420
-9.201647
-7.956076
-7.947339
-7.141712
-5.945752
-7.264956
-7.219713
-6.388188
-5.240279
-5.426240
-5.088637
-3.485808
-2.298272
-0.392475
2.784476
5.880616
7.593275
9.960544
10.835751
10.669135
11.240438
10.314999
9.450090
8.653826
5.478748
2.921463
-1.705115
-7.310488
-9.738599
-14.233193
-16.386417
-17.316537
-18.379264
-16.408568
-16.157081
-14.799185
-14.131157
-12.343614
-11.157015
-10.552950
-7.175684
-5.377845
-2.621803
-2.544422
-1.979047
-0.911950
-2.414308
-1.443312
-1.432390
-1.369362
1.064991
1.459692
1.850026
2.347693
1.665626
3.055972
2.585453
1.437545
0.537379
-1.721930
-1.856097
-1.516934
-0.136884
2.492479
5.019188
7.130916
10.298819
13.447066
16.797499
19.647457
19.519219
20.526721
19.764154
18.169440
16.057714
14.209954
13.559713
11.705400
11.802126
10.196179
8.190539
7.040136
5.417027
4.224190
2.110592
-0.329999
-3.889169
-6.664242
-8.595934
-10.298918
-10.247435
-10.044623
-9.461775
-8.736024
-9.747892
-11.690505
-12.798786
-13.271178
-13.422193
-11.795339
-10.645245
-9.914502
-9.454901
-9.984392
-10.446799
-10.181584
-8.391233
-7.359394
-6.171546
-6.207739
-5.790260
-4.917862
-4.807095
-4.533767
-3.429228
-3.176182
-3.354654
-1.255407
-1.323738
-0.923420
-0.687846
-1.424204
-1.429195
-0.733398
-0.051329
0.886281
1.671627
2.126236
2.973050
3.638894
3.524385
3.447318
4.042646
4.332198
6.532227
7.968439
9.263308
11.037122
11.462401
12.387531
14.257134
13.227793
13.261180
12.646821
11.144463
10.466140
8.244585
7.718214
5.655787
4.647039
3.790555
3.087583
2.727517
2.311288
1.149340
0.519380
1.640456
1.644513
1.713470
0.362752
-1.347721
-1.810128
-1.989848
-1.971126
-1.781419
-1.532429
-1.180786
-2.438211
-1.920575
-2.199204
-3.148981
-3.668799
-5.893475
-6.672267
-7.562449
-8.553724
-10.165599
-11.856727
-11.940346
-12.981856
-12.682631
-11.906645
-12.703846
-11.643302
-12.208674
-11.795564
-11.316929
-10.466684
-8.366189
-6.450095
-3.407310
-1.870005
0.696019
2.100094
2.249239
2.742225
4.271419
5.931347
7.717642
8.142921
8.563832
8.544488
7.250245
8.185983
8.221554
9.529216
9.302381
8.591609
9.278358
7.917967
6.623412
5.090477
3.812771
3.660196
3.273921
2.870796
2.795914
3.447405
4.429009
5.421534
6.060233
5.431833
3.896089
2.098876
1.311972
1.018677
0.199323
-0.755134
-2.013807
-2.578555
-2.344230
-1.651553
-0.058084
0.958466
1.981881
1.034912
0.828983
0.423050
0.833665
1.453954
1.032109
2.642115
1.613710
3.032761
2.915132
2.365360
3.203437
1.025564
0.747246
-0.226244
-0.593486
0.045837
-1.435304
-1.543261
-2.208791
-4.131122
-4.623171
-6.045965
-7.254715
-8.093414
-8.891551
-9.516207
-10.585486
-10.449134
-11.400471
-11.300625
-9.924943
-10.340548
-9.709650
-9.455044
-8.757686
-7.572647
-6.698376
-4.811924
-4.006921
-3.224071
-2.611581
-3.737648
-3.774464
-3.409716
-3.118292
-3.148245
-3.412209
-2.491760
-2.333879
-1.740111
-0.579409
-0.162554
1.276779
1.593476
1.319527
2.722666
2.323286
3.359805
4.776985
6.096191
7.469688
7.376084
8.367049
7.416336
6.855332
8.111511
8.563935
9.870349
10.349919
10.216689
10.486584
10.042274
10.168018
8.049115
6.661892
