EVENT_NAME: 202010301151
EVENT_ID: 10614
EVENT_DATE_YYYYMMDD: 2020/10/30
EVENT_TIME_HHMMSS: 11:51:24.00000
EVENT_LATITUDE_DEGREE: 37.879
EVENT_LONGITUDE_DEGREE: 26.703
EVENT_DEPTH_KM: 16.54
HYPOCENTER_REFERENCE: AFAD
MAGNITUDE_W: 6.6
MAGNITUDE_W_REFERENCE: AFAD
MAGNITUDE_L: 
MAGNITUDE_L_REFERENCE: 
FOCAL_MECHANISM: 
NETWORK: TK
STATION_CODE: 3517
STATION_NAME: 
STATION_LATITUDE_DEGREE: 38.3756
STATION_LONGITUDE_DEGREE: 27.1936
STATION_ELEVATION_M: 136.0
LOCATION: -_-_-
SENSOR_DEPTH_M: 
VS30_M/S: 695
SITE_CLASSIFICATION_EC8: B
MORPHOLOGIC_CLASSIFICATION: 
EPICENTRAL_DISTANCE_KM: 69.93
EARTHQUAKE_BACKAZIMUTH_DEGREE: 
DATE_TIME_FIRST_SAMPLE_YYYYMMDD_HHMMSS: 2020/10/30 11:51:10.6026560
DATE_TIME_FIRST_SAMPLE_PRECISION: millisecond
SAMPLING_INTERVAL_S: 0.01
NDATA: 10501
DURATION_S: 
STREAM: HNE
UNITS: cm/s^2
INSTRUMENT: sensor = CMG-5T/GURALP | digitizer = 
INSTRUMENT_ANALOG/DIGITAL: 
INSTRUMENTAL_FREQUENCY_HZ: 
INSTRUMENTAL_DAMPING: 
FULL_SCALE_G: 
N_BIT_DIGITAL_CONVERTER: 
PGA_CM/S^2: 36.150
TIME_PGA_S: 
BASELINE_CORRECTION: BASELINE REMOVED
FILTER_TYPE: BUTTERWORTH
FILTER_ORDER: 
LOW_CUT_FREQUENCY_HZ: 
HIGH_CUT_FREQUENCY_HZ: 
LATE/NORMAL_TRIGGERED: 
DATABASE_VERSION: 
HEADER_FORMAT: DYNA 1.2
DATA_TYPE: Acceleration
PROCESSING: Manual Paolucci et al., 2011
DATA_TIMESTAMP_YYYYMMDD_HHMMSS: 
DATA_LICENSE: U (unknown license)
DATA_CITATION: Turkish Accelerometric Archive v 1.0 - Disaster And Emergency Management Presidency, Earthquake Department
DATA_CREATOR: AFAD
ORIGINAL_DATA_MEDIATOR_CITATION: : AFAD - Disaster And Emergency Management Presidency
ORIGINAL_DATA_MEDIATOR: AFAD PROCESS SERVICE
ORIGINAL_DATA_CREATOR_CITATION: AFAD PROCESS SERVICE
ORIGINAL_DATA_CREATOR: network: TK
USER1: GuestUser
USER2: 
USER3: 
USER4: 
USER5: 
[...]
-0.937303
-1.712146
-2.832515
-4.201437
-5.426311
-5.042498
-3.624305
-2.436463
0.278785
-1.852427
-3.068828
-2.525904
-2.982211
-2.284883
-2.629781
-3.574092
-4.361174
-2.099723
-1.198407
-0.646382
-0.550978
-0.714168
0.805391
1.006869
2.038111
2.531450
2.368887
1.969697
2.079537
2.938173
1.604086
2.332483
3.446262
4.228324
4.698125
5.616703
4.931300
5.447549
5.342730
3.269891
3.680693
2.604260
2.495675
1.946789
1.915720
1.016286
0.909898
0.359756
-1.823551
-2.582389
-1.576567
-0.975585
-0.458081
-0.643868
-1.044000
-0.948909
-0.718873
-1.503131
-0.818670
-0.339453
-2.715138
-2.466899
-1.539848
-0.270410
-2.464702
-2.304335
-1.431263
0.547428
0.260902
1.088783
1.289633
-1.586294
-0.942317
-0.215176
1.035119
-0.641983
-0.169043
-1.568092
-2.236233
-1.278113
-1.251124
-1.852420
-0.818982
-0.602753
0.538328
-0.864173
-3.447612
-2.472859
-3.348442
-1.555223
-2.135493
-0.502641
0.701520
-0.198855
-0.891789
-0.492598
0.712505
2.549031
1.815299
2.020544
3.659986
0.593878
1.369977
2.547463
3.284019
2.416282
2.539931
2.781893
2.875414
4.578250
3.218743
0.846511
0.515422
-1.778353
-2.404442
-2.784802
-3.792821
-2.300564
-2.173150
-1.076632
-4.107277
-2.884599
-0.911243
-1.794044
-1.472997
-3.779639
-2.894642
-1.773017
-5.951335
-6.814050
-6.093813
-5.224820
-3.759553
-4.640785
-4.786087
-6.097578
-4.682837
-1.937776
1.272065
1.993558
1.831623
1.119859
0.718158
1.320396
2.186563
1.820325
0.330893
0.822977
1.016924
1.783608
0.836158
0.521702
0.332777
0.789398
2.918413
2.570691
2.174639
3.769204
2.230187
1.033558
0.598277
0.458937
0.914617
1.473546
1.604099
0.901750
2.856904
3.961268
1.641759
1.268302
0.142285
-1.992065
-0.322182
2.755224
4.742389
3.232558
4.126970
4.204800
2.703443
1.750658
-0.176878
-2.559153
-2.609993
-2.729562
-3.228236
-3.169550
-3.460783
-2.076798
-3.237964
-3.549283
-4.984422
-6.220594
-3.641862
-2.476301
-1.307916
-2.843167
-3.243299
-3.568112
-4.370258
-1.937457
-1.925531
-0.939794
-2.212370
-1.205607
0.146054
0.180575
-0.609960
-1.715579
-1.461064
0.114358
0.296378
-0.598348
0.361969
-2.613443
-1.812865
-0.711012
0.932196
1.669694
0.788463
1.716141
2.753973
4.670526
4.818340
3.613237
3.056505
2.619655
4.448650
5.867784
5.749784
5.503743
3.770152
3.185175
1.617600
1.136500
1.972854
2.270678
0.495662
0.117812
1.209623
0.026802
-0.896796
-1.402061
-0.838738
-1.969463
-1.842048
-0.644791
-0.595834
-0.358579
-2.749955
-2.385913
-2.194164
-4.441178
-6.813725
-6.772299
-6.938942
-7.504148
-4.752810
-3.666962
-2.368338
-1.215017
0.049086
-0.930060
-2.123551
-0.309620
0.548702
0.631239
-1.853658
-2.418864
0.005151
0.126916
3.070945
4.090889
3.010690
3.679460
1.647418
1.605051
2.373932
1.666248
1.034824
0.411560
1.570216
1.170085
0.578831
0.792863
-0.697511
-0.111906
0.576007
-0.345394
-0.150193
0.651012
1.822850
2.629704
2.574156
2.700315
2.458981
3.910126
3.321697
2.111573
1.461006
1.348027
1.798999
2.460865
2.699689
1.002816
0.267829
-0.542791
-0.502935
-1.514719
-1.377889
-1.918930
-1.955648
-3.162006
-4.090312
-3.569356
-1.811600
-1.588468
-1.138123
0.567850
-1.579680
1.538209
0.806988
-0.949198
-0.479710
-0.120062
0.149517
0.555612
0.443261
0.587309
-0.211072
-1.462307
0.736378
-0.774394
-2.406618
-1.890056
0.939425
0.248688
-0.422905
-1.275892
0.942250
2.617155
0.868501
2.147040
1.042048
0.247747
0.271599
0.989639
1.898801
2.538071
2.849703
4.729224
2.875751
3.540441
2.097769
0.203185
1.817834
-1.315433
-1.191157
-0.320595
-0.017123
-2.620019
-2.633514
-0.544669
-1.091359
0.479355
-0.320281
-2.121972
-2.160887
-3.833281
-2.427641
-1.756361
-1.375687
-1.464500
-3.265250
-1.066565
-0.202908
-1.349325
-1.431234
-1.250782
-2.487268
-0.164620
0.509484
0.892669
1.610082
1.500242
0.530511
0.658553
1.138398
0.890473
2.842489
1.719923
2.649170
3.541386
4.493229
4.334118
3.829795
1.045819
0.265327
1.177628
1.523467
4.016210
2.198199
2.529289
2.953899
1.517191
1.365925
0.729481
0.270977
-0.810164
0.393370
0.026191
-2.778184
-2.853189
-2.860093
-2.071127
-3.075380
-1.935239
-3.412746
-5.452633
-5.300740
-4.231839
-0.631280
-0.133861
-0.512652
-1.143762
-2.104392
-1.030784
0.195660
-1.483638
-1.129953
-1.367835
-0.303642
-0.993751
-1.576531
-2.289550
-4.186332
-4.309981
-5.463929
-2.034093
-1.046160
-0.375194
-1.946849
-3.937151
-1.392941
-3.477392
-2.138284
-1.874981
-5.010446
-3.527918
-2.722319
-2.131693
-1.286866
-0.817064
-0.215140
-2.794813
-1.007871
1.287159
0.421933
0.849682
-0.555330
0.273806
-1.592534
-1.643688
-3.384497
-5.092981
-3.938091
-1.872783
-0.074857
0.364817
1.077523
0.095552
1.095725
-2.142989
-4.167813
-2.370515
-0.174026
-0.695296
0.538366
-0.469966
-1.278703
1.689176
1.317289
0.321196
1.506528
1.834166
2.947003
6.020329
4.063292
1.701416
1.082546
-1.219075
-1.359356
0.585127
0.008310
1.006286
-0.322779
0.421623
-0.130088
-0.388369
1.857390
1.721503
2.838106
1.273355
0.887973
1.296579
2.864468
3.443168
-0.410964
-1.112058
-0.696234
-0.679915
2.763102
-0.091486
-0.658888
0.050051
-0.081757
3.458233
1.921413
2.533380
0.590779
0.981496
2.010227
-1.210912
0.705641
1.537287
2.021212
3.297867
1.016332
0.821444
1.961584
0.755226
1.201491
-0.326542
-0.662338
-1.560517
-0.179669
2.112537
1.131822
2.621567
2.110968
-0.608673
-1.675691
-1.786473
-2.517066
-2.063583
-3.292537
-2.304290
-3.567765
-2.393731
-1.178899
-4.219901
-3.773322
-5.667279
-4.493245
-4.005869
-4.220528
-2.653894
-2.786330
-1.723705
-1.823817
-4.526197
-5.120275
-4.970892
-2.363916
-0.724474
-1.586561
-1.050228
-2.888637
-2.393101
-1.422742
-0.427905
-0.554378
-1.931459
-1.579029
-1.070312
-0.881701
-0.422569
0.774374
-1.539486
-1.997362
-0.941014
-1.782075
0.827098
1.246374
0.098388
0.836827
1.587506
3.260214
3.896973
4.611561
5.371341
4.915034
5.691760
5.795638
4.398158
6.728651
6.517758
2.414132
1.504342
-0.089281
-0.197238
1.783650
2.797004
3.286891
0.792893
0.826159
2.266006
1.050547
2.227719
1.268030
1.529764
2.872637
2.023417
4.988472
4.249405
3.467030
4.522122
3.946874
3.974491
3.695497
3.020452
2.113486
2.258161
1.003788
2.189119
2.377731
1.898828
3.193058
2.235253
2.110976
3.708679
3.117740
3.098282
4.334454
1.896004
0.772497
-0.390239
-1.870884
-4.523993
-3.772059
-2.616854
-4.435493
-3.023890
-4.365195
-3.900728
-2.095270
-3.001608
-2.699077
-0.690572
-0.726662
0.347260
1.527257
0.971780
2.824312
2.617499
0.712557
-1.635196
-1.890967
-0.976783
-2.717278
-1.411750
-1.088506
-0.561587
-0.243365
-1.558621
-0.344731
-3.631147
-5.339004
-5.998044
-8.701680
-9.102125
-8.573637
-10.943673
-11.667362
-11.193167
-12.460721
-10.999534
-10.379722
-10.267999
-9.332161
-8.374669
-8.330733
-7.327422
-7.099582
-5.941867
-5.243598
-4.744610
-2.874504
-3.618278
-4.088707
-4.545956
-4.550663
-5.670404
-5.561820
-5.047454
-5.792170
-3.220970
-2.748657
-4.343535
-3.686378
-3.222225
-3.854904
-2.108446
-2.357626
-4.968996
-3.153810
-1.809367
0.157399
1.853958
1.568060
2.591142
-0.846853
-0.559386
5.393634
5.081689
6.320999
6.104457
3.939038
4.146479
3.938410
6.713599
6.246622
5.399598
5.396146
5.361311
5.700246
7.734485
8.905695
6.449042
4.794537
1.386669
1.773620
4.108193
5.420626
5.758619
7.148567
8.517803
9.219838
11.146120
12.140330
10.290309
5.985518
6.749692
5.307648
3.326133
0.501045
-0.919972
-1.686028
-3.060912
-0.215426
-0.396505
-0.601435
-1.488943
-1.184529
0.824290
1.276831
0.818327
1.500591
1.405501
2.906231
2.447413
2.094356
6.169738
7.479346
7.770893
10.188631
13.079622
15.708567
16.830819
14.443209
14.061907
14.134715
15.387834
17.203334
17.288068
16.957606
16.518246
13.599010
12.599779
11.017454
9.462432
8.409222
4.376208
2.806122
0.812681
-0.644426
-5.071296
-7.973272
-9.530177
-8.233122
-6.954583
-4.499813
-2.436702
-1.984789
2.297093
1.244197
1.693286
2.035987
0.619364
0.019951
-0.997796
-2.638180
-1.799001
-2.163042
-2.991864
-2.833695
-5.765170
-5.472368
-5.937148
-6.361445
-5.660351
-5.801574
-6.852273
-8.253205
-9.202537
-9.678929
-9.186218
-6.287380
-5.407090
-5.862142
-4.936033
-10.548234
-11.702811
-12.195522
-11.903661
-10.305958
-11.268785
-8.728968
-8.528431
-6.517416
-6.714186
-8.864542
-9.054722
-7.695215
-5.543290
-1.982274
0.873569
0.152076
-3.006297
-3.887843
-3.648077
-3.831981
-1.252307
-2.548734
-1.052084
-0.443884
-0.470246
3.908609
3.993657
2.897452
3.715291
1.462941
1.075676
0.482853
-3.333933
-5.472049
-7.419985
-6.274509
-6.104100
-3.250454
-4.625966
-7.048411
-7.023932
-8.575188
-6.210488
-8.931698
-10.540698
-11.496307
-10.430858
-10.252289
-11.545892
-9.673589
-12.166645
-10.923883
-8.866420
-10.402926
-9.456105
-8.775096
-9.118738
-6.165609
-4.059503
-0.687726
2.403489
3.214737
7.830846
7.727910
8.284642
7.253401
2.790440
2.435814
1.178929
5.026158
8.007846
11.937297
14.929655
12.316716
15.864552
16.573805
16.592635
15.292128
11.026566
11.776931
10.446925
9.303019
9.498534
8.795557
11.102514
11.584555
11.452747
10.422447
9.120998
10.216575
6.162220
4.047641
2.520864
-0.592318
0.152084
-0.660105
-3.540427
-2.868519
-5.519745
-7.217873
-7.444457
-10.356789
-9.607679
-10.898144
-11.626540
-11.353823
-10.150289
-8.895915
-4.358891
-2.473721
-2.261886
0.753695
0.060134
1.001306
0.457441
-2.153929
-1.079379
1.155397
3.430029
7.375799
10.256120
13.397548
16.413129
18.558464
20.017768
20.268831
19.218132
16.029317
11.349501
8.827886
5.923086
2.434565
0.570421
-1.168191
-3.155669
-3.951225
-6.272617
-8.516179
-8.037276
-10.852635
-8.641397
-8.151196
-10.644880
-9.634037
-9.542399
-11.028693
-13.336276
-12.960623
-11.748302
-11.410936
-10.011573
-6.118525
-4.308674
-0.923088
0.420727
0.079595
0.658609
-1.559219
-0.313318
-2.026196
-6.665215
-7.695515
-7.841131
-8.117614
-9.815428
-10.582426
-11.230169
-12.497410
-9.819822
-8.434267
-7.578456
-5.987029
-5.560850
-3.675052
-2.061030
0.426692
1.592566
2.997264
5.769315
6.745950
8.928316
12.018589
12.610471
14.769927
16.446087
14.908640
17.011607
17.161303
15.605026
15.302809
10.168569
7.068881
6.521250
3.612370
2.476624
-1.468833
-5.118662
-4.538079
-4.040032
-3.029190
-2.142309
-2.324644
1.133751
3.180856
4.452177
7.349132
5.726323
9.897736
11.592098
13.142413
14.235479
11.994741
12.895116
11.330052
12.580032
13.190116
13.067409
12.930893
10.232593
10.357497
13.151201
11.279526
11.007750
6.883411
1.990506
-0.447317
-3.494909
-2.083307
-4.449576
-7.137520
-10.034475
-9.941581
-8.375261
-7.609833
-7.403019
-7.548322
-7.696135
-5.788056
-2.759607
-1.674700
-0.357561
0.591144
2.915361
4.860159
7.904299
7.154248
8.560829
11.865133
13.062077
16.022111
18.277913
18.278226
17.959690
15.291203
10.318899
7.675518
-0.133485
-4.894583
-8.286131
-12.225311
-12.680677
-16.975111
-17.655178
-18.549276
-20.152942
-19.605624
-20.739802
-20.504744
-20.124383
-17.430790
-14.191762
-16.590983
-16.936195
-16.068772
-15.042552
-10.263879
-6.378678
-0.469908
1.289417
2.764099
2.827492
1.237008
1.576571
-0.036823
0.426702
0.848488
1.147253
2.775711
3.764586
5.717543
9.722628
10.562434
13.739951
12.194658
9.891154
7.987782
5.093338
5.779055
2.903127
1.194329
0.154928
-2.016768
-1.567051
-0.234847
-1.384403
-2.445772
-5.597241
-8.494823
-11.096778
-11.215719
-11.594197
-13.378000
-11.522016
-9.530144
-5.801857
-1.803363
-0.101155
3.701509
5.360723
6.522831
10.541724
11.411971
12.999004
16.134154
17.335491
15.189844
12.370405
8.938059
5.617436
2.931374
-0.193733
-5.399527
-9.907364
-14.241341
-19.230278
-21.916026
-23.829440
-24.640374
-22.753321
-19.376522
-18.158866
-16.573402
-15.474687
-12.143394
-10.359904
-9.179594
-7.831699
-8.949557
-7.239504
-6.024672
-4.644452
-2.612410
-0.485592
0.830920
3.998081
6.087554
6.718978
7.632847
10.402073
13.487011
14.760843
18.020897
15.919185
14.899555
13.829085
9.023110
5.454562
2.934830
-0.500341
-1.720193
-1.288051
-0.535489
1.447909
2.002759
3.458297
0.553811
2.704481
3.057852
1.814462
4.304380
3.613643
6.312258
5.557499
5.657925
9.200425
7.914041
8.072524
8.257370
3.249603
3.179305
4.570195
3.199704
0.560089
-2.901443
-7.027037
-11.289147
-11.789390
-12.220591
-12.604403
-12.721148
-14.804657
-16.633652
-15.854729
-17.581415
-19.333208
-15.943856
-13.726341
-12.613504
-10.566398
-7.542343
-5.790864
-3.463509
-0.391124
0.583942
3.122818
2.750303
2.454363
1.239218
2.879287
5.890475
8.265846
12.458286
9.636023
8.151613
7.215775
6.546692
5.411887
2.963394
0.110062
-2.217920
-2.436345
-1.118264
0.591162
-0.383276
-0.702754
-2.406531
-2.061319
-1.737761
-0.361935
1.108039
1.815096
4.164419
5.879494
9.100319
10.142859
8.852081
5.573511
3.033066
0.794525
-0.937496
-1.812451
-3.311612
-1.690999
0.901855
3.580384
7.875446
11.860132
16.397470
19.421211
20.068954
22.306554
23.272519
21.872842
21.019542
20.419501
17.298159
14.413444
10.562764
4.845430
2.658357
0.220534
0.342927
0.557586
-2.806659
0.400986
0.890559
1.554621
3.918066
2.173492
2.400704
0.368662
-0.419048
-1.876156
-2.963572
-2.823918
-3.412975
-4.169303
-7.357804
-9.778366
-12.839139
-19.350460
-23.430863
-25.887829
-28.861671
-28.750262
-30.908149
-33.315844
-33.982730
-35.733582
-36.149719
-35.774065
-35.556582
-33.088945
-28.478485
-22.458306
-16.957827
-9.450413
-1.067416
3.877272
9.493867
11.620058
12.889182
14.708762
15.214968
17.172632
16.687767
17.871529
17.958774
15.599095
14.457071
14.210716
14.601433
14.124727
14.458327
14.951352
16.286694
16.797608
15.129921
14.441695
11.921021
9.458092
8.237926
4.943351
2.565783
0.546922
1.485584
3.404020
6.564277
8.616718
9.160270
8.818824
8.233219
9.138302
8.054023
9.385913
8.384799
7.656716
7.045064
6.583736
6.970373
7.908721
7.984040
6.376295
4.277094
1.953819
1.600448
0.775078
2.426759
1.495943
0.909397
0.552573
0.121059
-0.560891
-4.304242
-7.825088
-9.586609
-10.183825
-10.330383
-9.148504
-9.005712
-8.786659
-8.293634
-6.593623
-4.117827
-1.272340
-0.457640
-1.158734
-1.483233
0.163741
1.283483
0.574230
-0.144125
-0.296332
-1.563886
-2.722542
-1.518067
-2.123129
-1.010606
-1.563886
-2.865962
-3.758491
-4.042192
-2.867844
-2.216963
-1.304976
-1.599662
0.578311
2.295269
1.213187
1.992738
3.158926
2.663704
1.757053
-1.271396
-4.894864
-4.452679
-3.867702
-3.837888
-2.703710
-5.461638
-7.340532
-9.060941
-12.668090
-14.006884
-13.027424
-11.874417
-12.546952
-11.612997
-9.452599
-8.297395
-7.357791
-6.376762
-4.807932
-2.297928
-2.029918
-0.049344
2.621340
2.938621
5.408454
6.414903
8.470796
11.167528
11.379676
13.575537
15.859584
16.858815
17.238234
16.626268
15.521904
13.013156
9.140194
5.080190
1.584764
0.684389
2.765075
6.084757
6.179847
5.977428
5.833380
4.333592
5.781912
5.965816
6.624543
7.164643
7.244042
10.228868
13.058977
14.642557
17.201832
17.729692
16.487871
15.754140
15.221258
15.147822
11.849795
10.659128
8.587858
5.598638
6.867762
5.604601
4.512477
3.340326
-1.105688
-3.009060
-6.708160
-8.884877
-9.024845
-12.599042
-14.588403
-16.727147
-14.267983
-12.167527
-12.684717
-12.701349
-14.198313
-13.099912
-14.269552
-15.345044
-13.886367
-12.576759
-9.754182
-7.390737
-5.508391
-4.215730
-2.619910
-0.486187
2.055827
2.294023
3.765253
7.088073
7.475652
7.688114
7.303674
9.212695
9.943288
11.154982
12.759275
13.497087
14.319632
13.512465
11.494859
8.160427
4.411741
2.047355
1.056283
-2.007628
-2.292270
-2.586956
-4.061951
-2.816992
0.143042
1.578181
2.916034
2.924508
1.640320
0.983162
0.456558
-1.036326
-3.521223
-5.088798
-6.029029
-5.842615
-6.877309
-7.242919
-9.567450
-10.144895
-11.165780
-14.421440
-14.829732
-15.568485
-16.477647
-17.658585
-14.702003
-11.393305
-10.097192
-7.082552
-7.770464
-7.449417
-7.001897
-7.145317
-5.460997
-6.496632
-5.145913
-2.216948
0.184471
1.329318
2.378135
3.096489
3.889535
4.354629
3.661067
4.720554
4.779240
3.101825
1.662292
0.802087
0.009355
0.664316
0.583348
0.494535
0.350174
-1.833761
-2.111186
-2.191212
-4.824550
-5.560165
-6.648837
-8.974623
-8.765926
-7.769520
-6.258434
-3.484186
-0.713391
2.376568
5.035326
6.863066
8.030509
8.112419
8.463279
9.036959
10.810406
12.524853
16.070805
16.804851
14.093998
12.211338
7.408187
4.251069
1.208498
-4.721612
-9.022009
-13.339039
-16.971294
-18.833868
-21.277026
-23.911933
-25.298742
-25.455343
-26.273181
-25.937698
-25.693853
-26.152984
-24.646606
-22.712164
-21.903113
-18.682915
-14.217130
-11.864041
-8.233355
-4.064766
-0.149123
4.876219
8.077587
10.287884
12.522032
15.042391
17.070354
17.523523
16.613733
13.782683
11.991034
11.343919
11.235962
12.267831
14.978685
16.053549
17.285327
18.364271
18.835956
18.602781
17.808480
18.728313
17.987677
18.486351
18.342304
16.583293
15.899146
15.138739
13.601605
12.520465
10.924959
9.780425
8.592583
6.819764
4.721190
1.092387
-0.901995
-3.230292
-6.276001
-7.736560
-9.627693
-11.994590
-14.198296
-16.654321
-16.525965
-17.496637
-19.036596
-20.372251
-22.970754
-23.784826
-25.916038
-27.095407
-26.672679
-25.091609
-22.291314
-18.523485
-14.631379
-12.391582
-11.057495
-11.072559
-10.349497
-9.491489
-8.793847
-6.978975
-6.242732
-4.459243
-2.429398
-3.524033
-3.236251
-1.925074
-1.817117
-1.227433
-0.213138
0.248505
1.933138
1.902383
1.664815
2.534121
2.279292
1.998729
0.894993
0.965605
0.364309
-0.690784
-1.543771
-1.634781
-1.450877
-0.748214
-0.291907
-0.621741
-0.355300
0.587442
3.192221
5.779113
5.870123
4.983557
4.332990
1.984922
1.866609
-0.770809
-3.755949
-5.538183
-10.028446
-11.453857
-12.658018
-12.710428
-11.322049
-10.031898
-8.374568
-6.594530
-4.920567
-4.583201
-3.433959
-1.966182
-0.692350
1.337495
4.914517
8.235768
11.158456
14.695935
16.752456
19.059412
19.860303
19.616772
18.979386
16.969940
16.025001
15.074727
14.827430
13.583413
12.897383
12.317741
10.477135
10.193747
10.800065
11.295601
11.065250
11.435882
11.047049
8.892300
6.155712
3.866017
1.587305
0.685675
-0.224742
-3.078074
-4.810096
-8.669249
-11.033950
-10.128553
-9.337391
-6.636579
-3.801449
-2.472384
-2.733803
-2.826069
-5.863932
-7.837602
-8.047867
-8.796035
-8.546855
-7.800884
-6.843392
-6.285718
-5.485140
-6.045638
-5.474783
-5.771979
-4.182122
-2.339947
-1.591151
-0.252043
-0.202772
-1.235269
-1.517087
-3.190422
-5.669670
-5.578974
-6.689928
-5.826584
-4.317695
-3.085603
-2.381998
-0.935561
1.616182
2.703599
3.478128
3.923765
4.306637
4.288749
5.043193
6.993012
7.737101
9.638904
10.031504
9.679388
11.189846
11.196750
12.229248
12.068881
10.853736
9.058007
7.537506
7.225874
7.258826
7.179114
6.455425
6.411489
6.867482
7.050131
8.036809
7.960235
6.703978
5.686545
4.112065
4.662835
4.122108
3.228324
2.789905
0.075599
-1.857273
-4.757679
-7.147172
-6.631237
-8.148914
-9.357469
-9.192081
-8.723848
-6.913683
-5.050481
-3.770373
-3.683442
-3.319087
-1.816160
-0.030788
1.474022
2.628912
