EVENT_NAME: 202010301151
EVENT_ID: 10614
EVENT_DATE_YYYYMMDD: 2020/10/30
EVENT_TIME_HHMMSS: 11:51:24.00000
EVENT_LATITUDE_DEGREE: 37.879
EVENT_LONGITUDE_DEGREE: 26.703
EVENT_DEPTH_KM: 16.54
HYPOCENTER_REFERENCE: AFAD
MAGNITUDE_W: 6.6
MAGNITUDE_W_REFERENCE: AFAD
MAGNITUDE_L: 
MAGNITUDE_L_REFERENCE: 
FOCAL_MECHANISM: 
NETWORK: TK
STATION_CODE: 3517
STATION_NAME: 
STATION_LATITUDE_DEGREE: 38.3756
STATION_LONGITUDE_DEGREE: 27.1936
STATION_ELEVATION_M: 136.0
LOCATION: -_-_-
SENSOR_DEPTH_M: 
VS30_M/S: 695
SITE_CLASSIFICATION_EC8: B
MORPHOLOGIC_CLASSIFICATION: 
EPICENTRAL_DISTANCE_KM: 69.93
EARTHQUAKE_BACKAZIMUTH_DEGREE: 
DATE_TIME_FIRST_SAMPLE_YYYYMMDD_HHMMSS: 2020/10/30 11:51:10.6026560
DATE_TIME_FIRST_SAMPLE_PRECISION: millisecond
SAMPLING_INTERVAL_S: 0.01
NDATA: 10501
DURATION_S: 
STREAM: HNZ
UNITS: cm/s^2
INSTRUMENT: sensor = CMG-5T/GURALP | digitizer = 
INSTRUMENT_ANALOG/DIGITAL: 
INSTRUMENTAL_FREQUENCY_HZ: 
INSTRUMENTAL_DAMPING: 
FULL_SCALE_G: 
N_BIT_DIGITAL_CONVERTER: 
PGA_CM/S^2: 20.071
TIME_PGA_S: 
BASELINE_CORRECTION: BASELINE REMOVED
FILTER_TYPE: BUTTERWORTH
FILTER_ORDER: 
LOW_CUT_FREQUENCY_HZ: 
HIGH_CUT_FREQUENCY_HZ: 
LATE/NORMAL_TRIGGERED: 
DATABASE_VERSION: 
HEADER_FORMAT: DYNA 1.2
DATA_TYPE: Acceleration
PROCESSING: Manual Paolucci et al., 2011
DATA_TIMESTAMP_YYYYMMDD_HHMMSS: 
DATA_LICENSE: U (unknown license)
DATA_CITATION: Turkish Accelerometric Archive v 1.0 - Disaster And Emergency Management Presidency, Earthquake Department
DATA_CREATOR: AFAD
ORIGINAL_DATA_MEDIATOR_CITATION: : AFAD - Disaster And Emergency Management Presidency
ORIGINAL_DATA_MEDIATOR: AFAD PROCESS SERVICE
ORIGINAL_DATA_CREATOR_CITATION: AFAD PROCESS SERVICE
ORIGINAL_DATA_CREATOR: network: TK
USER1: GuestUser
USER2: 
USER3: 
USER4: 
USER5: 
[...]
-0.954716
0.319743
0.446224
-0.075895
0.784857
1.149033
0.098252
-2.621382
-6.082139
-7.995852
-7.868124
-8.815167
-9.914235
-9.636351
-8.936971
-8.003011
-6.460949
-4.272780
-2.920438
-1.665916
-0.299556
-0.091766
0.516960
0.727865
-0.169956
0.333784
3.428810
5.859349
6.814181
7.874933
7.991757
7.426647
7.608891
7.169950
7.353441
10.522922
12.605484
11.736323
11.084609
12.153149
12.412964
12.158758
11.588352
9.504858
7.613575
5.558430
3.304841
2.697675
3.935375
5.556564
4.906096
3.216995
2.404532
1.077738
-0.381456
-1.386442
-0.686751
0.423223
-0.018211
-0.325688
1.349396
3.953144
6.865615
9.270296
7.688672
5.849727
5.173713
2.715139
-1.580823
-5.800150
-8.780532
-12.297053
-15.357186
-17.177440
-17.416693
-15.421047
-11.000160
-6.321640
-3.212283
-2.256828
-2.415394
-2.243119
-3.295457
-5.060882
-6.460574
-6.647801
-5.416333
-4.414771
-3.087040
-0.987032
-0.212886
-0.669896
-0.954942
-0.067711
0.906748
1.172170
1.559088
2.007065
3.086197
4.092743
3.966576
3.754115
4.070005
3.403025
0.772489
0.369685
4.641350
8.373450
8.611458
9.033578
11.445425
12.118325
11.885303
12.491537
14.124564
14.660704
12.024248
8.037632
2.416744
-2.845889
-6.648392
-8.943725
-10.173323
-10.922546
-8.850264
-4.564269
-2.191052
-1.522513
-1.012230
-0.529984
0.293384
0.201172
-0.585745
-0.548361
-0.264558
-0.124993
-0.245553
-1.823750
-3.060202
-3.758957
-5.798526
-7.698843
-7.537471
-5.904443
-4.557397
-4.528736
-4.230292
-4.222502
-6.218769
-7.140267
-6.756464
-7.677650
-9.342763
-10.129369
-10.448995
-10.291361
-9.202883
-9.014408
-7.813469
-4.262678
-1.781361
-2.425911
-4.237753
-4.108157
-2.384163
-1.539300
-2.250516
-1.362662
1.489061
2.882836
2.227072
1.366011
1.356977
1.690936
0.959159
0.537352
1.879724
4.085651
6.361360
7.262921
7.582549
8.100309
8.372273
10.743310
14.012168
14.790365
14.672920
13.689117
12.236777
10.330853
7.352028
5.482865
4.576944
2.523667
0.079735
0.099363
-0.554844
-2.780707
-3.897220
-4.620275
-4.633046
-5.457035
-6.564826
-6.148313
-7.478534
-10.597858
-11.345523
-8.869190
-8.878535
-10.250501
-7.949558
-5.563569
-5.170731
-4.628673
-2.255767
-0.376633
-0.645480
-0.900620
0.804371
2.046743
3.740519
6.250185
6.916543
7.339598
7.770441
8.774807
9.242411
9.519048
8.502223
5.198787
3.055791
1.607500
1.190678
0.749244
-1.675373
-3.725534
-4.230519
-3.833632
-5.080053
-7.902491
-8.093456
-6.896878
-7.863235
-11.464803
-14.840202
-16.649553
-17.675100
-16.661700
-14.599076
-11.678817
-7.608398
-4.022717
-2.127694
-0.150117
1.890077
3.093820
3.462981
3.830585
4.950215
4.867973
4.690092
5.355204
7.010038
8.562692
8.260200
6.561442
5.101625
3.626232
2.130901
3.205672
6.235277
8.460519
8.414725
5.839952
3.941504
2.762062
0.939004
0.920314
1.084178
1.062061
2.402876
3.444936
3.087926
2.981073
4.825628
7.358971
7.977042
6.960840
4.829059
2.120952
1.780142
2.951797
2.027496
0.040887
-0.902418
-1.577185
-2.739493
-3.968468
-3.240116
-2.110205
-4.633265
-8.631096
-9.722375
-10.002437
-11.037019
-11.492160
-11.263809
-9.131403
-5.970333
-2.799606
-0.041964
1.767077
3.616616
5.439676
8.045916
11.088917
12.988612
13.116028
11.197954
9.898574
9.287047
6.106041
0.938424
-1.803639
-2.990870
-5.403649
-6.093681
-6.336049
-7.400225
-8.275305
-9.504280
-9.850386
-8.691191
-7.354738
-6.592429
-5.515478
-5.001145
-4.321391
-2.581821
-1.122314
-0.469040
0.150901
0.312896
-0.941001
-0.781810
1.356516
1.747483
1.736581
3.004187
4.671171
5.606378
3.140327
0.701068
0.090164
-1.076505
-2.711712
-3.584923
-4.424177
-5.546298
-6.318885
-5.566233
-3.862489
-3.914202
-3.358436
-0.697990
2.616040
3.079905
3.126323
5.038168
5.618233
4.142217
2.053738
0.620090
-0.914493
-1.695180
-2.216053
-3.217925
-4.857493
-5.791140
-6.890831
-9.021054
-10.522927
-9.734139
-7.757496
-6.790826
-5.682721
-5.082096
-4.626953
-3.374612
-0.610428
1.725717
1.128209
-0.211981
1.580548
3.248779
1.157185
-2.251236
-3.183014
-1.527556
-0.174280
0.754073
1.450026
2.235388
1.031335
0.702051
2.788663
3.442872
2.127292
3.001751
7.460021
11.936360
13.765338
13.850075
15.945409
16.630148
15.089022
12.219232
7.801463
3.733226
0.356270
-1.499810
-3.699504
-5.683933
-5.490474
-6.145303
-8.457459
-8.644375
-7.447797
-7.091097
-7.566487
-7.302934
-6.281434
-6.152461
-6.807291
-7.631903
-7.456824
-8.472402
-8.274581
-4.904788
-1.874560
-1.055553
-0.777358
0.972181
2.994930
4.180604
4.653192
4.372818
3.957865
3.915809
1.741972
0.403028
0.786208
0.665024
1.361912
2.348520
2.034502
1.695249
2.838244
5.058190
6.547604
8.084681
10.615219
11.304631
10.241388
8.940762
7.591226
5.000565
1.900245
-1.510357
-5.548375
-8.225952
-9.355550
-10.322219
-11.087952
-11.241223
-8.039343
-4.746185
-3.163625
-1.069225
-0.708787
-1.267666
-1.349597
0.432964
2.240447
2.437022
2.324873
1.685931
-0.250211
-1.904421
-2.662366
-1.911895
-0.838682
-0.999741
-0.333383
2.070675
3.403702
2.136098
0.281264
-1.887277
-3.218433
-3.665474
-2.649894
-2.395375
-3.952077
-3.234628
-0.815928
-0.635553
-1.441162
-1.429634
-1.709073
-1.295675
-1.237107
-0.689130
0.277229
1.555427
3.146399
4.070079
3.867587
1.825214
-0.184760
-2.101588
-3.153926
-2.914361
-2.776353
-2.929624
-1.275724
1.176621
2.508714
3.347035
3.825542
3.570713
2.319620
2.423983
3.613707
4.056077
4.255767
3.408725
1.746415
0.371646
-1.175710
-1.627113
-0.272590
2.882249
4.184435
3.903438
5.240515
6.897218
9.555795
11.595054
10.325892
8.203145
8.484456
8.392556
7.124329
6.448938
5.663578
3.629305
1.801263
1.066682
0.151104
-0.607776
-0.499987
0.716529
1.690053
0.392231
-2.290643
-3.189710
-1.349205
-0.119294
-0.864155
-2.067585
-4.610582
-5.620865
-5.403418
-6.085662
-5.469771
-2.128015
1.777294
4.108766
5.094440
4.034936
2.830572
1.652687
-0.249810
-2.478476
-5.248266
-6.836432
-7.033316
-7.893754
-9.716189
-10.545786
-10.229896
-10.082542
-8.674126
-4.707757
-0.916156
0.972636
3.829344
7.706927
10.180144
10.015347
7.548674
4.131841
0.545538
-2.213036
-4.778464
-7.422085
-8.382212
-8.758224
-8.828940
-7.042952
-4.939206
-4.080636
-4.008984
-3.378763
-0.936698
2.793221
6.256161
9.147137
11.395431
12.280482
11.417552
10.349948
7.482339
2.267993
-2.973144
-7.512098
-10.368803
-12.543576
-13.098717
-10.933911
-8.078761
-4.175322
-1.097741
-0.067207
1.394169
2.636541
3.227510
3.176109
2.924707
3.191376
3.800101
4.008202
2.899789
1.844023
0.589191
-2.433870
-5.674066
-8.313949
-9.605229
-9.343857
-8.627343
-7.964723
-6.946027
-5.680290
-4.653495
-2.989937
-1.205819
0.715995
2.992016
5.145917
7.155270
9.755591
10.802636
11.304819
13.738784
15.606703
15.824773
15.756550
16.558422
16.617302
15.200165
13.337231
11.788941
9.385507
6.642198
4.731289
3.937207
4.057146
3.615089
2.502003
2.450290
3.974595
4.801078
4.270859
2.618830
0.596706
-1.346913
-3.123241
-4.530410
-4.784927
-3.239127
-1.246285
0.351541
1.087058
1.857155
2.935041
2.934107
2.391739
2.715105
4.224456
3.847509
1.337533
-0.500166
-2.004531
-3.656872
-3.957806
-3.536620
-2.817614
-0.656859
2.241594
4.820730
6.331951
8.503921
11.455645
13.826369
14.861265
14.424504
12.801447
9.450659
5.534448
3.530704
2.399238
0.988642
-1.686443
-5.268073
-7.934747
-9.919176
-12.481800
-16.056888
-17.759696
-18.009852
-18.684308
-19.943189
-19.425118
-16.867165
-12.865906
-8.788011
-6.131615
-3.605127
-1.639076
-0.810412
-0.946549
-1.371160
-3.178329
-6.373042
-9.039716
-10.195794
-9.698284
-8.869931
-9.055912
-8.916658
-7.697651
-6.604500
-5.554963
-3.546545
-1.831273
-0.024413
1.885251
2.294599
2.469678
4.133236
5.189626
4.584018
3.064699
0.657216
-0.774252
-1.400421
-1.940920
-2.588273
-3.338430
-4.189834
-3.477370
-2.291072
-2.951821
-3.838427
-3.502600
-3.026896
-2.698857
-1.473619
0.126076
1.592748
1.245396
-1.729690
-4.912877
-6.443722
-6.240294
-4.646830
-1.915668
1.084031
2.897433
5.757879
8.900881
9.695277
10.036712
10.079080
9.754158
10.360080
10.664443
10.885629
11.325818
10.693418
9.905566
9.686252
8.952294
7.285311
6.251353
5.652598
3.951971
2.090906
1.673461
1.787481
1.537948
1.998387
3.293096
3.616774
3.063813
2.429544
2.397146
2.920202
2.999954
2.546371
1.324250
-0.717500
-2.423424
-3.143674
-2.356132
-2.307533
-3.844920
-4.082614
-4.095698
-3.514075
-3.716878
-4.792270
-4.617191
-4.524043
-4.307842
-3.334630
-1.822163
-1.084153
-1.604403
-2.422785
-2.762972
-2.090695
-1.660474
-1.660785
-1.435550
-0.142398
2.560415
4.127710
4.873508
6.109338
6.845478
6.688158
7.142366
6.612770
4.594073
3.300612
2.498742
1.522727
0.755436
0.932384
0.692198
0.499986
0.213382
-1.440205
-4.421210
-6.807821
-6.541776
-5.010617
-3.876033
-2.496277
-0.162001
1.862616
3.407171
3.424305
1.852962
0.971029
1.349535
1.356078
0.290032
-1.099068
-2.402809
-2.001561
-0.361679
0.141127
0.038635
0.206238
0.842067
1.109358
0.695339
0.287862
-1.546722
-4.273521
-6.834587
-8.285370
-8.931788
-8.392533
-6.909973
-6.917760
-6.912775
-5.342987
-3.751081
-3.179739
-2.748272
-2.045154
-1.370073
-1.380353
-2.132379
-3.289702
-4.447961
-5.694069
-7.450460
-9.853582
-10.812151
-9.319311
-6.737370
-5.209016
-5.354187
-5.066334
-5.014931
-5.933936
-6.987521
-7.737055
-8.203723
-8.114936
-7.612442
-6.983467
-6.388448
-5.249503
-2.447624
0.594754
2.046784
3.625295
6.206924
8.020637
9.986065
12.411619
13.582963
13.932497
14.489821
16.141852
16.831886
15.555559
14.591694
13.693250
13.263343
12.577049
10.690440
7.821273
4.753663
1.366114
-2.029222
-3.026421
-2.714892
-2.491215
-2.159749
-2.312085
-1.607097
-0.762234
-1.083729
-1.245411
-1.842297
-2.623606
-2.488403
-0.871574
0.984507
2.606632
4.133117
5.702593
6.679856
5.735306
4.516923
4.591379
5.051506
4.008201
1.801965
1.082960
2.110379
2.538418
1.438416
0.416607
1.732500
4.077368
4.586093
3.746216
3.554939
3.900735
4.445598
5.577066
7.027228
8.313525
9.475835
9.737831
9.208546
7.893902
5.948102
4.154951
2.220989
0.890145
-0.082131
-1.248489
-2.203943
-4.029804
-6.240402
-7.164703
-8.077166
-8.920781
-8.165015
-5.972795
-4.043193
-2.506116
-1.175270
-0.612027
-0.215763
-0.326978
-1.177447
-2.446920
-3.679633
-4.461566
-4.050349
-2.455639
-1.218563
-1.796445
-3.204548
-3.655951
-4.077446
-5.029785
-6.457826
-7.752844
-7.884931
-7.448792
-6.884303
-6.856888
-7.745986
-8.376828
-8.272777
-7.280873
-6.343486
-5.608592
-4.573074
-3.178676
-2.089263
-1.471192
-0.513867
-0.092058
0.208567
0.222898
0.325080
2.062158
4.108583
4.070577
4.062479
5.031330
5.462796
4.925724
3.434131
1.638177
1.083347
3.078058
5.416073
7.392092
10.365623
13.519528
13.912365
12.037282
10.110486
8.746931
7.506741
6.369978
5.683996
4.773090
2.846294
1.097068
0.752831
-0.427545
-2.460884
-5.006062
-7.271489
-8.664016
-10.686762
-11.745332
-11.003273
-9.461522
-7.381141
-4.861506
-2.801997
-2.021620
-1.629717
-0.921615
-0.212889
-0.069897
-0.414134
-1.034072
-1.841239
-2.559932
-3.644358
-4.945919
-5.986420
-6.921312
-7.567419
-7.426608
-6.671776
-5.782987
-4.783606
-3.884537
-2.696994
-2.086711
-2.087021
-1.327205
-0.387637
0.390559
1.447262
1.813619
0.377790
-0.563334
-0.240279
-1.013178
-2.059286
-1.574548
-0.826881
-0.653671
-0.150242
0.568453
0.841975
0.279046
0.261913
1.300235
1.881546
2.168152
2.769089
3.045104
3.012083
3.986230
4.621747
5.307420
6.701194
7.616463
7.377834
6.003999
5.026738
4.671598
3.935459
3.050411
3.211160
3.617704
4.316461
4.800576
4.362257
3.782506
4.394035
4.877215
5.095285
5.388745
4.741703
4.560084
4.005877
2.553226
0.984375
0.172535
0.318019
0.970982
1.382199
1.313041
0.750735
0.756343
2.766942
5.038601
5.459476
4.370377
2.936417
1.959156
0.546380
-1.302534
-1.977302
-2.384779
-3.268893
-3.782289
-4.877619
-7.095382
-8.565790
-9.027473
-8.874512
-9.085415
-9.566413
-9.159246
-8.367030
-8.513759
-9.247094
-9.456439
-9.106904
-7.775435
-6.449262
-5.053618
-3.742709
-3.197535
-1.985070
-0.944256
-1.085377
-2.038650
-3.201269
-3.249243
-3.623075
-5.067939
-5.699092
-5.681646
-5.769184
-5.864199
-6.654855
-7.814982
-8.273238
-7.846133
-7.019961
-6.732109
-7.567313
-8.519340
-7.875724
-6.418397
-5.339577
-4.580072
-3.951720
-3.878822
-4.102498
-4.370410
-5.220256
-6.284745
-6.513716
-5.530223
-4.654519
-3.836447
-2.556068
-1.565098
-1.161669
-1.130204
-1.289705
-1.263536
-0.703408
0.272919
2.175107
3.986329
4.031501
3.697233
3.680723
2.787575
0.951121
-0.396546
-0.771001
-0.698725
-0.258536
0.574178
1.725896
2.731819
4.108148
5.935257
7.968909
8.965175
8.929350
9.073900
8.675146
7.547106
6.332150
5.290403
4.004730
3.300679
2.799121
2.393513
2.012827
1.214695
1.123730
1.682299
1.991959
2.067038
2.565483
3.199442
3.929040
4.852097
5.467365
5.446182
5.572974
6.128740
6.991049
7.707875
7.687626
7.680151
8.215979
7.618781
5.920335
5.056470
5.611924
6.865512
7.734051
8.839040
9.702595
10.008516
9.796678
9.402285
8.788577
7.508512
5.953056
4.320030
2.783266
1.688248
0.556470
-1.495560
-3.348525
-3.628275
-3.272510
-3.553819
-3.929831
-4.205221
-3.761916
-3.009576
-2.539169
-2.299603
-2.286207
-2.372810
-2.482156
-3.228886
-5.468144
-7.651328
-9.475632
-11.509905
-13.315829
-15.160693
-17.239515
-18.615219
-19.368180
-20.071297
-19.941077
-18.598082
-16.750723
-15.212088
-14.324234
-13.553514
-11.742604
-9.735743
-8.487140
-7.452245
-6.436976
-5.252548
-4.042263
-2.670607
-0.343184
1.967104
3.275209
4.964312
7.118214
8.649372
9.217288
9.703271
9.816045
8.492054
7.716975
8.378349
9.618540
10.673373
11.282722
12.621668
14.003916
14.364666
13.864042
13.163418
12.912016
12.315753
11.169022
10.050016
9.365903
8.189888
6.152188
4.363086
3.099843
1.815105
0.145319
-0.782097
-1.084590
-2.065900
-3.305778
-4.586778
-6.025100
-7.110460
-7.679932
-7.775881
-7.302047
-6.466529
-4.976493
-2.678042
-0.676789
1.105772
2.741292
4.318245
6.569966
8.785862
10.567800
11.565623
11.966872
11.976530
11.132603
10.068738
8.858143
7.943188
7.219199
6.255645
5.543806
4.290532
2.385543
0.007966
-2.555592
-5.074602
-7.373362
-8.581777
-9.072431
-9.010125
-8.260277
-7.228498
-6.168992
-5.616653
-5.377399
-4.617582
-4.342814
-4.319449
-3.484866
-2.764613
-3.089847
-3.740004
-3.087976
-2.039062
-2.039684
-2.354638
-2.258063
-2.513826
-3.008219
-3.414139
-3.582674
-3.837191
-4.572706
-4.405104
-3.511019
-2.977995
-2.886093
-2.228146
-0.397610
1.711743
3.501781
5.187768
7.038554
8.027343
7.652576
6.798369
5.258490
4.151011
3.816120
3.256306
3.275310
3.775001
4.484973
4.636376
4.016749
3.449770
2.397431
1.084032
0.251009
-0.283571
-0.417527
-0.996656
-2.209120
-2.387313
-1.904133
-1.606934
-0.837149
-0.037769
0.687780
1.564419
2.319562
2.732960
2.999629
3.472528
3.230784
2.644178
2.121125
1.722059
0.976263
-0.575766
-1.850535
-2.954899
-3.988546
-4.794155
-5.882631
-7.127805
-7.865190
-7.926871
-7.397585
-6.229668
-4.976704
-4.067666
-3.208783
-2.095072
-1.295691
-1.098182
-0.683227
-0.395374
-0.620608
-1.553632
-3.054570
-4.616256
-6.177008
-7.428412
-8.985737
-10.754278
-12.024374
-12.826245
-13.156775
-13.367366
-13.590107
-13.539327
-13.067051
-12.261129
-11.332776
-10.215949
-8.887283
-7.784475
-7.065158
-6.198799
-4.880725
-3.455486
-2.132428
-1.054231
-0.121205
0.770699
1.009641
1.191263
2.205597
3.609652
4.918692
5.859194
6.688481
7.555463
8.339890
8.985687
9.883822
10.913732
11.233984
11.357972
11.736168
12.237728
12.253305
11.929317
11.346762
10.488816
10.093489
10.155172
10.378850
10.285704
9.875424
8.966387
7.862023
6.796289
6.085384
5.804387
5.038031
3.749554
3.210924
3.049865
2.047994
0.565747
-1.050145
-1.978807
-2.158557
-2.244538
-2.043913
-1.313692
-1.041105
-0.941726
-0.322720
-0.076301
-0.847642
-1.890012
-2.578487
-3.317429
-3.889393
-4.331138
-4.601543
-4.384095
-4.190324
-4.454499
-4.035182
-2.920224
-2.609007
-3.020534
-2.883461
-2.209003
-1.719593
-1.232986
-0.493730
0.219357
0.864220
1.417805
1.052384
0.163909
-0.558211
-1.058212
-1.326124
-1.699022
-1.940143
-2.370985
-3.240457
-3.335160
-2.255405
-0.989980
0.378250
2.382930
4.737144
6.788553
8.091673
8.446504
8.047127
7.673295
7.694168
7.485134
6.652734
5.814103
5.286999
4.828120
3.823445
2.487616
1.789484
1.644936
1.258332
0.420947
-0.643230
-2.001489
-3.223299
-4.045730
-4.501494
-4.622054
-4.092456
-2.832950
-1.442602
-0.216429
0.802890
1.782021
3.132494
4.050566
3.678915
3.084521
2.718166
1.951498
0.563333
-1.278417
-2.781224
-3.694622
-4.255370
-4.011443
-3.540413
-3.597422
-3.520473
-3.265331
-3.273119
-3.542589
-4.319538
-4.823900
-4.448196
-3.979970
-3.660342
-3.184638
-2.580274
-1.885256
-1.543197
-1.907061
-2.559087
-3.250988
-3.299274
-2.982138
-3.084318
-3.085252
-2.694907
-2.031353
-1.240383
-0.245675
0.732833
1.352151
1.698570
2.399508
3.468983
3.786742
3.301071
2.548422
2.445619
3.207927
3.725998
3.671482
3.233787
2.311667
1.270543
0.303874
-0.626969
-0.736003
-0.341297
-0.270579
-0.525407
-0.733195
-0.784596
-1.129145
-1.845346
-2.465596
-2.501732
-2.764972
-3.854694
-4.306719
-3.861857
-3.247213
-2.434125
-1.563093
-0.568385
0.312304
1.002027
1.640036
2.250942
2.650633
2.963719
3.602351
4.459364
4.526655
3.882417
3.642542
3.266840
2.888024
2.670267
2.010453
1.234751
0.913567
0.828209
0.973070
1.993324
3.507660
4.420436
4.917012
5.553463
6.073092
6.010787
5.246923
4.754710
4.506112
4.119196
3.890536
3.691783
3.355334
2.834772
2.345364
2.535708
3.182751
4.095839
5.344754
5.845068
5.550675
4.718275
3.288676
1.740697
0.188045
-1.466788
-3.315390
-5.645303
-7.408859
-8.387366
-9.350920
-9.813537
-9.133783
-7.528170
-6.026295
-4.716944
-3.581114
-2.807902
-2.372386
-2.252758
-2.197617
-1.856805
-1.388578
-1.173312
-1.227517
-1.182033
-1.256487
-1.677360
-2.033746
-1.804461
-1.277356
-0.925952
-0.194173
0.499600
0.905521
1.374682
1.855059
1.894623
1.436368
0.489948
-0.349929
-0.632483
-1.255537
-2.087938
-2.934045
-3.907256
-4.764579
-5.179221
-5.526262
-6.018474
-6.123146
-5.524390
-4.552423
-3.847124
-3.572979
-3.852730
-4.171733
-4.123134
-3.682944
-2.968923
-2.096645
-0.867045
0.289969
0.940439
1.291843
2.202127
3.631105
4.576903
5.180332
5.689681
5.955415
5.686256
4.823637
4.220209
4.077531
4.271613
5.042333
6.047010
7.038603
8.037049
8.794374
8.721477
8.025526
7.469762
6.758545
5.181283
3.211496
1.437348
-0.198482
-1.324964
-2.106897
-2.970762
-4.162665
-4.969520
-5.186654
-5.376685
-5.496310
-5.055186
-4.112503
-3.163590
-1.987573
-0.939905
-0.224637
-0.048623
-0.555477
-1.526508
-2.348316
-2.979470
-3.820904
-4.901904
-6.180100
-7.912815
-9.777929
-10.960174
-11.550518
-11.322167
-10.539298
-9.449886
-8.612187
-8.362653
-7.348942
-5.647689
-3.854536
-1.905620
-0.366050
0.721805
1.525235
1.556389
0.990967
0.750469
0.369160
-0.322118
-0.958568
-1.407167
-1.329595
-0.804671
-0.152331
0.227110
0.720259
1.019949
1.015277
1.211852
