EVENT_NAME: 202010301151
EVENT_ID: 10614
EVENT_DATE_YYYYMMDD: 2020/10/30
EVENT_TIME_HHMMSS: 11:51:24.00000
EVENT_LATITUDE_DEGREE: 37.879
EVENT_LONGITUDE_DEGREE: 26.703
EVENT_DEPTH_KM: 16.54
HYPOCENTER_REFERENCE: AFAD
MAGNITUDE_W: 6.6
MAGNITUDE_W_REFERENCE: AFAD
MAGNITUDE_L: 
MAGNITUDE_L_REFERENCE: 
FOCAL_MECHANISM: 
NETWORK: TK
STATION_CODE: 3506
STATION_NAME: 
STATION_LATITUDE_DEGREE: 38.39443
STATION_LONGITUDE_DEGREE: 27.08211
STATION_ELEVATION_M: 26.0
LOCATION: -_-_-
SENSOR_DEPTH_M: 
VS30_M/S: 771
SITE_CLASSIFICATION_EC8: B
MORPHOLOGIC_CLASSIFICATION: 
EPICENTRAL_DISTANCE_KM: 66.21
EARTHQUAKE_BACKAZIMUTH_DEGREE: 
DATE_TIME_FIRST_SAMPLE_YYYYMMDD_HHMMSS: 2020/10/30 11:51:10.1008350
DATE_TIME_FIRST_SAMPLE_PRECISION: millisecond
SAMPLING_INTERVAL_S: 0.01
NDATA: 10501
DURATION_S: 
STREAM: HNN
UNITS: cm/s^2
INSTRUMENT: sensor = CMG-5T/GURALP | digitizer = 
INSTRUMENT_ANALOG/DIGITAL: 
INSTRUMENTAL_FREQUENCY_HZ: 
INSTRUMENTAL_DAMPING: 
FULL_SCALE_G: 
N_BIT_DIGITAL_CONVERTER: 
PGA_CM/S^2: 44.520
TIME_PGA_S: 
BASELINE_CORRECTION: BASELINE REMOVED
FILTER_TYPE: BUTTERWORTH
FILTER_ORDER: 
LOW_CUT_FREQUENCY_HZ: 
HIGH_CUT_FREQUENCY_HZ: 
LATE/NORMAL_TRIGGERED: 
DATABASE_VERSION: 
HEADER_FORMAT: DYNA 1.2
DATA_TYPE: Acceleration
PROCESSING: Manual Paolucci et al., 2011
DATA_TIMESTAMP_YYYYMMDD_HHMMSS: 
DATA_LICENSE: U (unknown license)
DATA_CITATION: Turkish Accelerometric Archive v 1.0 - Disaster And Emergency Management Presidency, Earthquake Department
DATA_CREATOR: AFAD
ORIGINAL_DATA_MEDIATOR_CITATION: : AFAD - Disaster And Emergency Management Presidency
ORIGINAL_DATA_MEDIATOR: AFAD PROCESS SERVICE
ORIGINAL_DATA_CREATOR_CITATION: AFAD PROCESS SERVICE
ORIGINAL_DATA_CREATOR: network: TK
USER1: GuestUser
USER2: 
USER3: 
USER4: 
USER5: 
[...]
-1.110866
-0.569903
0.264684
1.422930
0.331111
-1.233123
-0.661774
-0.570260
-1.086136
-0.941267
-0.721137
-0.223282
0.068576
0.095429
0.268212
1.110219
1.450484
0.946975
0.479153
0.129347
-0.643407
-0.727149
-0.662135
-0.739163
-0.946574
-0.601009
1.904167
3.374765
2.717200
1.182647
-0.398194
-1.276596
-0.548718
-0.025776
-0.171352
-0.590767
-0.072065
0.488684
0.363248
0.527904
-0.331771
-0.264284
0.544156
0.246644
-1.002411
-1.332431
-1.222543
-1.134915
-0.159345
0.467832
-0.599607
-0.535653
-0.486186
-2.764872
-3.365550
-2.763813
-1.200287
0.380200
0.097528
-0.998885
-2.336275
-2.800210
-2.002017
-1.162130
0.115898
0.224020
-0.992528
-0.781938
-0.520114
-0.536722
-0.143455
1.358237
1.898845
1.268841
1.408056
1.702034
2.316491
3.151431
2.575487
1.190043
0.299627
-0.593262
-0.669584
-0.309531
0.705259
0.231077
-1.621128
-2.299187
-2.531685
-1.999910
-2.526386
-3.714667
-2.943327
-2.169161
-1.998852
-1.638446
-0.548748
-0.048420
-1.111972
-3.116467
-5.325546
-5.533663
-5.212125
-5.228732
-4.973621
-4.297684
-4.151048
-4.863381
-6.544217
-8.999573
-9.600604
-8.890392
-7.209557
-5.402933
-4.033037
-1.964942
-0.886903
-0.243120
0.914420
0.714783
-1.469915
-2.356091
-1.343774
-0.994675
-0.687977
-0.062567
1.586114
2.936930
3.640075
4.384914
4.901496
5.329743
4.560169
2.868733
0.955400
0.972360
0.003149
-1.980499
-2.492488
-1.301735
1.016525
1.065285
1.087545
1.114398
1.156798
0.745158
2.064880
3.913904
3.541131
3.498730
2.646828
3.593070
6.389751
8.307324
6.940960
4.211059
0.604877
-2.859970
-1.372058
1.548998
4.418114
6.136049
5.750556
3.861249
-1.126844
-4.207964
-1.117304
3.098034
3.595182
4.207519
4.514570
1.392463
-1.691837
-4.999801
-7.627587
-8.774880
-9.971288
-9.237756
-6.110349
-4.011867
-4.617491
-4.198431
-2.780481
-2.070269
-1.198934
-0.181317
-0.001115
2.019986
5.726163
9.279697
9.385698
7.478725
7.153299
2.237287
1.824586
4.612434
5.947703
6.297508
3.788091
1.910799
-0.884470
-1.416953
0.496733
2.284276
3.284933
1.710452
-3.410496
-0.068259
6.390078
5.925790
1.746491
-2.803108
-1.192941
-1.842733
-4.632348
-5.604385
-7.275327
-6.225203
-4.964135
-3.430289
-1.709174
-1.168918
-3.202740
-6.070443
-5.586369
-5.701558
-3.979029
-1.903160
-2.016583
-2.788983
-2.602067
-3.524990
-5.402990
-4.619637
-3.110524
-0.263669
-1.550178
-1.595406
-0.602523
-2.809835
-2.868490
-3.258930
-0.571431
3.301168
4.102542
0.899873
1.513976
4.535381
4.615589
3.152410
1.950702
3.016726
-3.262116
-3.844066
0.106975
-1.647709
-0.924424
2.521342
5.802098
9.041159
10.181385
9.223482
6.595343
2.451024
3.973210
7.576211
7.531337
3.820566
1.342949
0.024286
2.865488
0.657116
-5.496290
-4.511180
1.299839
2.539000
-1.435716
2.500485
2.991980
3.835754
3.109994
-1.062591
-3.526428
-3.321138
-2.180912
-3.564943
-3.955030
-1.170010
2.578921
-0.069005
-0.534707
-2.161835
-1.512751
-3.077338
-3.070626
-2.192578
-7.149930
-5.581810
-2.647680
-0.178545
0.818225
1.017861
-2.113080
-1.771754
-0.703963
-1.149878
1.898734
6.931347
9.554892
8.882133
7.368426
1.711815
0.603389
-1.254823
-2.689028
1.309713
6.907316
4.347724
-2.063973
-4.977610
-6.329487
0.765568
2.806809
-1.321609
-2.492576
1.468358
4.390828
3.004677
3.138945
3.131878
5.496425
9.971468
11.278117
9.550640
7.229553
6.140207
6.226774
5.571329
9.160904
11.856883
7.229550
3.001490
1.312174
3.718415
6.225004
3.116323
-0.758044
-4.025727
-2.658657
1.158821
2.746375
2.320600
1.665155
1.159879
-2.366095
-4.355397
-1.508541
-2.566087
-7.894446
-6.060968
-5.697735
-7.342177
-7.967942
-4.844775
-4.450802
-7.735799
-6.460245
-4.488611
-0.835082
-1.815600
-2.355149
-2.402497
-2.057285
-3.572758
-1.028715
-0.822719
-3.431424
-2.660791
-1.685222
6.032771
8.683522
9.152050
6.480097
2.799360
-2.841351
-4.158954
2.097626
5.534205
5.324674
-0.252789
-1.594772
0.995912
0.799101
3.526528
5.844080
3.599668
1.706475
-3.707745
-2.687655
-2.268595
-3.814809
-2.357991
-6.242605
-7.364811
-5.262089
-5.601295
-8.270421
-9.412062
-10.165735
-3.742732
1.560892
1.741095
1.073283
-1.290205
0.886719
4.781932
9.355910
9.896872
8.656651
5.927457
2.320567
3.312391
4.127898
2.982017
2.415967
1.508591
0.467653
1.422375
1.114616
1.221678
-0.617101
-2.806393
-1.845310
-5.224649
-4.276993
-0.634417
-2.533264
-3.348065
-3.399653
-6.909727
-5.907304
-1.359473
-2.141060
-4.567442
-4.347665
-3.960406
-3.969593
1.578188
2.716294
1.471832
-1.049952
-4.513738
-4.411270
-0.900844
2.867167
6.383247
8.955911
4.744812
2.793317
0.915671
2.614173
2.790489
1.652383
1.375364
-0.192403
1.957313
4.806288
5.104153
6.354621
8.232972
6.789227
5.602006
-1.745334
-8.170105
-5.278376
-3.485885
-6.778656
-5.057893
-2.738927
-3.369639
-3.375646
3.667468
5.967707
1.476763
0.903999
-5.568473
-5.944779
-3.387309
-1.883851
2.837824
4.594273
1.951647
0.963710
2.847715
1.609613
-1.511787
-5.514417
-3.884816
0.967947
0.867952
0.392710
2.589420
4.217254
3.603857
1.934681
-1.972547
0.993384
6.229167
5.408359
5.414012
1.715608
0.867239
3.622579
4.748672
2.457265
-0.822785
0.783495
4.576593
5.892429
5.206243
2.892576
1.882025
4.926397
4.513343
0.766531
2.521568
5.791370
5.332028
3.407741
0.002256
2.493651
1.274630
-0.765552
0.282452
0.963337
-0.944343
-3.243170
-3.302885
-3.858335
-0.672981
-2.231561
-4.336758
-3.420549
3.274879
4.877979
2.574912
2.272453
-0.917142
-0.112942
0.302585
0.767932
2.241004
2.086241
-2.438271
-6.512982
-0.431304
3.228232
0.151705
-2.103661
-4.581984
-5.079486
-3.950921
-0.251458
0.864741
-2.572545
-7.574772
-4.741697
1.236806
4.118288
8.115970
8.064382
7.232620
3.199957
1.862920
2.001429
2.725421
4.200259
0.400800
-0.883236
-2.215326
1.021262
1.402162
0.228368
1.308173
-1.623132
-0.228501
0.449910
2.938125
4.952866
1.562221
-1.961280
-4.473171
-3.614203
0.335424
0.181721
0.578874
2.457933
-1.467315
-3.643886
-3.213519
-4.661858
-5.106360
-3.194087
-0.140882
-2.485996
-3.440366
-1.795218
-0.351827
6.742874
4.532382
-1.904049
-4.654090
-3.484890
3.809448
8.296505
8.709205
8.184849
4.795616
2.159351
1.247734
1.340309
4.735193
2.392199
-0.488931
0.589107
0.390884
1.818374
4.242635
4.238395
4.636608
5.640798
1.411325
-1.024597
-2.081789
-6.569907
-6.199608
-4.418071
-5.368201
-3.923397
0.926539
3.944411
8.090848
4.277256
-0.637343
-2.029500
-5.907754
-1.443665
2.412681
5.769758
7.375686
8.081304
7.982722
2.977315
0.663295
-1.592424
-3.703628
3.247618
5.879289
2.594292
0.374260
-3.554168
-2.466589
-1.095633
-1.236616
-1.131321
-2.245401
-3.500463
-4.344238
-6.092915
-0.930627
4.023545
2.166039
0.778828
0.736427
-0.948296
-3.117447
-2.012202
0.790486
5.194154
2.321151
-4.684863
-6.934929
-5.938159
-2.152834
1.120855
2.354362
0.873870
-4.192311
-7.823228
-8.251476
-7.166724
-4.731863
1.491857
4.819254
3.934492
6.567577
2.498166
-7.187221
-6.570291
-4.607491
-1.130278
4.288181
2.606638
0.796833
-1.076926
1.221900
2.033167
2.615470
2.184042
-1.565950
-1.759580
-1.900563
-1.517191
-1.158905
-2.935496
-2.662718
-4.114591
-7.352240
-6.866399
-6.167494
-3.876442
-1.485394
1.778755
-2.424218
-2.338357
3.227798
3.417188
3.950730
1.749425
-5.105007
-8.503426
-5.293338
-5.055894
-1.041252
4.931597
4.473315
-0.258254
-3.074723
-2.712550
-3.855250
-4.247811
-0.612302
0.262212
3.448980
6.009277
4.512884
4.761635
4.429495
4.163783
5.632261
8.962132
9.661036
8.070302
3.412228
1.398900
-2.748246
-6.085537
-1.074831
5.911395
7.470682
4.004775
3.689242
2.376586
0.108146
-0.820077
-1.714733
-0.692169
2.262102
-0.430345
-8.400976
-9.992417
-7.449787
-7.361453
-7.215878
-6.087312
-3.025273
-1.925681
-1.790353
-5.039663
-6.851588
-2.854966
0.509531
2.989267
3.468395
4.704022
4.665508
4.041157
1.029998
3.147207
3.034138
-1.153288
-1.351159
-3.499109
-3.537270
-3.590625
-2.886420
-4.075761
-2.247937
-4.818128
-11.387062
-11.178592
-7.427541
-3.964109
-8.464240
-7.487964
-3.858462
-1.418300
-0.982633
-5.689468
-5.123065
-3.342942
2.258901
7.191165
11.334422
16.094611
16.877257
16.501303
12.775339
10.966947
10.918539
10.029183
4.241483
3.534097
11.164108
6.657617
-2.672311
-5.136500
-5.907487
-9.979725
-15.686157
-18.710036
-20.014919
-21.059744
-19.768995
-19.339335
-15.780854
-10.439423
-6.604277
-3.092791
-5.765097
-6.807096
-6.451990
-2.151497
1.373417
-3.446486
-4.236201
-0.356181
-0.428969
5.148139
9.620356
7.124366
11.621669
18.736158
20.116655
15.131388
10.873295
8.211942
4.628373
-0.318026
-4.604387
-4.826284
2.479714
0.874139
-8.242018
-16.025026
-20.749881
-20.203265
-22.566753
-22.127906
-22.364997
-15.303863
-7.314859
-4.503691
0.926428
5.749157
12.395471
16.795960
18.065155
18.602937
26.241428
27.131136
21.730342
24.602991
22.806967
14.748354
10.891654
4.350634
-3.866627
-1.269583
-5.549231
-11.074046
-8.149456
-3.585372
-7.337483
-12.467265
-12.272929
-13.211046
-11.270153
-8.347683
-2.252225
-1.030732
2.383233
6.666413
9.603723
12.416305
5.470005
-3.688907
-4.758819
2.270868
3.570097
2.657774
1.456066
-3.646156
-2.462469
-3.774772
-8.698911
-11.131299
-12.063056
-12.937572
-11.104800
-6.661558
-4.093841
-1.391148
0.888244
4.977087
0.553277
-5.070473
-8.792551
-10.152202
0.196049
11.682053
15.343355
17.853125
20.640972
19.177087
20.899616
15.500942
8.235577
9.130585
9.470497
8.676190
9.022109
5.435360
0.761032
-0.821929
-4.607254
-4.189961
2.198768
-1.197530
-12.157766
-18.061362
-20.148538
-17.806605
-11.930217
-8.597874
-8.041365
-2.118690
1.753203
2.713579
0.547608
-1.890788
-0.686255
2.552454
5.213099
5.058336
10.823068
10.431214
9.935832
13.965667
19.152336
20.945533
17.346771
11.204671
6.036022
6.436708
3.675007
-0.772476
-7.766477
-13.537570
-14.196549
-9.364986
-9.003520
-9.138850
-5.706158
-4.085744
-9.846944
-13.873953
-12.478970
-16.004944
-11.553928
-4.964855
2.466932
7.935919
9.088512
8.703725
7.499897
14.480823
18.206080
13.162159
10.242162
9.127376
8.185372
12.476679
15.877924
11.871761
12.473498
7.770903
-1.866783
-2.646251
-5.822772
-11.133818
-13.060578
-11.465251
-10.054014
-12.739394
-15.547029
-21.011424
-24.113037
-17.937725
-15.809209
-15.340328
-12.869779
-15.705329
-19.244377
-17.876600
-17.590042
-15.359058
-12.893103
-13.680697
-16.937073
-10.918997
-3.798501
-5.078650
-3.044829
-0.720210
4.420171
8.088187
14.144778
23.236554
31.722706
30.850664
29.489953
31.383852
33.559716
33.679850
26.194708
17.823743
12.487258
13.931709
10.119176
4.456558
2.778902
4.547366
3.183828
-4.250787
-9.702461
-11.475519
-13.430546
-10.644819
-6.496968
-4.733805
0.945773
0.130972
0.697374
5.228598
6.351864
4.517325
3.346711
8.598394
7.479368
1.430197
0.535188
-3.064988
-8.280985
-6.458107
-7.957327
-12.153233
-9.268571
-7.281744
-2.587983
3.794386
3.540335
-0.095529
-3.329645
-2.516611
-2.946979
-4.324296
-0.573599
7.130613
7.027084
2.252761
1.188503
1.121014
1.617102
-1.890852
-2.771021
1.263762
8.216067
8.951013
5.670963
-0.232279
-3.047335
-0.299415
-1.643165
-1.176404
-3.622927
-6.934778
-8.416330
-7.370799
-4.876930
-8.356264
-9.672454
-7.640046
-8.132601
-4.037398
0.332350
2.609975
6.387880
10.208185
5.259666
2.810670
4.557933
5.996024
9.175018
6.079058
1.912126
1.891985
4.747673
0.916767
-3.288326
-8.692299
-7.031604
-1.139317
-1.142497
-3.242041
-3.360763
-1.902885
-2.588011
-5.890321
-13.917133
-11.576260
-7.121357
-10.222618
-11.295710
-5.453597
-0.160220
2.556607
6.673717
10.278485
8.008632
2.812776
-4.860697
-7.716739
-5.057508
-6.892753
-3.327205
3.034670
3.387302
0.829831
3.787635
9.325523
15.980317
12.699560
10.714499
9.230120
7.327386
11.629647
10.959361
17.191208
21.412200
20.115797
21.190302
26.662116
29.793409
29.410742
25.986176
22.876082
16.302908
13.553574
16.720555
11.871677
5.677284
0.884234
-6.509747
-14.643267
-18.077020
-23.164048
-29.513558
-29.695528
-18.754374
-14.791673
-18.634592
-21.133409
-21.949624
-17.634643
-12.341973
-8.913874
-7.423136
-2.929366
2.122681
3.545578
2.716997
3.203545
7.210060
16.060151
20.467353
13.655676
12.281892
15.722004
10.409899
5.331704
3.236754
1.329428
-4.675223
-13.603757
-20.402008
-17.070371
-12.516533
-13.235579
-13.995966
-13.472671
-11.804909
-11.253700
-10.694364
-11.138159
-10.991524
-9.392663
-0.774362
3.261833
1.552377
1.481708
0.287067
-3.260107
-3.916613
-5.845493
-11.487617
-15.258809
-11.886892
-7.011515
-4.289035
3.295041
8.164411
10.444863
10.086577
12.774429
15.967910
18.031059
17.876649
13.467679
9.459397
6.455304
4.971985
1.139312
-4.725769
-10.206064
-14.556026
-14.559560
-14.154280
-13.842635
-14.898414
-17.146713
-13.977612
-17.818765
-21.189624
-19.265691
-16.767582
-19.669559
-22.724886
-21.526005
-20.755726
-14.533066
-16.568302
-21.139101
-22.451050
-18.440295
-9.728712
1.107147
7.518843
6.849265
11.512638
16.936750
25.885071
32.687560
32.828542
33.535927
38.284809
39.912289
35.871853
36.041102
32.199949
26.127104
23.990813
22.879560
25.014437
23.755488
17.252629
5.871566
-3.416668
-9.726250
-14.885359
-13.971977
-14.380792
-15.634087
-13.632066
-6.755728
-7.496328
-15.101606
-22.763065
-27.438453
-20.898141
-18.771038
-24.622692
-28.842272
-34.302073
-42.973376
-44.519590
-42.104515
-32.792256
-21.212617
-15.353543
-8.509006
-5.959663
-2.947798
-0.226025
5.008698
9.748745
15.138584
20.254585
25.278364
30.922961
32.265650
32.774812
25.098866
14.695140
9.211312
10.828193
12.120354
8.127619
1.996119
0.115293
-3.733280
-6.078748
-4.614156
-9.640763
-13.343054
-5.617642
6.021711
8.167541
12.305145
12.839747
10.803098
11.159264
6.827676
-0.417549
-2.707896
0.073238
4.350411
12.478631
13.483174
10.926763
9.968859
6.404017
-3.878867
-16.530891
-23.762689
-27.618683
-29.435555
-28.608034
-26.538526
-26.064345
-23.128448
-15.315408
-5.845205
-2.125602
-4.469302
-1.206567
-1.230594
-1.814665
2.092915
4.161364
7.696524
2.897821
1.280233
5.009376
13.363380
19.397710
17.181564
14.691934
8.837100
3.726045
-7.670565
-11.470378
-4.251654
6.513184
13.977125
14.155208
5.565173
-2.544674
-1.829868
-8.309760
-14.049053
-15.201646
-12.064346
-7.542309
-2.128443
1.499646
4.092096
10.338077
9.156156
3.847584
1.221212
1.949090
1.135349
-1.229552
0.498984
3.861715
11.990641
25.080452
33.549644
34.201555
31.110188
25.956379
21.226577
16.560729
10.443717
10.300967
9.783678
1.241697
-6.242739
-12.490840
-17.061286
-19.034333
-18.109291
-16.879317
-15.695631
-16.359909
-20.001779
-21.761056
-30.510801
-25.247104
-13.639905
-8.641919
-1.676540
2.179099
2.714055
-1.971580
0.866795
2.350820
4.052502
6.837170
10.332756
10.442998
4.782146
3.161378
3.127810
6.564036
4.623142
7.481304
11.697702
15.432853
18.826324
17.269157
15.036051
9.357887
8.027210
4.768360
2.966329
7.682349
8.596084
4.321030
1.926095
2.864564
4.126339
1.158994
-2.949637
-4.690541
-0.941963
-2.208686
-14.047323
-21.283715
-24.210072
-24.722415
-20.277759
-13.784794
-14.994982
-11.834715
-6.983012
-4.394801
1.996048
3.179735
4.451756
1.794643
-0.880843
-0.405956
-6.438873
-11.381385
-10.969039
-9.891001
-7.307383
-2.251804
2.237373
9.445850
12.265851
13.959053
10.160301
-3.033393
-9.969093
-9.465585
-2.583240
-2.338376
-0.012697
3.396675
2.916486
2.455731
1.981902
1.178408
6.953033
14.617318
10.422825
6.456943
8.808417
14.306377
16.136675
19.707523
21.796818
23.596729
22.740940
14.195779
-0.438480
-0.111288
4.111824
2.513670
7.530382
5.588428
8.803110
11.353160
5.654855
0.211661
-3.141531
-4.718132
-0.487953
-0.128960
1.412306
7.404588
8.943028
4.725921
-4.035837
-4.769016
-2.548985
-2.246174
-7.421537
-13.577416
-15.245886
-17.141199
-17.820671
-16.591757
-12.979569
-11.035496
-12.700431
-13.960793
-17.799827
-14.814462
-5.243205
5.284896
15.755755
17.654247
18.578583
13.563989
9.754283
12.096217
13.019492
15.499581
13.141747
9.468430
3.937961
-2.324274
-7.327207
-11.488133
-12.185625
-13.435034
-16.822853
-23.178722
-26.599755
-26.630496
-28.178830
-25.669767
-25.922052
-25.116792
-19.418841
-17.461695
-12.388801
-7.522258
-4.502620
3.989186
15.481550
19.020597
21.200700
25.190609
23.626728
20.939228
9.380789
3.245403
7.424701
6.875257
7.374525
9.285385
11.942143
14.130727
15.752201
8.083675
3.457755
6.477747
13.186955
23.335216
27.916967
29.163548
25.041137
28.845189
23.019681
8.447610
0.919360
-7.856531
-16.377665
-25.615371
-31.006978
-33.553495
-29.625775
-22.499273
-18.471910
-12.047140
-6.313149
-4.335509
-3.492795
-4.185340
-3.996658
-1.277711
-1.072775
-1.353327
-0.433585
-2.546202
-4.885663
-10.957447
-13.295141
-7.601431
-2.518290
2.372280
4.389848
1.898098
-0.054457
0.325736
-1.464635
-1.737414
1.890322
1.168802
-1.174545
-0.463980
-2.849022
-1.884759
-1.062539
-1.197515
-2.093937
-1.390086
0.814752
-0.134318
2.512547
-0.117006
0.043410
-1.197519
-2.555402
-3.217561
-1.751910
4.296201
6.054417
4.190551
-1.564995
-0.007475
-2.344816
-6.743892
-6.459101
0.053297
6.241330
4.674622
1.716111
-5.224889
-8.668535
-9.048729
-11.981446
-13.193754
-15.109914
-18.765918
-22.489762
-20.235104
-12.905432
-8.819062
-6.857322
-4.665558
-0.201469
5.168937
9.459183
11.700061
16.560951
19.254810
20.272074
18.039675
18.060168
21.443746
21.145527
24.006163
24.425223
22.014387
17.499769
14.106297
13.778398
13.455092
11.133298
9.497689
11.024115
10.034764
5.718370
0.726037
-1.751933
-4.399859
-6.407888
-9.141322
-11.398808
-8.460791
-8.555133
-10.750785
-11.604453
-10.849367
-14.834330
-13.345005
-5.907917
-4.205882
1.699126
4.531494
2.398384
3.195164
2.892705
-0.096194
-1.995747
-5.786019
-7.897929
-4.367716
-2.904184
-2.862138
-4.660282
-7.437177
-6.339352
-3.644080
2.183547
5.650159
4.343863
4.749850
2.694120
0.363140
-0.538229
-6.243248
-6.950634
-2.393969
0.866999
5.172440
10.649553
15.637292
17.614579
17.426602
10.656972
4.127966
-0.491594
-5.789566
-8.871746
-10.865288
-8.547028
-6.257036
-1.155169
5.115899
0.462772
-3.612999
-6.903649
-10.621840
-7.698664
-5.183595
-3.405591
-3.728544
-2.583725
-0.790881
2.216037
3.123059
4.519102
9.614609
7.055018
4.711671
4.876327
6.350105
10.375700
10.929383
1.524900
-8.054132
-7.878876
-5.855301
-1.260123
4.193317
6.610512
3.558365
-3.181938
-3.597112
2.014624
6.364938
9.967587
12.655086
12.310933
13.997774
13.191453
11.264340
11.096150
6.685060
1.043643
-8.645985
-14.258428
-12.540846
-16.147028
-16.597183
-15.344242
-16.971724
-15.586634
-15.334703
-15.915241
-12.324959
-6.870106
-3.065701
-0.115671
0.112939
3.989426
9.195528
14.433784
19.002462
16.127339
15.100888
14.336967
6.643355
-0.564063
-2.527571
-0.216731
4.292939
5.608421
7.034499
8.717807
6.767726
0.930205
-5.876525
-8.841397
-10.156173
-9.567157
-4.026796
-0.647458
-0.941437
-4.667755
-12.353241
-14.113578
-13.521382
-14.800117
-12.983247
-10.229320
-9.520521
-2.322645
5.786141
7.668733
8.851006
7.534110
