EVENT_NAME: 202010301151
EVENT_ID: 10614
EVENT_DATE_YYYYMMDD: 2020/10/30
EVENT_TIME_HHMMSS: 11:51:24.00000
EVENT_LATITUDE_DEGREE: 37.879
EVENT_LONGITUDE_DEGREE: 26.703
EVENT_DEPTH_KM: 16.54
HYPOCENTER_REFERENCE: AFAD
MAGNITUDE_W: 6.6
MAGNITUDE_W_REFERENCE: AFAD
MAGNITUDE_L: 
MAGNITUDE_L_REFERENCE: 
FOCAL_MECHANISM: 
NETWORK: TK
STATION_CODE: 3506
STATION_NAME: 
STATION_LATITUDE_DEGREE: 38.39443
STATION_LONGITUDE_DEGREE: 27.08211
STATION_ELEVATION_M: 26.0
LOCATION: -_-_-
SENSOR_DEPTH_M: 
VS30_M/S: 771
SITE_CLASSIFICATION_EC8: B
MORPHOLOGIC_CLASSIFICATION: 
EPICENTRAL_DISTANCE_KM: 66.21
EARTHQUAKE_BACKAZIMUTH_DEGREE: 
DATE_TIME_FIRST_SAMPLE_YYYYMMDD_HHMMSS: 2020/10/30 11:51:10.1008350
DATE_TIME_FIRST_SAMPLE_PRECISION: millisecond
SAMPLING_INTERVAL_S: 0.01
NDATA: 10501
DURATION_S: 
STREAM: HNE
UNITS: cm/s^2
INSTRUMENT: sensor = CMG-5T/GURALP | digitizer = 
INSTRUMENT_ANALOG/DIGITAL: 
INSTRUMENTAL_FREQUENCY_HZ: 
INSTRUMENTAL_DAMPING: 
FULL_SCALE_G: 
N_BIT_DIGITAL_CONVERTER: 
PGA_CM/S^2: 42.097
TIME_PGA_S: 
BASELINE_CORRECTION: BASELINE REMOVED
FILTER_TYPE: BUTTERWORTH
FILTER_ORDER: 
LOW_CUT_FREQUENCY_HZ: 
HIGH_CUT_FREQUENCY_HZ: 
LATE/NORMAL_TRIGGERED: 
DATABASE_VERSION: 
HEADER_FORMAT: DYNA 1.2
DATA_TYPE: Acceleration
PROCESSING: Manual Paolucci et al., 2011
DATA_TIMESTAMP_YYYYMMDD_HHMMSS: 
DATA_LICENSE: U (unknown license)
DATA_CITATION: Turkish Accelerometric Archive v 1.0 - Disaster And Emergency Management Presidency, Earthquake Department
DATA_CREATOR: AFAD
ORIGINAL_DATA_MEDIATOR_CITATION: : AFAD - Disaster And Emergency Management Presidency
ORIGINAL_DATA_MEDIATOR: AFAD PROCESS SERVICE
ORIGINAL_DATA_CREATOR_CITATION: AFAD PROCESS SERVICE
ORIGINAL_DATA_CREATOR: network: TK
USER1: GuestUser
USER2: 
USER3: 
USER4: 
USER5: 
[...]
0.739141
0.070978
-0.204978
-0.316632
0.046603
0.288642
0.446940
0.568491
0.138832
0.080179
-0.384460
-0.824013
-0.867472
-0.385515
-0.168563
-0.280216
-0.404590
-0.154424
0.149803
0.127545
0.061825
-0.163250
0.230372
0.612687
0.394678
0.322599
0.628946
0.592200
0.125088
-0.181609
0.219786
0.066085
-0.592538
-0.523281
0.183399
0.450172
-0.047328
-0.532814
-0.684042
-0.546944
-0.426100
-0.346597
-0.474858
-0.252605
-0.042720
-0.147307
-0.619366
-0.749040
-0.480854
-0.708402
-0.303827
0.080961
-0.153654
-0.038110
0.114887
-0.150115
-0.739484
-1.034167
-0.683299
-0.444793
-0.728170
-0.746895
-0.251865
0.070383
0.235747
-0.138084
-0.387186
-0.300616
-0.437004
-0.282239
-0.019353
0.368616
0.584508
0.698638
0.720194
0.827611
1.121944
1.179540
0.925138
0.517033
0.492301
0.522336
0.332595
0.081372
-0.054308
-0.049006
-0.311182
-0.495270
-0.644025
-0.174788
0.477832
0.089867
0.032981
0.105771
0.091639
0.226970
0.207538
0.292694
0.613175
0.444987
-0.347551
-0.884272
-1.520281
-1.156340
0.183878
0.429451
0.258790
0.194131
-0.471912
-0.519965
-0.230578
-0.412546
-0.104079
-0.164498
0.118175
0.620626
-0.030930
0.354211
1.189861
1.122022
0.525586
0.158822
0.972564
1.368306
0.923807
0.341506
0.106183
0.845725
0.714284
-0.559149
-1.322714
-1.289498
-0.821322
-1.442137
-2.319477
-1.809960
-1.623748
-2.129022
-1.900410
-1.342838
-1.275702
-1.435763
-1.105389
-0.481743
0.065228
0.032723
0.323876
1.135852
1.366938
2.155593
2.364772
2.215311
2.019210
0.756376
0.202695
0.948597
1.309358
1.124563
0.414353
-0.599376
-0.595488
-1.003593
-1.501800
-2.036754
-2.292216
-1.676697
-1.048458
-0.794052
-0.949519
-1.685523
-2.127196
-1.549131
-0.977426
0.172342
0.951811
0.780796
0.053979
0.047974
0.259273
-0.184873
0.145148
1.080439
1.941176
1.253226
-0.161544
0.072722
0.457157
0.481893
0.212297
-0.463640
-0.484485
-0.887290
-0.756553
0.059310
0.160013
-0.025488
0.044828
1.246537
2.035899
0.958216
0.146597
-0.576334
-1.120474
-0.800700
-0.789392
-1.444481
-2.307334
-2.754660
-1.841983
-0.786556
-0.384807
0.666732
0.785810
0.551547
-0.111669
-1.086177
-0.544153
0.297150
0.200337
0.139564
0.439198
0.863207
0.784061
-0.041691
-0.753669
-1.228908
-0.822213
0.095765
1.144478
0.386213
-0.136374
-0.000336
-1.008412
-1.229601
-0.629982
-0.040963
0.156202
-0.897808
-1.699886
-0.555418
0.056214
1.060760
2.371298
3.096352
2.320774
1.050520
1.192564
1.788650
1.731764
1.127909
1.344861
1.484078
1.084453
0.482365
0.378485
0.292272
0.451983
-0.237027
-0.716860
-0.342319
-0.862432
-1.458514
-2.400869
-2.205470
-1.303746
-1.636590
-1.464865
-1.088910
-0.938033
-0.705180
-1.980027
-2.807193
-2.082845
-1.449659
-1.468031
-2.174708
-2.623801
-1.791685
-1.995206
-3.260160
-3.937863
-3.953408
-2.909995
-3.154504
-3.948456
-4.367161
-4.516622
-3.958344
-2.958038
-0.864500
0.419890
0.074679
-0.780400
-1.055296
-1.219951
-1.959135
-1.783170
0.343935
2.490474
2.963597
3.059354
2.859719
3.595373
4.174498
2.784463
2.573168
3.428604
3.283383
1.755546
0.248908
1.124838
2.992946
1.944943
-0.594859
-0.139050
-0.295577
-1.709993
-1.443220
-0.969037
0.004062
0.374363
0.289210
1.107193
1.445341
1.305773
2.462255
3.153389
2.057685
0.906507
1.041484
3.042094
4.424359
4.365000
3.485894
2.028017
0.195247
-1.129420
1.452079
4.633196
3.242454
0.615377
0.059222
-0.158080
-1.513841
-2.881969
-3.280181
-2.808825
-3.843401
-5.575822
-5.668395
-7.100125
-9.049143
-9.498589
-8.765761
-5.821382
-2.281979
-0.474647
0.550393
1.689561
3.574275
5.395388
6.024334
4.968205
5.535316
5.461823
2.172942
4.805322
7.567732
8.457089
8.003049
3.738244
3.413527
3.656980
4.297939
6.761424
6.015879
4.032234
0.241257
-2.168163
2.492033
2.200529
-3.049739
-3.480811
-2.435278
-0.520884
-3.574794
-8.673480
-7.119492
-6.412458
-6.718095
-7.800371
-8.442741
-6.224474
-5.035132
-4.692037
-4.002670
-3.270903
-2.819333
-0.567499
-0.161510
0.825368
4.150647
5.215967
3.722403
3.199110
4.109314
4.834015
5.646697
3.964450
4.797273
2.825994
-1.894265
-2.364205
-2.738036
-1.967401
-3.216808
-7.504580
-7.900671
-5.266524
-6.594019
-6.670691
-7.470297
-7.522589
-5.317749
-5.065110
1.753636
3.836927
0.583026
2.010872
3.629169
5.527663
6.494048
5.184574
6.922299
4.355290
0.847338
4.362714
3.710451
0.528278
-0.491104
2.057535
4.510772
2.793898
-0.941605
1.770630
5.733334
3.021809
-2.234113
-2.856695
1.272431
4.037313
4.434822
0.921570
-0.623935
-0.297094
1.719769
0.101830
-3.874297
-4.962227
-2.507576
-2.549622
-8.136976
-7.567745
-5.667130
-5.060798
-4.351291
-2.905777
-3.880286
-6.707352
-4.531486
-1.863772
2.874511
6.773967
5.330930
4.648987
4.135940
1.535364
2.826114
7.224132
10.276633
10.895685
7.113542
5.314340
5.706901
2.815173
0.460168
1.462594
2.040306
1.924059
-0.794533
-1.467289
-1.142922
-1.405451
0.239345
-4.006733
-4.791498
0.386693
2.827917
2.339250
-0.015402
0.893743
5.305894
5.350769
1.419164
-1.262327
1.525522
3.690435
1.886992
-1.031943
-0.492745
4.375567
4.348362
0.859137
-0.156005
3.296829
5.403440
2.944200
-0.210059
-0.219951
-0.437960
0.680715
0.696970
-1.835058
-2.470007
-3.969931
-4.113739
-5.634510
-5.842978
-4.282983
-6.864125
-6.975072
-3.603152
-4.848672
-6.519612
-7.319218
-5.534145
-5.442275
-7.798694
-3.255454
-0.168679
1.236554
1.543961
0.222827
-0.594092
-1.102546
-2.154789
-1.406768
-0.408935
0.121782
3.169336
5.221534
6.642313
4.841697
4.447726
2.071520
-2.138164
-1.890118
2.518500
7.338404
5.591496
2.687401
3.098337
5.354411
3.193742
0.575145
5.027930
6.889324
1.098093
-4.273017
-5.474016
-4.157825
-5.683190
-6.166556
-0.801449
1.804785
3.861222
3.028756
-1.450526
-4.292433
-7.750917
-4.702657
-0.506396
-4.068055
-6.307519
-3.551823
0.588257
5.559744
4.905008
2.037307
2.496650
1.621784
-0.820497
-2.160005
-2.156823
-4.679311
-5.752048
-5.318498
-3.537666
-0.320509
1.576572
0.804881
0.890744
3.023503
3.355997
2.949305
1.876215
3.449990
0.001400
-4.006528
-0.349463
0.331424
-2.667013
-3.391710
-3.946451
-6.772458
-7.469241
-5.169353
-2.698449
-2.273026
-1.384376
-0.476645
1.308781
2.224991
1.954689
2.549361
2.292131
3.648956
4.482839
4.246810
0.945915
-0.594996
1.357559
0.877726
-0.291119
0.432169
0.487292
1.838110
2.612278
1.139208
2.337031
3.682549
5.052448
4.896273
2.585435
-0.272019
3.339465
5.622040
2.531735
2.687913
1.993956
-0.005590
-0.883990
-0.649371
1.648044
-0.276594
-7.506270
-8.318949
-5.911999
-3.083515
0.583796
4.659568
7.078178
5.047892
2.604552
1.965009
1.437122
0.220929
-0.614363
-0.452885
0.466859
-3.638590
-8.736922
-6.224677
-0.912218
0.604670
-3.906412
-6.887888
-3.283118
1.733597
2.417664
-0.390676
-1.369424
-2.289872
0.909265
2.968529
0.521655
0.162664
2.899633
7.559122
9.945931
6.663057
4.598850
5.546154
5.581137
3.716566
-1.393073
-2.835756
0.206145
2.915907
0.463380
-1.436171
0.979612
2.462226
-1.334051
-2.718433
0.278240
1.566164
1.189506
0.402975
2.781657
5.998461
3.801752
-0.317477
-0.421357
0.928754
2.830076
0.988472
-1.805027
-3.573842
-4.506657
-3.712348
-1.470408
0.197356
-0.484940
-2.779878
-4.836312
-2.609211
0.353188
-1.735753
-5.673719
-5.308364
-1.813835
0.544707
3.164367
4.979473
3.218078
1.025962
0.277945
2.269721
0.801597
-0.259126
2.016028
2.103658
0.214001
-2.996086
-4.632399
-4.740165
-1.146349
0.650031
-1.875284
-0.558033
1.319261
4.511684
5.478776
2.811419
1.560246
0.848622
2.752063
2.694471
1.319629
0.070576
-2.337077
-4.744730
-5.593096
-3.296388
-1.374573
-0.672133
0.058221
-2.315511
-3.032435
-0.634672
1.764151
1.061361
0.638416
3.508240
3.350299
1.562050
1.920691
3.502594
2.691328
1.817168
-2.472724
-4.365914
-1.076676
0.660696
2.185004
2.326341
2.713603
3.172239
-0.039614
-2.601676
-0.530046
1.025710
-1.864605
-3.449330
-0.498591
1.587527
2.612213
1.336659
-0.920471
-1.051912
-2.886095
-4.227369
-1.448000
-1.390404
-1.905217
0.085145
-0.493976
-0.244870
1.809447
2.685731
3.830552
3.163096
2.640862
-0.257226
-1.989294
-1.704854
-3.838669
0.488327
2.283293
4.017485
7.061859
4.449976
3.770153
2.072359
-1.555375
0.486222
3.850721
5.344642
2.278364
-2.762374
-2.405146
0.183420
-0.714060
-4.176431
-1.658532
-2.428457
-4.261934
-4.440015
-6.347693
-4.857305
-3.079299
-3.549946
-1.289632
3.311202
2.168505
-1.270546
-3.656645
-3.085294
-0.989989
-0.222888
-1.979336
-1.470879
-0.618976
0.434684
2.131422
1.055859
2.093972
1.786568
1.730389
1.502487
-0.848278
-2.435477
-1.109039
-1.454604
-2.195554
0.824086
2.016608
-1.683914
-6.348699
-3.535762
1.717690
4.026765
1.346334
-2.333694
-4.544184
-6.594964
-2.740029
-1.687429
-0.244036
3.058983
1.771416
0.320253
-2.110367
-1.119602
-0.100922
1.970355
3.773801
-1.212523
-4.365722
-4.104249
-0.226701
4.216898
5.047954
5.910104
3.097170
1.644241
1.555201
-0.549287
-0.695568
-3.309571
-5.053299
-2.907114
-0.110430
1.792658
6.168768
6.990991
1.881704
-1.873938
-3.122285
-1.028747
1.173266
0.307233
2.613481
0.619235
-5.515795
-5.391771
-3.504937
-0.828389
0.474375
0.450703
-1.934689
-4.549752
-8.578173
-6.236238
-0.244306
-0.052088
-3.458631
-4.340565
0.827379
0.768373
-0.607175
0.611848
2.971803
3.389806
-0.325556
-1.399000
1.759856
3.649871
2.888426
-0.842130
-0.402927
3.512782
1.250705
-1.700737
-1.462938
-0.734704
2.241123
1.132699
0.023215
-0.104339
-1.911668
2.450308
3.250977
0.680788
-0.215632
2.909304
3.952717
3.701141
3.015664
2.488484
-0.952334
-7.326575
-4.321068
-5.561288
-8.159037
-8.571736
-7.342820
-0.984828
1.977571
2.860921
5.094381
6.100341
6.981218
4.840689
1.145821
4.234716
7.313364
8.331690
4.929033
3.266573
8.703055
9.996632
7.476971
7.861406
10.850306
12.461182
7.815477
-0.281647
0.235644
3.675405
2.565567
-1.967422
0.051561
10.322079
12.670022
8.221480
10.848914
15.111956
14.510927
7.525409
-1.698515
-3.803356
-5.267593
-6.780943
-8.114091
-12.301515
-12.905017
-7.886889
-7.550508
-7.388323
-7.175258
-6.357275
-3.332335
-2.517532
-1.521467
-0.486180
2.677623
6.321260
9.748301
14.415917
12.918819
9.990344
9.899538
2.794944
-4.456639
-5.767173
-3.276835
-4.442500
-8.498128
-12.524076
-10.192034
-6.568536
-10.020660
-15.901640
-19.519834
-18.193749
-14.644453
-9.627385
-7.205595
-0.178025
6.746369
7.035049
3.608365
0.906381
2.004561
5.855256
9.335298
7.159789
8.192248
14.147079
17.592140
14.727619
12.816762
9.203868
-0.509431
-5.324385
-5.261135
-5.502464
-2.906831
0.341066
-1.468383
4.565243
7.959776
3.143408
-0.215788
-4.049165
-5.693605
-8.421383
-9.872193
-9.117458
-10.483113
-13.795669
-11.004992
-6.500973
-5.098214
-6.612624
-12.305627
-12.405267
-8.796963
-8.833002
-8.017846
-4.997499
-0.203742
2.582695
0.890554
-3.346690
-4.338866
-0.214333
1.594767
0.886323
-1.114283
-2.573573
-4.241686
-2.515268
-2.424812
-4.126139
-8.671495
-13.783255
-14.721723
-14.372975
-6.959912
0.473997
3.243474
1.548860
3.864295
5.904478
5.214761
-1.514586
-5.274115
-0.435130
0.553515
3.417333
2.592640
2.512434
3.400378
1.256316
0.162026
1.244659
0.134116
-3.306349
-4.670590
-0.168691
6.932373
7.759542
7.224235
7.162402
8.807906
10.551991
7.142267
6.863484
7.136264
4.584449
3.459771
1.212181
3.161203
6.936636
6.359282
2.296587
1.490621
0.526007
-1.597208
-7.076794
-16.460427
-15.295818
-6.843938
-0.897940
1.957397
1.042250
-1.581647
0.955332
4.427247
8.523866
8.941515
6.973769
7.298490
4.123031
2.727342
7.418984
12.518027
14.484363
18.089840
15.717168
10.545694
7.367761
1.629177
1.785355
1.250754
1.838713
7.936293
10.287415
12.317352
12.508510
12.254814
9.363440
4.345669
6.375605
13.540624
15.016878
13.011678
14.154733
11.447095
10.303690
8.639464
9.981802
16.453215
13.761124
1.610843
-10.492797
-18.150720
-18.066623
-14.285183
-10.090689
-7.881609
-11.618878
-14.568201
-17.719986
-19.679605
-18.505456
-20.354126
-18.975748
-14.974884
-16.926375
-17.759901
-20.660463
-18.944998
-14.534260
-14.892898
-13.663628
-5.784864
2.690336
5.964735
4.621693
1.850101
3.445077
2.616851
1.009512
-4.092708
-3.740780
1.857178
9.760676
16.664223
18.666599
18.548586
13.431526
7.646655
-0.943024
-6.897851
-6.239578
-6.799973
-7.479796
-9.664845
-10.161638
-4.169354
-4.011056
-4.774974
-10.750295
-17.336540
-15.547580
-12.955481
-12.604966
-15.356772
-11.381701
-2.614289
1.324387
4.023902
6.956268
6.299058
7.558715
8.963948
10.771634
15.816969
18.639446
17.382620
17.053309
14.830806
12.882848
6.849932
1.834988
5.994855
4.086470
-0.441219
-3.001161
1.071431
5.698412
-0.017911
-7.652514
-6.964561
-3.078532
-1.117850
-2.014977
-5.830687
-8.505465
-3.389108
1.902858
1.227275
0.391629
-0.534119
0.325558
-1.675401
-2.900781
-3.988004
-5.663185
-6.306260
-1.976084
6.889557
13.532693
9.067545
6.050381
8.416697
8.562628
7.918139
7.046805
13.144739
16.439277
14.778230
9.015620
12.481528
19.439843
18.220470
10.816245
3.046313
5.896704
11.854361
11.267466
11.766737
14.479325
15.029476
15.779264
10.207457
6.915042
7.912521
7.658825
2.364743
-1.094448
2.349906
1.886680
-3.828583
-8.887695
-9.472470
-7.795520
-6.765533
-3.470288
-1.024824
-3.074544
-9.592595
-17.598557
-16.233605
-13.328447
-16.042799
-18.279082
-22.103979
-29.312808
-37.047406
-42.096978
-34.831964
-26.147940
-22.666485
-20.541853
-17.789691
-8.870342
-6.088146
-8.150939
-6.010054
-3.175564
-4.202366
-2.956136
-2.326130
0.665950
2.449962
3.113182
6.663538
4.587318
6.489699
9.737243
12.206381
14.930983
12.436408
7.869145
6.186544
7.358573
10.834728
5.278467
-2.538458
-5.107941
-8.007442
-8.260432
-9.902045
-12.357045
-12.013244
-14.447751
-16.195366
-13.413523
-11.737279
-2.664934
4.938578
5.026562
7.323976
9.027781
7.173104
6.155488
3.623107
6.148425
11.834011
8.466335
4.081395
3.508987
4.579607
9.181501
9.448981
5.717719
3.722060
-1.867415
-3.494188
-4.505797
-2.240183
1.098170
1.773403
8.208776
15.728900
17.823145
16.602712
10.406554
3.461670
1.681901
1.238109
2.571260
6.220551
8.768837
9.502725
5.432256
-0.386889
3.703017
6.425852
5.450637
0.889027
0.008507
3.894183
3.719635
1.127539
-5.847026
-11.259478
-8.256444
-4.520938
-2.147909
3.325674
8.527892
14.388734
17.429928
20.591611
20.610340
20.035812
18.327771
12.311109
6.370769
3.315798
3.250079
-0.144804
-3.848506
-9.013620
-12.494365
-16.026344
-22.386451
-24.437585
-19.654074
-15.335558
-10.742850
-4.154482
-0.706241
0.647758
-2.567276
-3.190918
-3.148516
-5.832833
-6.091829
-1.649644
2.730353
1.919087
0.604313
3.345169
7.376066
6.086733
5.771202
6.235846
10.659303
20.633017
21.496227
14.135109
9.498591
11.499554
15.621966
16.761134
14.721661
10.035322
8.305728
10.676637
12.450756
7.871125
1.396183
-2.859789
-7.468040
-12.027176
-19.965298
-28.135210
-26.741991
-24.497577
-26.793221
-21.558143
-15.969371
-6.835193
-5.761392
-11.693959
-9.379938
-10.725452
-7.998024
-6.120376
-10.457616
-16.014229
-23.295493
-29.159159
-32.042053
-34.389285
-34.980420
-30.012466
-20.261003
-7.856668
1.761586
2.992269
1.708589
1.737918
-0.449252
-2.036804
-2.377068
3.396147
7.519619
10.841365
21.449322
28.357110
26.976968
16.474309
7.032728
4.715177
6.099563
7.051107
6.644769
8.645732
8.723468
8.276496
6.027845
2.723417
3.747043
6.184734
7.384323
3.444943
0.944362
3.170402
4.316990
3.864364
2.981371
1.075813
0.182220
7.474440
18.264368
25.601462
24.042177
13.501711
5.816227
2.011824
-5.797329
-4.868398
2.456684
1.064175
-2.138492
-12.448581
-16.121542
-7.922653
-2.034956
2.848196
7.112651
10.743569
9.757400
5.483055
-0.592261
4.429401
14.427141
20.827887
23.718558
20.290108
13.308829
1.481501
-10.128170
-16.686855
-9.044475
-3.289281
-0.820850
-2.199932
-11.707233
-12.232294
-8.719392
-9.630299
-17.752157
-27.704666
-33.757368
-32.569793
-30.216904
-31.684321
-29.016606
-18.207599
-9.027132
-9.403790
-11.088157
-11.150697
-8.352954
-5.387021
-4.367635
2.393517
12.754490
19.837887
22.395713
21.696809
23.064941
31.705152
36.742713
34.739987
32.285340
27.320217
22.326119
21.337124
23.558924
21.318401
10.842949
6.760114
7.057981
4.022797
7.848051
6.047436
-1.863479
-10.822398
-21.610201
-25.380331
-26.283818
-22.186846
-14.425744
-13.576668
-15.892099
-9.097027
-0.423956
1.533546
1.933175
3.806229
2.520075
1.124740
-0.723224
-8.282212
-11.792284
-13.704908
-12.977734
-8.602330
-2.661280
-1.410810
-7.462452
-13.452966
-16.100184
-9.790600
0.241414
7.226583
12.117156
14.666148
12.015044
8.895412
5.402654
4.356771
2.390439
-6.455765
-12.332857
-15.009048
-12.815162
-1.072631
-0.268429
-5.130378
-4.004283
-6.611573
-7.074446
-11.799299
-16.229113
-6.585419
3.708420
5.712210
5.706558
3.956470
4.959956
8.495825
10.193623
14.927666
15.672154
7.862295
5.818935
13.209383
24.091886
19.241951
4.084045
-5.591446
-2.232600
3.032866
-1.466910
-3.702840
-9.339662
-8.449951
-3.204979
-2.198313
-0.835481
7.287440
14.053538
19.941235
22.094487
18.157228
11.523282
1.370782
-7.460581
-10.938852
-9.959040
-8.656983
-5.045499
-5.721789
-7.987399
-16.560472
-22.746383
-28.897667
-30.970707
-26.783634
-24.954747
-17.233219
-7.196258
-6.234466
-5.470191
-4.270249
-10.980869
-11.924637
-11.426427
-7.771129
-9.547717
-18.946544
-23.352331
-22.143555
-18.163538
-15.352368
-13.598036
-12.782174
-10.251555
-1.098649
10.435058
19.270311
22.894516
27.048729
35.209811
38.796915
41.734934
39.320567
33.232178
24.959090
18.907448
18.548810
12.060087
8.388186
8.423875
7.958529
8.229189
6.823253
7.889633
10.423078
8.134147
1.959543
-2.110219
-2.839509
-3.478345
-5.607213
-6.076093
0.399207
6.232842
6.876982
11.598305
15.041953
14.530672
13.136043
11.344968
10.553489
4.834339
-2.564586
-10.189649
-20.395502
-29.216619
-30.909820
-22.775238
-13.062996
-6.483814
-6.206088
-4.983885
-3.132738
-1.013406
-1.078419
-5.906447
-10.842950
-17.155003
-19.113562
-19.553114
-19.969346
-23.783644
-23.905544
-19.818465
-11.735471
-10.077601
-9.846161
-2.694570
-1.687904
-2.128870
-7.057600
-7.901019
-1.859267
2.145484
4.619922
5.142866
0.665704
-5.001505
-10.695921
-9.487145
-2.502683
6.150601
13.363673
13.192305
15.932101
16.205234
7.070352
1.107045
3.654624
11.928068
15.224373
10.717177
7.454796
1.842355
-4.302216
-6.106365
-5.449152
-6.087281
-4.691235
-5.410633
-11.862255
-12.274954
-3.958049
3.804466
10.041616
8.172452
-1.470179
-6.820089
-8.997011
-5.723673
-2.023148
-2.561989
-5.342415
-4.460831
-3.320250
-1.722447
0.559774
0.783086
5.185697
5.360249
4.912923
11.842970
21.441437
23.613063
23.018748
24.210210
24.176292
25.070949
25.261047
24.550130
17.279467
10.899219
10.467440
9.715535
9.414845
9.048081
10.109161
12.500211
14.985602
16.886216
15.744932
13.830894
7.471493
-0.321406
-5.160741
-9.062313
-9.419537
-6.865245
-7.143321
-11.239936
-15.548202
-17.407119
-18.220858
-24.195119
-27.056813
-24.891547
-20.360321
-17.215598
-18.239220
-20.663127
-23.602909
