EVENT_NAME: 202010301151
EVENT_ID: 10614
EVENT_DATE_YYYYMMDD: 2020/10/30
EVENT_TIME_HHMMSS: 11:51:24.00000
EVENT_LATITUDE_DEGREE: 37.879
EVENT_LONGITUDE_DEGREE: 26.703
EVENT_DEPTH_KM: 16.54
HYPOCENTER_REFERENCE: AFAD
MAGNITUDE_W: 6.6
MAGNITUDE_W_REFERENCE: AFAD
MAGNITUDE_L: 
MAGNITUDE_L_REFERENCE: 
FOCAL_MECHANISM: 
NETWORK: TK
STATION_CODE: 3506
STATION_NAME: 
STATION_LATITUDE_DEGREE: 38.39443
STATION_LONGITUDE_DEGREE: 27.08211
STATION_ELEVATION_M: 26.0
LOCATION: -_-_-
SENSOR_DEPTH_M: 
VS30_M/S: 771
SITE_CLASSIFICATION_EC8: B
MORPHOLOGIC_CLASSIFICATION: 
EPICENTRAL_DISTANCE_KM: 66.21
EARTHQUAKE_BACKAZIMUTH_DEGREE: 
DATE_TIME_FIRST_SAMPLE_YYYYMMDD_HHMMSS: 2020/10/30 11:51:10.1008350
DATE_TIME_FIRST_SAMPLE_PRECISION: millisecond
SAMPLING_INTERVAL_S: 0.01
NDATA: 10501
DURATION_S: 
STREAM: HNZ
UNITS: cm/s^2
INSTRUMENT: sensor = CMG-5T/GURALP | digitizer = 
INSTRUMENT_ANALOG/DIGITAL: 
INSTRUMENTAL_FREQUENCY_HZ: 
INSTRUMENTAL_DAMPING: 
FULL_SCALE_G: 
N_BIT_DIGITAL_CONVERTER: 
PGA_CM/S^2: 25.802
TIME_PGA_S: 
BASELINE_CORRECTION: BASELINE REMOVED
FILTER_TYPE: BUTTERWORTH
FILTER_ORDER: 
LOW_CUT_FREQUENCY_HZ: 
HIGH_CUT_FREQUENCY_HZ: 
LATE/NORMAL_TRIGGERED: 
DATABASE_VERSION: 
HEADER_FORMAT: DYNA 1.2
DATA_TYPE: Acceleration
PROCESSING: Manual Paolucci et al., 2011
DATA_TIMESTAMP_YYYYMMDD_HHMMSS: 
DATA_LICENSE: U (unknown license)
DATA_CITATION: Turkish Accelerometric Archive v 1.0 - Disaster And Emergency Management Presidency, Earthquake Department
DATA_CREATOR: AFAD
ORIGINAL_DATA_MEDIATOR_CITATION: : AFAD - Disaster And Emergency Management Presidency
ORIGINAL_DATA_MEDIATOR: AFAD PROCESS SERVICE
ORIGINAL_DATA_CREATOR_CITATION: AFAD PROCESS SERVICE
ORIGINAL_DATA_CREATOR: network: TK
USER1: GuestUser
USER2: 
USER3: 
USER4: 
USER5: 
[...]
4.037483
3.983018
5.067131
5.127149
3.731158
1.095636
-1.067386
-1.785155
-2.046383
-2.649669
-2.928590
-2.446028
-2.494249
-3.724414
-4.187199
-3.662314
-2.991031
-2.888343
-4.406795
-4.722488
-2.694415
-0.276755
1.056098
1.905003
2.243247
0.632862
-2.872379
-7.391657
-10.234288
-9.914777
-7.589050
-6.008846
-6.331477
-7.632760
-9.881470
-11.974068
-13.510560
-13.383935
-10.897932
-7.928675
-4.305828
-0.024187
5.374871
10.173418
12.573038
14.962945
16.580963
14.606316
10.205337
8.084638
7.301302
5.464728
4.399696
5.497340
7.551084
7.669037
6.377121
3.902568
2.220719
2.007019
0.174608
-3.321614
-6.064333
-6.974641
-6.927113
-6.402228
-4.591671
-1.088857
-0.609418
-1.580089
0.684928
4.306387
6.508959
8.475975
10.512721
9.342920
7.160470
7.006440
10.440218
14.710411
15.367818
11.725892
5.482093
-0.758930
-5.616104
-4.920883
-0.553553
0.376877
-2.852219
-6.608628
-6.688418
-6.787635
-9.439463
-7.115123
0.181220
4.011523
6.558583
12.022515
12.276458
4.980116
-3.260879
-7.644512
-7.912331
-9.314219
-12.036470
-11.590335
-9.405803
-8.311629
-5.981044
-2.347096
-1.401749
-2.809534
-2.986461
-0.423790
4.598518
10.239030
14.139063
12.003100
4.689759
3.852304
5.409612
5.552195
8.917977
9.727680
6.982532
3.942853
4.495144
5.804754
1.918945
-6.248504
-11.822754
-9.792946
-3.931448
-4.970809
-7.944227
-1.732344
5.008239
5.731907
2.942354
1.926931
1.852692
-2.946200
-9.435962
-11.178869
-12.289694
-14.250464
-12.789252
-12.145028
-12.043381
-12.419091
-13.918462
-12.841634
-10.702894
-7.428351
0.162871
6.579782
5.974067
4.519448
5.247625
4.630462
6.164179
13.019592
19.181520
18.187258
10.774699
10.003158
11.798450
8.811502
4.822312
0.362704
1.406923
2.130938
-2.283918
-4.459776
-1.271615
-0.324186
-1.574819
-2.675930
0.060546
-3.167162
-13.655481
-12.973443
-8.232138
-4.645370
0.627411
6.959327
9.081415
6.563150
5.743734
8.710910
6.183625
-1.157816
-0.029644
7.308330
7.874845
0.960110
-2.083732
3.733707
7.244153
-1.151566
-4.725150
0.917444
5.673319
4.038650
5.671239
8.140589
4.997529
5.165090
1.900609
-6.432666
-13.359196
-10.057593
-4.247439
-4.956188
-6.226248
-4.369205
-3.451611
-5.093218
-3.100877
-0.264836
-2.738348
-4.338672
0.148343
1.535315
1.798625
5.138389
7.586577
8.510069
7.238275
2.834520
-0.614521
0.594830
0.980602
4.363730
12.243239
13.580255
7.363863
-1.107137
-8.581794
-6.934635
-0.367857
-2.516656
-7.534105
-6.575228
-1.838779
1.614773
1.795517
-5.497356
-7.943115
1.682424
4.366169
-0.253021
0.227112
3.725069
3.512410
2.521618
3.676503
6.198932
7.304901
5.062435
2.085547
1.528401
3.789601
7.539073
5.765638
1.748348
4.127500
8.197869
9.575821
7.305602
5.974832
3.213726
-3.882446
-7.365831
-7.401563
-7.788027
-6.993935
-8.209529
-11.437931
-12.306262
-9.241603
-6.714317
-9.600313
-9.404652
-8.130081
-13.263400
-9.155217
2.838026
6.129221
2.631265
0.327048
4.166371
5.341377
1.815320
-1.543522
-3.899777
-7.078917
-11.138530
-9.066399
-4.170369
-6.658452
-11.632884
-11.060124
-8.772211
-3.135862
6.896957
19.002948
21.320696
12.696011
8.096943
9.359372
7.702154
1.461478
2.392948
10.069859
10.382431
2.979933
1.132951
7.394790
5.728899
-4.403831
-6.227916
-3.976429
-4.998443
-11.442065
-13.907945
-10.145638
-8.133176
-0.992598
4.473068
1.049699
-3.349198
-3.484148
0.011034
3.814624
2.504669
2.315253
4.755116
3.030596
2.739534
6.507739
9.046126
9.744469
8.943093
6.505313
5.754934
4.498751
0.597678
-0.480884
2.174414
-0.130497
-3.674940
-3.470953
-2.618579
0.969230
1.788300
-3.923329
-10.460272
-13.715733
-12.404042
-9.236696
-5.182632
0.593871
0.957093
-4.574833
-4.209876
-1.847376
-3.451169
-1.794990
-1.858475
-8.626811
-9.696353
-3.503897
2.036356
6.365525
5.838559
3.619684
2.199409
0.294493
0.465176
2.996625
0.581741
-3.160097
0.507502
2.562288
-0.909996
-4.422523
-2.099918
1.581211
2.430463
0.752776
-4.899183
-6.506098
1.162139
9.076688
12.917745
11.654971
9.262984
12.530588
11.435721
3.795585
3.097243
3.880581
-7.271389
-13.289344
-6.773909
-3.646806
-6.246595
-4.524156
-0.390648
-4.563703
-9.862848
-10.503255
-8.221586
-6.018320
-5.446602
3.323789
15.610523
17.826278
13.843333
13.368058
13.082200
6.461303
-1.993739
-5.710599
1.316190
9.151988
4.638262
-3.849391
-8.794682
-9.574549
-6.827665
-6.033226
-5.009476
-1.019938
2.756593
8.551136
10.903922
4.561600
-0.818030
2.202224
6.053689
3.322418
1.928162
5.914924
10.401593
9.427106
2.505780
-4.557782
-6.179267
-2.552257
-1.830671
-1.607603
0.661924
4.049909
5.695680
0.699739
0.703903
3.993017
0.297665
-2.642449
0.437474
4.576532
5.674176
2.892602
-1.067099
-0.294169
-1.766828
-2.924834
0.663321
4.551213
2.441615
-5.921147
-7.040646
-3.144775
3.138226
6.715974
2.700072
-1.665869
0.132546
2.665382
-2.778080
-5.432683
-2.786405
-7.588766
-11.989052
-6.612543
-2.107488
-3.672773
-5.136759
-6.486610
-10.245447
-13.379488
-9.414928
1.696107
7.712676
5.018872
2.469038
6.019033
9.858703
12.366908
11.467354
5.180192
1.528899
0.562391
3.303724
6.073504
6.972711
6.851985
0.483644
-2.317704
-3.579438
-6.307587
-6.410968
-5.455560
-3.123935
-5.064931
-7.262991
-5.940893
-2.992451
2.341387
6.901949
8.595248
8.297247
1.416164
-4.411335
0.750433
9.326204
6.621298
-1.543722
-0.520666
1.559792
4.527661
8.891868
7.223202
4.835031
0.929795
-5.199174
-4.068226
-0.912675
1.213228
5.354715
5.714121
0.408384
-2.954968
-3.846889
-6.174697
-4.278105
2.176273
2.776785
-1.679007
-2.385328
-2.000944
0.141612
3.367587
3.334630
-0.071046
-2.198336
-3.187740
-2.507437
0.792084
-3.343851
-11.560909
-13.351690
-10.446266
-4.150429
3.095959
3.695431
2.684517
0.326181
-4.210442
-6.034527
-9.506118
-10.025798
-0.944570
7.980198
10.696900
6.939104
-2.130327
-8.695023
-7.575870
-5.659158
-7.855484
-3.984591
3.241675
4.301505
1.148730
0.605807
2.371611
3.228842
0.517692
-0.162957
2.152016
0.765392
-1.743159
-5.829138
-5.462794
-0.626433
-2.579918
-10.684922
-13.985483
-12.308142
-7.368054
-1.008731
2.311605
4.303946
4.543318
2.186023
4.144366
9.089658
10.552604
10.964048
11.779302
13.655425
7.814397
-1.254687
-6.321052
-7.345495
-1.843402
6.983536
11.879565
5.143840
-2.295085
-4.172595
-9.627159
-11.480385
-7.292411
-8.252675
-9.288913
-8.950669
-7.508537
-5.728163
-3.292463
1.330544
4.214459
5.397097
1.615017
-3.087432
-2.686050
0.879209
2.552734
-1.967931
-4.790441
-3.975534
-3.810401
-1.370886
1.469318
3.371114
-0.578527
-2.890029
-1.244258
-0.317297
4.639443
6.943314
4.172495
-1.805565
-10.809429
-13.160133
-5.584176
-2.382832
-4.332500
2.483711
10.246310
7.840793
2.626295
-0.048428
1.028747
2.184673
0.453214
0.524680
3.856464
4.142324
1.066912
-2.097311
-1.796534
-1.140168
-0.145905
7.444970
13.208985
8.960649
-1.990109
-6.873302
-6.186754
-11.653460
-14.375017
-5.766290
0.632928
-2.099730
-5.216426
-2.678039
0.301973
3.837744
7.306560
7.063719
5.595917
3.986573
-1.783684
-8.498595
-8.399376
-5.352757
-0.345714
2.392150
2.708191
2.039684
0.588187
2.060154
3.201509
2.684257
5.872765
7.380117
3.381214
3.626484
6.725835
6.037207
-1.189058
-2.847317
1.043349
-6.213098
-14.998405
-11.725249
-8.250882
-11.164978
-14.402400
-14.509943
-7.059569
2.697451
5.443641
2.833444
3.379144
9.586517
12.106170
8.154101
7.217428
5.251454
4.841399
0.148664
-4.403571
-0.431032
0.769299
-0.121581
-4.076079
-1.011767
3.025992
-0.776904
-10.006957
-15.819192
-10.983872
-3.116851
-4.702258
-10.417009
-0.726943
9.068932
4.755029
2.344655
7.622987
9.106748
4.245411
0.870263
1.055864
1.480837
5.504373
7.384659
2.562871
-2.114253
-1.675404
3.683412
7.160555
5.424586
1.247368
3.127655
10.332759
8.196103
4.802222
5.513401
0.328391
-3.487341
-2.699840
-10.242840
-16.957403
-4.275185
10.455921
10.824694
3.857228
0.679476
2.602780
6.376536
2.939984
-5.667702
-8.308775
-7.843559
-5.889726
-1.987958
0.360318
2.298887
4.165297
1.063866
-2.639464
-0.962123
1.865939
-3.145266
-10.244560
-10.026349
-5.074119
-1.498105
-2.673804
-4.219662
2.120927
7.262227
1.636286
3.025340
11.227828
11.317680
11.845688
12.240132
5.369803
5.232078
5.607095
-3.949407
-10.100578
-10.181062
-13.651265
-16.566749
-9.160433
-6.733406
-15.072578
-19.466966
-14.640666
-7.735645
-7.127847
-13.673115
-19.688296
-15.173180
-9.939947
-12.474170
-11.980854
-5.732892
-1.365909
0.675346
1.782010
0.290964
1.042733
4.204875
2.621550
0.954965
-0.342155
-7.817159
-11.900362
-9.573941
-3.108809
1.388961
-0.259238
-0.904848
-1.519583
0.404415
4.593776
4.081035
0.031482
1.505530
2.749572
2.031109
-0.908659
-4.442694
-2.665788
-2.637688
-7.526778
-5.197235
8.321746
13.626096
12.950304
10.874358
10.657189
12.966958
7.777785
-1.386701
-2.404206
0.493239
-0.182553
-0.914546
-0.038929
0.022476
-0.395904
3.188435
4.846349
9.096074
13.122731
10.262754
7.113102
4.611837
3.863539
5.185984
4.221558
0.937302
5.299081
10.972897
2.407882
-4.430184
-1.749908
3.055576
4.966045
0.734708
-2.036112
-1.412356
1.089952
1.517700
0.551886
-2.626907
-6.332319
-2.456917
5.553033
7.610594
5.896829
6.091796
-3.384568
-15.405909
-11.090270
-4.822881
-2.257781
0.367682
-1.416161
-1.774178
-2.314673
-6.405162
-12.144197
-11.478117
-5.207258
-1.095259
3.069471
5.183926
1.573570
-0.266821
-1.125438
-7.651626
-5.157297
4.936232
4.421062
-1.098722
-1.614933
-1.980235
-0.000383
2.642772
3.742844
3.093418
0.366657
-1.857076
-1.803650
3.336955
4.263569
3.109727
3.796274
3.910064
3.735912
4.463396
4.046057
1.976008
-3.133721
-7.775460
-8.272590
-1.728014
6.582365
7.380273
4.806849
4.218480
9.397246
8.441840
0.317755
-2.429474
4.811363
12.576390
11.209194
4.764878
5.926354
11.461057
15.464471
14.612098
11.589071
11.286560
8.130317
2.805847
-3.365446
-4.298303
-6.196975
-10.814083
-12.979881
-14.526086
-16.656498
-14.108744
-9.934647
-11.037840
-7.805274
-4.811386
-7.153764
-4.796121
-1.245432
-1.022017
-2.610893
1.237103
4.624741
-0.500600
0.040243
6.871719
6.976835
4.826649
7.195741
6.250394
4.118942
-1.793205
-5.380318
-0.801370
-0.196347
-6.276054
-11.424638
-7.485056
-1.185403
-7.465974
-14.459806
-6.965373
2.236581
1.530954
-3.945812
-2.767684
1.344662
3.480626
3.943066
4.661184
1.316565
-2.491535
-1.278021
0.652916
1.195840
0.503743
0.018755
0.894372
2.498166
-1.566304
-2.581727
1.488642
6.232722
6.057877
3.490351
2.528699
-0.509593
-0.326073
1.243030
-1.537851
-2.489094
2.528009
4.806209
3.571188
0.370192
0.632808
7.352577
11.221388
4.296940
-1.257536
0.700460
2.333395
-0.867253
-6.984080
-4.810649
4.257742
9.239114
4.124528
-0.039507
2.684133
4.392696
-0.321895
-6.905672
-2.102615
6.890496
7.094136
5.097981
12.224682
19.639671
13.249474
5.759552
4.206062
2.538783
0.471510
-0.214690
3.447012
10.577529
7.099000
-2.915431
-2.097055
-1.231151
-6.369674
-9.587322
-3.725824
6.328157
7.206896
4.469728
6.746193
9.060819
8.845037
1.751641
-3.273787
1.290244
0.271351
-2.822100
0.716793
3.464371
1.069608
2.570369
13.589470
17.584212
9.281119
3.315894
4.588384
6.219585
3.795334
-1.014312
-5.643215
-4.020687
1.429715
0.154798
-6.336004
-5.019803
0.413253
-1.428872
-6.811277
-10.261012
-8.883060
-0.556028
6.785414
8.463449
9.132651
7.239530
3.720065
1.319405
-0.138684
0.138850
3.538630
6.758014
3.863692
-0.094622
1.816193
3.310362
-3.320248
-10.566287
-12.518731
-13.527216
-12.760877
-12.544401
-12.621416
-9.954670
-7.106487
-9.931425
-14.431275
-12.896517
-11.302783
-11.100877
-7.232067
-3.538449
-5.747264
-5.077368
-4.203832
-10.875378
-12.931550
-9.874176
-8.312012
-4.935128
-1.369176
-5.094709
-10.241558
-8.140285
-2.988231
-1.683825
-2.803324
2.172844
8.454457
10.147756
7.058467
4.480533
6.005231
11.122246
14.690281
10.541857
4.517656
4.123560
4.648098
-1.595006
-6.786954
-10.800081
-11.181688
-8.571837
-6.552089
-5.935272
-5.396510
3.720797
7.765841
1.444680
-3.806590
-1.162394
6.573145
10.550194
8.816307
5.556336
5.031105
3.583771
2.323078
5.159466
7.262820
6.351125
9.364787
12.274721
9.655851
6.927702
6.893705
9.443193
13.061530
12.716696
12.222688
17.622093
17.691477
9.314491
3.041205
2.776508
4.381690
5.302060
2.328294
-1.760807
-3.141880
-2.424457
-0.306185
2.627339
0.046977
-9.325659
-11.463357
-4.492768
-0.331853
-2.783857
-0.108785
7.498742
9.378335
4.605809
-1.431921
0.063635
7.932391
8.897859
5.468593
3.942509
0.259646
-2.093833
-4.570814
-5.518936
-2.526089
-3.334403
-3.330933
-3.012810
-5.680596
-6.564885
-6.731057
-7.191414
-7.969200
-6.946490
-6.015713
-3.189039
4.296721
12.728521
18.406153
19.670317
17.083363
10.762896
3.753454
1.635877
4.706781
8.571776
5.852300
-0.957666
0.592703
2.101790
-8.445505
-18.896356
-19.549252
-17.968701
-16.659439
-17.681800
-17.509382
-11.986822
-4.561425
1.835017
1.056191
-5.380840
-9.723884
-5.334005
-1.197375
-6.903106
-11.285004
-7.483495
-7.279508
-8.318521
-2.640889
-0.121930
-4.504869
-8.886421
-9.351288
-10.360814
-15.725526
-22.356483
-18.221241
-11.669379
-15.505232
-15.447643
-7.827280
-2.900721
-1.735082
0.647886
7.955678
11.423800
3.296594
-4.624198
-3.541471
2.771017
4.111849
0.644075
-2.220412
-2.052504
-0.871253
-3.866875
0.368627
11.358588
21.083692
25.801754
16.588699
6.970446
8.197143
11.654858
9.575442
7.657690
8.105213
12.045141
16.415940
7.645897
-5.206656
-11.139617
-9.580922
-8.855172
-8.882925
-2.872600
6.334905
11.404046
9.118909
4.081339
1.183548
0.207673
-6.082265
-13.738359
-14.777720
-5.919906
3.459669
6.789719
7.308013
7.827347
10.442749
4.970840
-6.796906
-13.076437
-13.866018
-16.193478
-16.026264
-8.788896
-4.745933
-9.521929
-12.952930
-9.476135
-12.851976
-13.648842
-3.038755
2.834885
4.672154
9.089440
11.738840
11.967458
12.932927
14.238026
14.720934
11.760005
9.726382
12.353233
12.211345
5.004507
1.901688
1.889200
-2.172495
-2.054543
2.555281
6.417501
4.087958
-1.762784
-1.373543
3.494734
3.908952
0.251068
-1.796084
1.990160
7.547066
5.090899
-5.646506
-14.988613
-15.605083
-12.385699
-11.019542
-9.427890
-0.896177
9.406889
8.638817
-0.280052
-6.602947
-7.558701
-4.221713
-1.388447
-5.151794
-9.657889
-8.816269
-12.155685
-16.049819
-17.017715
-16.973309
-14.130677
-14.060946
-9.437939
-3.353374
-3.662129
-4.728896
-2.945746
2.680196
9.272646
7.898165
2.997279
3.086784
7.767032
9.841245
4.842183
-3.949369
-6.676477
-3.773481
-5.967726
-13.272047
-20.200658
-19.768053
-13.000757
-1.972288
0.958114
2.985147
7.979701
6.907036
3.274824
3.788607
8.632253
12.584323
14.016047
12.936445
10.597189
9.956782
12.058748
4.926844
2.443965
6.153889
6.677386
8.681522
6.547640
1.583616
3.601629
6.009575
5.201955
2.008591
-2.605048
0.582420
2.565047
0.858219
1.807383
3.407014
1.574603
-1.895946
-0.112449
7.058310
11.336829
9.407629
4.930675
1.223875
-3.882731
-4.853056
-1.948672
-1.244084
-3.250648
-5.586087
-3.454980
-2.608851
-2.377457
-2.318480
-3.007802
-4.622697
-5.517046
1.302981
7.962386
10.391148
13.570636
16.360190
16.355681
11.343088
4.831471
1.155547
-1.579194
-6.238278
-10.414456
-7.778932
-3.537880
-3.740479
-5.764388
-5.558666
-2.484987
-4.545669
-5.011924
-3.013686
-8.613954
-12.638876
-10.658677
-4.708022
0.312898
-1.568429
-1.582999
3.909033
2.227878
-2.697292
0.388876
6.109526
11.447874
10.445633
7.454522
8.096665
6.643433
5.570769
3.311997
-5.901057
-17.608440
-19.716649
-14.517414
-11.740349
-12.298190
-10.482776
-3.341158
6.450901
7.909685
2.206035
5.504863
11.265408
5.552044
-3.335950
-6.537639
-9.532913
-11.120402
-10.025880
-8.070313
-6.328792
-8.024172
-10.055019
-9.323719
-5.929142
-3.457363
-4.862374
-8.203870
-7.844118
-0.303198
6.462710
6.821422
6.518218
8.706567
8.967448
5.026480
0.304257
1.619764
5.107313
7.711961
11.060051
11.617893
8.810647
5.775477
2.729900
0.177985
4.146707
7.393844
7.180144
7.821593
5.462910
1.965995
3.179855
7.384481
9.883320
11.176277
11.043062
10.553911
10.862667
6.352062
1.633655
2.722625
7.336265
8.471376
5.406025
7.027859
10.370398
4.890162
-5.640827
-5.159307
1.117796
0.751107
-2.982406
-0.990065
1.493162
-1.304717
-4.312480
-5.121141
-5.431631
-5.652616
-6.773155
-8.374866
-9.742757
-12.127111
-14.558300
-15.421774
-12.263795
-9.440589
-8.229851
-8.456387
-8.923682
-5.678280
-1.417107
-0.565774
1.448770
3.660014
5.627030
5.477857
4.220286
5.841079
5.507694
5.747066
7.110795
5.778984
2.506523
1.887279
3.765484
6.351745
4.062098
-1.435136
-2.224370
1.132046
1.606975
-0.961940
-0.647633
-0.307307
-1.022995
-1.830962
-0.662548
2.128047
-1.228367
-8.828955
-10.518089
-4.162236
-1.309196
-2.839790
-2.238237
-3.983919
-2.942822
1.933086
0.609948
-4.159803
-4.413745
-3.591552
-4.149740
-6.733572
-8.350201
-6.567398
-5.639396
-5.052413
-2.314549
1.856425
2.601602
0.073971
0.745948
1.739864
-4.105327
-9.003437
-6.470601
0.457664
3.365170
-2.214978
-4.810257
1.177518
7.687749
8.611241
6.702161
4.420147
2.354955
3.584427
5.396371
6.418387
7.822358
8.810029
9.679748
7.876131
5.177470
2.441343
1.156018
1.536239
-3.736193
-9.447128
-12.569374
-16.964109
-18.421156
-12.443442
-5.133915
-3.459350
-2.477229
0.106604
4.861439
4.062144
-2.088681
-2.766901
-3.674087
-6.204840
-5.538413
-4.692284
-3.756650
-1.519734
-4.726974
-9.522050
-5.438498
1.085263
2.160704
2.051426
1.166443
-1.011496
-4.012668
-4.004689
0.534364
2.004249
3.012042
6.490919
11.206205
15.318898
15.189152
11.909059
7.746412
4.878109
5.665956
4.981491
1.395071
3.568849
6.575920
5.621901
3.541792
-2.341908
-6.284263
-7.225793
-8.248849
-6.834124
-2.740164
1.360733
4.252628
3.764517
0.667250
-0.264220
0.176017
-0.321807
-3.379179
-2.035572
3.128971
1.945640
-2.644061
-2.263493
-0.838361
0.996480
4.749768
8.735836
13.936112
13.782775
7.229875
2.025091
3.988984
7.809574
5.150461
0.421299
-0.203843
-0.354751
-2.060885
-5.197007
-5.211230
-0.511555
1.251474
3.854041
8.102725
5.425572
0.705430
-0.892465
-2.906660
-3.735443
-3.140481
1.672983
7.042554
5.502940
4.760540
5.959830
5.859572
5.193146
5.695135
5.128621
-0.063674
-9.457819
-15.293991
-8.742823
-3.992498
-9.538995
-10.608884
-4.647821
-3.042292
-5.087016
-4.946861
-3.377758
-2.216282
-1.789574
-1.350031
-3.444711
-8.271356
-6.107986
-1.827385
-2.468833
-2.935088
-1.816976
-0.379701
0.919848
2.380019
0.180917
-1.907865
0.001563
2.514972
-0.835545
-4.172532
-0.663820
2.498669
2.958681
2.297459
4.130565
9.987553
14.912724
14.607091
13.219774
15.505606
13.099742
5.465157
0.137564
-1.861714
1.468683
7.398523
9.629889
7.228536
6.460464
7.595921
6.821952
4.561446
5.709046
5.276095
-0.422351
-6.373352
-9.193434
-6.230074
-1.356941
0.441820
0.260384
1.211976
-1.861355
-6.418793
-4.874321
0.890040
2.378658
-0.359898
-2.218328
-4.411185
-6.628326
-6.358425
-5.041877
-3.234789
-4.514910
-8.037497
-4.488543
3.271628
6.079915
2.611794
1.187703
0.793260
-5.239266
-12.563015
