EVENT_NAME: 202010301151
EVENT_ID: 10614
EVENT_DATE_YYYYMMDD: 2020/10/30
EVENT_TIME_HHMMSS: 11:51:24.00000
EVENT_LATITUDE_DEGREE: 37.879
EVENT_LONGITUDE_DEGREE: 26.703
EVENT_DEPTH_KM: 16.54
HYPOCENTER_REFERENCE: AFAD
MAGNITUDE_W: 6.6
MAGNITUDE_W_REFERENCE: AFAD
MAGNITUDE_L: 
MAGNITUDE_L_REFERENCE: 
FOCAL_MECHANISM: 
NETWORK: TK
STATION_CODE: 3526
STATION_NAME: 
STATION_LATITUDE_DEGREE: 38.57823
STATION_LONGITUDE_DEGREE: 26.97953
STATION_ELEVATION_M: 6.0
LOCATION: -_-_-
SENSOR_DEPTH_M: 
VS30_M/S: 205
SITE_CLASSIFICATION_EC8: C
MORPHOLOGIC_CLASSIFICATION: 
EPICENTRAL_DISTANCE_KM: 81.42
EARTHQUAKE_BACKAZIMUTH_DEGREE: 
DATE_TIME_FIRST_SAMPLE_YYYYMMDD_HHMMSS: 2020/10/30 11:51:15.3567500
DATE_TIME_FIRST_SAMPLE_PRECISION: millisecond
SAMPLING_INTERVAL_S: 0.01
NDATA: 11251
DURATION_S: 
STREAM: HNE
UNITS: cm/s^2
INSTRUMENT: sensor = CMG-5T/GURALP | digitizer = 
INSTRUMENT_ANALOG/DIGITAL: 
INSTRUMENTAL_FREQUENCY_HZ: 
INSTRUMENTAL_DAMPING: 
FULL_SCALE_G: 
N_BIT_DIGITAL_CONVERTER: 
PGA_CM/S^2: 81.378
TIME_PGA_S: 
BASELINE_CORRECTION: BASELINE REMOVED
FILTER_TYPE: BUTTERWORTH
FILTER_ORDER: 
LOW_CUT_FREQUENCY_HZ: 
HIGH_CUT_FREQUENCY_HZ: 
LATE/NORMAL_TRIGGERED: 
DATABASE_VERSION: 
HEADER_FORMAT: DYNA 1.2
DATA_TYPE: Acceleration
PROCESSING: Manual Paolucci et al., 2011
DATA_TIMESTAMP_YYYYMMDD_HHMMSS: 
DATA_LICENSE: U (unknown license)
DATA_CITATION: Turkish Accelerometric Archive v 1.0 - Disaster And Emergency Management Presidency, Earthquake Department
DATA_CREATOR: AFAD
ORIGINAL_DATA_MEDIATOR_CITATION: : AFAD - Disaster And Emergency Management Presidency
ORIGINAL_DATA_MEDIATOR: AFAD PROCESS SERVICE
ORIGINAL_DATA_CREATOR_CITATION: AFAD PROCESS SERVICE
ORIGINAL_DATA_CREATOR: network: TK
USER1: GuestUser
USER2: 
USER3: 
USER4: 
USER5: 
[...]
-3.602313
-2.946644
-2.372232
-2.169864
-2.046886
-1.790969
-1.411764
-1.035983
-0.744263
-0.477138
0.121246
1.440679
3.416713
5.435089
6.723700
6.936653
6.225568
4.992066
3.775065
2.742684
1.802147
1.013229
0.500153
0.504824
1.086707
1.962801
2.688209
2.889331
2.232107
0.561182
-1.766035
-3.971520
-5.613803
-6.590144
-6.922647
-6.767913
-6.220899
-5.405516
-4.294677
-2.956876
-1.503881
0.232738
2.293767
4.095143
4.903677
4.593279
3.542218
2.152738
0.937293
0.087043
-1.028464
-2.667633
-4.321436
-5.409857
-5.488000
-4.214334
-1.638982
1.599821
4.499271
6.293798
6.881285
6.507375
5.595792
4.550646
3.593920
2.937941
2.615401
2.298776
1.631901
0.403380
-1.244507
-2.957463
-4.547130
-5.806473
-6.536238
-6.564257
-5.592584
-3.607209
-1.125569
1.339259
3.321521
4.500853
4.990582
4.895626
4.356397
3.819660
3.633795
3.909015
4.571222
5.234986
5.677081
5.556907
4.331188
2.012066
-0.912288
-3.473939
-4.819521
-4.731412
-3.563288
-1.991987
-0.556738
0.319044
0.381000
-0.412899
-1.642354
-2.485755
-2.530275
-1.940919
-1.147952
-0.639543
-0.567001
-0.674410
-0.462391
0.418372
1.893160
3.465395
4.273618
3.610790
1.411532
-1.834741
-5.262833
-7.935007
-9.163839
-8.932829
-7.703060
-5.821360
-3.631439
-1.388903
0.884455
3.145671
5.201719
6.923394
8.028317
8.333114
7.811943
6.653783
4.886033
2.634159
0.237204
-1.790821
-2.964859
-3.382667
-3.061370
-2.718591
-3.124257
-4.560126
-6.699297
-8.921906
-10.338472
-9.943700
-7.407888
-3.003141
2.199866
6.986307
10.695224
12.726988
12.658807
10.767146
7.611471
4.099319
0.746570
-2.071308
-4.372996
-5.870509
-6.218578
-5.371439
-3.367073
-0.797637
1.642908
2.939301
2.981332
2.331892
1.746586
1.681830
2.139180
2.819133
3.448651
4.046412
4.450213
4.394174
3.698033
2.337196
0.440865
-1.670598
-3.507776
-4.515561
-4.503729
-3.655033
-2.215115
-0.759007
-0.170897
-0.553836
-1.608633
-2.941139
-4.187094
-5.004966
-4.949859
-4.079992
-2.693934
-1.023007
0.732915
2.398550
3.692765
4.409767
4.343143
3.299865
1.508142
-0.600518
-2.397223
-3.478794
-3.654696
-3.028292
-1.817515
-0.128530
1.613693
3.015629
3.922544
4.300816
4.070741
3.222670
2.156977
1.470487
1.179703
0.955544
0.881136
1.087552
1.416321
1.737307
1.987931
1.861531
0.933447
-0.805349
-3.164322
-5.612958
-7.204494
-7.359226
-6.128523
-3.800682
-1.038530
1.163221
2.234209
2.165095
1.161356
-0.396244
-1.828688
-2.743696
-3.448554
-4.529503
-6.001175
-7.331190
-8.162450
-8.284180
-7.730628
-6.749304
-5.323706
-3.270772
-0.567151
2.161065
3.821407
3.552728
1.248238
-2.333652
-6.048171
-8.876323
-10.261444
-9.852662
-7.880986
-5.564664
-3.748655
-2.318077
-1.081148
-0.071181
0.640217
1.249498
2.110959
3.294339
4.826100
6.853816
8.821134
9.856941
9.399905
7.339501
4.157674
0.616257
-2.444461
-4.708166
-6.053748
-6.172365
-4.912709
-2.662389
0.025976
2.648651
4.443489
5.142745
4.840130
3.606628
1.708118
-0.376259
-2.117857
-3.126888
-3.185417
-2.434791
-1.211561
0.035953
0.924812
1.341999
1.021638
-0.060556
-1.301841
-2.006076
-1.501404
0.469961
3.301229
5.775397
6.894953
6.644331
5.634366
4.321163
3.052169
2.031619
0.853222
-0.735511
-2.448155
-3.904884
-4.745794
-4.854137
-4.763538
-4.912043
-4.781905
-3.731153
-1.506363
1.698816
5.376288
9.039439
11.854518
12.943252
12.242130
10.294429
7.583027
4.731525
2.408044
1.011403
0.389983
-0.207777
-1.475837
-3.836366
-6.986748
-9.869072
-11.808679
-12.877486
-12.931034
-11.970880
-10.059603
-7.431013
-4.378388
-1.123706
2.491810
6.383480
10.025460
12.884748
14.753684
16.006491
16.581836
16.303505
14.710724
12.071863
8.129448
3.610444
-0.559556
-3.708693
-5.380241
-6.115610
-6.295871
-6.173515
-5.168219
-3.114662
0.243071
4.219734
8.115451
11.121688
12.739067
13.242805
12.444859
10.350520
7.362342
3.775470
0.234364
-2.573862
-4.495100
-5.386447
-5.554254
-5.559235
-5.361848
-4.593165
-3.260034
-1.130200
1.430830
3.569381
4.222248
2.929281
0.345526
-2.505042
-4.851561
-6.565762
-7.857795
-8.839429
-9.356864
-9.116513
-8.209598
-6.697761
-4.648563
-2.965805
-2.099985
-1.794877
-1.735412
-1.776506
-1.699295
-1.522145
-1.727935
-2.688709
-4.208949
-5.902914
-7.233240
-7.347499
-6.089710
-3.892006
-1.298286
1.262744
3.627012
5.451427
6.508405
6.766813
6.185866
4.780508
2.699245
0.282053
-2.137007
-4.335021
-5.983842
-6.556383
-6.096231
-5.093425
-4.171254
-3.718574
-3.437127
-2.785194
-1.256545
0.861457
2.480393
3.032388
2.651940
1.918439
1.516509
1.768690
2.622056
3.540491
3.565399
2.009355
-0.542022
-2.885428
-4.228830
-4.452367
-3.603982
-1.826578
0.211101
1.898218
2.677175
2.117710
0.414406
-1.754031
-3.657523
-4.874213
-5.499992
-5.535483
-4.910013
-3.947368
-2.949232
-2.121084
-1.867658
-2.402839
-3.665606
-5.552597
-7.475392
-8.683987
-8.922779
-8.418729
-7.440518
-6.114236
-4.434280
-2.480661
-0.074986
2.769046
5.283688
6.771863
7.140794
6.807980
6.218938
5.853122
6.045527
6.823240
7.800205
8.337879
7.990121
6.869321
5.495096
4.333512
3.734197
4.039304
5.323556
7.341309
9.631480
11.473330
12.378066
12.324517
11.511627
10.073267
8.307074
6.565787
4.883653
3.133026
1.334765
-0.616672
-2.898434
-5.507407
-8.066568
-10.000881
-11.071245
-11.310348
-10.882574
-9.690789
-7.528265
-4.549426
-1.053772
2.698731
6.185667
8.963386
10.684127
11.097890
10.222733
8.395829
6.218987
4.373403
3.638346
4.428511
6.525032
9.208416
11.485510
12.480844
11.934144
10.042172
7.387743
4.749193
2.746698
1.951864
2.434744
3.534686
4.356607
4.137430
2.654549
0.099125
-3.104806
-6.357929
-9.002705
-10.287266
-9.649343
-7.432959
-4.490234
-1.497695
0.948764
2.678534
3.693794
4.063036
4.021319
3.610360
2.766959
1.713719
0.708735
0.072371
0.081712
0.645849
1.228666
1.346352
0.797783
-0.457512
-2.389024
-4.633115
-6.299059
-6.803729
-6.008583
-4.363184
-2.480861
-0.991129
-0.324874
-0.550901
-1.243306
-1.806507
-2.210928
-2.396170
-2.234276
-1.730537
-0.935702
-0.216520
-0.494229
-2.118766
-4.548100
-7.094806
-9.170154
-10.156146
-9.848236
-8.738643
-7.422635
-6.261983
-5.373747
-4.666396
-3.927912
-3.084509
-2.259785
-1.827031
-2.068313
-2.829211
-3.742351
-4.816762
-6.219318
-8.086695
-10.166713
-11.813354
-12.724315
-12.767901
-11.788756
-9.839496
-7.355676
-4.535305
-1.325456
2.140621
5.328677
7.764862
9.473150
10.665247
11.497131
11.638478
10.853918
9.341461
7.528568
5.918041
4.755834
4.219408
4.332423
4.943571
5.932679
7.116370
8.355478
9.615757
10.620432
10.959475
10.612650
9.897830
8.992785
8.024227
7.205110
6.751810
6.639419
6.509594
5.730639
3.835242
0.807525
-2.790866
-6.081971
-8.313920
-8.909500
-7.910741
-5.906997
-3.683453
-1.613395
-0.199006
-0.201184
-1.820117
-4.728593
-8.003821
-10.397662
-11.214600
-10.242305
-7.776231
-4.765947
-1.951803
0.062215
0.918694
1.165894
1.669322
2.713224
4.034524
5.119522
5.575627
5.345553
4.591815
3.534528
2.341499
1.204511
0.069079
-1.189953
-2.414115
-3.772462
-5.219227
-6.265618
-6.627075
-6.383923
-5.717045
-4.670341
-3.556700
-2.647917
-2.006569
-1.796729
-2.339382
-3.641377
-4.982289
-5.417844
-4.600592
-2.900088
-0.895411
0.926825
2.175896
2.674031
2.503421
2.112076
2.079076
2.511831
3.263080
4.157542
4.966076
5.689616
6.185883
6.179657
5.694289
4.859605
4.001883
3.299204
2.820374
2.790799
2.905059
2.385133
0.725416
-1.750929
-4.094335
-5.348386
-4.931198
-2.746881
0.697402
4.371450
7.333789
9.160072
9.925331
9.855282
9.367735
8.990400
9.055781
9.557029
10.197132
10.558591
10.252551
9.258465
7.952111
6.496005
4.877695
3.102472
1.107137
-0.983466
-2.808813
-4.056636
-4.669962
-4.687085
-4.536398
-4.725065
-5.721020
-7.807887
-10.137283
-11.426202
-11.277695
-10.186470
-8.766477
-7.655638
-7.358002
-7.842436
-8.542313
-8.311302
-6.200771
-2.154369
2.896706
7.648279
11.306137
13.628374
14.753223
14.703411
13.180680
10.266600
6.644236
3.189992
0.442476
-1.660581
-3.375405
-4.985620
-6.300380
-6.976596
-7.198575
-7.488737
-8.332138
-9.708542
-11.301323
-12.719446
-13.542299
-13.491862
-12.425855
-10.527965
-8.438294
-6.466618
-4.438591
-2.163987
0.283718
2.606266
4.651106
6.622470
8.846949
11.295899
13.672309
15.753263
17.397105
18.258566
18.135901
17.106011
15.127488
12.157679
8.407669
4.401742
0.573587
-2.803135
-5.497102
-7.489324
-8.845492
-9.739329
-10.053775
-9.520459
-8.102334
-5.903696
-3.081769
0.066437
2.883694
4.470873
4.380899
3.147086
1.346957
-1.059961
-3.999259
-6.929218
-9.427045
-11.130349
-11.970637
-12.077424
-11.588006
-10.838314
-10.254874
-9.881584
-9.458792
-8.965639
-8.234315
-7.215320
-6.398691
-6.255788
-6.676398
-7.374407
-7.955665
-8.120048
-8.286922
-9.216251
-10.958784
-12.754865
-13.765764
-13.509847
-12.008907
-9.811514
-7.657708
-5.993941
-4.913924
-4.256698
-3.601651
-2.449094
-0.370319
2.805906
6.590166
9.970937
11.892800
11.703821
9.268883
5.210653
0.927639
-2.108795
-3.246095
-2.997961
-2.188493
-1.527842
-1.577032
-2.395527
-3.714334
-4.930402
-5.389617
-4.935381
-3.870308
-2.493279
-1.161393
0.175474
2.345781
5.967836
11.055337
17.108283
23.199835
28.566914
32.978510
35.752181
36.337489
35.062891
32.334677
28.682114
24.488765
19.271128
12.132875
3.102026
-6.665126
-15.304629
-21.412057
-24.587968
-25.091705
-23.516045
-20.380604
-16.128411
-11.336365
-7.054283
-4.044621
-2.815164
-3.541504
-6.068286
-9.392392
-11.854727
-13.008839
-12.967431
-11.653603
-9.084166
-4.977988
0.641894
7.101442
13.600218
18.925889
22.268366
23.477275
22.827212
20.774592
17.635417
13.689578
8.498405
1.881013
-5.587565
-13.108758
-19.827644
-25.278469
-28.584207
-28.780035
-25.698455
-19.796194
-11.800215
-3.233874
4.057246
8.579677
9.807577
8.060064
3.939255
-1.439964
-6.793964
-10.453065
-12.184078
-12.159793
-10.146087
-6.943087
-3.592515
-0.637026
1.550716
2.899725
3.904710
4.872336
5.962627
7.301050
8.871106
10.274599
11.303868
11.580022
10.450194
7.682129
3.594322
-0.997534
-5.264359
-8.283669
-9.598741
-9.211752
-7.378308
-4.916282
-2.498465
-0.726354
-0.030523
-0.657236
-2.782397
-6.207998
-10.456765
-14.839716
-18.586614
-20.940916
-21.593781
-20.484499
-18.118052
-15.598741
-13.752221
-12.839079
-12.754084
-13.209252
-13.759688
-14.012490
-13.941194
-13.876435
-14.108066
-14.635775
-15.171890
-15.761866
-16.792068
-18.249419
-19.878314
-21.394196
-22.259702
-21.739462
-18.987585
-13.551390
-5.546694
4.209253
14.498514
24.270650
32.559282
38.770697
42.860686
45.007020
45.460323
44.457830
42.112245
38.697852
34.576109
30.447829
26.750122
23.985482
22.421032
21.948741
22.409204
23.415435
24.911705
26.691288
28.761656
30.640555
31.653947
31.089500
28.427911
23.695955
17.468041
10.881160
5.120247
0.859961
-1.481577
-1.482199
0.541158
3.994470
7.561419
10.254143
12.038397
12.673829
11.749481
9.689700
6.880851
3.472996
0.415391
-1.599870
-2.403732
-2.012696
-0.734671
0.853754
1.721441
0.996969
-1.150919
-4.195137
-7.627276
-10.777347
-13.212907
-14.993422
-16.606129
-18.134775
-19.102398
-19.179297
-18.119828
-15.842734
-12.815326
-9.862638
-7.705407
-6.715988
-7.068728
-8.777636
-11.815005
-15.955427
-20.702950
-25.569714
-29.991582
-33.302301
-35.438671
-36.504987
-36.203615
-34.423409
-31.027694
-26.118586
-19.682388
-12.064680
-3.809672
4.144277
10.895233
16.005151
19.359458
20.968120
21.492406
21.602619
21.577403
20.986181
19.369116
17.236172
14.048741
10.848857
8.375002
7.395859
8.032849
9.937277
12.927013
16.466564
20.045966
22.158054
22.403074
20.394975
15.927340
8.655214
-1.031303
-11.887811
-22.547868
-32.202318
-40.661559
-47.688666
-52.865206
-55.687754
-56.085637
-53.741295
-48.612387
-41.718840
-34.464769
-28.302544
-24.035718
-22.003332
-21.987453
-23.512052
-26.206642
-29.477199
-32.788852
-35.060962
-35.598323
-34.021729
-30.197308
-24.735583
-18.868814
-13.460328
-8.981172
-5.195667
-1.719628
1.361952
4.606359
8.339248
12.263608
15.959760
19.390967
22.326532
24.385381
25.642235
26.022686
25.317205
23.398147
19.721300
14.287286
7.637827
0.357606
-6.541542
-12.506690
-16.750476
-19.128751
-19.714368
-18.983356
-17.563052
-15.558063
-12.544665
-8.299010
-2.542764
4.919589
12.677398
19.732527
25.023329
27.541395
27.088406
25.007454
22.233785
20.512735
19.835586
20.177742
21.332791
22.123267
22.368911
21.192694
19.413113
17.684590
16.750280
16.280167
16.564727
17.491879
19.236593
21.848682
24.642901
26.878899
28.253438
28.840925
28.092792
26.151006
22.538294
17.725391
12.399410
7.461351
3.613893
1.374784
1.012704
2.791976
6.432711
10.826872
15.059452
17.783621
18.003735
15.537041
10.387275
2.803193
-6.019063
-14.227057
-20.276577
-23.030943
-21.708086
-16.692814
-8.577283
1.318452
11.116740
19.494103
25.409751
28.547059
29.492580
29.160389
28.096252
26.979811
26.008763
25.805152
26.976390
29.003172
31.607166
35.224551
39.682847
43.910446
47.400184
49.285932
48.650190
43.569540
33.229845
19.522767
4.913445
-8.843446
-20.907617
-30.071405
-35.541533
-36.838859
-33.489532
-25.869955
-16.111518
-6.699595
0.333430
3.698945
2.800127
-2.023984
-10.014668
-20.071361
-30.828865
-41.458411
-51.194431
-60.063075
-67.801267
-73.925818
-78.263626
-80.760520
-81.377893
-80.143143
-76.900293
-71.796291
-65.371923
-58.271962
-51.383708
-45.464635
-41.114683
-38.392693
-36.944057
-35.992621
-34.540872
-32.208360
-29.045211
-25.174401
-20.758757
-15.982589
-11.004055
-5.801360
-0.428677
5.232300
11.047699
16.911355
22.280302
26.693766
30.008846
32.111594
33.038123
33.091985
33.118449
33.865028
36.114102
40.076133
45.232439
51.021064
57.008630
62.288224
65.844899
66.979088
65.491538
61.734678
56.490578
50.677672
45.037244
39.115683
33.608817
30.236454
29.159864
31.076434
36.235854
43.610099
52.185470
59.360151
63.307237
63.514587
59.388174
50.914923
38.483379
25.191931
13.793391
5.175371
-0.218481
-1.912445
0.131460
5.676933
14.140846
23.492682
31.440404
36.213147
37.270437
34.205671
26.537840
15.082326
1.512858
-11.886311
-23.188026
-31.584378
-37.083771
-41.295178
-45.140456
-47.801111
-49.014065
-49.345323
-49.168796
-48.998184
-48.830374
-48.610883
-47.950855
-46.382667
-43.889819
-40.155995
-35.305107
-29.840892
-24.202019
-18.460095
-12.659329
-7.119771
-2.173304
1.850060
4.550256
5.734258
5.191605
2.927278
-0.547825
-4.432954
-8.585519
-11.753648
-12.952592
-12.009873
-8.978106
-3.846084
3.329531
11.493941
19.661776
26.790068
31.911505
33.197313
29.413678
20.081770
7.016662
-7.181700
-21.036038
-32.892239
-41.107394
-45.245015
-46.063509
-44.103975
-40.096490
-34.698589
-29.060027
-24.113871
-20.148416
-16.986512
-14.408670
-12.080828
-9.304978
-5.996747
-2.463734
1.088271
4.681372
8.258283
11.190423
12.549394
11.297524
7.148695
0.647742
-7.181671
-15.477773
-23.532903
-30.446996
-35.974409
-39.660596
-41.061596
-40.196088
-37.105791
-31.997430
-25.237134
-17.682626
-10.543748
-4.971189
-1.582012
-0.167623
-0.180698
-1.100687
-2.592907
-4.258852
-5.784073
-7.035633
-8.103194
-9.057741
-10.057432
-11.427298
-12.898037
-13.870330
-13.979607
-12.964036
-10.869072
-8.064267
-4.767868
-1.164804
2.474374
5.812492
8.720037
10.980942
12.514571
13.234998
12.482506
9.763321
5.856398
1.894992
-1.354394
-3.044311
-2.811744
-1.130853
0.591756
1.206329
0.270773
-1.992620
-4.765666
-7.335100
-9.081680
-9.401107
-8.060504
-5.200593
-1.086009
3.350494
7.317195
10.759921
13.546046
15.699852
16.957017
16.850543
14.954834
11.202022
6.315332
1.125405
-3.578843
-7.251332
-9.638324
-10.368711
-8.751333
-3.934380
3.872308
12.589646
21.160346
29.172825
35.810145
40.921619
44.531532
46.094738
44.954636
41.371189
36.032444
29.844381
23.435894
17.372987
12.315375
8.918106
7.703595
8.929939
12.155666
16.113027
19.313536
21.227615
21.850283
21.046421
19.080352
16.626734
13.961097
11.744093
10.993469
11.615514
14.073182
18.565725
23.706464
27.757848
29.725788
29.010033
25.401368
19.274638
11.442423
2.911576
-4.974500
-11.328504
-15.979825
-18.976409
-20.484507
-20.490110
-19.074475
-16.591278
-13.470159
-10.394183
-8.394799
-8.118645
-9.934652
-13.483852
-18.273405
-23.292100
-27.543980
-30.109678
-29.927858
-26.253811
-19.032118
-9.129534
1.383265
11.030868
19.703063
27.213984
33.660456
39.068008
43.915471
48.041575
52.204104
56.019186
58.668324
60.023248
59.739936
57.733392
54.507045
51.245516
47.705033
44.179805
39.292494
31.600067
20.722077
7.109956
-7.244073
-20.521510
-31.253485
-39.127419
-43.988890
-45.287772
-42.857813
-37.154494
-29.256274
-21.234766
-14.715754
-10.179935
-7.918408
-7.617036
-8.252778
-9.280177
-11.088712
-13.800114
-17.305728
-21.437122
-25.542053
-29.025562
-31.492567
-33.131425
-33.906645
-33.335035
-31.220457
-28.108989
-24.964832
-22.468559
-20.262137
-18.419976
-17.582177
-17.889462
-19.484111
-22.489723
-26.625164
-31.425614
-36.588456
-41.124895
-44.303920
-45.761893
-45.176274
-42.513126
-38.385466
-33.199272
-27.253424
-21.430864
-16.601147
-13.313153
-12.456985
-14.605185
-19.352397
-25.030807
-30.162515
-33.616448
-34.462651
-32.160339
-26.297617
-17.372308
-6.790705
4.410452
16.310552
28.187925
38.409627
46.394086
52.968205
57.798234
61.202044
62.472908
62.424964
60.398807
55.659067
49.847717
43.701062
37.625079
31.810616
27.635635
24.486498
23.674230
24.774795
26.949461
29.388760
30.943560
31.459441
29.973759
24.908053
15.141211
3.497341
-6.917386
-15.967537
-24.393776
-30.990309
-35.306946
-37.832171
-39.070343
-39.369845
-38.964176
-37.598355
-35.138820
-32.132271
-28.962895
-26.241217
-24.317487
-23.376636
-23.531056
-24.428629
-25.291956
-25.083361
-22.875695
-17.873187
-10.543462
-2.743312
3.985228
8.806539
11.227469
12.009851
12.417077
13.259857
15.270139
18.690138
22.979380
26.630701
28.778591
29.142853
28.142228
26.602996
25.284811
24.582133
24.719121
25.470058
26.196089
26.004620
24.117006
20.646573
16.046311
11.162735
6.405872
2.275101
-0.974908
-3.656734
-5.663277
-6.903317
-7.427601
-6.876229
-4.964017
-1.510706
3.294728
8.661495
13.580877
16.809717
16.801312
13.343021
7.465669
0.943234
-4.530630
-9.074541
-12.399893
-14.275053
-15.333275
-15.524744
-14.708738
-12.818320
-10.192843
-7.224589
-4.716174
-3.925697
-4.754466
-6.809266
-9.618738
-12.552432
-14.695339
-15.801817
-16.057732
-15.966199
-16.750447
-19.095410
-22.669205
-26.348543
-29.527568
-31.839841
-33.469359
-34.321789
-34.016370
-31.883734
-26.637764
-17.280324
-4.711168
7.953878
18.420911
25.555119
28.365527
26.904129
22.070366
15.519911
9.148161
4.173676
1.258662
0.424289
1.868255
4.787319
8.108003
11.321588
13.978198
15.870795
16.243462
14.747506
10.993759
5.004639
-2.055470
-8.670682
-13.172563
-15.280289
-15.424124
-13.977045
-12.146403
-11.130210
-11.329151
-12.403250
-13.404498
-13.293039
-11.645150
-9.004730
-6.285853
-4.298299
-3.668782
