EVENT_NAME: 202010301151
EVENT_ID: 10614
EVENT_DATE_YYYYMMDD: 2020/10/30
EVENT_TIME_HHMMSS: 11:51:24.00000
EVENT_LATITUDE_DEGREE: 37.879
EVENT_LONGITUDE_DEGREE: 26.703
EVENT_DEPTH_KM: 16.54
HYPOCENTER_REFERENCE: AFAD
MAGNITUDE_W: 6.6
MAGNITUDE_W_REFERENCE: AFAD
MAGNITUDE_L: 
MAGNITUDE_L_REFERENCE: 
FOCAL_MECHANISM: 
NETWORK: TK
STATION_CODE: 3526
STATION_NAME: 
STATION_LATITUDE_DEGREE: 38.57823
STATION_LONGITUDE_DEGREE: 26.97953
STATION_ELEVATION_M: 6.0
LOCATION: -_-_-
SENSOR_DEPTH_M: 
VS30_M/S: 205
SITE_CLASSIFICATION_EC8: C
MORPHOLOGIC_CLASSIFICATION: 
EPICENTRAL_DISTANCE_KM: 81.42
EARTHQUAKE_BACKAZIMUTH_DEGREE: 
DATE_TIME_FIRST_SAMPLE_YYYYMMDD_HHMMSS: 2020/10/30 11:51:15.3567500
DATE_TIME_FIRST_SAMPLE_PRECISION: millisecond
SAMPLING_INTERVAL_S: 0.01
NDATA: 11251
DURATION_S: 
STREAM: HNZ
UNITS: cm/s^2
INSTRUMENT: sensor = CMG-5T/GURALP | digitizer = 
INSTRUMENT_ANALOG/DIGITAL: 
INSTRUMENTAL_FREQUENCY_HZ: 
INSTRUMENTAL_DAMPING: 
FULL_SCALE_G: 
N_BIT_DIGITAL_CONVERTER: 
PGA_CM/S^2: 29.491
TIME_PGA_S: 
BASELINE_CORRECTION: BASELINE REMOVED
FILTER_TYPE: BUTTERWORTH
FILTER_ORDER: 
LOW_CUT_FREQUENCY_HZ: 
HIGH_CUT_FREQUENCY_HZ: 
LATE/NORMAL_TRIGGERED: 
DATABASE_VERSION: 
HEADER_FORMAT: DYNA 1.2
DATA_TYPE: Acceleration
PROCESSING: Manual Paolucci et al., 2011
DATA_TIMESTAMP_YYYYMMDD_HHMMSS: 
DATA_LICENSE: U (unknown license)
DATA_CITATION: Turkish Accelerometric Archive v 1.0 - Disaster And Emergency Management Presidency, Earthquake Department
DATA_CREATOR: AFAD
ORIGINAL_DATA_MEDIATOR_CITATION: : AFAD - Disaster And Emergency Management Presidency
ORIGINAL_DATA_MEDIATOR: AFAD PROCESS SERVICE
ORIGINAL_DATA_CREATOR_CITATION: AFAD PROCESS SERVICE
ORIGINAL_DATA_CREATOR: network: TK
USER1: GuestUser
USER2: 
USER3: 
USER4: 
USER5: 
[...]
9.231916
10.152723
9.838330
8.729879
7.374761
5.776703
4.138881
2.410655
0.757299
-0.387810
-1.715901
-3.873464
-6.537100
-8.722624
-9.482509
-8.333985
-6.017053
-4.376126
-4.281064
-5.393864
-7.109974
-8.764883
-10.511749
-12.384433
-13.488846
-13.282877
-12.367972
-11.301152
-10.152317
-8.084537
-4.940617
-1.408677
1.394755
2.931299
3.738403
3.242271
2.548557
2.389496
1.996505
0.678356
-0.932750
-2.698256
-4.233248
-4.596416
-4.351924
-2.926288
-0.534796
1.838988
3.666935
4.470311
4.400721
4.244456
4.271483
4.367477
4.552010
4.653596
4.334543
3.726572
3.346318
3.403479
3.693949
3.973235
3.895568
3.457530
2.441968
0.738906
-1.686761
-4.329893
-5.196026
-3.652337
-1.376412
0.640108
2.636745
4.073566
5.201586
5.975450
5.631543
4.487366
4.037213
4.899926
6.959628
10.037066
12.936183
14.839932
15.398816
14.334790
11.514580
7.929825
5.373368
4.220181
4.101507
5.084136
5.906153
5.488308
4.012031
1.602518
-0.770646
-1.986587
-2.015480
-0.957980
0.485675
1.313905
1.362988
1.085875
1.499678
2.678027
3.786165
4.713807
5.114252
4.555055
3.973180
3.911046
4.341936
5.415280
6.651411
7.426828
6.865146
4.048353
-0.523382
-5.270643
-8.730821
-10.518695
-11.327665
-11.146549
-10.451595
-10.564367
-10.571824
-9.656919
-8.806011
-7.611198
-5.393367
-3.190138
-2.415032
-3.681300
-6.206380
-8.466152
-9.315820
-8.272300
-5.703730
-2.484629
0.810585
3.762825
6.076030
7.765420
8.858025
9.114632
8.389541
6.997143
5.324837
3.394679
0.567013
-2.229898
-2.927340
-1.506052
0.435597
2.151705
3.488492
3.731430
3.072821
1.668929
-0.683732
-3.053790
-4.271595
-4.252024
-3.347682
-1.858359
-0.524679
0.481872
1.496811
2.279062
2.957551
3.419197
2.911571
1.627905
0.418488
0.001265
0.760527
2.129313
2.841975
2.712738
1.911223
0.050033
-2.637213
-5.603125
-7.820958
-7.624309
-5.327880
-2.896002
-1.769846
-2.536877
-4.234968
-5.592261
-6.075034
-5.372624
-4.347122
-4.015956
-4.392792
-5.114777
-6.295923
-7.907029
-8.683690
-8.517486
-8.104925
-7.207728
-5.858825
-4.490351
-3.028366
-1.759615
-0.609227
1.118375
3.167515
4.590667
5.379752
6.576119
8.093091
8.954872
9.046828
8.982209
9.243165
9.730596
9.599495
8.914479
8.267986
7.363020
6.106693
4.964069
3.892898
3.169981
3.199183
3.599628
4.626993
6.421699
7.825278
8.333834
8.218577
6.692283
4.262266
2.464141
1.194766
0.886897
2.310359
4.503026
6.349923
7.398103
7.303660
6.317611
4.991695
3.527223
2.572861
1.504175
-0.099164
-1.145792
-1.727357
-1.689146
-1.023083
-0.673898
-1.066578
-1.914693
-2.950759
-3.340022
-3.068192
-3.137161
-3.484484
-4.054554
-4.607538
-4.523038
-4.096497
-4.134710
-4.126634
-3.539169
-3.042729
-2.702553
-1.932418
-0.824590
0.196872
0.901147
0.671254
-0.504611
-1.973432
-3.602245
-5.179488
-6.870745
-9.073355
-11.664296
-14.180987
-15.863856
-16.508796
-16.149669
-14.988097
-13.060117
-9.869907
-5.834070
-2.186253
0.460294
1.864185
1.439505
-0.430694
-2.582976
-3.894291
-3.644207
-2.153021
-0.160732
1.473360
2.129482
2.083813
2.433620
3.305963
4.526251
6.404836
8.301129
9.357076
9.338435
8.456769
7.417596
6.830129
6.189538
5.034177
3.278613
0.716875
-2.191564
-4.129178
-4.474638
-3.539850
-2.000821
-0.907284
-0.383816
-0.235009
-0.717782
-1.835864
-2.373003
-1.301524
0.497531
2.421784
4.340755
5.524385
5.572847
4.693667
3.211176
1.509667
-0.151766
-1.413374
-1.611268
-0.491325
1.501274
3.177306
4.340431
5.817017
7.241411
7.574753
6.558258
4.503214
2.155523
0.366097
-0.715948
-1.368033
-1.520260
-1.075390
-0.405909
0.145829
0.157944
-0.286618
-0.593244
-0.419584
0.831459
3.236309
5.372746
6.760792
8.160954
9.226221
8.913070
7.389261
5.515334
3.787419
2.380730
1.862852
2.622114
3.486691
3.845197
3.892416
3.405605
2.203333
0.893883
-0.242217
-1.081323
-1.446975
-1.650772
-1.995921
-2.521255
-2.849939
-3.271822
-3.785041
-3.826981
-2.994092
-1.166766
0.790727
1.892341
2.008839
0.927727
-1.137259
-3.638728
-6.032707
-7.327867
-7.616165
-7.929937
-8.286270
-8.008226
-6.704991
-4.436523
-2.093805
0.058786
1.729537
1.821492
-0.068279
-3.667635
-7.821217
-11.086609
-12.797437
-12.492988
-10.395695
-7.569584
-4.614548
-2.803066
-3.454530
-5.692556
-8.159852
-9.842721
-9.697642
-7.991164
-6.141471
-5.340269
-6.099223
-7.513367
-8.158929
-8.003287
-7.123798
-4.817428
-1.986036
0.192029
2.348037
3.991760
5.055784
6.387600
7.350347
7.423663
6.131299
3.357999
0.193262
-2.347040
-3.662394
-3.200748
-1.472524
0.712687
3.227512
5.356182
6.461834
6.185342
4.583246
3.046078
2.573557
3.360779
4.832705
6.073186
7.146840
7.643901
7.924741
9.092526
10.478398
11.247291
11.233310
9.794001
6.766267
3.560212
1.341137
0.288916
0.150669
0.019568
-0.088544
0.427468
0.969575
1.594320
2.393347
2.717058
2.981432
3.654640
4.605272
5.740437
6.235013
5.573608
4.323184
2.476906
0.318721
-1.380303
-2.348334
-2.713986
-2.846952
-3.298659
-3.918435
-4.198966
-4.324475
-4.001696
-3.050444
-2.394633
-2.296775
-2.689455
-4.091794
-6.354673
-9.293247
-12.267547
-13.806267
-13.413278
-11.751226
-9.390490
-7.296926
-6.163624
-5.685513
-5.369568
-4.270440
-1.626068
1.937871
4.825493
5.953824
4.634432
1.730964
-0.689422
-2.257966
-3.302110
-3.189961
-1.792905
0.246604
1.981662
2.941613
3.230219
3.053450
2.936018
2.772297
2.726939
3.010263
3.164041
3.057793
2.584650
2.448889
3.434935
4.901891
6.494043
7.937699
8.319193
7.408014
5.293632
2.649879
1.341671
1.844325
3.225847
4.478444
5.498353
6.576357
6.907524
6.291786
5.213781
4.004053
2.713553
1.267100
0.132242
-0.442177
-1.527639
-3.726831
-6.364371
-8.655521
-9.470394
-8.055631
-4.960174
-1.697269
0.883417
3.042221
4.438966
4.347940
2.714467
0.491664
-1.236562
-2.481395
-3.963574
-5.834706
-7.824822
-8.846908
-8.006252
-6.317482
-4.825985
-3.752331
-2.795486
-1.922832
-1.804159
-2.917891
-4.626545
-6.242621
-6.824497
-5.645216
-3.343507
-1.439137
-0.768414
-1.105796
-2.419907
-3.872573
-4.670981
-4.227044
-2.626503
-0.158898
3.651707
7.976773
10.874025
11.721206
11.077198
9.485664
7.361652
4.202196
0.026869
-3.934411
-7.076159
-9.173454
-9.556815
-7.715199
-4.180463
0.372630
5.084783
8.533154
10.213225
10.248639
9.535353
9.215368
8.937323
8.247647
7.512304
6.518177
5.668820
5.267441
4.308730
2.156759
-0.912915
-4.050314
-6.123688
-7.252332
-8.075904
-7.621403
-5.792213
-3.902755
-2.928824
-2.589580
-1.842434
0.202357
2.895193
4.633668
4.836531
3.505644
1.112597
-1.974163
-5.556122
-8.675192
-9.780846
-8.704707
-6.456431
-3.922034
-2.187597
-1.338243
-0.891819
-0.482986
1.062567
4.359334
8.552988
11.887967
12.186514
8.881357
4.097749
-0.441056
-4.154426
-5.701845
-4.197610
-1.154656
1.487542
2.766856
2.171311
0.400524
-1.282966
-2.642123
-4.241734
-6.174687
-8.339086
-10.359957
-11.082874
-9.799211
-6.969372
-2.750553
1.553698
3.678018
3.253339
0.581315
-3.494600
-7.111974
-8.983727
-8.445347
-6.300834
-4.230879
-2.503277
-1.565694
-1.495795
-1.303806
-0.848374
-0.212756
0.301082
-0.337956
-2.009951
-3.275909
-3.852814
-4.675764
-5.040796
-3.905630
-1.895634
-0.344489
-0.139141
-1.331160
-3.047581
-3.975225
-4.430039
-4.511434
-3.471021
-1.940380
-0.779118
0.107206
0.254149
-1.107804
-3.292706
-4.832048
-4.948238
-3.709932
-1.118372
2.586608
6.042745
8.158056
8.981315
8.473378
6.882777
5.015373
2.863091
0.971145
0.098177
0.004045
1.235206
3.690384
6.375764
8.939053
11.598026
13.846923
14.508637
13.872395
13.096044
11.718248
9.279843
6.977199
5.012558
3.010326
1.557660
1.453275
3.069971
5.712168
8.574316
11.061492
12.109983
11.902458
11.670391
11.442983
11.958374
14.168438
16.867798
19.571507
21.599521
21.545154
19.775610
17.330682
14.576332
12.369373
9.976947
6.287187
2.215622
-1.278109
-3.524833
-4.137464
-4.015063
-4.293420
-4.656898
-5.060141
-6.030036
-7.486120
-8.466266
-8.425260
-7.130413
-5.454381
-4.138719
-4.128468
-5.189387
-6.188795
-6.297529
-6.490452
-6.810748
-7.201876
-9.709247
-13.028695
-16.580830
-18.452583
-18.343230
-17.579619
-16.316770
-15.100521
-15.096484
-16.988740
-19.893141
-23.185561
-25.496903
-25.930902
-24.963495
-23.207933
-19.921728
-15.202741
-10.573225
-6.947153
-4.405300
-3.391915
-3.737375
-5.298774
-7.576875
-9.433095
-10.589699
-11.135226
-11.148275
-10.043865
-7.270567
-3.286922
0.799554
4.829177
9.287518
13.401332
15.852781
16.484671
14.948125
11.880626
9.090239
6.388392
3.665730
2.475264
3.199421
4.930130
8.243051
12.631803
15.805547
17.068396
16.849687
15.065542
11.884029
8.082741
4.910237
2.696133
1.312433
1.640183
4.014277
7.460474
10.404016
11.647603
10.834283
8.581346
5.398590
2.808582
1.478006
0.842075
0.729924
1.997744
4.214021
7.557387
11.339723
14.308118
17.061844
20.038627
22.210168
22.010410
20.654049
16.703953
12.066046
8.002247
3.569690
-0.245889
-3.144076
-3.702962
-2.736176
-0.854484
1.364899
1.963548
0.787372
-1.824693
-5.029816
-7.365701
-8.677327
-9.260444
-8.872115
-7.845061
-6.870198
-6.075520
-6.147595
-6.953459
-7.469784
-6.966820
-5.562308
-4.157175
-3.368711
-3.627806
-5.160935
-6.979564
-8.615522
-9.653453
-9.751313
-9.043310
-7.644701
-6.292381
-5.496150
-4.549558
-4.170548
-5.071786
-6.154763
-7.269116
-7.527590
-6.367260
-4.969894
-3.524375
-2.363735
-1.741786
-0.756360
0.256404
0.484741
0.122505
0.017189
-1.534891
-4.749955
-8.626113
-12.258089
-14.607954
-14.891591
-12.747388
-9.387557
-6.139564
-4.811165
-5.237087
-6.160071
-6.563936
-5.591247
-3.591503
-2.633416
-2.487405
-2.061175
-2.614158
-4.805895
-7.286549
-9.605348
-11.327671
-11.322391
-10.365236
-9.024721
-7.626112
-6.619872
-5.247669
-2.931669
-0.097170
2.979336
4.322336
2.998595
0.490291
-2.643690
-6.518295
-10.204326
-11.893098
-10.919478
-7.637001
-3.036687
2.038322
6.961726
11.287413
14.300544
15.860387
17.059550
18.289468
19.081661
18.702339
17.508144
16.167317
14.401500
12.544349
11.587191
11.457643
11.829507
12.951625
14.367631
14.814365
14.395589
13.502739
11.676964
10.059956
9.596755
10.129853
12.050068
15.066616
18.047437
20.580592
22.046615
23.206944
24.799408
26.191182
26.787656
25.949172
23.200415
18.768168
13.879555
9.116762
5.844224
3.886418
3.005684
2.940132
2.552112
1.580974
-0.031684
-1.787559
-3.114718
-3.817131
-4.636353
-6.165443
-8.240371
-10.445777
-12.923014
-14.858763
-15.064113
-13.805925
-12.795025
-12.538417
-13.026161
-14.513933
-16.685477
-18.690504
-19.646419
-19.453187
-17.655996
-14.184946
-10.083559
-6.208646
-2.945741
-0.756803
0.548607
1.034174
0.424339
-0.932332
-2.901634
-6.358084
-10.403244
-13.564874
-15.765310
-16.755708
-15.723993
-12.928017
-8.964875
-4.603152
-1.031757
1.622556
3.262862
3.959680
4.086741
4.010006
3.854362
3.776073
3.749045
4.155703
4.616727
4.005028
1.995962
-1.057246
-4.955772
-8.827892
-11.628530
-14.175667
-16.701678
-18.565043
-19.043467
-17.576823
-14.531072
-10.341767
-5.782461
-2.504023
-1.403962
-1.470446
-1.104174
0.243486
2.929488
6.264156
9.553467
12.099048
12.377713
10.294087
6.639743
3.050018
1.392002
2.273355
4.717970
7.440940
9.463674
9.938989
9.341580
8.671166
7.901028
6.830789
5.781675
4.520688
2.520942
0.020715
-2.628008
-4.926303
-5.909867
-4.913568
-2.583588
0.120432
2.837500
5.374071
7.310129
8.087721
7.828936
6.852828
5.603336
4.528437
3.545494
2.381434
1.016996
-0.159179
-1.399041
-2.132520
-1.184064
0.707569
2.634618
5.049720
7.915596
10.089623
11.397207
11.157994
8.838575
6.324058
4.726000
2.848034
0.084675
-3.287896
-7.032333
-10.024651
-11.508384
-11.711249
-9.799423
-5.692133
-1.726195
0.832744
2.208364
2.876912
3.272387
3.474317
3.590194
3.856432
4.475274
4.711688
3.381734
0.381027
-3.234173
-6.203502
-8.026791
-8.300798
-6.770157
-4.124852
-1.253074
1.097410
1.968822
0.911941
-1.321425
-2.807022
-2.433294
-0.822191
1.644482
4.023857
3.780606
0.462401
-4.102189
-8.866535
-12.763819
-14.614757
-14.066436
-11.517127
-7.552742
-3.826637
-1.507220
-0.552861
-0.540746
-0.565911
-1.090002
-3.111806
-6.207886
-10.006378
-14.165551
-17.414167
-19.538179
-20.503725
-19.492203
-16.341138
-11.736475
-6.686630
-2.392941
0.820257
2.587624
2.633912
1.465814
-0.985949
-4.443953
-7.643484
-10.408086
-12.670654
-13.312487
-12.089093
-8.965366
-4.927665
-0.948679
3.406210
7.597379
10.397705
12.285299
14.134682
16.024451
18.196924
20.456073
22.084884
22.905968
23.650319
24.669607
24.837053
23.813414
22.090469
19.791864
17.233543
15.519297
14.607808
13.788585
13.799768
14.415814
14.860373
15.360231
16.357151
16.740509
15.619010
13.217886
10.333989
6.818512
3.401516
1.134909
-0.251586
-1.799937
-3.324989
-4.756220
-6.524211
-8.186576
-9.333238
-9.619051
-9.499757
-8.006395
-6.809718
-6.420146
-7.585759
-9.469007
-11.243211
-13.664218
-15.384366
-16.402414
-16.755951
-16.729235
-16.561477
-17.095821
-17.654707
-17.252398
-15.499632
-12.984496
-10.212751
-8.354049
-8.814765
-11.599559
-15.908473
-20.582727
-24.223712
-25.958462
-25.806859
-24.029861
-20.695814
-16.224737
-11.413792
-6.519590
-1.909024
2.471339
6.266722
9.113026
10.774768
11.236414
10.047501
7.801708
6.110762
5.572069
5.500615
5.390639
5.127506
4.264169
3.681983
5.063195
8.484227
13.372216
19.078495
24.346115
27.969701
29.490712
28.787677
26.461112
23.736586
20.548239
16.504633
12.944731
10.970770
9.767566
8.610341
7.267960
6.191197
5.158548
4.065631
2.737851
1.188878
0.033828
-0.128651
0.037243
0.732819
1.758320
1.893769
-0.144190
-4.165117
-9.201606
-13.598437
-15.706605
-15.713130
-13.863747
-10.671674
-5.591695
-1.107569
2.757713
4.905333
5.646266
4.747824
3.011211
2.395162
1.645218
1.775696
2.335822
3.523490
5.768659
7.952938
8.272299
7.376964
5.875834
5.228719
5.412010
5.714906
5.224366
4.285849
3.333662
2.447957
2.390483
3.720125
6.632911
9.156435
10.444758
9.872203
7.499970
3.852150
-0.505848
-4.642964
-7.111502
-7.973907
-8.235487
-8.173977
-7.076712
-5.157119
-2.528280
0.941837
3.973608
5.120268
4.348577
2.355665
-0.593781
-4.227311
-7.765466
-10.572939
-12.848245
-13.987141
-13.989627
-13.294983
-11.878666
-9.711163
-7.185465
-4.661630
-2.682701
-2.060131
-2.561544
-3.894605
-6.760483
-9.859981
-11.737947
-12.756926
-13.299658
-13.208013
-12.200841
-10.737614
-9.012186
-7.798733
-7.113409
-6.415969
-6.309412
-7.959351
-10.654674
-12.475167
-12.992424
-12.498159
-11.422951
-9.884543
-7.731642
-4.767596
-0.944564
3.534902
7.716751
11.329153
14.780320
17.665146
19.401447
20.477587
21.470468
21.946405
21.553724
20.550278
19.216595
17.489923
16.392034
16.226138
16.317473
17.129858
18.597124
19.367259
18.926426
17.484943
15.073256
12.212348
9.449300
7.473786
6.613555
6.410069
6.659842
7.574436
8.246402
8.464798
8.631002
8.175567
6.963665
4.725950
1.610608
-1.888093
-5.233015
-8.171899
-9.973442
-10.255526
-9.095507
-7.079919
-5.342686
-4.682836
-5.690943
-8.014091
-11.869434
-16.371580
-20.244632
-23.201534
-25.227998
-26.045667
-25.235456
-23.085040
-20.007912
-16.265653
-12.380177
-9.457450
-7.852871
-7.412350
-7.906928
-8.610584
-8.724599
-8.208587
-7.303312
-5.997281
-4.667329
-3.977034
-3.488672
-2.688402
-1.964245
-1.256242
-0.332017
1.228758
3.212969
4.817238
5.910153
6.411875
6.081948
4.853270
2.580140
-0.469030
-3.619166
-6.262919
-7.703470
-7.965361
-7.650038
-6.772413
-5.340874
-3.458250
-1.472175
-0.304700
0.147004
-0.279228
-1.629997
-2.658607
-2.479976
-1.519093
-0.519998
-0.145339
-0.245995
0.066532
0.624795
1.304837
2.355192
3.793255
5.349060
6.728097
8.015488
9.355692
10.847811
12.334028
12.628536
11.769549
10.389267
8.724727
6.510622
4.310808
2.876470
3.034597
4.525163
6.247484
7.817269
8.972938
10.729122
12.781368
15.481660
17.609087
18.680567
18.791473
17.354029
15.160428
12.942284
11.705219
11.193243
10.461006
10.013338
9.384242
8.348797
7.706964
7.051772
6.936825
7.121048
7.318629
7.113900
6.407449
5.269796
3.695659
1.039790
-2.698122
-6.276043
-9.596422
-12.971168
-15.493452
-16.641046
-17.023475
-16.622720
-15.649099
-14.663052
-14.280626
-14.327537
-14.575138
-15.213554
-16.060425
-16.908540
-17.826243
-18.302492
-18.742704
-19.745219
-21.180799
-22.694356
-23.937324
-24.602768
-24.980847
-25.300522
-25.017197
-24.348028
-23.404542
-21.500482
-18.265848
-14.632011
-11.104731
-7.399751
-4.099877
-2.109142
-1.454263
-2.153259
-4.065087
-6.161140
-7.411253
-7.807351
-7.421508
-5.775921
-3.160751
-0.593423
1.276774
2.774485
4.682894
7.430717
10.667837
13.513209
15.813054
17.415459
17.524190
16.344287
15.045399
14.776673
15.733207
17.151077
18.260768
18.913473
19.109501
18.684511
17.832979
17.007854
16.530052
16.435298
16.696565
16.750930
16.184278
15.512310
15.172132
15.091979
14.800264
14.131714
13.397613
12.367761
11.043398
9.975644
9.107337
8.432884
8.427912
8.883966
9.146165
8.914409
7.659635
5.092927
1.678416
-1.730814
-4.381402
-6.152500
-7.132025
-7.151287
-6.707970
-6.917981
-7.983560
-9.462633
-11.262001
-12.961024
-13.741725
-13.618392
-12.905730
-11.529178
-10.011274
-9.034547
-8.706797
-8.813356
-9.137069
-9.868995
-10.531643
-11.200193
-12.468326
-13.781815
-14.298140
-13.408088
-11.623634
-9.620473
-7.379032
-4.983502
-2.701675
-0.399344
2.112686
4.203144
5.640586
6.786314
7.553964
7.892587
8.148263
8.502419
8.812150
8.556783
7.190791
5.105923
3.128233
1.578639
0.625210
0.448752
0.962589
2.164548
3.679345
4.707642
5.016752
4.926969
4.171743
1.757571
-1.966672
-5.336758
-7.568882
-8.653411
-8.373193
-6.812418
-4.518785
-2.114556
-0.272940
0.621771
0.840788
0.482592
-0.800142
-2.542969
-3.902437
-4.906194
-5.419412
-5.023938
-3.848696
-2.567518
-1.816955
-1.527728
-2.076362
-3.668206
-5.543687
-7.138016
-8.301765
-8.957579
-9.019402
-8.216647
-6.543100
-4.697135
-2.805191
-0.651979
1.484147
3.213303
4.113296
4.345361
4.390406
4.576182
4.829683
4.837448
4.662854
4.553810
4.667201
4.754807
4.365233
2.984951
0.820553
-1.337322
-3.284255
-4.916797
-6.044509
-6.615511
-6.223454
-4.812729
-3.037905
-1.950582
-2.067703
-2.883819
-3.970524
-5.060645
-5.820842
-6.289014
-6.783903
-7.091462
-6.913763
-6.379422
-5.329999
-3.628493
-1.110250
2.432874
6.286662
9.637174
11.940437
13.384403
14.002934
13.324753
11.660524
10.094464
8.837516
7.296310
5.159250
3.240898
2.499341
2.916251
4.367673
6.753262
9.736259
12.306382
13.718660
13.725804
12.926775
11.093545
8.698012
6.194679
3.975293
1.893532
-0.109011
-1.367202
-1.689672
-0.570040
1.655868
4.529510
6.785552
7.935941
7.761657
6.545095
4.416734
2.301109
0.775126
-0.273367
-0.851203
-1.263145
-1.684407
-2.503629
-3.365413
-4.129337
-4.513630
-4.205763
-3.302663
-2.590622
-2.378750
-2.888551
-4.151713
-5.867202
-7.354663
-8.115791
-7.849864
-7.116387
-7.062954
-7.858566
-9.099049
-10.526862
-11.366899
-11.109049
-9.751759
-7.565927
-5.002948
-2.298307
-0.151930
0.979197
0.771362
0.058387
-1.379679
-3.079324
-4.970338
