EVENT_NAME: 202010301151
EVENT_ID: 10614
EVENT_DATE_YYYYMMDD: 2020/10/30
EVENT_TIME_HHMMSS: 11:51:24.00000
EVENT_LATITUDE_DEGREE: 37.879
EVENT_LONGITUDE_DEGREE: 26.703
EVENT_DEPTH_KM: 16.54
HYPOCENTER_REFERENCE: AFAD
MAGNITUDE_W: 6.6
MAGNITUDE_W_REFERENCE: AFAD
MAGNITUDE_L: 
MAGNITUDE_L_REFERENCE: 
FOCAL_MECHANISM: 
NETWORK: TK
STATION_CODE: 3526
STATION_NAME: 
STATION_LATITUDE_DEGREE: 38.57823
STATION_LONGITUDE_DEGREE: 26.97953
STATION_ELEVATION_M: 6.0
LOCATION: -_-_-
SENSOR_DEPTH_M: 
VS30_M/S: 205
SITE_CLASSIFICATION_EC8: C
MORPHOLOGIC_CLASSIFICATION: 
EPICENTRAL_DISTANCE_KM: 81.42
EARTHQUAKE_BACKAZIMUTH_DEGREE: 
DATE_TIME_FIRST_SAMPLE_YYYYMMDD_HHMMSS: 2020/10/30 11:51:15.3567500
DATE_TIME_FIRST_SAMPLE_PRECISION: millisecond
SAMPLING_INTERVAL_S: 0.01
NDATA: 11251
DURATION_S: 
STREAM: HNN
UNITS: cm/s^2
INSTRUMENT: sensor = CMG-5T/GURALP | digitizer = 
INSTRUMENT_ANALOG/DIGITAL: 
INSTRUMENTAL_FREQUENCY_HZ: 
INSTRUMENTAL_DAMPING: 
FULL_SCALE_G: 
N_BIT_DIGITAL_CONVERTER: 
PGA_CM/S^2: 89.050
TIME_PGA_S: 
BASELINE_CORRECTION: BASELINE REMOVED
FILTER_TYPE: BUTTERWORTH
FILTER_ORDER: 
LOW_CUT_FREQUENCY_HZ: 
HIGH_CUT_FREQUENCY_HZ: 
LATE/NORMAL_TRIGGERED: 
DATABASE_VERSION: 
HEADER_FORMAT: DYNA 1.2
DATA_TYPE: Acceleration
PROCESSING: Manual Paolucci et al., 2011
DATA_TIMESTAMP_YYYYMMDD_HHMMSS: 
DATA_LICENSE: U (unknown license)
DATA_CITATION: Turkish Accelerometric Archive v 1.0 - Disaster And Emergency Management Presidency, Earthquake Department
DATA_CREATOR: AFAD
ORIGINAL_DATA_MEDIATOR_CITATION: : AFAD - Disaster And Emergency Management Presidency
ORIGINAL_DATA_MEDIATOR: AFAD PROCESS SERVICE
ORIGINAL_DATA_CREATOR_CITATION: AFAD PROCESS SERVICE
ORIGINAL_DATA_CREATOR: network: TK
USER1: GuestUser
USER2: 
USER3: 
USER4: 
USER5: 
[...]
0.155579
0.370102
0.521308
0.560373
0.522577
0.507776
0.573617
0.675997
0.736483
0.713807
0.666245
0.641049
0.624989
0.630033
0.670988
0.681073
0.607051
0.442938
0.192514
-0.079645
-0.283448
-0.317465
-0.123102
0.261522
0.729308
1.147953
1.359010
1.256008
0.895648
0.455906
0.104366
-0.088412
-0.125263
-0.052178
0.142814
0.502868
1.010345
1.570112
2.024667
2.286440
2.366771
2.317634
2.212427
2.066900
1.819941
1.437530
0.915887
0.318959
-0.222844
-0.632346
-0.923720
-1.085628
-1.084048
-0.993323
-0.917402
-0.845577
-0.684920
-0.386922
0.053143
0.568495
1.060851
1.437600
1.661258
1.751984
1.766478
1.752622
1.663796
1.467867
1.215868
0.996945
0.892998
0.919147
0.972388
0.914431
0.635342
0.183000
-0.298952
-0.745624
-1.130555
-1.463825
-1.688103
-1.692194
-1.464127
-1.066902
-0.567616
-0.037144
0.466237
0.932763
1.309198
1.586721
1.743912
1.751162
1.667060
1.557443
1.505472
1.506421
1.532571
1.559036
1.538880
1.434933
1.335396
1.348315
1.459516
1.570402
1.610412
1.631837
1.711852
1.926375
2.299029
2.700034
2.860060
2.609951
1.996013
1.212286
0.440530
-0.215304
-0.736632
-1.180784
-1.578630
-1.862759
-1.936151
-1.776439
-1.462375
-1.003095
-0.323311
0.535080
1.460252
2.320218
3.062057
3.658995
3.985029
3.897147
3.419605
2.801571
2.312059
2.039584
1.886182
1.658438
1.293982
0.956617
0.874406
1.069398
1.312585
1.374961
1.004520
0.129127
-1.032289
-2.153700
-2.978062
-3.466944
-3.779424
-4.170340
-4.752778
-5.439483
-6.070117
-6.405907
-6.135629
-5.242903
-4.064782
-2.963523
-2.159628
-1.696252
-1.382503
-1.042924
-0.633099
-0.167204
0.218366
0.474154
0.641426
0.757037
0.748221
0.640809
0.600493
0.663813
0.672637
0.531835
0.247390
-0.170301
-0.473646
-0.548612
-0.661379
-1.204757
-2.253087
-3.523180
-4.738462
-5.622990
-5.926964
-5.638416
-4.882401
-3.935179
-3.297291
-3.187665
-3.351148
-3.478720
-3.380435
-2.967460
-2.363907
-1.794060
-1.376045
-1.038671
-0.478904
0.547385
1.865052
3.062703
3.738076
3.796671
3.373940
2.645025
1.963045
1.604574
1.582843
1.731845
1.789495
1.708543
1.637042
1.698472
1.863224
1.849683
1.599574
1.424121
1.535322
1.719289
1.696613
1.211195
0.107740
-1.323005
-2.657989
-3.637018
-4.192051
-4.312063
-4.130616
-3.897509
-3.721732
-3.522645
-3.118175
-2.336960
-1.338392
-0.607263
-0.525987
-1.106851
-1.883647
-2.110760
-1.298990
0.309426
1.964778
3.106673
3.555559
3.371915
2.784122
2.039141
1.326606
0.887809
0.932229
1.303939
1.641313
1.788109
1.939001
2.343156
3.138546
4.156959
4.897223
4.933453
3.913789
1.713803
-1.174782
-3.711822
-5.217223
-5.555533
-4.689897
-2.878933
-0.762414
1.164156
2.770052
3.863122
4.194196
3.700903
2.293783
-0.238847
-3.871472
-7.980383
-11.561347
-13.584300
-13.367573
-11.022047
-7.180880
-2.793496
1.312274
4.490042
6.505759
7.744360
8.648742
9.293875
9.242848
8.161128
6.219446
3.935669
1.925002
0.812726
0.678223
0.976537
1.097818
0.683277
-0.232436
-1.570255
-3.204493
-5.015133
-6.818528
-8.033496
-8.139963
-7.060753
-5.302080
-3.439455
-1.569586
0.267209
2.000682
3.496957
4.486704
4.830378
4.538374
3.782053
2.847755
1.793440
0.386950
-1.069310
-1.471881
-0.146654
2.296209
4.556684
5.750554
5.800644
5.333813
5.128434
5.285311
5.234284
4.437643
2.631098
0.097838
-2.396992
-4.079425
-4.615558
-4.258654
-3.349547
-2.291128
-1.549289
-1.274916
-1.125284
-0.957698
-1.066055
-1.934202
-3.694127
-5.362070
-5.972859
-5.075407
-2.752246
0.145168
2.943040
5.063653
5.987250
5.839833
5.120682
4.264190
3.385647
2.141385
0.328855
-1.698823
-3.367082
-4.388636
-4.895474
-5.298360
-5.925844
-6.600894
-6.771307
-5.786284
-3.521084
-0.259840
3.321133
6.420465
8.499812
9.415534
9.534295
9.153775
8.221996
6.384896
3.358339
-0.711197
-4.856649
-8.262786
-10.581213
-11.488736
-11.029770
-9.473960
-6.891865
-3.627471
-0.415368
2.028439
3.230500
3.234915
2.352277
1.177630
0.443045
0.654102
1.811747
3.469619
4.943214
5.710568
5.535745
4.514506
3.098881
1.985345
1.204454
0.556495
-0.396389
-1.786813
-3.108567
-3.736996
-3.206209
-1.985563
-0.666951
0.373512
1.328295
2.209366
3.038147
3.500578
3.254564
2.246869
0.814549
-0.825989
-2.472512
-3.658813
-4.308033
-4.467106
-4.451036
-4.583333
-5.571182
-7.374578
-9.528257
-11.235261
-12.138059
-12.255866
-11.749020
-10.980090
-10.165170
-9.510271
-8.695666
-7.319723
-4.896705
-1.643337
1.825810
4.785909
6.685075
7.353518
7.184365
6.707768
6.054139
5.239227
3.879988
1.539511
-1.892772
-5.918207
-9.531617
-11.775388
-12.451068
-11.645282
-9.584835
-6.678286
-3.278755
0.122350
2.866042
4.480758
5.046195
4.632914
3.652940
2.465379
1.057629
-0.584169
-2.635788
-5.089667
-7.615682
-9.618789
-10.490402
-10.032381
-8.606352
-6.724827
-4.473802
-1.758461
1.474747
4.983899
8.171432
10.561689
11.795250
11.983627
11.420404
10.363254
9.212233
8.271319
7.551854
6.775373
5.599781
4.029174
2.339811
0.630287
-1.220674
-3.347263
-5.678606
-7.928047
-9.489204
-9.880435
-9.131665
-7.618065
-5.973108
-4.781758
-4.294127
-4.194266
-3.792631
-2.626481
-0.564458
1.907700
3.755204
4.111163
2.774920
0.186219
-2.723471
-4.922512
-6.010217
-6.402708
-6.707943
-7.165010
-7.489460
-7.001829
-5.263631
-2.462608
0.720200
3.487202
5.279580
6.209477
6.824685
7.315466
7.254045
6.302736
4.636053
2.826043
1.362222
0.291212
-0.128999
0.424783
1.735520
3.225810
4.469451
5.227041
5.338872
4.804314
3.930496
3.257022
3.029278
3.183319
3.617085
3.936188
3.583703
2.515528
1.177079
-0.012058
-0.574651
0.122773
2.353323
5.538020
8.798319
11.298512
12.212344
11.095029
8.202979
4.436792
0.734866
-2.143009
-3.941679
-5.090810
-6.240256
-7.561380
-8.799657
-9.670955
-9.871293
-8.903596
-6.698876
-4.053151
-1.800551
-0.373892
0.266831
0.474423
0.918269
1.927232
3.053062
3.673939
3.528727
2.479767
0.132989
-3.468135
-7.440965
-10.862222
-13.062522
-13.718042
-12.984707
-11.298170
-8.969654
-6.043575
-2.719330
0.801162
4.294249
7.595498
10.342025
12.072033
12.392712
11.308156
8.958859
5.566582
1.553117
-2.551070
-6.063993
-8.170107
-8.544958
-7.488114
-5.290010
-2.462212
0.814152
4.309759
7.959088
11.373424
14.344234
16.744571
18.507339
19.562608
19.756025
18.968519
16.979901
13.491233
8.798303
3.829430
-0.789158
-4.423988
-7.039779
-8.776709
-10.205879
-10.938574
-10.964400
-10.473619
-9.762335
-8.746442
-6.928233
-4.305818
-1.050874
2.115869
5.374907
8.618511
11.839749
14.881435
17.464474
19.100926
19.280798
17.754606
14.579683
10.488096
6.189552
2.239718
-1.249580
-4.462304
-7.694244
-10.747576
-12.754779
-13.090569
-11.854488
-9.668984
-7.144850
-4.724668
-2.831802
-2.000502
-2.486234
-4.152917
-6.364873
-8.177718
-9.062561
-8.980655
-8.496174
-8.092019
-8.291098
-9.103804
-10.009122
-10.648892
-10.608252
-9.857907
-8.866269
-7.968818
-6.986315
-5.523745
-3.574180
-1.574213
0.356138
2.235143
3.718502
4.421596
4.176527
3.202538
2.229495
1.663436
1.237555
0.605346
-0.371793
-1.680317
-3.148547
-4.583702
-5.729998
-6.470569
-6.812659
-6.768239
-6.471186
-5.977570
-5.288021
-4.012249
-1.794615
0.987193
3.476676
5.086667
5.669429
5.222128
4.150803
2.963556
1.957122
1.424769
1.464149
2.093847
3.135570
4.052552
4.229274
3.330571
1.565291
-0.561298
-2.342328
-2.941777
-2.043695
-0.091294
2.168551
3.733812
3.948964
3.033566
1.718743
0.697818
0.338088
0.587260
0.992990
1.161207
1.053480
0.912362
0.712024
0.267242
-0.789593
-2.774115
-5.348326
-8.183990
-11.005164
-13.330206
-14.705195
-14.925064
-13.730248
-10.792199
-6.433480
-1.600365
2.868290
6.510374
9.080183
10.577403
11.099370
10.773345
9.833376
8.567693
7.119938
5.567916
4.433275
4.143161
4.473920
5.061407
5.539273
5.522582
4.866118
3.742502
2.578565
1.851855
1.792638
2.551488
4.010277
5.881407
7.719147
9.143915
9.809209
9.423333
7.943447
5.623130
2.996314
0.111509
-2.710295
-4.880670
-5.876709
-5.711643
-4.871837
-3.571180
-1.552628
1.447792
5.325815
9.616807
13.643826
16.689607
18.084451
17.714955
15.983381
13.790325
11.533324
9.087005
6.378288
3.505768
0.661914
-1.830711
-4.045186
-5.968598
-7.266411
-7.617322
-6.486137
-4.080760
-1.308718
0.838041
1.881025
1.667456
0.620386
-0.567176
-1.301446
-0.969427
0.743255
3.123747
4.677353
4.709488
3.297643
0.553330
-3.025744
-6.468737
-9.325821
-11.574317
-13.046643
-13.528595
-12.968198
-11.568630
-9.725220
-7.713914
-5.633306
-3.476152
-1.311753
0.865876
2.995939
4.714922
5.765466
6.046769
5.479136
4.077371
2.062923
-0.255189
-2.476595
-4.424577
-6.077400
-7.267167
-7.700924
-7.074061
-5.466274
-3.368341
-1.393890
-0.182694
0.007258
-0.536435
-1.518929
-2.903684
-4.754959
-6.670811
-7.721661
-7.112123
-4.803137
-1.460623
1.737935
3.650331
3.836188
2.627206
0.808375
-0.945564
-2.081465
-2.286214
-1.520434
-0.205602
1.020400
1.733574
1.748698
1.370382
1.079008
1.133508
1.568218
2.544106
4.074086
5.877805
7.250913
7.210912
5.262930
1.474063
-3.068294
-6.681704
-8.238136
-7.291544
-3.878468
1.261461
6.589763
10.841696
13.704144
15.100247
15.156322
14.421737
13.470113
12.678197
12.114344
11.824859
11.845024
12.091362
12.352190
12.339279
11.984273
11.572567
11.177241
10.402650
8.833618
6.134351
2.450065
-1.518355
-4.719739
-6.109848
-5.340918
-2.967357
0.154340
3.300922
5.913257
7.615545
8.057815
7.108397
4.855176
1.721832
-1.460022
-3.889960
-5.005071
-4.425144
-2.269880
0.550673
2.915414
4.390584
5.352926
6.352124
7.508194
8.399661
8.540157
7.840222
6.522564
5.065043
3.927567
3.165891
2.489266
1.517168
0.302201
-0.703289
-0.997183
-0.482777
0.324583
0.642742
0.041088
-1.317836
-2.973179
-4.496850
-5.737963
-6.492708
-6.792273
-7.014032
-7.325882
-7.637101
-7.787039
-7.638353
-7.306019
-7.318930
-8.229602
-10.239640
-13.001594
-15.753467
-17.728539
-18.438239
-18.011089
-16.904790
-15.380165
-13.597236
-11.519463
-9.381525
-7.456214
-5.570909
-3.837436
-2.689241
-2.381478
-2.789089
-3.506664
-3.963731
-3.659747
-2.619914
-1.253106
0.437527
2.556880
4.937687
7.374564
9.421781
10.694088
11.022957
10.344127
8.829276
6.598105
3.721490
0.404185
-2.923831
-5.652079
-7.137950
-7.152436
-5.895564
-3.779361
-1.374929
0.826641
2.460887
3.887861
5.769071
8.307065
10.961295
12.781080
13.059233
11.355379
7.570922
2.643314
-1.855573
-5.100112
-7.215362
-8.711628
-9.882179
-10.806397
-11.264094
-11.008936
-9.841526
-7.709888
-4.946981
-2.092722
0.381326
2.162364
2.887194
2.462572
0.985522
-1.460797
-4.400728
-7.268522
-9.781937
-11.777485
-13.151844
-13.740268
-13.702463
-13.429980
-13.317204
-13.546208
-13.790647
-13.416102
-12.105050
-10.246520
-8.638104
-8.226389
-9.229043
-10.766890
-11.666852
-11.192137
-9.467169
-7.282610
-5.272248
-3.539090
-1.917758
-0.080649
2.261727
4.971713
8.048365
11.916622
16.766747
22.077409
26.845318
30.208938
31.513060
30.324868
26.698859
21.326780
15.486920
10.442446
6.709649
4.338616
3.398648
4.000626
6.163449
9.517934
13.088197
15.703997
16.718946
16.026256
13.988182
11.369241
8.814876
6.444158
3.963189
1.221711
-1.791616
-5.093801
-8.453318
-11.380333
-13.583154
-15.119110
-16.068214
-16.427629
-16.341629
-16.238933
-16.144112
-15.756022
-15.130104
-14.447171
-13.496483
-12.079275
-10.239645
-7.988305
-5.558673
-3.517441
-2.227179
-1.918155
-2.683611
-4.020170
-5.309478
-5.815686
-4.899334
-2.332989
1.336500
4.845967
7.248509
8.429780
8.575631
8.110374
7.623067
6.829890
5.274089
2.995352
0.308685
-2.348687
-4.468346
-5.401070
-4.695771
-2.052565
2.581467
8.506387
14.514783
19.317658
22.456365
24.119592
24.084946
22.403143
19.634889
16.494301
13.430889
10.326841
7.093641
4.012904
1.631161
0.775929
1.575099
3.501985
5.960282
8.287854
10.447212
12.764703
15.353728
17.893297
19.852628
20.793235
20.291438
18.044831
14.005221
8.177016
0.762135
-7.456638
-15.377731
-22.095823
-27.251809
-30.668971
-32.255013
-32.496302
-31.554435
-29.349715
-26.278734
-22.893064
-20.034710
-18.452440
-18.319818
-18.650253
-18.444551
-17.201540
-14.588260
-11.303706
-8.121528
-5.510768
-3.697284
-2.960170
-3.090577
-3.546699
-4.246634
-4.818677
-5.087687
-5.213369
-5.218405
-5.001362
-4.611068
-4.380165
-4.670595
-5.376200
-6.463590
-7.919851
-9.498018
-11.012869
-12.446134
-13.715597
-14.175499
-13.081169
-9.998848
-5.486092
-0.923251
2.460845
3.698501
2.509994
-0.780851
-5.728619
-11.233945
-16.212898
-19.727081
-21.072460
-20.275495
-17.535268
-13.283651
-8.397615
-3.600411
0.920850
5.009610
8.434656
10.749627
11.825056
11.764265
10.376045
7.721509
4.283241
0.754883
-2.426341
-5.131594
-7.182897
-8.217997
-7.956224
-6.453649
-4.378081
-2.617203
-1.628400
-1.785583
-3.195538
-5.592086
-8.496106
-11.415876
-13.685163
-14.552680
-13.898727
-12.295981
-10.837506
-10.498557
-11.441991
-13.237826
-15.102332
-16.555442
-17.898301
-19.677441
-22.144550
-24.859882
-26.984582
-27.994481
-28.020307
-27.283823
-26.098772
-24.719364
-23.518248
-22.930446
-22.939577
-23.459329
-24.340707
-25.512834
-27.020440
-28.654047
-29.971391
-30.499964
-29.684728
-27.099484
-22.555228
-16.196862
-8.465392
0.152500
9.448595
19.320204
29.431216
39.223128
48.336207
56.612634
64.131160
70.869736
76.725671
81.647617
85.470513
88.085998
89.050231
88.233429
85.500771
81.315944
76.636560
72.047897
67.756283
63.335202
58.735514
54.323883
50.518951
47.198810
44.102637
40.974334
37.308949
32.878733
27.823548
22.674808
18.004874
14.465175
12.493253
12.491682
14.581425
18.145073
22.049555
24.987920
26.258651
25.755279
23.729491
20.890991
17.954211
15.315424
13.411228
12.337383
12.044118
12.271556
12.598219
12.689575
12.355990
11.723781
10.623475
8.639898
5.577115
1.413393
-3.844024
-9.931477
-16.728320
-24.213133
-31.908053
-38.952489
-44.224397
-46.687096
-46.218365
-43.745262
-40.768152
-38.748025
-38.456642
-39.954483
-43.170672
-47.357075
-51.560802
-54.881888
-56.513921
-55.882648
-52.674640
-47.157651
-40.240782
-33.392900
-27.567836
-23.171317
-19.632869
-16.072371
-11.677742
-6.539073
-1.263692
3.125267
5.726892
6.378325
5.203049
2.342184
-1.408252
-5.032057
-8.075624
-10.513438
-13.079773
-16.130271
-20.036949
-23.472067
-25.249631
-25.118585
-23.826433
-22.172341
-20.607081
-19.614813
-19.215068
-19.464232
-19.657640
-19.231435
-17.853287
-15.904666
-13.673801
-11.399151
-8.975503
-5.991148
-2.423405
1.093937
3.738717
5.015434
4.801550
3.281974
0.951262
-1.161783
-2.004100
-1.001122
1.448671
4.065101
5.390959
4.526906
1.595481
-2.421764
-6.703298
-10.637067
-13.469896
-15.101929
-15.764379
-15.430155
-13.998141
-11.337295
-7.378317
-2.313989
3.379718
9.339918
15.514322
22.021370
28.539443
34.664390
39.887481
43.542165
44.794626
43.347186
39.491538
34.106544
27.959870
21.587968
14.921221
8.148319
2.098666
-2.514567
-5.225805
-6.540313
-7.022896
-7.418852
-8.185253
-9.607808
-11.218735
-12.561909
-12.998815
-12.325017
-10.485072
-7.118932
-1.819611
4.954561
12.673115
21.178550
29.956779
37.994748
44.513451
49.081332
50.993728
51.440408
51.033427
49.928396
48.004040
45.959981
44.090750
42.274125
39.562257
35.264658
30.060162
24.264403
18.052523
10.855624
2.890430
-5.204546
-12.104080
-17.271721
-20.922931
-23.764895
-26.444002
-28.960567
-30.888389
-31.981765
-32.745646
-33.690969
-35.237951
-36.948734
-37.982259
-38.184487
-37.406107
-35.609319
-33.472955
-31.868634
-31.467944
-32.576755
-34.834386
-37.256450
-39.210102
-40.419084
-40.571857
-39.181423
-35.903169
-30.914127
-25.048113
-18.684392
-12.759157
-8.753243
-6.786352
-6.066248
-5.943077
-6.573396
-8.097067
-10.021109
-10.370444
-8.095164
-3.725105
2.074128
7.975108
13.321995
18.421604
23.628314
28.545850
32.618545
36.109427
39.167493
41.506404
42.987559
43.502595
43.359273
43.091208
42.796369
42.004767
40.270358
37.564161
33.842390
29.025033
23.790612
18.776063
14.860564
12.664359
11.894493
11.567207
9.814213
5.704987
-0.369552
-6.885411
-12.839932
-17.635868
-21.170527
-23.816874
-26.133726
-28.779127
-31.817654
-34.895557
-37.147203
-37.925259
-37.055843
-34.841043
-31.388907
-26.638953
-20.177896
-11.977385
-2.693889
6.443130
14.381557
20.753783
25.552878
29.027379
30.976315
31.123427
29.350587
25.834199
21.294676
16.705698
12.738854
10.016591
8.909355
9.577799
11.802049
15.177009
18.743492
21.985205
24.669046
26.955667
28.964768
29.866315
29.392868
26.466483
21.524070
16.167111
10.714707
4.975963
-1.008799
-6.315987
-9.209612
-8.677565
-4.899084
0.516789
5.640023
10.200659
14.208778
17.299290
18.879985
18.979216
17.557291
14.715327
11.085852
7.044981
3.017656
-0.353830
-2.508140
-3.321477
-2.913227
-1.926944
-1.147619
-0.937507
-1.837470
-4.493266
-8.793701
-14.113803
-19.434536
-24.027609
-27.886723
-31.331605
-34.906899
-38.427068
-41.552851
-44.351974
-46.814674
-48.418986
-48.364486
-46.421850
-43.331024
-39.393466
-34.085639
-26.746980
-17.772818
-8.495623
-0.095399
6.096959
10.041132
12.350118
14.346620
17.086847
21.305703
27.245743
34.210493
41.700354
49.521600
57.800232
66.124539
73.220960
77.460607
79.012008
78.130630
74.383974
66.934757
55.581377
42.891748
31.757926
23.467963
18.105965
15.648936
15.420562
16.796505
19.955057
24.162889
28.553423
32.028240
33.131389
30.676880
23.725055
12.776456
0.191094
-11.672593
-22.138921
-31.170720
-38.615526
-44.616669
-49.737689
-54.428098
-59.090787
-64.081711
-69.317393
-74.448808
-78.870204
-81.815804
-82.522039
-80.857552
-77.862487
-74.130312
-69.708593
-64.584099
-58.677134
-52.019514
-44.735350
-37.484262
-31.202128
-26.985791
-25.290748
-26.244577
-29.118357
-32.771142
-36.145778
-38.467671
-39.650192
-39.615222
-38.620119
-37.004143
-35.351311
-34.024194
-33.146902
-32.411678
-31.067235
-28.439150
-24.449931
-19.385288
-13.655356
-7.890143
-2.358978
2.803316
7.114469
9.694359
9.737834
6.658041
0.897877
-5.750914
-10.998881
-13.193826
-11.775987
-7.034224
0.283330
9.019349
18.021860
26.499260
34.210569
41.760596
49.380554
56.025574
60.549355
62.292593
60.418952
53.735196
42.002551
27.867368
14.090030
1.805497
-8.294481
-15.722907
-20.135168
-21.233269
-18.264979
-11.089492
-1.011555
9.327835
18.071728
24.500655
28.151874
28.814017
26.272252
20.713376
13.312670
6.543547
1.680200
-0.912596
-0.595382
2.622706
8.253412
15.868960
24.850682
34.148038
42.903586
50.649546
56.937981
61.503027
64.193798
64.562043
62.223140
56.857362
49.178507
40.834048
33.214413
27.422749
24.046222
22.603822
22.419549
23.173674
24.569777
26.445632
28.386378
29.702470
29.553793
27.217095
22.875396
17.434331
12.093438
7.672357
4.074697
1.094446
-0.868971
-1.911001
-2.981381
-4.736265
-7.371272
-10.672197
-14.364673
-18.363333
-22.505320
-26.428694
-29.838296
-32.722786
-35.189580
-37.381375
-39.326522
-40.704347
-41.438932
-41.964040
-42.620190
-43.080091
-43.001021
-42.214136
-40.619895
-38.039690
-34.903188
-31.355606
