EVENT_NAME: 202010301151
EVENT_ID: 10614
EVENT_DATE_YYYYMMDD: 2020/10/30
EVENT_TIME_HHMMSS: 11:51:24.00000
EVENT_LATITUDE_DEGREE: 37.879
EVENT_LONGITUDE_DEGREE: 26.703
EVENT_DEPTH_KM: 16.54
HYPOCENTER_REFERENCE: AFAD
MAGNITUDE_W: 6.6
MAGNITUDE_W_REFERENCE: AFAD
MAGNITUDE_L: 
MAGNITUDE_L_REFERENCE: 
FOCAL_MECHANISM: 
NETWORK: TK
STATION_CODE: 3511
STATION_NAME: 
STATION_LATITUDE_DEGREE: 38.4213
STATION_LONGITUDE_DEGREE: 27.2563
STATION_ELEVATION_M: 76.0
LOCATION: -_-_-
SENSOR_DEPTH_M: 
VS30_M/S: 827
SITE_CLASSIFICATION_EC8: A
MORPHOLOGIC_CLASSIFICATION: 
EPICENTRAL_DISTANCE_KM: 77.31
EARTHQUAKE_BACKAZIMUTH_DEGREE: 
DATE_TIME_FIRST_SAMPLE_YYYYMMDD_HHMMSS: 2020/10/30 11:51:11.8230420
DATE_TIME_FIRST_SAMPLE_PRECISION: millisecond
SAMPLING_INTERVAL_S: 0.01
NDATA: 9018
DURATION_S: 
STREAM: HNN
UNITS: cm/s^2
INSTRUMENT: sensor = CMG-5T/GURALP | digitizer = 
INSTRUMENT_ANALOG/DIGITAL: 
INSTRUMENTAL_FREQUENCY_HZ: 
INSTRUMENTAL_DAMPING: 
FULL_SCALE_G: 
N_BIT_DIGITAL_CONVERTER: 
PGA_CM/S^2: 29.859
TIME_PGA_S: 
BASELINE_CORRECTION: BASELINE REMOVED
FILTER_TYPE: BUTTERWORTH
FILTER_ORDER: 
LOW_CUT_FREQUENCY_HZ: 
HIGH_CUT_FREQUENCY_HZ: 
LATE/NORMAL_TRIGGERED: 
DATABASE_VERSION: 
HEADER_FORMAT: DYNA 1.2
DATA_TYPE: Acceleration
PROCESSING: Manual Paolucci et al., 2011
DATA_TIMESTAMP_YYYYMMDD_HHMMSS: 
DATA_LICENSE: U (unknown license)
DATA_CITATION: Turkish Accelerometric Archive v 1.0 - Disaster And Emergency Management Presidency, Earthquake Department
DATA_CREATOR: AFAD
ORIGINAL_DATA_MEDIATOR_CITATION: : AFAD - Disaster And Emergency Management Presidency
ORIGINAL_DATA_MEDIATOR: AFAD PROCESS SERVICE
ORIGINAL_DATA_CREATOR_CITATION: AFAD PROCESS SERVICE
ORIGINAL_DATA_CREATOR: network: TK
USER1: GuestUser
USER2: 
USER3: 
USER4: 
USER5: 
[...]
-4.729891
-6.629372
-3.592303
-4.240408
-2.277537
-2.769491
-1.444831
1.998541
2.744048
3.572425
2.846090
4.585401
4.432342
3.267855
1.286433
-2.224654
-1.755271
-1.886067
-1.467085
-1.221262
-2.693723
-2.534169
-4.428703
-2.239799
-1.817726
-0.676119
1.536285
0.935180
1.871780
0.528569
-0.074082
-1.963977
-2.214746
-4.388188
-5.367149
-6.201708
-6.480306
-4.265738
-4.697704
-0.500786
-0.015633
3.251488
5.346392
4.438859
6.054177
3.685623
5.174474
2.976605
1.740690
1.249664
-0.300409
0.145165
-0.854513
0.360686
0.544667
3.198624
5.267554
5.763529
5.230450
2.979397
2.611437
0.890370
-0.014070
-0.014379
-1.035083
0.514991
-0.330081
-1.445403
0.400586
-1.239467
-0.809045
-1.132479
-1.254616
0.992728
-0.085180
0.905841
0.108697
-0.404283
-1.070013
-2.988356
-2.754901
-3.731388
-2.298814
-2.068142
-2.191825
-0.833771
-2.454034
-2.924034
-3.051737
-4.535948
-4.464520
-5.038105
-2.447227
0.092322
2.296377
2.643312
1.265160
1.414201
-0.356958
1.164978
0.596650
0.525532
0.246006
-1.997626
-4.885654
-7.144129
-6.711851
-6.082916
-3.937302
-3.255182
-3.184063
-4.023260
-4.297529
-3.817015
-2.716224
-1.795084
-0.682852
0.385163
-0.804989
-1.174495
-0.696454
1.901226
3.497064
3.501084
4.363164
3.382967
1.797335
0.693144
0.867230
1.160054
2.851747
2.737958
1.665307
1.367228
-0.420628
0.775400
-1.157476
-0.864961
0.182645
0.780351
1.916083
-1.189320
0.253458
1.281275
2.680764
5.094773
7.241933
6.055183
3.949459
2.828570
-0.022352
0.504853
1.663157
2.121718
2.536988
2.967720
3.816813
5.096328
4.543460
4.049033
4.260843
5.583029
4.583661
4.871227
4.627879
2.224075
0.512285
-2.469742
-2.017985
-1.891517
-2.241233
-1.561278
-3.591246
-4.392410
-4.785417
-5.542055
-3.391184
-2.943137
-2.240300
-1.837707
-2.465713
-2.834910
-1.454901
-2.737507
-3.056921
-4.151526
-5.295914
-2.799964
-2.996003
-2.628042
-4.192957
-5.586260
-5.302094
-3.808605
-1.321932
0.627643
0.237111
1.525593
1.244830
-0.390585
-1.903552
-1.820065
-2.662663
-4.646868
-2.636070
-3.590293
-2.295936
-1.828718
-1.166388
0.641568
-1.969407
-3.157703
-4.697572
-6.795257
-6.669407
-4.697260
-1.064342
-1.046407
-0.405103
0.440898
1.161051
2.324302
1.701862
3.357996
3.359852
3.315635
3.837584
4.964967
4.976718
4.184521
4.176791
2.154863
1.472126
1.040778
-1.013927
-1.443111
-3.066776
-2.749525
-0.517641
-2.095543
0.195092
0.834540
1.170344
2.548806
2.195070
3.241131
2.669401
2.031190
0.681795
-1.196350
-2.776726
-0.835190
-0.464137
1.468431
1.526873
1.304860
0.463499
-1.029679
-0.449599
-1.414954
0.667890
-0.947426
1.719208
1.903808
3.936869
3.102929
-0.406613
0.380329
-1.550691
0.533390
-0.349097
-0.122135
-1.326510
-1.401957
0.587197
-0.240560
2.192930
0.666975
-0.361768
0.014542
-2.267742
-0.329299
-3.566735
-2.295878
-1.785988
-2.710219
-1.032749
-3.586520
-1.034912
-1.384629
-1.607260
0.170393
2.620890
3.804858
4.428847
4.081294
2.085340
2.660163
3.004625
1.740572
1.738717
0.739040
-1.394823
-2.749165
-3.599804
-4.735534
-4.340980
-1.992524
-1.773292
1.585046
1.590613
0.547955
-0.511400
-1.506440
-0.771445
-2.953235
-1.823688
-0.611890
-0.119626
1.062797
0.577646
-0.233722
-0.986959
-1.793998
-0.967477
1.543315
2.289751
3.061851
3.547622
2.262852
2.408491
-0.359563
-1.377484
0.546426
-0.815956
-0.205573
-2.215443
-4.673049
-4.003607
-5.224679
-3.795197
-3.688828
-2.627307
-1.178654
0.053243
2.025699
0.788238
0.169199
-1.063005
-1.534241
-2.182656
-0.799555
0.760414
0.938520
1.113225
1.048910
0.455535
-0.921070
-2.240163
-1.554951
-1.012594
-1.942081
-2.534219
-4.072233
-2.774165
-2.379302
0.026358
1.594367
0.018320
-0.238942
-2.271693
-2.237061
-1.965882
-2.494013
-1.464650
-2.416709
-0.989391
0.086663
-0.148027
-1.083080
-2.458140
-2.804146
-4.298560
-4.238573
-2.448860
-0.744799
-0.171831
0.571204
-1.373731
-1.158520
-1.742927
-3.090467
-2.934624
-3.797012
-3.549952
-0.023402
1.798777
3.882549
4.425215
1.754872
0.722418
-0.563898
2.761973
3.080461
3.854417
3.954292
2.900194
1.308996
-0.913301
-0.052148
0.077102
1.613262
2.828461
3.734141
5.069623
5.140433
5.014585
4.349164
2.345170
1.433926
1.183157
1.602757
2.923706
3.346707
3.974406
3.774965
1.132760
0.461155
-0.374332
0.106801
0.830046
0.483731
-0.156953
-1.357618
-1.113032
-1.072524
0.372419
0.991768
1.079276
0.731415
0.073724
0.877673
0.237298
0.130003
0.255234
0.151030
1.386019
0.879533
0.669579
-0.406783
-1.420684
-0.124472
0.768220
1.574025
-0.164358
-3.356340
-3.208227
-4.441668
-3.266666
-2.933955
-3.650395
-0.761748
-0.126628
4.658100
5.880411
4.857543
4.191194
2.051766
2.445392
3.690894
4.598737
4.906712
6.304964
5.326003
5.613261
3.475069
1.447884
1.967359
-0.517149
0.598175
-0.001384
0.532933
2.720291
2.801305
4.965472
4.119163
2.645156
0.975418
-0.295128
-1.237292
-1.771917
-1.988364
-3.525450
-4.255496
-3.133369
-1.318919
2.439538
3.654428
1.577151
0.708269
-1.886008
-0.751822
0.402462
0.561397
1.724031
0.064497
0.144583
0.164065
-0.498573
1.213837
-1.048349
-1.482171
-0.920025
-2.503183
-2.066886
-3.904834
-3.215293
-0.680382
0.684165
3.413879
3.863163
3.365643
3.053032
1.952861
4.335331
2.579942
3.984996
3.855438
1.679522
4.341519
4.582395
5.991469
5.753687
3.869357
1.147375
1.243541
-0.195835
1.234266
0.533595
1.052142
2.481934
0.928150
3.587364
1.934942
1.515653
1.424746
0.384561
0.566378
-2.068715
-3.917176
-1.142627
-0.739416
2.000192
2.093575
3.919774
6.081468
3.686631
4.843389
1.968348
1.704592
1.984429
1.202126
2.379911
0.454147
0.331700
-0.356293
1.098854
2.051224
0.236775
3.395055
2.037621
4.191893
4.680447
4.488737
5.455330
4.034508
4.461838
0.952605
-0.594375
-1.874507
-1.650947
1.285319
3.517512
5.800726
6.850497
6.882965
6.847097
3.949484
3.138734
2.668734
4.025243
5.118922
2.971145
2.123289
0.323684
2.312837
3.075352
4.280038
5.855776
0.216391
-1.412221
-5.051322
-7.220435
-6.188598
-7.991914
-5.682109
-6.671583
-4.218613
-1.694834
-2.619064
1.443966
0.619920
-0.894902
-1.236270
-5.216740
-5.773318
-6.950483
-5.705600
-4.608828
-3.657077
-2.801490
-3.345082
-3.200370
-3.184600
-4.770850
-7.670937
-7.990042
-10.699346
-11.522155
-12.435872
-13.827011
-13.663128
-12.862272
-13.013784
-9.555570
-8.065483
-6.038296
-1.179667
0.748263
4.738629
3.175260
2.481083
3.933447
4.525277
4.442100
2.427592
-0.725738
-5.188886
-6.862024
-8.417663
-7.993425
-6.767404
-5.207125
-4.374729
-4.960992
-3.437201
-3.325266
-0.362407
-1.102657
-3.035224
-4.997474
-5.734941
-4.535203
-5.204643
-3.942135
-5.155168
-2.491007
-0.584722
2.681781
5.698751
7.299227
8.657900
8.250052
10.758989
9.414541
9.318377
7.946410
4.932224
7.508260
6.810990
7.210491
8.606579
6.787802
6.078782
3.504294
2.074195
-0.123674
-1.297129
0.049794
1.795290
2.109140
4.681774
4.271761
4.282894
3.700341
0.819425
0.164208
-4.938078
-3.478602
-2.091482
1.888680
4.038932
3.482045
5.033974
4.892975
6.764319
6.966544
5.298662
4.743320
3.854649
6.734330
9.327990
9.146175
9.142156
2.995974
3.007107
0.264408
-0.506145
0.705344
-0.731248
2.100505
1.600511
4.489159
8.361716
7.447999
7.623013
5.467814
3.100497
1.328721
-1.324926
-1.676807
-5.261486
-3.820254
-2.967450
0.063744
2.089384
1.753273
2.581340
0.155582
-0.283496
-3.873742
-4.017215
-2.951055
-2.247600
-2.813146
-3.648014
-2.983519
-5.287139
-6.736409
-10.201424
-13.145419
-13.643557
-11.587613
-6.219095
-0.793682
4.767165
7.908747
7.425142
7.209623
3.630509
-1.121441
-5.624786
-11.519580
-13.740330
-17.435089
-17.099904
-14.572724
-11.809925
-9.403955
-7.666499
-5.447602
-3.450408
-1.911775
-0.697194
3.185566
3.831199
5.667912
5.760985
6.637289
5.901059
3.380683
2.398939
1.432038
0.427722
-0.817160
-1.310659
1.411015
1.813299
0.451844
2.884097
0.915044
4.398613
6.350661
6.586590
9.607580
9.052547
9.941838
11.190432
10.710229
11.159203
11.434093
11.826791
12.838839
13.768327
15.486921
13.400368
9.262201
3.945631
-0.230878
-1.610575
-3.912340
-7.283973
-10.065323
-13.951174
-16.602965
-16.263760
-15.917443
-14.196375
-15.144106
-13.999716
-10.402357
-7.771591
-5.910141
-6.395601
-7.274378
-8.878253
-9.560681
-11.388425
-12.482721
-15.646874
-18.686724
-15.927636
-10.717743
-4.272553
2.273440
2.952159
1.624408
-0.607784
-2.669909
-0.361650
-0.853295
0.824793
-0.200858
-2.421919
-2.552405
-6.676657
-6.449696
-5.577102
-5.704496
-2.621355
-0.099122
2.804368
6.610753
8.294716
10.028461
9.980225
4.966373
1.419108
-1.174551
-3.318308
-5.057618
-7.337738
-7.998211
-4.558550
-1.594145
1.060430
5.448441
5.036882
6.663331
5.759200
3.544015
4.406404
3.373641
3.512787
3.113596
2.442919
2.371801
3.789224
3.051139
1.001691
-3.132457
-8.852546
-10.851284
-14.350312
-15.511398
-15.210226
-16.379042
-15.413994
-17.269567
-18.484765
-17.110940
-18.542276
-17.091768
-15.838845
-16.565799
-13.148710
-11.674392
-8.659896
-2.952792
-0.457151
2.093839
6.430830
8.427095
9.845755
12.775219
12.263476
12.924569
12.085681
11.653096
9.580148
6.823225
8.344852
9.132104
11.397073
10.211560
9.775883
8.793830
6.159355
4.443236
1.604373
-2.397123
-4.662710
-7.516415
-8.006204
-8.443737
-8.151841
-0.820762
3.012215
9.620978
13.203186
12.030041
12.702884
11.707535
10.554798
10.727339
8.356311
7.495469
7.615444
6.483115
7.162142
6.416018
7.549276
8.381672
11.118188
12.479025
12.365237
11.451520
9.956486
9.213144
8.250572
8.856935
8.629047
8.199554
5.884185
3.568197
0.262425
-0.784871
-2.281759
-4.884386
-9.022862
-11.567047
-11.650224
-12.052816
-9.248273
-9.556865
-7.764369
-9.482344
-11.183621
-11.851824
-11.885527
-7.794668
-5.653074
-2.523860
0.597005
2.134093
5.848952
9.001047
8.350468
8.327278
4.947914
3.048124
2.255618
0.406229
-3.585681
-5.581636
-6.552866
-10.518494
-8.880603
-6.898252
-4.605763
0.230913
-1.200114
-3.278628
-3.879733
-4.971246
-2.716790
-2.630829
-4.064329
-5.741178
-7.367626
-7.814435
-6.524407
-5.212115
-3.645344
-4.796844
-5.823423
-7.465331
-7.859574
-5.636039
-6.195400
-3.287272
-1.578264
-0.015512
3.059281
3.401887
6.342173
5.276015
4.435581
4.037318
0.303290
3.124530
2.459109
4.542263
3.145249
-1.689879
-2.877866
-9.165666
-10.617101
-10.442396
-10.386737
-4.313528
-1.879111
2.358005
6.023700
4.218837
6.100695
5.008563
5.181104
4.418900
2.459123
0.791241
-1.545464
-4.718275
-6.809467
-8.179579
-10.646153
-8.452302
-6.059010
-2.768388
5.703988
10.945111
16.391242
21.488273
20.635470
22.983308
23.139460
20.694532
17.817635
16.863721
14.813036
14.175135
13.972602
10.488416
10.144884
7.483508
3.931913
0.905050
-2.139129
-4.828644
-6.037039
-7.471158
-5.341313
-0.805809
1.202207
3.748249
1.922979
-0.079160
1.418348
2.407823
5.675254
9.605015
10.274148
12.627242
12.545921
10.548729
12.204863
11.157257
11.280324
9.007316
5.487571
3.683636
-1.041413
-0.834550
-0.008647
1.791269
5.544470
5.504274
3.104799
0.070824
-0.595216
-0.468438
0.646267
-0.173759
-3.079721
-6.709855
-11.284627
-12.115785
-10.357921
-7.626971
-4.892001
-6.471140
-9.428431
-9.713522
-9.588909
-8.183546
-4.375305
0.164219
1.724188
1.425491
-0.997793
-3.981367
-2.435312
0.870152
5.196011
6.264644
6.186415
5.016671
1.194827
1.611025
-0.501193
-1.235258
-3.093923
-9.614869
-13.129667
-17.988913
-19.672565
-18.681853
-15.706935
-10.738227
-8.759277
-6.228077
-2.730593
0.077660
3.129262
4.777356
4.930725
3.913732
2.172567
-0.055606
-4.511950
-7.161886
-7.808754
-8.076839
-4.095131
1.224841
5.735608
12.154825
15.627881
18.256173
22.905158
23.518324
21.304375
18.946335
13.491239
9.650224
6.748281
3.546095
4.130814
4.864881
5.667283
4.536810
3.938797
2.898612
2.360586
4.467859
4.681833
5.906927
5.730368
3.262558
3.435098
3.700402
2.514889
0.087276
-6.060143
-13.048924
-18.194190
-21.818758
-22.399455
-21.675592
-20.886485
-19.549148
-19.692003
-21.003365
-19.507402
-19.240862
-16.497234
-11.957092
-10.356925
-5.351730
-2.610884
1.262290
8.581310
15.696560
20.457479
21.853875
20.042520
18.890710
14.883649
12.254739
10.091502
8.453613
9.162016
4.111058
6.444364
5.763791
4.226705
7.112570
5.148155
1.774976
-1.442053
-7.986498
-10.281769
-11.623433
-12.624348
-9.849799
-8.345797
-4.947879
-4.931799
-5.169272
-6.155345
-6.656265
-7.958351
-9.216529
-10.198582
-9.913489
-9.925547
-8.944421
-5.270068
-1.818038
2.318584
2.860322
4.133962
7.298426
8.070835
8.871073
9.906621
9.852819
9.318194
5.969752
1.731091
-2.477267
-5.080202
-7.492355
-4.113917
-2.236698
-3.743481
-2.945407
-4.655960
-1.771642
1.492697
2.112666
4.594083
6.536546
8.713081
9.229773
6.345147
2.663684
-2.263280
-3.155971
-2.267607
-0.119828
3.420636
4.368677
4.471026
3.812099
3.012480
2.078974
1.205763
-0.603119
-1.996113
-4.813640
-9.203196
-9.067142
-9.495708
-7.958620
-6.388756
-6.478736
-3.036601
-2.561343
-2.234197
-1.930242
-1.107122
2.181026
4.917851
6.611090
6.849801
5.597189
3.623498
2.084866
1.136826
-0.550845
-1.576188
-2.121944
-5.002241
-9.440652
-11.373528
-12.689528
-13.231265
-10.795920
-8.166391
-6.096842
-6.533447
-7.756066
-8.738428
-8.548881
-6.784832
-3.275908
-2.060090
-1.560714
0.087380
1.780310
5.855090
9.959555
14.131736
16.166344
19.995920
24.508234
27.498612
29.859437
27.843074
23.496808
17.037396
12.660209
12.016124
12.265967
15.098957
17.577900
19.221047
20.640325
19.717332
19.948313
15.855909
10.735998
9.118517
3.256809
-0.155640
-2.617266
-5.319149
-6.780169
-8.386827
-9.131406
-11.025012
-10.458228
-10.948636
-12.495616
-14.156387
-17.461540
-19.586436
-20.771949
-20.626928
-21.264211
-22.957448
-23.899304
-26.253015
-28.573950
-27.546442
-27.026967
-25.114807
-21.345836
-20.305341
-18.578398
-18.180443
-17.462146
-13.839741
-10.783501
-7.030918
-3.838316
-1.317939
0.444254
1.947638
2.038237
0.852415
0.923843
-1.172605
-1.440072
-2.020460
-3.705967
-1.468826
1.410855
7.127853
14.078912
18.854055
22.504598
25.108463
24.723496
23.357713
23.182391
22.294648
20.799305
17.669475
15.601474
14.687138
13.129335
11.243459
7.709799
4.006383
0.708960
-3.468786
-5.769004
-6.896077
-9.581881
-10.156084
-11.100413
-12.882703
-11.763669
-11.199668
-9.914896
-7.905025
-8.260617
-7.573550
-6.842884
-6.148705
-5.182730
-6.542329
-6.713322
-5.907208
-5.655510
-3.507422
-1.959821
-2.178742
-0.576411
2.721941
5.129148
5.265820
4.138129
2.437161
2.838517
2.918604
3.032085
5.336633
4.916417
4.696259
2.580022
-0.207513
-0.475288
-1.747072
-0.685241
1.851834
4.436219
8.982854
10.590133
9.526139
8.497087
5.994954
3.720709
2.192900
1.026867
-0.867667
-2.737155
-3.933490
-4.106647
-3.085014
-2.207164
-1.796532
-2.523485
-5.081276
-8.409002
-11.548418
-15.535690
-19.665508
-22.752668
-26.067716
-27.544506
-27.350630
-28.181169
-27.916175
-28.112523
-26.955146
-24.183689
-22.609806
-17.638932
-12.344006
-7.633180
-0.421147
2.924514
4.562095
7.566388
9.296423
11.445130
13.842132
15.073101
17.039991
18.837744
20.206930
20.218990
19.175713
19.429885
18.611714
19.345163
21.651876
23.230089
24.546709
26.428876
26.926087
26.875996
27.244885
26.155227
25.065260
24.821912
25.244913
27.500916
28.910608
28.390826
28.055951
25.945279
25.975583
25.146589
22.493252
19.668613
13.785879
9.145244
6.244229
2.719846
-0.541090
-3.387375
-4.990941
-4.986611
-5.178630
-5.787156
-7.872782
-10.534468
-13.455581
-15.436385
-16.000693
-17.882549
-19.942202
-21.092156
-22.329307
-22.012365
-20.284186
-19.300585
-19.734098
-21.306743
-23.070481
-24.666317
-23.848144
-21.479589
-18.701020
-15.184056
-13.343324
-14.245909
-14.774041
-13.427427
-10.529812
-7.334118
-5.908037
-4.640272
-3.859514
-3.082776
-2.563920
-3.685117
-5.434631
-7.928106
-7.299789
-5.915142
-5.390411
-3.684185
-5.198080
-6.143955
-4.898453
-5.835361
-6.104683
-5.501412
-7.740406
-8.556722
-7.898412
-7.439233
-4.745079
-1.901266
-0.170613
0.968829
1.674449
1.824726
1.571174
1.498820
1.229498
0.676321
0.984605
2.274323
5.545465
8.446172
9.077890
8.647470
7.898871
7.784773
6.882188
5.774286
4.571457
4.635464
6.768710
8.034929
10.466873
12.924790
14.586489
17.107485
18.230231
17.346198
15.887960
12.513235
10.200339
9.493484
7.398582
6.807990
4.484890
3.823180
4.984267
5.091873
6.494145
5.717717
6.100521
8.089675
8.345084
9.084717
10.318468
10.523476
9.635423
7.337370
5.171658
2.880098
0.354156
-0.704581
-0.993692
-0.210770
0.828797
1.078022
1.902688
3.251157
4.165803
6.410365
8.086288
8.886526
8.659875
6.940973
5.890894
4.804329
4.485533
4.661475
4.368653
3.167061
1.220580
-2.283705
-4.650095
-6.582970
-7.316108
-7.348884
-9.089740
-9.920279
-11.768740
-10.220212
-7.000709
-4.298824
-0.337834
0.432411
-0.220641
-1.209496
-2.255247
-2.441081
-3.210397
-3.887568
-5.871463
-8.338965
-9.146004
-9.087253
-9.269378
-10.008700
-12.117826
-13.021030
-12.564015
-12.698521
-11.665138
-10.579498
-8.654351
-6.934211
-5.521117
-4.747471
-6.079550
-6.848247
-5.848877
-5.894331
-5.721481
-4.669545
-4.176044
-3.347358
-1.467665
1.621042
3.990834
4.104933
2.191229
-0.235457
-2.198944
-0.617330
0.942020
3.064753
5.394348
4.649150
3.511256
2.050235
1.195887
2.318013
3.877055
6.728597
9.656824
10.329977
11.031886
9.475011
8.913175
6.354766
2.358527
1.937383
2.171147
3.391602
5.045262
5.129368
5.143284
4.755843
2.658158
0.825776
-1.506600
-3.498535
-5.757010
-7.015497
-7.225759
-6.300291
-3.431742
-0.932390
0.576559
1.773515
1.978213
2.157247
1.806602
0.740445
-1.227372
-4.948414
-7.815415
-9.868574
-11.046357
-11.018218
-10.350940
-9.889906
-8.003411
-6.534968
-5.970039
-2.655917
-1.163975
-2.817633
-3.486146
-6.367062
-8.751695
-10.316301
-11.654873
-11.829576
-12.356162
-11.952022
-11.265265
-9.125216
-6.370457
-3.724539
-2.118498
-0.506272
-1.105831
-1.233225
0.567929
0.550304
1.843115
3.324236
3.477914
4.484396
4.399673
4.041608
4.195595
3.362273
2.122648
0.182351
-1.501301
-3.406657
-5.081342
-7.226027
-8.455448
-9.268672
-10.124257
-11.070132
-11.771112
-11.342854
-9.255990
-6.116882
-5.199453
-4.829636
-4.979911
-5.536181
-4.237186
-0.423998
3.826724
8.068478
10.924968
11.748087
12.031944
13.132116
13.202926
12.376716
12.388776
12.267257
12.703554
13.437621
15.154360
16.165789
15.475013
14.326605
12.400841
8.504477
5.942667
5.008851
4.574411
6.203024
6.732703
6.331039
6.821139
7.029857
8.533859
10.625980
12.169561
12.573391
10.271627
7.945126
4.929394
2.900353
1.716695
-0.151865
-0.327805
-1.591549
-3.269635
-3.151206
-2.593080
-1.441269
-0.902005
-1.443432
-2.686459
-5.713322
-8.205869
-10.102258
-11.130383
-10.022480
-9.303564
-7.462832
-6.785041
-8.144022
-9.315621
-11.044726
-10.237376
-7.709887
-5.261864
-2.350644
-0.504964
1.386169
4.897259
6.515050
7.212940
7.013190
5.356749
4.830164
4.017249
3.290296
1.847210
-1.028141
-3.383707
-5.542926
-8.310361
-9.960000
-11.728066
-13.441093
-12.934296
-11.988729
-11.274760
-10.464936
