EVENT_NAME: 202010301151
EVENT_ID: 10614
EVENT_DATE_YYYYMMDD: 2020/10/30
EVENT_TIME_HHMMSS: 11:51:24.00000
EVENT_LATITUDE_DEGREE: 37.879
EVENT_LONGITUDE_DEGREE: 26.703
EVENT_DEPTH_KM: 16.54
HYPOCENTER_REFERENCE: AFAD
MAGNITUDE_W: 6.6
MAGNITUDE_W_REFERENCE: AFAD
MAGNITUDE_L: 
MAGNITUDE_L_REFERENCE: 
FOCAL_MECHANISM: 
NETWORK: TK
STATION_CODE: 3511
STATION_NAME: 
STATION_LATITUDE_DEGREE: 38.4213
STATION_LONGITUDE_DEGREE: 27.2563
STATION_ELEVATION_M: 76.0
LOCATION: -_-_-
SENSOR_DEPTH_M: 
VS30_M/S: 827
SITE_CLASSIFICATION_EC8: A
MORPHOLOGIC_CLASSIFICATION: 
EPICENTRAL_DISTANCE_KM: 77.31
EARTHQUAKE_BACKAZIMUTH_DEGREE: 
DATE_TIME_FIRST_SAMPLE_YYYYMMDD_HHMMSS: 2020/10/30 11:51:11.8230420
DATE_TIME_FIRST_SAMPLE_PRECISION: millisecond
SAMPLING_INTERVAL_S: 0.01
NDATA: 9018
DURATION_S: 
STREAM: HNE
UNITS: cm/s^2
INSTRUMENT: sensor = CMG-5T/GURALP | digitizer = 
INSTRUMENT_ANALOG/DIGITAL: 
INSTRUMENTAL_FREQUENCY_HZ: 
INSTRUMENTAL_DAMPING: 
FULL_SCALE_G: 
N_BIT_DIGITAL_CONVERTER: 
PGA_CM/S^2: 42.123
TIME_PGA_S: 
BASELINE_CORRECTION: BASELINE REMOVED
FILTER_TYPE: BUTTERWORTH
FILTER_ORDER: 
LOW_CUT_FREQUENCY_HZ: 
HIGH_CUT_FREQUENCY_HZ: 
LATE/NORMAL_TRIGGERED: 
DATABASE_VERSION: 
HEADER_FORMAT: DYNA 1.2
DATA_TYPE: Acceleration
PROCESSING: Manual Paolucci et al., 2011
DATA_TIMESTAMP_YYYYMMDD_HHMMSS: 
DATA_LICENSE: U (unknown license)
DATA_CITATION: Turkish Accelerometric Archive v 1.0 - Disaster And Emergency Management Presidency, Earthquake Department
DATA_CREATOR: AFAD
ORIGINAL_DATA_MEDIATOR_CITATION: : AFAD - Disaster And Emergency Management Presidency
ORIGINAL_DATA_MEDIATOR: AFAD PROCESS SERVICE
ORIGINAL_DATA_CREATOR_CITATION: AFAD PROCESS SERVICE
ORIGINAL_DATA_CREATOR: network: TK
USER1: GuestUser
USER2: 
USER3: 
USER4: 
USER5: 
[...]
0.124901
-0.617991
1.084599
2.747110
2.117829
0.501708
-2.297863
-3.661514
-3.343088
-1.781880
-0.682692
0.169392
0.704311
0.344226
0.013174
-0.175547
0.056409
0.424698
0.515271
-0.413186
-0.296420
-0.717098
-0.365535
-1.088860
-3.475644
-3.928827
-4.718742
-3.553280
-3.610086
-2.302611
0.007800
-0.701324
0.540825
1.911418
3.732038
4.174174
4.198789
4.187112
2.198283
0.547448
-1.315146
-1.439173
-0.619910
0.033986
0.820112
1.265404
2.966732
4.590741
5.690245
5.390753
2.841757
2.394886
2.117484
0.224594
-1.272235
-3.067294
-2.277696
-0.778028
-0.346937
-0.581734
-1.636741
-0.246898
-0.183781
-1.172515
-0.467495
0.253305
-0.596571
-2.024286
-1.530078
-2.836924
-5.219289
-4.593481
-2.775070
-1.142856
-1.134967
-2.315893
-1.078478
0.998398
2.451991
3.544236
3.966175
2.123463
0.560361
-0.287306
-1.130555
0.129267
1.462937
2.329537
2.133873
1.526052
0.779058
0.205951
1.070659
3.757249
4.830874
1.836270
-1.239755
-2.136022
-1.737437
-1.767418
-2.420999
-2.048607
-1.164649
-0.265227
1.065602
1.809755
-0.007395
-1.068714
-0.367796
0.103375
-0.277224
-1.192426
-1.564188
-3.814954
-6.260437
-6.417284
-3.598463
-1.101856
1.098414
1.618816
-1.161820
-2.541882
-1.697056
1.487214
2.901990
3.143097
3.197693
1.191823
-1.455636
-3.327066
-2.715144
-2.148351
-2.048626
-2.154979
-2.080817
-2.498655
-2.045473
1.457541
3.750594
3.375045
3.399976
2.163190
0.196768
0.235900
0.981000
0.899578
-0.696345
-0.627548
1.059579
2.852112
1.888624
1.352442
2.565557
1.109123
0.306270
0.713060
1.073144
1.718519
-0.196463
-1.688873
-1.605244
-0.545819
0.367489
-0.037726
1.474250
4.133069
6.025958
5.471156
4.083204
1.310458
0.751868
0.407563
-0.994275
-0.830170
0.154776
1.207888
0.564091
-0.987019
-1.544031
-0.049096
1.631087
3.307484
3.100143
2.308966
0.810559
0.436904
0.805193
0.660022
0.081867
-0.935270
-3.384856
-7.559439
-7.894277
-7.229968
-6.770158
-6.058195
-5.560831
-5.222838
-5.947741
-4.322785
-1.634302
-1.938528
-3.923886
-4.091147
-3.036457
-4.403264
-5.358546
-4.047283
-3.539189
-3.713393
-2.216566
-0.283912
-0.155469
-0.249199
0.458977
2.165355
3.095073
2.094031
1.414572
0.796968
0.534714
2.975778
3.089389
1.721319
1.111289
-0.432878
0.353248
0.470330
2.570876
4.867716
3.571600
1.792006
0.002943
-2.253503
-2.979669
-1.702805
-0.829893
-0.454345
-0.988950
-0.019152
-0.153593
-0.088582
0.581408
2.701520
3.909585
3.804494
4.083157
3.649540
3.956921
2.571494
3.748317
4.365920
4.169308
3.899797
3.277774
3.375921
1.881617
0.365853
-1.191569
-1.345260
-2.143064
-3.226159
-0.728290
1.701728
5.361904
7.105520
5.999388
5.566087
3.552958
2.735903
0.653660
-0.031795
-0.368842
-2.203665
-2.206821
-1.624564
-1.446258
-0.553779
0.394874
-0.112590
-0.933432
-2.809912
-3.346410
-2.121934
-1.446894
-1.373048
-0.857695
-1.083025
-0.165299
1.956707
2.696757
1.293973
-0.007823
-1.387254
-2.821597
-3.766464
-5.106447
-4.165367
-2.781520
-1.631837
-2.029477
-3.632975
-3.344213
-2.155083
-2.722508
-3.887971
-4.256893
-3.982333
-2.482665
-0.694866
0.149959
0.822159
1.617121
3.058406
1.636055
-2.370951
-3.114159
-3.306668
-1.561789
-0.486900
-2.387365
-2.435019
-4.036307
-5.232066
-3.703049
-2.590606
-1.180880
-1.319108
-0.993107
-0.465762
-0.971964
-0.981117
-1.136386
-1.295758
-0.735276
0.937649
1.459944
0.321307
-1.567166
-0.914533
0.654249
1.893873
3.185570
3.829997
3.702184
3.399536
3.513777
3.972325
2.439519
-0.318711
-0.787358
-1.280305
-1.991954
-3.816047
-3.354659
-1.513211
-1.782407
-0.660181
-0.469882
-0.416864
1.265213
1.575750
1.193258
-1.436528
-3.247997
-4.015505
-4.257245
-2.715919
-0.589812
1.013369
1.442882
2.153583
2.602031
2.077841
0.643183
1.009263
1.304020
1.710180
2.810631
3.663661
4.693420
5.521835
3.959680
2.821042
1.430250
-0.599289
-1.901717
-2.631039
-0.896258
1.037973
2.951375
3.034058
3.380887
3.877305
4.406543
4.206776
2.740244
2.429390
0.856820
-0.967903
-1.108340
-1.785906
-2.699530
-3.908860
-4.107364
-1.413200
0.805690
2.883829
4.320064
3.767471
2.894557
1.902983
0.817995
0.200391
-0.456346
-1.121919
-1.981263
-2.573936
-2.075940
-1.835779
-0.762785
1.389201
2.733285
1.217836
0.067522
0.828085
0.778538
0.289693
-1.024095
-0.630244
-0.718293
-1.692195
-1.789712
-2.392483
-3.017661
-3.654832
-3.045118
-1.960447
-1.943406
-1.243751
-1.197360
-1.506636
-0.005390
0.468937
1.191314
1.024684
0.510277
-1.108053
-3.512194
-2.955184
-2.160537
-0.408400
1.347525
2.495945
3.798687
4.734086
4.467730
3.976991
3.245461
-0.030963
-1.324554
-1.160765
-0.166667
1.816165
1.783343
1.146173
-0.654566
-0.677289
-0.082409
0.260949
1.640694
1.449448
0.127454
-1.257973
-1.324246
-1.246613
-2.157397
-3.374932
-3.089326
-1.257661
-0.385379
-0.363604
1.022452
1.642580
1.019611
-0.380333
-2.757965
-2.053576
-0.399270
0.995308
1.745457
0.363186
0.176674
-0.669100
-0.499946
1.913977
3.149499
4.260364
3.798660
3.140030
3.530094
2.563767
2.183484
2.701046
2.767634
2.500963
1.231672
0.058635
-1.496262
-1.215706
0.126169
0.087035
2.941518
4.420041
3.928988
3.326216
2.814649
2.638236
1.773527
1.095015
0.479935
-0.273371
-1.637653
-0.387299
-0.956618
-1.927364
-2.461022
-4.091344
-5.346749
-7.613294
-7.305598
-5.591015
-5.332550
-3.906098
-2.121771
0.253335
1.596788
0.353690
1.294454
-0.326400
-2.079170
-3.358244
-3.572528
-2.491960
-3.665312
-2.082329
0.407650
0.554082
0.439208
-0.102340
-1.356483
-4.903995
-6.466781
-6.443429
-6.265754
-4.512038
-5.647520
-3.811437
-3.035094
-2.980498
-2.037525
-1.863637
-1.523120
-2.316190
-3.099162
-4.352357
-4.294606
-3.074548
-3.410333
-4.264942
-5.038762
-6.880212
-8.048199
-8.601739
-6.681394
-5.260938
-3.964824
-2.041007
-1.219219
-1.128962
-0.172419
3.735808
4.666157
4.152066
3.316075
0.563526
0.393740
-0.460554
-0.248480
1.579714
2.754327
4.890850
5.413461
5.880529
4.855186
2.102322
0.671451
-1.431305
-0.921949
0.481150
0.766755
1.816712
1.266644
0.698587
-0.088487
1.315558
2.869822
3.690032
4.070629
3.370341
2.136712
0.538264
0.754440
2.026886
6.485811
9.884997
10.394353
10.908443
10.519324
9.366485
8.591403
6.050928
6.497483
8.641264
8.416566
8.308319
5.033158
3.169933
2.226643
2.252520
3.851914
6.195461
6.064492
4.583758
5.344322
2.193818
-0.130480
0.000172
1.592939
3.951950
5.469606
6.411632
7.968737
9.998591
9.872987
8.119270
5.120879
2.325095
0.328376
0.077484
0.918522
1.695181
2.922813
4.521891
7.272229
8.810084
8.862786
8.870044
7.240353
4.582164
1.781331
3.992647
6.699435
6.249723
7.255182
5.820208
5.301698
5.102562
3.535357
1.698641
-0.371925
-2.325092
-3.316351
-4.794560
-6.679561
-8.767484
-13.417026
-15.897223
-18.455686
-15.231020
-11.925565
-9.031003
-5.967918
-4.046310
-2.040125
-3.526540
-3.619638
-5.881134
-7.790435
-9.005130
-7.862390
-5.552295
-3.417351
-3.706429
-3.445755
-3.610492
-2.216861
-3.000464
-4.854537
-4.796785
-6.456141
-6.847470
-9.764124
-8.642844
-7.644328
-5.433012
-1.188054
0.304987
-0.734872
-3.069269
-5.776373
-6.499383
-8.182093
-8.793385
-7.471077
-5.365798
-4.283336
-5.733773
-7.034307
-9.879323
-11.485030
-14.303221
-16.189484
-18.951816
-19.487999
-16.634148
-12.684894
-7.501066
-1.206056
7.183188
12.005986
11.446450
5.176685
-3.918528
-7.891135
-11.089609
-12.731923
-9.848407
-6.195805
-2.557405
-0.531970
2.821771
4.885077
7.650248
11.039019
11.352396
10.854400
7.540106
4.485225
3.267690
2.871313
2.665234
-0.564798
-6.150685
-10.356196
-11.037549
-10.281088
-5.688353
-0.599832
5.059902
7.366841
9.021462
12.043521
11.478620
11.299682
9.936346
8.408590
3.513837
-2.213118
-3.574244
-2.444444
-1.375868
1.076241
2.068446
3.607247
3.982479
1.910335
2.721393
3.322585
5.476149
7.878395
8.869968
11.032369
11.601687
11.466931
9.441809
7.098576
4.475734
0.105171
-2.182519
-5.543834
-7.107568
-6.959558
-6.438525
-5.473145
-2.731012
-1.219667
-1.922480
-3.122657
-5.344705
-4.604339
-4.734677
-6.305353
-5.233936
-3.720382
-2.817489
-1.674118
0.188159
1.866449
0.883395
-0.706532
-1.960674
-4.238896
-7.378986
-8.480385
-9.485845
-9.501940
-8.183735
-7.624516
-3.753212
-0.043805
0.798495
0.429258
-2.988232
-6.410772
-7.097174
-6.315782
-3.318023
-2.426806
-1.778276
-1.777646
-3.368519
-2.721251
-2.626576
-1.200124
0.331418
1.322991
4.052817
6.919923
7.522062
7.403716
6.975780
7.704785
8.219506
6.377425
5.401630
6.128426
6.726463
6.066885
7.061930
6.799361
8.467553
8.932411
7.069817
10.154678
13.276778
18.863296
23.904163
25.774015
24.562476
20.578823
17.687732
15.425604
15.454007
13.966961
13.687350
12.706821
12.056396
11.976868
9.121122
7.310915
2.627291
-1.253481
-2.732322
-4.759021
-5.564084
-7.061544
-7.871971
-5.452368
-4.582296
-1.749273
2.300652
1.755633
1.609200
1.873977
3.471792
5.970924
7.383806
8.027602
6.746635
3.714791
-0.137893
-1.086864
-1.431801
2.114448
6.471439
10.299507
11.753730
11.234274
10.723023
7.795639
5.623138
2.161466
0.497376
-1.464313
-1.892565
-1.165453
-1.546998
-4.008576
-4.024041
-6.267864
-6.788583
-8.011482
-12.690373
-12.431277
-12.133048
-9.078484
-8.294567
-8.257328
-7.325085
-6.057058
-6.507085
-4.732225
-3.930951
-4.498692
-5.066118
-5.196140
-4.753688
-7.125008
-7.913029
-11.252570
-14.907382
-18.315404
-20.669052
-23.012284
-25.088531
-27.022448
-27.826879
-27.297009
-25.597259
-23.820506
-21.975586
-19.652236
-17.453859
-12.492519
-6.278930
1.739184
6.261227
9.076892
8.239008
3.769036
-0.800031
-3.931600
-3.972311
-4.352909
-3.806945
-0.780468
1.722766
3.145116
3.495416
3.715695
7.306126
9.857014
13.622596
14.936383
13.384011
13.286494
13.132171
11.690570
12.625337
11.190048
9.193329
9.971566
8.153470
6.796130
5.257644
6.335688
7.911728
10.818282
8.255401
5.354526
4.396719
4.996018
7.985256
9.925167
10.186788
8.301788
6.087314
3.357803
2.516448
0.479965
1.116503
-0.217798
1.864443
3.510543
3.259020
4.609731
3.362847
2.889150
2.393363
1.822781
2.325195
2.158249
2.440383
3.549670
2.871158
0.899371
-1.325202
0.422833
2.183176
4.476861
7.303256
8.477554
11.376849
10.674668
8.197942
8.866670
6.694801
4.215234
0.543696
-0.085900
0.969422
1.596808
4.234482
5.870168
4.816423
2.780256
0.028023
-3.834761
-5.845050
-7.348506
-7.803267
-7.626539
-7.929503
-8.545214
-7.857235
-9.969458
-8.531645
-10.266742
-13.577880
-12.197504
-9.785158
-3.944909
2.115935
4.515657
2.962022
3.527869
3.317056
2.592784
2.205558
2.185991
5.430855
7.963438
6.961765
5.915594
5.348800
3.077836
0.049464
-2.402330
-4.590926
-6.386931
-10.322931
-13.947130
-15.156775
-15.122693
-13.025303
-11.246025
-12.115467
-11.709939
-11.947576
-13.234856
-12.773468
-11.130208
-4.471011
1.288448
7.161203
11.299808
12.285700
13.968724
10.359357
4.426324
-1.188282
-5.231581
-7.359268
-10.424248
-14.474806
-17.240294
-16.656774
-15.177619
-13.726867
-12.064988
-10.951598
-10.112769
-11.698909
-12.492610
-9.604991
-7.124164
-6.197917
-7.001086
-6.837297
-7.387366
-7.216634
-6.126597
-4.066132
2.376573
8.906064
12.796618
13.601364
10.861438
7.575232
4.318060
1.781372
0.046275
-2.865645
-5.433576
-10.998004
-13.049950
-13.608539
-10.740171
-3.714893
1.762431
6.103328
5.055894
2.404018
-0.405021
-0.699465
1.282736
3.393064
4.926500
6.410704
7.422475
8.421938
10.216364
12.803229
14.376429
13.900207
11.170696
8.012303
6.573226
6.503481
7.217969
9.771381
14.161825
14.855168
12.968274
9.687748
7.603928
10.306613
14.311094
15.647288
18.523861
20.898967
20.895810
19.959779
17.566684
15.550083
13.830134
11.359089
7.652521
6.400903
4.822021
1.247684
-0.744616
-1.435752
-2.311190
-1.973197
-3.823484
-5.918034
-6.396149
-7.984182
-6.300843
-5.167255
-4.742161
-5.132542
-6.197333
-6.730675
-8.116102
-11.283016
-13.243127
-12.911446
-13.132041
-9.677628
-5.331683
1.622588
8.832484
13.399972
15.364499
14.544920
12.925012
13.023474
12.165078
9.461760
6.667869
3.942145
5.746670
6.613271
5.328516
5.649783
4.835253
1.609639
0.005826
-5.896910
-8.723622
-13.133318
-17.693548
-18.969151
-21.210449
-19.755910
-18.913609
-15.954036
-14.810350
-13.981936
-14.002765
-14.181072
-15.564605
-13.230210
-9.740452
-5.073554
-1.731490
-0.086652
-1.162173
-4.677495
-5.807612
-7.753205
-6.982543
-5.762169
-4.056739
-6.164859
-8.053963
-9.067313
-7.447091
-7.928677
-6.891659
-3.377600
1.317700
4.293999
6.754629
7.197081
5.139454
3.557417
0.352001
2.013249
2.232266
0.302136
-4.090517
-5.405568
-6.353276
-4.820472
-4.309222
-3.451142
-1.302943
1.211968
1.824206
1.573630
2.912348
0.947188
-0.941599
-5.000678
-7.043788
-7.339809
-6.475101
-6.782483
-6.536011
-7.945107
-9.107729
-7.740923
-6.257034
-5.053071
-4.524780
-6.936179
-7.553783
-6.967108
-8.332337
-8.394824
-9.642024
-8.550094
-8.308986
-8.560509
-7.239779
-5.825635
-3.564772
-2.257296
-1.895319
-2.176507
-2.538801
-2.759713
-3.209109
-2.384797
-0.844102
2.453464
5.953637
9.391324
10.663453
10.456428
10.144312
11.272850
12.805339
14.555583
16.596167
15.558517
13.623337
10.111802
7.058499
4.185711
2.489747
3.548540
8.367551
13.253150
21.501011
28.976000
31.866144
32.221810
30.502176
29.693327
26.763734
25.106586
23.898204
23.155312
25.392506
28.389003
30.044571
34.173077
37.108981
39.822080
42.123339
40.777676
38.659772
33.792476
29.098752
24.526845
20.985013
17.584249
12.482787
8.950423
4.368102
-0.390633
-5.396787
-8.901695
-9.219807
-9.970905
-9.393381
-7.670909
-7.435482
-9.120085
-10.797745
-11.847072
-12.194218
-11.289747
-9.988583
-11.336771
-12.736399
-14.632761
-17.606220
-19.063285
-18.789988
-17.583184
-15.378180
-15.595304
-16.942229
-17.257501
-16.966531
-13.530106
-11.639111
-10.245795
-10.298183
-11.171097
-13.738712
-15.070489
-15.553653
-16.907837
-17.375222
-20.091163
-21.928510
-22.961742
-24.355689
-24.658653
-21.827209
-17.814523
-14.115530
-12.497833
-11.401169
-10.282414
-9.347016
-7.507776
-5.630351
-5.203362
-6.356833
-7.443714
-7.047338
-4.925648
-3.021398
-0.730554
-0.817656
-1.859725
-2.633229
-4.753657
-4.174872
0.130995
2.925200
5.944103
9.308574
9.692011
10.150242
9.731142
8.776807
6.781667
3.210801
2.457495
3.711321
5.652495
11.760993
16.644067
18.568515
18.032648
13.666504
10.392921
8.436597
7.824989
8.145941
9.547146
10.525464
9.576178
9.216724
9.157393
9.538937
7.502455
3.068775
0.697139
-3.261898
-6.509287
-7.918699
-8.209039
-5.403789
-3.916428
-2.646823
-1.240253
-1.229524
-1.631898
-3.748224
-5.829204
-7.324455
-8.697258
-9.141289
-8.578914
-6.420301
-5.086000
-3.432642
-1.079942
1.631895
3.995008
4.578212
2.231508
-1.086573
-1.321686
-0.780139
0.504930
1.868264
1.041742
0.293485
-0.916160
-2.351450
-2.968423
-4.075186
-3.376162
-2.808422
-2.704594
-2.689131
-4.209945
-4.604429
-4.588966
-6.168479
-5.000492
-2.943813
-2.586570
-0.621411
0.828079
2.252321
2.400647
1.221298
0.827761
-0.431747
-0.077659
1.633452
1.802921
1.918426
-0.071981
-3.501464
-4.418244
-3.816105
-3.307064
-1.986650
0.875722
2.914728
4.229147
3.100923
-0.310886
-3.551648
-6.355953
-6.017329
-5.305366
-5.394047
-4.029450
-3.357250
-2.101215
-0.261029
0.663955
1.831310
1.402427
1.759355
2.352973
0.692355
-0.235471
-1.049370
-0.516660
-0.044543
0.948293
3.648769
5.204296
7.093398
8.769163
9.469450
8.909598
6.738360
3.000549
-0.716433
-4.052818
-6.167566
-7.841123
-9.813542
-11.214432
-12.098707
-9.967550
-6.684501
-2.538953
1.842970
5.292018
7.581915
7.082025
4.161900
2.228614
1.344655
0.076942
-1.168996
-4.227348
-5.901537
-6.568688
-6.365135
-4.835487
-3.306153
-0.834793
-0.405596
0.499191
1.714831
0.720100
1.136674
0.988979
-1.796075
-4.010233
-7.672303
-9.479354
-7.233639
-4.555254
-0.007333
4.554474
7.017945
7.208874
6.737071
5.185014
4.951164
6.838373
8.270821
9.370956
10.108482
9.686857
6.926103
3.880374
1.211771
0.003388
0.396924
-0.486088
-2.147338
-3.588624
-4.629114
-6.742600
-8.033350
-8.996522
-11.703942
-13.732850
-17.008011
-18.858297
-18.470442
-17.819702
-15.996242
-12.844162
-10.968314
-9.819579
-8.941932
-6.686434
-3.064129
-2.248653
-1.993975
-3.174901
-3.320072
-1.829240
-1.325880
-0.913724
-0.250992
0.435724
0.679041
0.338838
0.366609
2.014918
3.673326
4.308286
4.828373
5.321319
3.953880
1.739091
0.702073
0.404474
0.285497
0.353347
-0.767933
-2.890255
-4.577068
-6.302382
-5.781664
-3.853113
-2.336404
-0.773934
-0.426789
-0.659693
-1.705232
-1.946341
1.159033
4.593563
5.299846
3.748105
1.379625
-0.931418
-2.097196
-1.550916
-0.676741
-1.780664
-2.391325
-2.530184
-1.784138
-0.974658
-2.682930
-4.027015
-6.000065
-6.028784
-4.688487
-2.252157
0.917912
3.737680
6.467190
8.835037
11.669006
13.749038
14.691380
13.160468
11.736224
10.275687
8.741935
7.380177
6.433416
5.635927
4.130262
3.315416
4.215469
5.759635
7.885112
9.830704
10.292407
10.568229
8.612852
6.644221
5.135084
4.318345
2.920926
1.122396
1.550015
2.770705
3.621842
3.537579
4.872196
6.019038
7.005561
6.912778
6.578887
7.810937
7.098657
5.123083
3.301831
0.827314
-1.071573
-2.564615
-2.125950
-0.624704
-0.969956
0.305645
1.331302
2.081451
1.324042
-2.765648
-5.746367
-8.316191
-11.213279
-12.257241
-11.830568
-9.953773
-7.833977
-6.176831
-4.902177
-3.750601
-2.699066
-3.308465
-4.447734
-5.148653
-5.702509
-5.673475
-5.359467
-4.862103
-2.465221
-0.850680
-0.496592
-0.499433
-0.237812
-0.262744
-1.007214
-0.933367
0.301524
1.218618
1.278264
1.716929
0.504128
-0.725715
-0.602636
-0.652184
0.722827
1.659488
1.611518
2.927830
2.854614
1.629505
0.156661
0.200211
1.041881
2.266988
4.780321
6.599678
5.680058
4.233407
3.202384
2.132544
3.861013
5.367624
5.774415
6.250635
4.439797
2.985888
3.055947
2.457594
2.860282
1.872810
0.214085
-2.100429
-4.630174
-7.274792
-9.817791
-11.246454
-11.522908
-10.038388
-8.386608
-5.817731
-2.800722
0.062281
1.606447
1.449915
-0.295280
-2.054362
-2.467466
-2.520169
-3.329650
-2.060361
-0.270984
0.942131
2.830287
3.860993
4.202773
3.332699
1.975044
0.393638
-1.605605
-4.212984
-6.412625
-7.426606
-8.168867
-8.062831
-6.788176
-4.661437
-2.023447
-1.188721
-2.148105
-3.169660
-3.513966
-2.708589
0.259189
2.534569
3.645434
3.340577
0.398044
-1.318117
-1.765304
-0.922057
0.395202
2.075701
4.360865
6.494862
9.408359
11.454939
11.786620
10.710469
8.362502
6.238287
4.382320
2.748526
2.710339
2.550336
2.342364
1.936834
0.973978
1.014373
0.317556
0.649553
1.129245
0.639138
0.666909
-0.664868
-1.085546
-1.715143
-4.048592
-4.945491
-5.456426
-5.249086
-3.909736
-2.770469
-0.868112
1.287346
3.560517
5.908167
6.030298
4.840535
3.347178
1.143750
-0.073469
-0.990565
-1.260077
-0.892419
-1.058734
-0.991830
0.326060
0.937983
1.373176
1.847187
1.904623
2.950477
3.978027
5.347989
5.624127
6.658620
6.859333
6.654516
5.311694
3.340222
2.923016
4.081219
6.010401
7.725614
9.291556
10.372124
12.128680
10.503723
10.616702
10.036653
8.409171
7.120630
5.760450
4.678933
3.259423
