EVENT_NAME: 202010301151
EVENT_ID: 10614
EVENT_DATE_YYYYMMDD: 2020/10/30
EVENT_TIME_HHMMSS: 11:51:24.00000
EVENT_LATITUDE_DEGREE: 37.879
EVENT_LONGITUDE_DEGREE: 26.703
EVENT_DEPTH_KM: 16.54
HYPOCENTER_REFERENCE: AFAD
MAGNITUDE_W: 6.6
MAGNITUDE_W_REFERENCE: AFAD
MAGNITUDE_L: 
MAGNITUDE_L_REFERENCE: 
FOCAL_MECHANISM: 
NETWORK: TK
STATION_CODE: 3511
STATION_NAME: 
STATION_LATITUDE_DEGREE: 38.4213
STATION_LONGITUDE_DEGREE: 27.2563
STATION_ELEVATION_M: 76.0
LOCATION: -_-_-
SENSOR_DEPTH_M: 
VS30_M/S: 827
SITE_CLASSIFICATION_EC8: A
MORPHOLOGIC_CLASSIFICATION: 
EPICENTRAL_DISTANCE_KM: 77.31
EARTHQUAKE_BACKAZIMUTH_DEGREE: 
DATE_TIME_FIRST_SAMPLE_YYYYMMDD_HHMMSS: 2020/10/30 11:51:11.8230420
DATE_TIME_FIRST_SAMPLE_PRECISION: millisecond
SAMPLING_INTERVAL_S: 0.01
NDATA: 9018
DURATION_S: 
STREAM: HNZ
UNITS: cm/s^2
INSTRUMENT: sensor = CMG-5T/GURALP | digitizer = 
INSTRUMENT_ANALOG/DIGITAL: 
INSTRUMENTAL_FREQUENCY_HZ: 
INSTRUMENTAL_DAMPING: 
FULL_SCALE_G: 
N_BIT_DIGITAL_CONVERTER: 
PGA_CM/S^2: 18.801
TIME_PGA_S: 
BASELINE_CORRECTION: BASELINE REMOVED
FILTER_TYPE: BUTTERWORTH
FILTER_ORDER: 
LOW_CUT_FREQUENCY_HZ: 
HIGH_CUT_FREQUENCY_HZ: 
LATE/NORMAL_TRIGGERED: 
DATABASE_VERSION: 
HEADER_FORMAT: DYNA 1.2
DATA_TYPE: Acceleration
PROCESSING: Manual Paolucci et al., 2011
DATA_TIMESTAMP_YYYYMMDD_HHMMSS: 
DATA_LICENSE: U (unknown license)
DATA_CITATION: Turkish Accelerometric Archive v 1.0 - Disaster And Emergency Management Presidency, Earthquake Department
DATA_CREATOR: AFAD
ORIGINAL_DATA_MEDIATOR_CITATION: : AFAD - Disaster And Emergency Management Presidency
ORIGINAL_DATA_MEDIATOR: AFAD PROCESS SERVICE
ORIGINAL_DATA_CREATOR_CITATION: AFAD PROCESS SERVICE
ORIGINAL_DATA_CREATOR: network: TK
USER1: GuestUser
USER2: 
USER3: 
USER4: 
USER5: 
[...]
2.113329
5.515309
6.728122
4.962854
1.578756
-1.697132
-5.306898
-8.453921
-8.761594
-6.914937
-4.625267
-3.155032
-2.700920
-3.106012
-3.496307
-2.928745
-2.598874
-3.340002
-3.223468
-1.893813
-2.073854
-4.199513
-5.566161
-5.316446
-3.872107
-1.949302
-0.658800
0.348692
-0.441455
-2.100054
-1.817660
-0.705966
1.643820
4.641015
5.125956
3.595297
1.266476
0.067845
0.515482
1.086744
2.588733
2.908122
2.365532
1.461010
-0.204371
-0.768541
-1.035828
-1.313289
-1.058949
1.299161
3.601471
4.600947
5.850447
6.278970
5.667015
4.310849
1.846380
0.385086
1.114192
2.240376
3.050254
3.239544
2.097331
1.753896
4.331509
6.733088
6.502796
3.770731
0.640972
-0.848992
-0.803365
-0.807680
-1.205065
-2.005694
-1.956059
-1.590735
-2.444389
-4.332972
-6.034116
-5.101846
-3.801171
-3.181199
-3.178424
-3.820900
-4.084795
-2.892021
-0.831411
1.280684
3.534900
4.245509
4.718427
4.320117
1.590826
1.325698
3.452282
4.200502
3.121488
-0.196636
-3.266586
-2.786887
-0.379142
1.511601
1.932725
0.357673
-3.008236
-6.930300
-7.055773
-4.501591
-2.915747
-2.919754
-4.282087
-3.923545
-1.953880
-1.425471
-2.515892
-3.442919
-2.671885
0.675219
5.223729
7.130811
6.217348
3.868488
0.018564
-1.252515
-0.594315
-0.469766
-0.085636
-0.332576
-1.381994
-2.823865
-3.107183
-3.171307
-3.487612
-3.044291
-2.528213
-1.702304
0.139729
2.107853
2.512638
1.999027
0.988762
-0.573959
-2.519885
-3.116733
-3.025479
-4.011390
-4.795062
-5.639776
-5.739661
-5.027203
-2.031858
2.213603
3.636670
2.642127
1.268696
0.937285
1.386464
1.814679
1.184227
-0.043383
0.230996
1.709555
3.532474
4.336186
3.568545
4.207322
6.600577
8.205535
7.372844
6.143693
4.864599
2.901717
2.748189
2.308877
0.161946
-1.183430
-2.462833
-3.151860
-2.632700
-1.722936
-1.039765
-0.856640
0.041101
-0.768160
-4.183703
-6.855035
-6.580964
-5.570698
-5.296319
-3.620455
-1.870601
-2.103667
-1.527165
0.077485
1.945414
2.984352
0.828173
-2.513381
-5.571925
-7.562553
-6.497719
-2.061735
2.979731
6.895322
7.642309
4.596405
2.463039
3.627143
4.830707
4.173125
2.407857
0.432953
-0.682748
-0.927838
-0.472801
0.414766
0.505712
0.555347
1.967624
2.789525
1.609084
0.149023
-0.325435
-0.917967
-1.451000
-0.250210
2.378887
2.541048
-0.194100
-2.485002
-2.915374
-1.407836
0.600365
0.957982
-1.286984
-5.177911
-7.402839
-5.792023
-3.472449
-0.578531
2.903604
3.352166
1.838463
1.150052
1.799928
1.614338
0.814018
0.618871
-0.724040
-2.468652
-2.996443
-3.197448
-3.712600
-3.510978
-2.920294
-1.610369
-0.284106
-0.718177
-1.465471
-2.610151
-4.090559
-2.328373
1.023663
2.232160
2.453513
3.115720
2.884812
1.676932
1.165480
1.798091
3.706098
4.013772
2.755025
3.025087
3.609606
3.864562
2.860154
-0.234151
-1.786082
-1.397945
-0.087404
0.985446
0.804172
-0.120698
-0.780129
-0.934582
-0.499893
0.567099
1.977526
4.121683
3.445912
1.236091
-0.395996
-2.989946
-5.287631
-5.315993
-4.041522
-2.727590
-1.015347
0.795549
0.916707
0.586221
2.137228
4.366473
4.952532
2.600589
-0.652485
-3.422470
-4.510116
-4.173155
-2.907932
-2.959108
-4.977173
-4.057236
-0.823582
0.922573
1.467013
1.171980
-0.505425
-3.398417
-5.096169
-4.699399
-4.843062
-4.639590
-1.425975
3.967866
6.385167
5.065379
3.813722
2.129227
0.400337
1.564132
3.883706
4.198471
3.108358
2.493012
3.379963
4.580752
3.961398
1.257080
-3.525421
-8.772823
-9.982861
-8.976293
-7.422512
-4.392638
-2.747911
-2.214260
-2.607021
-2.633225
-1.473746
-1.305728
-1.767237
-1.765387
-1.946044
-1.391430
0.755501
2.506897
2.436607
0.501472
-0.922827
-1.303564
-1.802377
-2.022804
-0.546403
0.720978
1.069962
1.506810
1.626427
1.816950
1.562612
3.145373
5.385408
5.584255
4.220381
1.479068
-1.268720
-1.776781
-0.435719
0.510115
1.943355
2.954547
2.437853
3.245265
3.791555
3.261914
2.614814
1.629828
2.083631
3.060603
3.593020
3.715411
5.935408
8.548782
6.618271
3.081569
0.178404
-2.852702
-3.807475
-2.170455
-0.864231
0.747510
2.863304
3.991954
5.099023
5.468664
4.959986
6.109291
6.890807
4.427571
1.286714
-0.737209
-1.938923
-1.983316
-2.368986
-4.302888
-4.535030
-3.089150
-2.035723
-2.288212
-3.773244
-5.496584
-7.439426
-7.337998
-6.165571
-5.986146
-3.789271
1.094658
4.397368
4.913138
3.283518
0.471298
-1.378749
-1.190075
0.754310
1.336053
-1.015273
-3.469261
-5.338114
-5.476535
-3.786181
-3.578085
-1.863684
0.603561
0.618667
0.356930
0.380669
-0.896268
-3.171138
-3.556809
-2.883195
-3.245126
-4.265874
-4.772085
-5.038756
-5.075133
-4.217470
-2.279559
-0.386350
0.669851
2.494928
4.664365
4.793231
3.312206
2.288993
1.264546
0.053892
-1.042078
-0.146187
1.314491
1.169595
0.408120
-0.809317
-1.834688
-2.680327
-1.896037
0.714254
2.410774
3.280769
3.271829
2.136089
2.356826
3.035064
3.113987
2.993754
3.269982
3.202467
1.532770
0.274948
1.577165
3.633767
3.868993
2.602847
1.340400
0.870875
1.979486
4.746697
6.079127
4.823462
3.368334
0.636886
-2.875769
-3.115001
-2.150361
-1.376553
0.155340
2.073520
2.963554
2.469057
1.813325
2.406784
3.602949
3.560406
3.244409
3.911241
4.980699
4.158182
1.519221
-0.186855
-0.136295
0.125444
1.293247
3.068689
4.045968
3.948241
2.506986
0.211460
-2.629739
-3.960010
-2.435824
-1.343860
-1.534691
-1.084588
-0.753175
-0.085111
1.284314
1.405472
-0.553401
-2.933707
-3.686551
-3.214250
-2.876056
-2.733933
-2.031957
-2.026407
-2.838442
-1.763126
0.385655
1.470836
0.416793
-1.167816
-1.089202
-0.310153
0.488010
0.277141
-1.440959
-2.902560
-2.835969
-2.448448
-2.518121
-1.718108
-1.258756
-1.227310
0.012016
0.242926
-0.666221
-1.788087
-2.413299
-1.767739
-0.987765
0.798159
2.905938
3.386562
2.515644
-0.039462
-2.897618
-2.860622
-1.711934
-0.311064
1.781917
2.288746
2.666094
2.925366
1.950554
0.778436
-0.744207
-2.952179
-4.551895
-3.730610
-1.027215
1.460068
2.986104
3.976640
3.726926
2.657468
2.530762
4.103041
6.363731
7.409451
6.504004
5.342368
4.243007
2.958980
3.073973
2.772466
2.149104
2.285369
1.030013
-0.495097
-0.412475
0.527502
1.199574
1.104313
1.529137
1.794884
0.116862
-1.590755
-2.160782
-1.949603
-1.666284
-1.402696
-0.332005
-0.249074
-1.427974
-1.881468
-2.928728
-4.250058
-4.425783
-4.643435
-5.949659
-5.195890
-2.006322
-1.420570
-0.773778
0.931374
0.448593
-0.590344
-0.281745
0.497304
1.047294
1.061476
1.306875
0.131366
-3.356933
-3.788539
-2.397534
-1.937257
-1.879606
-2.389517
-2.739426
-2.660503
-0.475343
2.852955
3.443331
2.655959
2.118302
2.237302
2.036914
0.151105
-0.321194
0.740865
2.048323
2.749375
3.561719
5.008833
3.188690
0.766456
1.457951
1.951524
1.709517
2.621439
3.927664
2.724409
2.579205
3.348080
2.940830
3.361646
2.168565
0.811781
0.707580
1.427437
2.771274
3.687820
3.602116
2.901065
2.249958
0.610472
-1.470176
-1.785864
-2.071340
-2.036503
-1.169591
-1.298764
-2.551345
-3.332860
-2.089834
-1.495451
-1.322191
0.652098
3.538309
4.954901
5.529862
6.730344
5.324542
4.432660
5.228974
2.897378
1.534428
1.696898
0.499808
-0.244711
-0.486102
-0.601093
0.286166
2.061300
2.822776
1.108993
-0.119850
-1.096820
-0.738279
1.185143
1.325415
-0.007938
-1.298747
-1.829314
-1.958795
-0.320234
1.584690
2.803361
3.838599
5.495349
6.021601
6.414363
5.658436
2.079499
-1.046868
-2.073781
-2.224226
-1.605180
-1.383827
-3.168517
-4.451619
-6.710767
-7.278945
-5.558070
-4.299013
-2.688198
-0.076365
1.476492
1.701236
-0.498412
-2.957024
-0.846162
1.065544
0.361102
-0.033817
-1.098958
-1.943055
-0.230196
0.779146
0.081794
-0.694787
-2.018275
-4.034799
-4.750031
-5.651470
-6.510366
-6.904360
-7.282631
-8.096516
-8.651745
-6.679306
-3.310005
-0.252385
1.999057
4.956174
6.070643
5.152248
3.943135
3.009634
1.378781
-1.908206
-2.581510
-2.452645
-3.539983
-3.137047
-3.841797
-6.040212
-5.731922
-3.472465
-1.529004
-0.972849
-1.450698
-1.147648
-0.768451
0.811227
2.193908
2.453797
0.824177
-2.150512
-2.188431
-1.510501
-2.913220
-5.486823
-4.786080
-0.734225
3.020438
4.831334
5.274655
4.331289
3.433857
1.451862
-1.240433
-2.367232
-2.565771
-1.741403
-0.635566
2.303362
3.452051
2.702907
2.499436
1.735186
1.028278
0.881224
2.161244
1.355066
-2.447997
-3.813105
-2.418092
0.143489
2.721410
3.715337
3.781004
3.174906
1.690799
-0.235088
-1.088434
-1.749407
-2.327141
-0.868005
0.431130
0.550130
1.534500
4.113962
5.926091
6.652731
7.109309
6.349991
3.724595
-0.212575
-3.313354
-5.580210
-4.318687
-0.637705
1.416740
2.179141
1.651658
-0.937052
-2.736540
-1.809203
-1.923886
-3.399670
-3.821718
-3.692544
-2.029936
1.951320
4.882541
5.277153
2.965596
-0.036531
-1.006410
0.364247
3.105870
5.705988
5.587296
4.385275
3.500483
1.686506
0.320782
-0.115756
-0.399690
-3.458234
-6.269221
-6.021664
-4.466649
-3.614227
-2.524113
-0.273596
0.168184
-0.835299
-0.629361
0.767193
0.894209
1.441116
1.077026
-0.066729
0.381216
-0.896336
-2.676402
-4.215385
-4.638666
-2.278706
0.157093
0.115166
0.191931
0.368890
-1.351984
-2.513620
-4.084048
-5.179402
-5.099554
-6.032131
-8.619299
-9.129210
-8.471011
-8.825235
-8.204955
-6.299415
-3.316401
-0.780099
0.340227
3.077225
6.321977
6.436045
7.027037
8.682246
9.005026
8.355460
8.653577
7.934337
6.136699
3.963256
3.301974
4.319023
6.324450
8.130104
6.511891
3.622290
1.553049
0.212913
-0.320736
-0.187555
-1.944190
-3.373730
-3.984143
-4.374438
-4.073238
-2.377951
-0.282504
0.735161
2.671223
3.235702
1.512978
-0.228551
-0.738153
-0.496145
0.531694
1.042531
0.654394
0.867731
0.293388
-0.260300
-0.833411
-1.060312
0.667037
2.825067
4.225321
5.264258
4.475961
1.998236
0.631587
-0.081179
2.464372
5.387269
4.596198
2.668153
-1.111173
-5.522801
-7.545182
-7.287451
-6.859544
-5.430928
-3.938496
-2.899250
-1.691678
-1.450903
-0.906463
-1.601656
-3.148346
-5.203714
-7.429259
-8.203991
-8.471894
-7.946259
-5.320553
-1.490667
0.645166
-0.005634
-0.834933
0.786672
1.147064
1.144598
3.791268
4.971402
3.273958
1.388149
-0.358621
-1.197477
0.730568
2.760966
3.669497
2.520810
-0.593226
-3.338239
-5.017186
-4.613325
-2.625780
0.448796
1.946778
2.468713
3.024868
2.449600
0.888420
-2.644582
-6.055192
-8.371066
-8.839666
-8.543399
-7.849746
-6.002164
-4.240286
-4.393506
-5.637764
-5.176561
-5.030123
-4.690387
-3.302465
-1.493111
-0.606777
-1.350064
-1.766255
-1.172796
0.094276
1.578384
2.864570
2.006600
-0.009307
0.323955
0.580144
-1.700584
-3.238025
-4.071332
-3.912563
-2.817825
-1.816498
-0.833670
-0.099322
-0.186260
-2.252726
-4.959203
-6.132862
-5.147567
-4.021692
-2.249024
-1.098178
-0.935708
-0.130454
1.819788
2.018636
1.224173
1.962836
2.281609
1.493620
0.313487
1.322829
2.754527
4.639104
7.002764
8.489338
8.478857
7.218568
6.844921
7.140880
6.968547
7.533951
9.126269
9.620766
10.381935
10.404132
8.147759
8.540829
10.423248
11.408234
12.116993
11.637603
10.079815
7.858586
7.102044
7.540124
8.348461
8.048187
6.367082
5.549498
4.271637
2.741903
2.650958
2.370106
1.618496
0.667422
-0.319722
-1.773000
-2.557289
-2.725306
-3.972647
-4.467451
-4.938518
-6.887834
-8.136408
-8.679306
-10.227846
-11.928681
-12.055387
-10.247266
-9.069290
-8.168158
-6.513874
-4.860823
-4.509988
-5.260982
-3.252473
-0.457824
1.942522
3.191405
1.907686
2.307847
2.353782
1.735662
2.786314
4.377707
4.810855
4.326532
4.493934
4.076819
2.924431
2.011585
1.994938
1.669693
1.413505
0.043465
-2.631258
-3.112190
-2.300154
-2.892686
-4.146809
-5.201160
-4.535562
-3.541634
-5.720627
-6.844035
-7.048739
-7.481269
-6.192617
-5.444088
-7.390630
-8.805680
-8.100929
-8.963832
-8.486291
-6.568418
-5.594222
-6.073612
-7.438411
-7.455983
-5.543044
-3.606366
-2.028229
-0.470440
-2.001715
-3.648908
-4.482523
-5.907438
-6.915238
-6.912154
-5.892022
-4.039508
-3.131902
-1.529410
0.388770
-1.645634
-3.137757
-2.398169
-1.419965
-1.078995
-0.958145
-0.981266
-0.508966
2.900105
5.350702
4.003167
2.028262
0.566660
-0.536092
-0.910047
-0.368381
0.914722
3.065353
4.022902
3.459348
3.809875
5.395410
6.670189
6.283903
6.137774
7.120603
6.710269
4.894442
5.055987
6.069953
6.468572
7.066347
7.576567
6.549037
6.160593
6.153811
4.524499
5.318654
7.591060
8.182977
7.007468
5.675965
4.968748
3.905457
2.778658
0.404209
-2.066117
-2.457953
-2.062417
0.271030
3.460598
4.915727
5.074497
5.000200
4.584009
2.895814
0.691233
-1.461247
-2.205150
-0.549941
1.830983
2.565638
1.885243
1.493715
1.619806
2.603252
5.538481
9.662784
12.555160
13.417448
12.360939
9.738625
7.426760
3.463385
-2.041439
-5.597255
-8.406700
-9.678087
-9.159851
-9.495887
-8.948363
-7.766071
-8.996147
-9.465981
-7.705953
-5.680488
-4.467983
-4.552454
-6.043035
-6.945707
-7.923294
-9.851030
-9.189440
-7.390259
-7.772230
-7.393958
-4.725400
-2.433880
0.940662
3.096225
3.316962
2.364963
0.199227
-1.403572
-1.160947
1.318012
3.555273
4.773327
4.777952
4.224880
1.956792
-0.005165
-2.021997
-5.233452
-6.740065
-6.859064
-6.788773
-6.398169
-5.815809
-6.056583
-6.895748
-9.045453
-10.894267
-11.306142
-9.773015
-8.065397
-6.580981
-3.195649
0.654276
1.144458
-0.050473
-2.166575
-5.437530
-6.619513
-7.849589
-5.821349
-3.379693
-2.110154
1.270553
3.203840
2.527452
1.007892
1.712027
2.985881
4.061813
6.346242
7.950275
7.243367
6.064467
6.747946
8.715761
12.909429
17.213774
18.801159
18.574258
17.839912
16.239271
13.457572
12.355744
12.565382
12.526846
11.068636
10.018909
9.562332
9.017584
7.967550
7.701804
7.307502
4.493124
2.848398
1.870811
0.789947
0.495839
-0.967613
-2.467443
-0.313729
0.635496
-0.983950
-3.463217
-6.173701
-6.786581
-4.766665
-3.600404
-3.958328
-3.186369
-3.865223
-4.877030
-4.024300
-2.623122
-1.609464
-0.978702
-0.936466
-0.285357
0.123128
-0.174680
-0.162656
-0.534145
-2.103340
-2.779111
-2.337948
-0.582236
2.333262
1.912447
-0.548939
-2.464652
-4.419826
-6.634889
-7.858491
-7.562840
-6.688530
-5.331437
-4.205253
-4.164558
-4.595547
-3.548902
-1.057303
1.173175
3.469011
5.220406
5.535787
3.836802
2.233079
1.376958
0.246459
-1.014754
-2.560211
-3.800769
-3.251704
-1.324275
-0.677174
-0.496515
0.203920
1.160852
2.433782
4.573623
6.266443
6.720863
6.195846
6.547297
7.610898
7.698761
7.502997
6.956708
5.741430
4.423182
3.776082
3.336770
2.203497
2.358259
3.962908
4.923232
7.545546
9.497022
8.791347
7.324504
5.514226
3.237814
0.871073
-0.274224
-0.863057
-1.533587
-3.461323
-5.861051
-7.826091
-10.254490
-11.981838
-13.670341
-13.833118
-12.783390
-13.021389
-12.833948
-11.299589
-11.223132
-12.690284
-12.888514
-12.169889
-11.441708
-10.348511
-9.637286
-10.810020
-10.523927
-7.576983
-4.968233
-4.039972
-3.729831
-3.711950
-2.201637
-0.121605
1.338149
3.338951
4.305748
3.703042
1.641816
-0.071350
0.186381
2.184408
3.476452
4.123245
4.184286
3.132094
3.049164
3.932107
4.382519
4.982760
4.748460
3.936117
4.418899
5.048736
5.016058
5.490517
6.411379
6.423711
6.357121
6.247371
5.526589
4.160866
2.969634
2.747049
4.132196
6.401519
8.089715
8.582363
8.106055
8.173880
8.691807
8.010487
7.294330
7.373869
6.215316
5.678584
7.072363
7.606014
7.357533
8.100512
7.313757
4.401342
3.051033
4.416141
5.730073
5.472344
5.070642
3.937369
2.931728
4.340922
6.710747
7.556078
6.627201
4.471022
1.842543
0.661793
0.934014
0.698789
0.344873
-0.502308
-2.418021
-4.953396
-8.200613
-10.154246
-10.982312
-11.068633
-9.702600
-7.944114
-6.963751
-7.837444
-10.435094
-12.111266
-12.725687
-13.776956
-14.393535
-14.132721
-13.838612
-13.425503
-11.735149
-9.903906
-7.337700
-4.984523
-4.394455
-5.410270
-8.196594
-10.883648
-11.559111
-10.888580
-9.677617
-7.396271
-6.092204
-5.914012
-4.909911
-3.443992
-1.699070
0.978736
3.339313
4.311660
3.933080
3.300162
3.315885
3.432727
3.767222
4.124223
5.186590
7.043729
7.700079
7.945787
7.745090
5.681090
3.730848
2.343544
-0.404551
-3.110720
-3.558048
-1.824225
0.240701
1.693672
2.373452
1.558951
1.207193
0.908768
-0.659194
-1.744682
-2.077634
-3.529988
-4.267417
-3.407596
-3.872188
-4.313967
-3.829951
-3.797272
-2.725039
-0.197678
1.986249
3.065264
3.116440
3.560687
4.484016
5.682647
7.068103
6.858466
5.687890
5.159173
5.994023
7.062864
6.560352
5.502919
4.700132
3.943281
3.465740
3.385586
3.454335
2.475206
1.374304
0.585699
-1.149048
-2.047713
-1.117602
0.140222
0.479958
0.462078
0.257374
-0.573159
-1.324769
-0.976709
0.307627
2.242763
3.570260
3.100119
2.420957
2.277911
1.999217
1.610464
0.766367
-0.126132
-0.468025
-0.666255
-0.693076
-0.914119
-0.926142
0.208982
2.298572
3.660905
3.390536
2.369480
1.334243
1.497637
2.432373
1.645309
1.504421
2.360235
1.465886
0.479051
0.095230
-0.676727
-0.324043
1.163148
2.091718
2.630609
2.086478
-0.285196
-2.623266
-3.901127
-4.659828
-4.458206
-4.439092
-4.712852
-4.272306
-4.099971
-4.837708
-4.303441
-3.350825
-3.631985
-3.840080
-4.379279
-4.630843
-3.417721
-1.731375
-1.245509
-1.015833
-0.410351
-0.857679
-1.097528
-0.580217
0.098330
0.799073
0.357602
-0.549078
0.276832
1.375577
1.314228
1.574425
1.639167
1.649957
1.560554
2.002951
3.137150
4.086375
4.689082
4.184720
3.166131
3.399815
4.159750
4.018863
3.680052
3.350183
3.669263
3.529300
2.787247
2.472484
2.845207
3.311033
2.687055
1.824460
0.587293
-1.274777
-2.162035
-1.738136
-2.016829
-1.780062
-0.536420
1.019211
2.315263
1.241798
-0.221962
-0.093713
1.183841
2.279195
3.056703
3.361294
3.304569
2.941404
3.120521
3.697640
2.385559
0.180054
-1.567950
-2.266226
-2.292738
-0.720459
0.520717
-0.416484
-1.638853
-2.704611
-3.232403
-3.590019
-4.558048
-6.129402
-7.027141
-6.437074
-5.275437
-4.409758
-3.695142
-2.825147
-2.146600
-2.479245
-3.363728
-3.465463
-2.760403
-2.977747
-3.778376
-3.597409
-3.243800
-3.411509
-2.947224
-1.852178
-1.815182
-1.977959
-1.279065
-0.444524
0.970219
2.619263
3.566021
4.556557
5.715111
5.698773
5.071711
5.602587
5.615536
4.562110
3.623984
3.402632
3.035768
2.458033
2.657497
3.474466
4.847898
5.817779
6.019401
6.042523
5.300162
3.407570
1.571705
-0.146086
-1.700484
-3.242549
-2.911137
-1.861101
-1.965302
-3.144511
-5.633335
-7.389354
-8.191215
-8.895041
-8.985677
-7.780571
-6.757357
-6.058155
-5.714719
-6.080042
-5.620998
-4.310765
-3.938967
-3.786363
-2.289923
-0.468854
0.649314
1.453643
1.780122
2.237933
2.507071
2.442331
3.256217
4.597895
4.941947
4.009370
3.529055
2.852668
1.518698
1.168481
2.525265
3.343776
3.031170
3.486515
2.949783
0.988443
-0.009799
-0.478399
-0.962414
-1.959423
-3.191041
-3.738871
-3.400677
-4.127316
-6.046728
-7.432183
-9.038064
-10.272456
-9.220262
-6.283800
-4.867208
-4.478145
-3.885612
-3.530153
-1.986853
0.571646
2.666476
4.798301
5.959013
5.907530
5.879476
5.856663
5.544366
5.024589
4.549515
3.734397
2.816002
1.112084
-0.877002
-2.541150
-3.446905
-3.203664
-2.251356
-0.576416
1.910251
3.589198
3.157284
2.704407
2.677278
2.428797
3.041369
4.490949
5.132501
5.315626
5.649196
5.305453
4.664519
4.529180
4.255419
3.592288
3.264885
2.833280
2.154117
1.674419
