EVENT_NAME: 202010301151
EVENT_ID: 10614
EVENT_DATE_YYYYMMDD: 2020/10/30
EVENT_TIME_HHMMSS: 11:51:24.00000
EVENT_LATITUDE_DEGREE: 37.879
EVENT_LONGITUDE_DEGREE: 26.703
EVENT_DEPTH_KM: 16.54
HYPOCENTER_REFERENCE: AFAD
MAGNITUDE_W: 6.6
MAGNITUDE_W_REFERENCE: AFAD
MAGNITUDE_L: 
MAGNITUDE_L_REFERENCE: 
FOCAL_MECHANISM: 
NETWORK: TK
STATION_CODE: 3527
STATION_NAME: 
STATION_LATITUDE_DEGREE: 38.63903
STATION_LONGITUDE_DEGREE: 26.51277
STATION_ELEVATION_M: 60.0
LOCATION: -_-_-
SENSOR_DEPTH_M: 
VS30_M/S: 207
SITE_CLASSIFICATION_EC8: C
MORPHOLOGIC_CLASSIFICATION: 
EPICENTRAL_DISTANCE_KM: 86.13
EARTHQUAKE_BACKAZIMUTH_DEGREE: 
DATE_TIME_FIRST_SAMPLE_YYYYMMDD_HHMMSS: 2020/10/30 11:51:16.6866690
DATE_TIME_FIRST_SAMPLE_PRECISION: millisecond
SAMPLING_INTERVAL_S: 0.01
NDATA: 11251
DURATION_S: 
STREAM: HNZ
UNITS: cm/s^2
INSTRUMENT: sensor = CMG-5T/GURALP | digitizer = 
INSTRUMENT_ANALOG/DIGITAL: 
INSTRUMENTAL_FREQUENCY_HZ: 
INSTRUMENTAL_DAMPING: 
FULL_SCALE_G: 
N_BIT_DIGITAL_CONVERTER: 
PGA_CM/S^2: 47.142
TIME_PGA_S: 
BASELINE_CORRECTION: BASELINE REMOVED
FILTER_TYPE: BUTTERWORTH
FILTER_ORDER: 
LOW_CUT_FREQUENCY_HZ: 
HIGH_CUT_FREQUENCY_HZ: 
LATE/NORMAL_TRIGGERED: 
DATABASE_VERSION: 
HEADER_FORMAT: DYNA 1.2
DATA_TYPE: Acceleration
PROCESSING: Manual Paolucci et al., 2011
DATA_TIMESTAMP_YYYYMMDD_HHMMSS: 
DATA_LICENSE: U (unknown license)
DATA_CITATION: Turkish Accelerometric Archive v 1.0 - Disaster And Emergency Management Presidency, Earthquake Department
DATA_CREATOR: AFAD
ORIGINAL_DATA_MEDIATOR_CITATION: : AFAD - Disaster And Emergency Management Presidency
ORIGINAL_DATA_MEDIATOR: AFAD PROCESS SERVICE
ORIGINAL_DATA_CREATOR_CITATION: AFAD PROCESS SERVICE
ORIGINAL_DATA_CREATOR: network: TK
USER1: GuestUser
USER2: 
USER3: 
USER4: 
USER5: 
[...]
-4.833001
-3.355241
-1.065953
1.059837
1.906199
1.823979
0.824788
-0.390622
-0.414158
0.982323
3.192530
3.431343
2.033293
2.109236
2.408930
0.603860
-1.784908
-1.524441
1.216742
2.429641
0.815371
-0.912814
-2.623426
-4.123153
-3.787997
-1.111147
2.378802
5.060987
5.240176
3.495986
2.065299
1.154918
-0.119803
-1.613881
-1.406763
-1.271822
-2.997811
-4.935939
-5.608447
-6.018918
-4.321488
0.018588
1.385257
-0.610613
-1.728112
-2.012116
-1.486160
-0.104742
0.331462
1.241842
3.281333
5.399905
6.925678
7.603521
7.237297
5.548967
1.975857
-0.833739
0.516298
4.282718
6.542194
7.536677
7.855513
6.271370
5.717484
6.190719
5.390488
4.172567
1.896459
-2.444872
-5.516504
-6.286923
-5.484182
-2.878567
-1.925508
-4.364173
-7.567921
-10.187971
-10.332641
-7.589261
-6.348119
-5.275809
-3.138094
-2.066099
-0.209563
1.886728
2.456932
2.296571
1.903360
1.352612
1.920619
1.731074
-2.313387
-7.186010
-7.722949
-4.629664
-4.062913
-6.121232
-7.322834
-5.783567
-2.033779
0.024541
-0.523696
-0.170026
2.948051
5.755135
6.393751
6.157761
6.807988
5.821663
1.963922
-0.128289
1.441418
2.675657
1.125719
0.267432
0.601646
-1.069739
-3.764164
-4.163024
-2.094976
0.534488
1.428864
0.338667
-1.219744
-2.533378
-2.737359
-2.394672
-1.847377
-0.390643
2.207754
4.897785
6.095935
5.573745
4.165966
2.354619
-0.059568
-2.391222
-2.960170
0.046187
4.242850
6.517074
5.389533
1.350406
-1.412117
-1.319855
-0.979678
-0.374327
1.575098
1.522063
-1.742252
-6.812265
-9.621233
-6.343424
-0.608122
3.387698
3.216354
0.990143
0.948092
1.317767
1.188474
0.461362
0.832920
2.153458
1.141401
-0.289286
-0.206439
0.703313
2.962161
4.781667
3.999637
1.201339
-1.984208
-0.444627
2.603155
1.408457
-1.699892
-3.494920
-2.867601
0.005384
3.168023
3.851514
1.978659
0.657494
0.963778
-1.085127
-3.665009
-3.462912
-0.734595
2.921048
3.208503
-1.134711
-5.557949
-5.577720
-2.461526
-0.381554
-0.503942
-1.234506
-1.912035
-2.754317
-3.694197
-2.417907
0.571819
-0.034474
-2.179093
-0.791713
1.349140
2.372180
4.577052
6.674285
5.339625
1.612431
-1.417463
-2.884240
-3.957805
-3.055897
-0.116696
0.774227
0.155382
0.360304
0.593783
1.042226
1.767768
1.167124
-0.504888
-2.261317
-1.825113
0.169188
1.718184
4.051406
5.916729
5.563058
4.375892
4.597759
5.208759
4.892432
3.924310
1.219215
-2.522728
-3.910423
-3.055274
-3.486771
-5.329186
-5.290586
-2.420739
0.121485
1.239925
2.330436
1.585436
-1.533582
-3.627676
-2.984981
-1.057837
-0.233756
-0.582092
-0.692869
1.381141
3.413100
0.054326
-5.083784
-5.234103
-1.892903
0.102026
0.978200
3.251169
5.444430
3.776811
0.219078
-1.449482
-2.909982
-3.360622
-0.933255
1.156760
1.388983
2.821553
5.405201
7.346467
7.135896
3.698355
0.776727
0.161961
-0.361484
-1.431911
-2.983731
-4.596119
-4.084912
-2.762805
-3.072228
-2.322836
-0.652393
-1.569677
-4.458355
-6.051913
-5.845736
-4.695600
-2.394701
-1.064748
-0.350189
1.517957
3.487153
3.722515
1.907403
1.308955
2.736191
5.259272
6.374887
3.658809
0.931120
0.456630
-0.153743
0.524728
2.472897
1.759280
1.074533
3.832034
7.229721
7.319158
4.768775
2.165043
0.513115
0.266455
0.186746
1.624023
4.883944
7.074380
8.014259
8.028695
5.000055
-0.696020
-5.184531
-7.351118
-8.234510
-9.452117
-11.266288
-11.414095
-9.256924
-5.954951
-2.616890
-2.573897
-5.644274
-7.549765
-7.687844
-7.838162
-7.482923
-4.381479
0.319486
2.592455
2.423936
2.873007
3.580662
4.328485
5.374120
5.360312
4.471899
4.483823
3.698655
1.028081
-0.041405
1.296393
1.720044
1.007054
0.218748
-0.823435
0.370007
2.207086
2.552597
2.101957
2.297465
3.581914
4.629431
4.466247
1.831133
-1.629630
-2.221174
-0.944570
-1.856834
-2.645768
-1.784970
-1.135999
0.459442
1.973604
0.702963
-0.967480
-1.125644
-1.036520
0.227845
2.541924
2.427695
0.397932
0.692919
3.120600
4.791357
4.012151
2.650503
1.867532
0.243847
-2.287079
-5.565202
-7.052377
-4.877004
-2.536878
-1.590722
-2.341370
-4.146754
-3.236374
-1.391450
-1.965733
-1.901715
-0.662769
-0.417993
0.174805
0.772625
0.382237
-0.417680
-0.316317
0.150641
0.511529
0.531299
-0.478875
-1.380155
-1.906111
0.432446
3.569352
2.143999
0.264241
2.073704
3.626466
1.159243
-1.583195
-0.608797
0.444998
1.661662
4.957986
5.244814
2.452164
0.563305
-0.094767
1.197841
4.684337
6.265343
4.251899
3.307626
4.739568
4.591447
2.975608
2.548818
1.202233
-0.663718
0.416437
2.918493
2.812109
-0.476370
-3.074453
-2.696933
-1.688642
-2.897148
-5.949637
-7.030733
-4.752115
-1.281937
0.705774
-0.106383
-1.661028
-1.325245
-1.145742
-3.254900
-1.581319
4.636005
7.074983
3.671334
-0.612256
-1.687390
-0.529722
-1.769924
-3.850524
-3.258981
-2.446198
-2.782923
-3.768305
-3.160757
-1.307046
-1.026495
-0.944589
0.518421
1.917727
2.287088
1.018016
-0.108584
0.527521
0.381910
0.239124
1.390515
2.927586
4.061717
2.809904
0.969059
0.893429
0.397914
-0.330140
-0.430561
-0.229091
0.764136
2.346397
3.723108
3.729070
3.274036
2.963672
1.429739
-2.271722
-6.515456
-7.829091
-7.189534
-7.979095
-8.565931
-5.929563
-2.111049
-0.536948
-0.549187
-0.424602
0.066834
0.863299
0.547914
-1.132258
-2.215237
-2.893080
-2.953961
-1.316782
-0.046141
-0.438412
-1.816692
-3.294766
-3.371023
-2.024439
-0.725868
-0.321359
-0.646473
-0.938636
-1.352873
-2.417024
-2.386584
-0.134326
2.697236
5.286846
8.349377
10.140011
8.429400
5.098556
1.430046
-3.029908
-5.630816
-6.713481
-9.206436
-8.896386
-5.503093
-4.700038
-4.864164
-2.830009
-0.883408
0.202710
2.712924
3.889420
2.009348
0.982228
3.113980
5.881524
5.940835
4.186917
3.259590
3.612006
3.708661
4.407215
5.700137
6.352247
7.498303
8.575947
8.018296
5.736225
1.014548
-3.014850
-2.910977
-0.967201
1.811013
3.921426
3.069729
0.487022
-2.064302
-4.334448
-6.488795
-8.156414
-7.348652
-7.170718
-8.867208
-6.285443
-0.778913
0.978143
-0.933625
-1.987106
-2.176337
-2.704176
-3.458903
-5.617958
-7.098856
-5.315754
-3.578154
-3.068831
-1.706556
-0.099504
1.209109
2.671492
3.195251
2.283301
1.412775
1.199694
2.206729
5.166329
8.164527
9.011517
8.035548
5.723665
4.365469
4.645707
4.612756
4.975213
5.303151
5.394157
4.524259
0.509296
-2.807740
-3.033374
-2.643928
-2.251658
-2.713282
-3.822936
-1.271925
2.106932
0.819345
-3.321145
-5.061882
-2.193918
0.405107
0.530006
-0.193341
-0.201186
0.498937
0.569232
-0.306629
0.642351
2.735817
2.340409
1.492792
0.848841
-1.101526
-2.286810
-2.824377
-3.963843
-4.579864
-6.762455
-9.784504
-9.067748
-6.283572
-5.698619
-4.507687
-1.073285
0.645486
0.203319
-0.017294
1.068509
1.080748
-1.058850
-1.872889
-0.439377
1.175206
0.729901
0.768186
4.139826
4.515150
1.215060
-0.662816
-1.974253
-1.647885
0.589938
2.105355
2.282033
1.989243
1.761726
1.516949
1.785576
3.457274
5.574904
5.033885
3.866176
5.061187
8.210959
10.000338
7.570460
3.486143
2.920647
4.775299
3.554241
1.224157
0.672782
1.016096
-0.324212
-2.717688
-3.479633
-3.927763
-4.600585
-3.538317
-2.292468
-2.541010
-0.577463
1.325517
-0.489909
-1.516715
-1.962648
-2.793006
-1.948527
-1.854068
-3.821068
-7.246998
-9.874894
-9.036691
-5.011373
-1.030302
-0.848289
-1.835241
-1.506676
-1.773106
-1.696221
-2.837884
-7.082874
-10.507549
-8.848717
-4.039800
-1.481258
-1.310542
-0.550793
0.143367
0.296196
2.346042
3.114264
1.378861
1.512546
2.674293
3.659048
5.022892
4.975506
4.446412
6.507555
8.805944
7.955816
6.395209
5.825632
4.146089
-0.528829
-5.951885
-6.242793
-2.282748
0.994119
1.734725
0.669005
-0.315750
-1.097466
-1.028112
-1.151442
-2.957454
-3.488117
-0.778629
3.120535
5.638595
5.733681
5.118288
4.288872
1.365675
-1.680852
-2.356184
-1.248100
1.339314
4.518898
5.976259
4.665136
3.426817
4.207278
5.257620
5.635454
5.236280
5.704180
7.811454
7.920976
5.516517
3.942729
2.605873
0.720152
0.308739
0.737725
-0.578106
-3.161440
-4.937953
-5.204696
-4.349234
-2.761011
-2.330769
-1.864439
0.182583
-0.864935
-4.614096
-7.092301
-7.439696
-6.193219
-4.475076
-2.415501
-1.400306
-0.544216
1.403326
1.237317
0.649226
1.372258
2.510782
3.937076
4.749232
5.239412
4.008625
3.167912
4.622449
3.893141
1.726241
1.283446
0.004331
-1.342567
-0.612317
0.702572
1.327379
1.792141
2.255647
2.830872
3.376598
3.890942
5.130201
5.793608
6.074474
6.553671
7.679329
9.046939
9.065140
7.003682
3.682880
1.013874
0.268561
-0.988900
-4.007497
-5.717481
-6.255048
-7.090113
-7.528828
-5.261507
-2.511223
-1.390272
-0.729062
-0.829797
-1.162128
-0.041178
0.502352
-2.095418
-4.721745
-5.330862
-5.858387
-7.395458
-9.448443
-12.290361
-14.074406
-13.528680
-11.460946
-9.249484
-8.811084
-8.837130
-8.103429
-9.494889
-11.711686
-11.189810
-10.087688
-11.147132
-12.169544
-10.622118
-7.862106
-5.754517
-5.949083
-4.645805
0.294915
4.057569
5.047031
6.716846
11.523253
16.768061
19.240304
17.975311
17.241295
18.753888
18.300110
16.364178
13.690152
10.213069
6.618620
3.043313
1.472978
1.131546
-0.910770
-2.895343
-3.410001
-1.877324
2.515787
5.927282
6.187749
5.168474
6.027075
9.624348
12.912199
14.726369
15.138723
13.611380
12.271072
12.869205
12.009349
6.569347
-0.535763
-3.697773
-3.371091
-3.640345
-5.168630
-8.651047
-14.209043
-18.959591
-20.633172
-20.623444
-20.167156
-19.054992
-15.962649
-11.837537
-9.079407
-8.302085
-10.135713
-13.257241
-16.589968
-19.199035
-19.593816
-20.112868
-21.138105
-18.415123
-12.470505
-6.322849
-2.611033
-1.809547
-0.705542
3.250737
8.066558
10.834416
10.672800
9.533334
11.285683
13.830417
13.810647
12.365837
12.014363
12.615321
13.612942
15.872417
17.779477
17.843496
16.907068
16.377660
17.096299
17.792343
17.092219
15.360896
13.012924
10.964018
12.657684
17.613467
20.524111
19.240917
16.341256
13.725285
11.893227
11.334006
10.117341
8.232248
7.132950
6.334288
5.345140
5.194194
5.651424
6.223196
6.854594
6.415879
5.048269
3.572705
2.839631
2.294846
0.744908
-2.092303
-6.397860
-9.610081
-10.933757
-10.601426
-9.225343
-8.987471
-9.003789
-9.331727
-10.041893
-11.335757
-12.514764
-12.286934
-12.244569
-15.250299
-18.938266
-19.044022
-16.787999
-15.159293
-13.438012
-10.310836
-8.648866
-7.591306
-6.880513
-8.480033
-10.694633
-12.146347
-13.221167
-13.636032
-13.126395
-12.854003
-14.956884
-17.550260
-16.143423
-10.048802
-3.113467
1.642416
5.404129
7.852521
8.430884
5.943578
2.859080
1.579651
-0.275002
-2.702369
-3.875414
-3.703443
-4.000627
-4.290279
-5.039358
-5.310495
-4.186093
-5.490940
-8.047286
-8.687785
-7.036485
-4.705773
-2.381024
-0.190588
0.036615
2.117843
7.865698
13.976952
17.751845
19.699073
18.878130
15.479502
13.963143
12.617186
11.508473
13.540118
15.162861
15.027606
17.238754
19.132634
16.787800
12.025327
7.179693
3.319128
0.324695
-1.301500
-2.126209
-2.375066
-3.134501
-6.044517
-7.987980
-8.185057
-8.248134
-6.846318
-4.807141
-2.865248
0.915608
5.702558
8.107017
7.889228
7.447375
7.189104
5.376189
2.609900
0.266949
-1.017500
-1.303073
-1.336652
-0.482131
0.111609
-2.084162
-6.306244
-9.572127
-13.548805
-19.294150
-23.928585
-26.558364
-28.383832
-29.728848
-29.987119
-29.686170
-29.380827
-28.121483
-24.860934
-20.682160
-17.174638
-14.170477
-11.362765
-7.568415
-2.540140
1.682569
3.680636
3.786078
5.426708
7.845288
9.743247
11.321428
14.815456
19.290159
21.140105
21.621185
21.261551
21.070751
19.994989
18.484592
15.525934
11.675411
9.211013
7.332824
7.403432
8.685685
6.871200
1.978494
-2.056867
-2.710860
-0.248346
2.986156
7.097774
9.902034
10.681867
11.062526
12.251889
13.584665
11.964433
8.191422
4.084825
0.212962
-5.549956
-13.966190
-20.509255
-22.951372
-24.249315
-25.101326
-23.662793
-19.669170
-14.669139
-10.028427
-7.302935
-6.254475
-3.681498
-0.046880
2.109664
3.853226
6.242307
8.000932
10.071177
11.887230
11.828546
11.244221
11.104258
12.817694
17.534349
21.001389
22.064911
23.568718
24.215179
23.269965
22.266695
21.058189
20.244150
20.011612
18.791181
19.464944
20.476059
18.418367
14.967645
10.803306
5.326902
0.597693
-1.977168
-4.891892
-7.852432
-9.647461
-10.680857
-10.146115
-9.014180
-8.084657
-6.198309
-3.910590
-1.303406
0.882009
1.584643
0.785980
-1.001830
-4.110178
-8.667415
-13.178521
-16.158519
-18.129912
-19.761128
-19.551499
-18.105748
-16.375680
-15.595220
-16.189902
-15.303999
-13.996014
-15.883932
-19.431309
-20.969007
-20.138336
-17.492553
-14.523540
-13.719543
-14.267466
-14.447283
-14.444145
-14.034615
-12.010502
-11.631726
-13.776659
-13.594960
-10.881078
-7.937484
-5.936279
-7.216335
-10.354496
-11.366239
-11.888743
-13.471945
-13.028209
-10.891750
-9.408655
-6.822183
-3.870430
-1.118890
2.233293
5.403776
8.605327
11.036460
12.116929
13.289346
14.518563
14.200039
12.320281
9.183689
5.057635
1.289960
-0.046583
-0.107464
-1.149333
-2.433783
-2.686405
-1.399445
0.483765
1.852003
2.492501
3.112602
4.200602
6.495538
10.068020
12.415364
14.683313
18.865853
22.627252
23.837955
24.730447
27.574562
30.408007
32.994793
36.359215
38.442953
37.503702
35.435026
34.553517
33.962915
30.944945
24.657326
17.122602
9.322704
1.842584
-2.735993
-6.548544
-11.452234
-14.493112
-14.698662
-13.511182
-12.809489
-14.504096
-19.959161
-26.594488
-31.876640
-37.267373
-43.488149
-47.141596
-46.006837
-43.266909
-41.755257
-41.225222
-41.160890
-41.153986
-41.378051
-41.814569
-42.622332
-43.813892
-43.898936
-41.518328
-36.385239
-30.527548
-24.835552
-18.136835
-8.694737
2.343743
11.143773
17.800753
23.085729
26.802566
30.860208
35.272462
38.710630
41.205154
41.640417
41.972434
44.315698
45.347839
45.087058
46.020660
46.577370
45.604226
44.406076
43.789428
42.434683
38.700900
34.764077
32.568933
28.952517
23.428412
17.619049
10.518333
3.783840
0.434795
-0.853734
-3.041974
-6.956202
-10.734233
-12.960445
-14.067902
-14.544589
-14.984873
-15.615016
-17.710052
-20.288992
-21.582542
-21.943745
-22.151491
-22.583302
-21.621143
-19.000151
-16.970389
-15.191052
-12.775296
-10.361109
-8.166280
-7.277867
-6.721471
-3.716368
-0.107798
0.721618
1.000600
1.696330
1.605951
1.176337
0.734484
-0.453624
-3.766581
-7.245546
-9.131580
-9.950327
-9.080742
-7.285401
-6.637685
-6.429311
-5.680232
-5.588912
-4.626752
-2.579416
-1.867368
-1.572381
-0.203201
1.546323
2.873137
3.685607
2.358165
1.253218
3.250343
5.827401
5.813279
5.279791
6.644577
8.389080
9.759515
9.671019
7.112476
3.234337
1.421108
1.398827
1.688165
2.551786
3.379005
4.490542
5.795389
5.564106
3.459655
1.347046
0.119083
-0.961072
-0.423505
2.117150
3.794182
5.013671
5.870075
5.661701
5.853129
6.164748
5.412845
4.151618
4.185196
4.742533
3.838115
3.895543
5.279158
3.568860
-0.491606
-1.907858
-1.595297
-2.816670
-4.001012
-4.991415
-6.419593
-7.021492
-7.732599
-7.619626
-6.312582
-5.643212
-6.375973
-7.053188
-6.126804
-5.562562
-6.479533
-7.461150
-5.606497
-2.057865
0.391469
1.920067
2.217564
3.086207
6.751892
10.315901
12.603306
15.908103
20.489504
25.027284
26.906100
27.155898
27.828092
26.119049
21.732214
18.252622
15.997539
13.702288
11.691041
9.521944
6.848545
5.618386
5.002678
1.556036
-4.383560
-10.569817
-15.746213
-19.118167
-21.528902
-23.016390
-22.930719
-22.506753
-22.140216
-21.023659
-18.620142
-16.158883
-14.999960
-15.456563
-15.590248
-13.202108
-10.413853
-9.552742
-9.679837
-9.965410
-10.245648
-9.259324
-5.581400
-0.407829
2.379799
2.994879
4.264578
5.387412
5.910543
7.269053
8.720766
9.631146
11.344268
13.152162
13.097558
11.575550
9.553632
8.620343
9.565871
10.150824
9.194312
6.423630
2.477079
0.320849
0.048456
-1.149066
-3.778217
-6.634885
-9.454523
-12.456487
-13.970336
-12.811727
-10.388440
-8.139948
-6.473271
-5.559753
-5.199492
-6.064997
-8.201771
-9.304520
-9.119683
-9.733507
-11.891621
-12.046332
-8.047688
-2.511973
2.417764
6.455949
10.357938
14.041510
17.368902
19.481825
20.427353
21.972897
23.497415
24.265323
25.000908
25.014402
23.042695
19.951607
16.944307
14.297582
12.654441
12.764904
13.763153
13.520259
12.115304
10.946653
8.357357
3.726373
0.312681
-2.018031
-5.640096
-8.934223
-10.682807
-11.497159
-11.943720
-12.424800
-11.736602
-10.871411
-10.429558
-9.840525
-10.672138
-11.914536
-12.407228
-12.335364
-10.404140
-7.499772
-5.977137
-5.951404
-6.493679
-5.511121
-2.595456
-1.176380
-2.040002
-4.066940
-5.556311
-5.076173
-3.476339
-2.228606
-3.093797
-4.678255
-4.774596
-3.545693
-2.186242
-0.788819
-0.379917
-0.336610
2.226325
6.831576
12.041864
16.166662
18.055521
18.602188
18.099455
15.301157
11.978158
9.956555
8.219583
5.444821
3.439850
3.867895
4.830369
5.946612
6.797995
7.352822
7.853986
6.598721
3.406584
-0.822715
-5.375559
-7.999689
-8.005965
-8.232855
-11.046530
-14.560328
-16.624924
-16.825767
-15.721135
-14.190654
-13.536034
-14.011779
-13.179225
-11.672594
-11.519138
-12.112251
-12.725448
-12.563205
-10.969333
-8.661844
-6.071293
-4.226054
-4.078247
-4.236411
-3.478545
-2.487200
-1.736552
-0.866340
1.804234
4.711426
5.478078
5.633417
5.867838
6.210838
7.641526
9.645241
10.486582
10.870065
11.067141
10.045984
8.062980
7.413380
8.613099
9.268660
8.689042
8.223653
7.847387
6.962739
6.735222
7.010439
5.446380
3.080206
2.811893
3.165564
2.386986
1.382774
1.547214
3.587646
5.645965
6.127987
6.145874
5.917102
5.355371
4.898768
4.267998
2.925806
1.145214
-0.893649
-2.195045
-2.701230
-4.307341
-6.440349
-7.651679
-8.300651
-7.978362
-7.523015
-7.114741
-3.850426
-0.294890
0.039324
-1.624215
-3.374682
-5.104122
-7.453036
-9.710942
-11.288496
-13.172961
-14.878866
-15.461309
-15.506184
-15.071863
-14.440465
-13.457594
-12.261013
-11.882551
-11.734744
-10.953028
-10.826247
-10.692875
-9.702158
-9.448909
-9.832078
-9.924968
-10.125810
-11.213811
-11.980150
-11.448232
-10.517140
-9.518891
-9.144822
-9.345979
-8.990111
-8.770754
-10.732732
-13.155079
-13.309476
-12.510501
-10.931692
-7.861630
-5.113229
-3.160666
-1.804353
-1.688555
-0.988118
1.201377
4.614126
8.985584
12.945629
16.526270
19.356577
19.528548
18.493896
18.460945
17.907374
17.353802
18.101939
18.849449
19.215044
19.240150
19.036169
19.068806
18.876436
17.409032
14.977585
12.703046
10.662928
8.150516
4.979091
2.231945
0.095799
-1.224740
-1.810007
-2.341297
-2.883258
-3.460994
-2.853132
-0.939796
1.496672
4.599685
7.025797
7.327374
6.384984
6.153702
6.529339
6.828406
7.060943
6.134244
4.197371
3.183745
5.138506
8.188170
9.454418
9.021979
7.354360
5.907354
5.168317
4.106363
2.324829
0.133452
-2.383667
-4.061328
-4.101497
-4.618980
-7.693436
-11.543018
-13.541085
-14.298009
-13.928020
-13.058122
-12.756545
-12.589909
-12.900901
-13.910447
-15.112991
-15.276175
-15.102949
-16.509787
-17.282716
-15.952136
-15.362789
-16.078604
-15.854540
-14.995939
-14.458058
-13.648413
-12.396287
-10.649273
-8.310402
-5.175694
-2.116929
-0.544397
0.697059
2.817828
5.082325
7.648085
9.875551
10.438223
9.256078
6.878293
5.798766
