EVENT_NAME: 202010301151
EVENT_ID: 10614
EVENT_DATE_YYYYMMDD: 2020/10/30
EVENT_TIME_HHMMSS: 11:51:24.00000
EVENT_LATITUDE_DEGREE: 37.879
EVENT_LONGITUDE_DEGREE: 26.703
EVENT_DEPTH_KM: 16.54
HYPOCENTER_REFERENCE: AFAD
MAGNITUDE_W: 6.6
MAGNITUDE_W_REFERENCE: AFAD
MAGNITUDE_L: 
MAGNITUDE_L_REFERENCE: 
FOCAL_MECHANISM: 
NETWORK: TK
STATION_CODE: 3527
STATION_NAME: 
STATION_LATITUDE_DEGREE: 38.63903
STATION_LONGITUDE_DEGREE: 26.51277
STATION_ELEVATION_M: 60.0
LOCATION: -_-_-
SENSOR_DEPTH_M: 
VS30_M/S: 207
SITE_CLASSIFICATION_EC8: C
MORPHOLOGIC_CLASSIFICATION: 
EPICENTRAL_DISTANCE_KM: 86.13
EARTHQUAKE_BACKAZIMUTH_DEGREE: 
DATE_TIME_FIRST_SAMPLE_YYYYMMDD_HHMMSS: 2020/10/30 11:51:16.6866690
DATE_TIME_FIRST_SAMPLE_PRECISION: millisecond
SAMPLING_INTERVAL_S: 0.01
NDATA: 11251
DURATION_S: 
STREAM: HNE
UNITS: cm/s^2
INSTRUMENT: sensor = CMG-5T/GURALP | digitizer = 
INSTRUMENT_ANALOG/DIGITAL: 
INSTRUMENTAL_FREQUENCY_HZ: 
INSTRUMENTAL_DAMPING: 
FULL_SCALE_G: 
N_BIT_DIGITAL_CONVERTER: 
PGA_CM/S^2: 56.972
TIME_PGA_S: 
BASELINE_CORRECTION: BASELINE REMOVED
FILTER_TYPE: BUTTERWORTH
FILTER_ORDER: 
LOW_CUT_FREQUENCY_HZ: 
HIGH_CUT_FREQUENCY_HZ: 
LATE/NORMAL_TRIGGERED: 
DATABASE_VERSION: 
HEADER_FORMAT: DYNA 1.2
DATA_TYPE: Acceleration
PROCESSING: Manual Paolucci et al., 2011
DATA_TIMESTAMP_YYYYMMDD_HHMMSS: 
DATA_LICENSE: U (unknown license)
DATA_CITATION: Turkish Accelerometric Archive v 1.0 - Disaster And Emergency Management Presidency, Earthquake Department
DATA_CREATOR: AFAD
ORIGINAL_DATA_MEDIATOR_CITATION: : AFAD - Disaster And Emergency Management Presidency
ORIGINAL_DATA_MEDIATOR: AFAD PROCESS SERVICE
ORIGINAL_DATA_CREATOR_CITATION: AFAD PROCESS SERVICE
ORIGINAL_DATA_CREATOR: network: TK
USER1: GuestUser
USER2: 
USER3: 
USER4: 
USER5: 
[...]
2.436783
4.528994
3.022676
-0.765399
-3.772072
-4.397194
-3.082620
-1.707479
-1.765850
-2.295886
-1.879139
-0.390711
-0.133697
-1.443880
-1.708428
0.643623
3.905740
5.231611
4.730132
3.732510
2.324730
1.075427
-0.053684
-1.715969
-3.541124
-3.557444
-0.368132
3.406447
3.945895
1.656292
-0.411443
-1.637209
-2.592467
-2.861408
-0.864911
2.207975
3.459786
1.645614
-0.704242
-0.933328
-0.814707
-1.396209
-1.371105
0.164082
0.695372
-0.572133
-0.965031
0.435529
2.045404
2.457757
2.314029
1.668822
-0.168886
-2.234425
-2.691028
-0.887528
1.122463
1.235435
0.595563
1.250183
2.330650
0.726735
-2.833509
-4.074339
-2.259855
-0.214403
0.539068
-0.164195
-2.054938
-3.387088
-2.703598
-1.606812
-1.247807
-1.015584
-0.755118
-0.487748
-0.499360
-0.688906
-0.040249
2.414419
5.474125
6.650620
4.954757
1.844525
-0.426877
-0.549894
0.795435
1.980717
1.368774
-0.895723
-1.754639
-1.105668
-1.181299
-2.291268
-3.407826
-2.665339
0.673663
3.132725
1.043964
-2.527264
-3.026232
-0.800650
0.734537
0.623132
0.461201
-0.580983
-2.422143
-2.499342
-0.420940
1.459131
2.324007
2.931868
2.200989
-0.823571
-4.241971
-4.950568
-2.062206
2.490322
3.819019
0.231158
-3.059204
-2.962236
-1.597137
-1.084990
-0.479326
0.429484
-0.811974
-2.476141
-0.401190
3.525589
4.630848
2.693033
0.101852
-1.657401
-1.268271
0.459600
1.751893
2.016125
0.854063
-0.983017
-2.197172
-1.770384
-0.023685
1.768518
2.493746
1.183249
-1.542872
-3.197625
-3.078690
-3.430165
-4.177990
-3.451507
-1.880859
-0.081752
2.458902
4.566803
4.237295
1.610654
0.052870
2.168617
3.732675
0.342833
-4.259281
-4.061264
0.888242
4.742530
4.118662
2.475206
2.430957
2.671339
2.869356
3.341962
3.520522
2.432521
0.139466
-0.976465
0.652239
2.138157
2.001960
2.058446
2.976357
2.906061
0.162680
-1.419268
1.355493
4.024183
1.802051
-2.150464
-2.005795
0.606722
-0.010869
-4.423124
-5.805171
-0.184412
6.193271
6.378735
1.858527
-1.135279
-2.004865
-2.204766
-1.263319
0.880671
2.751014
2.116163
-0.428887
-1.538855
-0.012455
0.819784
-0.241856
-0.636638
-0.036309
-1.406745
-4.093325
-5.263860
-3.809324
-1.705502
-0.387162
1.818023
3.694328
3.071716
2.209348
3.653215
5.591342
6.015620
3.638462
-0.689690
-2.601772
0.797482
5.541125
5.580037
1.441744
-1.570578
-1.873098
-1.300698
-0.523377
0.778959
1.157734
-0.614073
-1.435644
-0.186030
1.303340
1.702513
0.216593
-0.994738
0.101107
0.317639
-2.193832
-4.793800
-4.197864
0.227569
3.618978
0.983236
-4.301741
-6.706515
-7.163118
-5.713289
-1.995511
1.138883
2.243200
0.098580
-3.739078
-4.955430
-2.785079
-0.038248
1.246828
1.158958
0.589381
0.107986
-1.703675
-3.649963
-2.632887
0.753502
1.512622
-1.421560
-3.599758
-2.768774
-0.083137
1.715028
1.395876
-0.121740
0.123663
2.552912
5.373804
6.206985
3.185562
-1.499085
-3.863062
-1.757358
2.428320
4.315923
3.510669
3.568097
4.621890
3.558366
0.441230
-1.776823
-0.866443
2.455299
4.560376
3.320487
1.522006
1.014565
0.192680
-2.149645
-3.167037
-0.385687
2.136138
1.860293
0.749697
0.499270
0.571447
0.162544
-0.435277
-1.983019
-3.857129
-2.340771
3.179566
7.838792
7.287730
2.195122
-2.859515
-3.211931
1.152936
4.678344
4.279483
2.046681
-0.060909
-2.208354
-2.861406
-0.091666
2.921594
2.926928
0.988485
-1.442649
-4.314381
-6.454607
-4.848811
-0.884688
1.755132
1.551778
-0.462922
-1.994346
-3.878185
-6.715083
-6.526481
-0.206226
4.740769
1.796546
-4.768487
-6.749609
-3.646283
-2.581506
-5.109923
-7.008512
-4.835023
-0.373501
2.197593
1.382612
-0.256137
-0.266807
0.234042
-0.298819
-0.285326
0.905291
1.488361
2.372066
3.709235
1.772989
-3.142941
-4.707315
-0.467661
5.223078
7.190704
4.249305
0.787599
0.785401
2.490990
2.145791
0.358922
-0.457629
0.126068
1.250470
0.802340
-0.281896
1.004435
3.916333
3.862670
0.993448
-1.705371
-3.571322
-4.947093
-4.535367
-1.216136
1.399520
1.021684
-0.634952
-1.282983
-0.840817
0.735166
1.086639
-1.427029
-3.502923
-2.771733
-0.682660
0.401259
1.659661
3.543184
2.929986
-1.214898
-2.944025
0.724484
4.490589
4.223845
0.457737
-2.307298
-1.764397
-0.379214
-1.271394
-2.479901
-0.672635
1.045193
-0.032766
-0.807579
1.759121
4.065669
2.983943
1.455658
1.731188
1.222805
-0.892631
-0.489692
3.328507
6.205258
5.499171
2.503482
-0.237703
-0.926844
0.097451
2.001372
4.434700
5.831808
3.592730
-1.495799
-5.935670
-8.026627
-8.263559
-6.537258
-3.240621
-0.283848
0.754255
0.539604
-0.411574
-2.397717
-2.630883
-1.187016
-0.781253
-1.091305
-1.256373
-0.986492
0.220129
1.186996
1.564829
2.133149
1.768180
0.596076
-0.368282
-1.768217
-3.611259
-3.942650
-2.398990
-0.610867
1.172862
1.629464
1.615341
3.389656
4.248256
2.454796
0.277853
0.438839
2.030199
2.646847
1.792639
0.328686
-0.654501
-1.229413
-1.559863
-0.634106
2.090444
4.040809
3.779400
4.185477
7.008251
9.499636
7.912353
3.038788
-0.848452
-1.101075
-0.850023
-2.785014
-2.940354
0.617691
4.005334
3.355734
-0.128253
-3.146537
-3.565482
-2.405933
-2.250595
-2.443593
-2.654479
-3.979097
-4.977033
-2.516716
2.789598
5.059743
1.987482
-1.929257
-2.079576
0.237955
0.939646
1.058582
2.289995
2.345539
-0.969929
-4.989914
-5.055502
-1.446305
-0.234976
-3.437783
-6.203759
-5.456564
-3.042378
-2.355436
-3.643652
-4.833958
-6.184937
-8.081328
-8.553623
-7.058290
-3.532254
0.522249
3.479023
4.412311
3.220750
1.495388
1.261280
2.455349
1.318079
-2.129819
-4.174332
-3.114262
-0.621622
2.011293
3.959776
3.180256
1.007079
0.384153
0.861466
0.608215
0.047425
-0.039189
0.421492
2.421440
3.511323
2.096011
1.453942
2.223418
2.981911
2.512127
2.008137
2.566101
2.417979
0.383508
-2.445858
-3.704890
-2.157777
0.269275
0.935192
0.644597
0.992304
3.148847
5.581548
5.651842
4.122615
3.535150
3.826998
5.031423
7.914764
8.357871
3.494349
-2.332275
-2.843796
1.240833
3.349048
0.195823
-2.694110
-1.368238
1.398049
3.305736
2.966814
0.882446
-1.384876
-3.394555
-5.377246
-6.030298
-4.238723
-3.125305
-2.861387
0.101036
2.559784
0.965911
-2.102270
-3.532017
-3.845520
-2.085327
0.844459
0.103538
-2.248201
-2.113575
-0.879023
-1.523916
-2.603131
-2.057720
-1.316487
-1.462413
-1.998098
-2.631380
-3.523874
-4.472855
-4.372748
-2.672494
-1.894859
-4.015315
-6.351677
-5.194010
-0.592840
2.677436
1.820403
-1.134490
-2.239751
-0.413343
0.949246
2.442382
4.575074
3.454750
-0.990769
-3.908005
-4.484800
-4.803952
-3.028068
-0.306028
-0.518796
-2.169156
-1.739857
-0.383859
-0.976658
-1.370498
0.865754
3.443124
3.755998
3.108280
2.539331
0.678400
-0.963173
0.575780
4.423478
5.419529
2.414425
-0.635868
0.327547
4.566887
6.745711
4.959155
1.395772
0.202642
1.922667
3.722715
3.356491
2.441716
3.706394
5.768478
7.105333
6.381986
4.125334
1.708321
0.218635
1.550470
3.811200
3.503031
2.225171
2.796002
3.505852
1.597850
-0.244252
1.208402
3.487961
2.951020
-0.655041
-3.990593
-4.837270
-4.040492
-3.624373
-3.800425
-3.878566
-4.350860
-6.036995
-8.185695
-8.178164
-5.291058
-1.386873
1.777647
2.026816
-1.448384
-5.260936
-6.307200
-5.148279
-4.047413
-1.932607
2.040617
4.797176
4.033033
1.420513
0.564735
1.317579
1.333583
0.907106
0.795700
-0.859995
-2.862456
-1.906573
-0.035917
-0.522019
-1.125488
1.028544
4.098292
5.498852
2.812271
-1.711074
-1.819028
1.687238
2.628685
0.013341
-2.132221
-3.522113
-5.257203
-4.844536
-0.562831
5.037529
7.320226
6.570519
6.499595
7.024609
6.138705
1.605317
-3.654242
-3.597442
0.700582
2.854301
1.294320
0.740433
2.310454
2.256163
-1.144349
-4.511283
-4.702398
-3.236564
-3.613772
-5.338506
-5.638515
-4.359402
-2.513537
0.390830
3.698450
3.444885
-0.320908
-0.543719
2.874992
2.379476
-0.561923
-0.775006
1.647026
3.596450
3.294244
0.838319
-0.954827
0.252108
1.930395
2.350908
2.949354
5.125667
7.460458
7.774587
5.551513
3.759936
3.721021
3.907741
4.603470
3.675201
0.383583
-0.189446
4.130859
8.454302
6.475063
0.709319
-1.547019
0.565589
3.391188
4.045807
2.936780
2.968161
3.746737
2.149726
-0.818661
-1.896620
-0.074605
1.961746
1.898982
-0.965846
-4.436339
-5.540972
-4.621806
-2.973331
-0.836873
2.152852
3.296710
1.914036
-0.163741
-3.053989
-5.100070
-4.007678
-0.909373
0.214402
-2.561616
-7.064250
-10.411414
-10.277101
-7.814588
-4.848399
-1.084177
0.779576
-0.925074
-4.479983
-7.733002
-8.396724
-6.516339
-4.143263
-3.354331
-3.673796
-4.002363
-3.995774
-1.340577
2.152195
2.083468
0.624850
2.093508
5.101748
6.111607
4.235299
1.222978
1.050378
3.518227
5.242645
5.811592
5.314193
3.440396
0.343972
-1.161405
0.772956
3.352837
3.232017
1.303930
0.643032
1.747350
3.533276
3.784014
2.947693
3.178347
4.751506
7.320089
9.013440
7.249792
2.366186
-1.416554
-1.415614
0.876811
2.903434
4.228992
3.652197
-0.525323
-3.528230
-1.941891
1.461757
3.852407
4.097496
1.428176
-2.459379
-3.833581
-3.416206
-3.617677
-3.221015
-2.088140
-3.414328
-6.502279
-7.783905
-5.906972
-5.467944
-9.481966
-12.099507
-8.703077
-3.821355
-4.019374
-7.095714
-8.635611
-8.289473
-7.097914
-5.391070
-3.944379
-4.661449
-5.000686
-3.735380
-4.936983
-8.248999
-10.687665
-11.984668
-13.007395
-12.491483
-10.179601
-8.186242
-7.866465
-9.362113
-9.364311
-6.352619
-1.131976
4.909610
7.988772
6.475236
3.768258
4.292016
7.336972
9.834947
10.790829
10.724299
10.925454
11.142614
10.308490
10.663101
13.088270
14.209848
11.796915
8.708023
8.735010
9.830227
8.583434
7.395326
10.597818
15.229742
14.365177
7.499508
0.624425
-1.822400
0.081835
2.246537
2.884210
4.629340
8.215943
10.723646
11.251170
11.509440
11.318011
11.620842
12.937927
12.473165
8.957168
6.214729
5.953005
6.043383
5.951748
6.273722
7.978683
11.572818
14.889539
15.780461
13.120555
7.302405
2.080818
1.015725
2.587315
0.595523
-6.086249
-11.434304
-12.975142
-11.721134
-9.171066
-6.997890
-5.041248
-4.375332
-6.081237
-9.611041
-11.413915
-9.133729
-6.478218
-6.324763
-5.691170
-3.250937
-1.429236
0.355435
3.760024
8.252300
13.026069
15.626976
13.948686
10.771925
9.281612
8.124257
3.502373
-3.058267
-6.754393
-7.030239
-8.032568
-12.714391
-18.036399
-19.050967
-16.396085
-14.236090
-13.174451
-11.975988
-11.142808
-11.495224
-12.375166
-12.321818
-9.880644
-6.443104
-5.053527
-5.501971
-5.411280
-4.688562
-3.775045
-2.629617
-0.834904
2.288192
4.903848
4.268370
0.448599
-3.072732
-5.530854
-8.788580
-11.690752
-13.054598
-13.738090
-13.897823
-13.107949
-11.976957
-11.876223
-12.714741
-13.361517
-14.173988
-14.428180
-11.692019
-6.943669
-4.365671
-5.033473
-4.419336
0.342822
6.193922
8.769723
7.740405
5.819536
4.199930
2.333351
1.736158
1.267630
-1.889361
-4.314533
-3.609075
-0.002702
4.384446
7.356910
7.715601
6.827187
9.264595
14.035540
16.930492
17.293262
17.163655
18.055205
19.918016
20.747745
17.872875
11.258259
5.568145
5.153593
8.282338
10.699976
11.433363
11.247583
9.267089
5.934361
2.153818
-2.224859
-6.674144
-9.561253
-10.385963
-10.884931
-11.787467
-13.254872
-14.435449
-14.036276
-10.535659
-3.883701
4.176036
10.797240
12.089847
7.199650
-0.294906
-6.439739
-10.245074
-11.873153
-11.543019
-9.497254
-6.714020
-4.233619
-3.709233
-3.282131
-1.296304
-0.522748
-3.284017
-9.034697
-15.275558
-19.975896
-22.223762
-22.457556
-19.633840
-15.487389
-13.503132
-13.566210
-13.286914
-10.929529
-8.354042
-7.309977
-5.607212
-0.700699
4.828112
5.423420
0.685424
-3.154431
-1.952516
2.751586
7.605378
9.861086
9.455007
8.393680
8.844319
9.676245
6.816124
-0.810549
-9.212034
-14.631011
-18.207574
-21.286424
-22.120862
-18.328396
-10.119910
0.025135
8.335924
12.080691
12.501203
12.004117
11.892398
11.708187
11.070198
10.218186
9.172863
8.387381
8.186537
8.467716
7.736523
6.260017
7.013489
12.048039
20.135705
27.904221
33.701030
37.366087
39.067911
38.238808
34.990496
32.376721
32.834892
33.646733
31.599396
27.245197
24.143438
24.207141
25.745467
27.427520
29.189910
32.017705
35.444576
37.053823
34.900103
29.723078
24.968450
23.148629
21.979663
18.653212
10.660943
1.680154
-3.280651
-5.751326
-8.468974
-11.934446
-12.617311
-11.345416
-11.795429
-15.065707
-17.518809
-17.006034
-15.472416
-16.578619
-20.571302
-24.677586
-28.793912
-33.160978
-38.291558
-41.852116
-41.639977
-38.607574
-33.368729
-27.606440
-22.232968
-17.021112
-12.821627
-9.956487
-11.661451
-16.594640
-19.436560
-19.122431
-17.921144
-17.719361
-18.576708
-20.239306
-21.216845
-20.500403
-19.845784
-21.234108
-24.385136
-28.619771
-32.422595
-34.992122
-36.720622
-37.613743
-37.165301
-35.591201
-34.134154
-33.167916
-32.178455
-30.585525
-27.919031
-25.337581
-22.637823
-17.600762
-10.404647
-4.302495
-2.735612
-5.692702
-9.438725
-10.979563
-10.526100
-9.521890
-8.903987
-8.586092
-9.523148
-11.541928
-13.746487
-14.567745
-11.201441
-3.653224
5.459994
12.370222
16.142918
18.825103
21.489086
22.181677
19.146761
15.320715
14.281982
17.013123
22.012525
26.123515
28.291355
29.974663
32.539167
36.286444
40.418459
43.430464
44.229439
41.955841
37.287512
32.293128
27.839449
25.764496
25.575892
26.263148
25.490532
21.481844
16.973562
13.358400
10.669309
6.521287
1.198338
-2.968199
-3.736108
-0.941891
3.019094
7.078618
12.094025
20.033571
30.528834
41.727673
51.419254
56.971914
56.011008
49.889711
42.624554
36.765293
32.230336
29.010896
24.632533
16.657211
7.354132
-0.666380
-5.414104
-7.842414
-10.739565
-15.528399
-21.016102
-24.682102
-26.954759
-30.595340
-35.720585
-39.684083
-39.983779
-36.987150
-32.745613
-28.215052
-23.521933
-17.163707
-9.327721
-3.006839
1.757202
6.269248
9.971021
12.636888
14.196239
14.782446
13.993198
12.125677
9.974153
8.270759
6.873962
5.418796
3.575753
-0.759617
-7.699660
-15.679062
-24.348232
-32.254201
-37.077242
-38.686491
-37.546399
-36.332245
-36.914375
-38.840893
-40.559037
-39.547295
-35.190588
-30.447573
-29.975595
-33.538663
-37.597875
-38.846237
-36.940746
-35.123125
-34.727718
-33.763048
-29.746831
-23.043093
-17.258837
-12.244998
-5.828089
1.267919
6.699447
8.972415
9.999220
11.689747
13.526197
13.548477
12.838938
14.213137
18.002465
22.468381
24.434437
23.424262
22.475281
24.547094
28.757249
31.945933
32.581410
31.836409
32.861645
35.181687
36.432242
36.073236
34.030920
31.154167
27.748634
22.788770
15.988375
8.135127
-0.472535
-9.259386
-16.413138
-21.848747
-26.522097
-29.406382
-28.813898
-24.928543
-19.475989
-14.238087
-9.654490
-5.096313
-2.820520
-3.598157
-5.306887
-6.347502
-5.919144
-5.842260
-8.035835
-12.143689
-15.949023
-17.074055
-15.224110
-12.708876
-12.339829
-13.839871
-13.203139
-8.756053
-2.900246
1.908043
4.393779
4.272645
1.411896
-4.721012
-12.480743
-17.113297
-15.981363
-11.158639
-7.104764
-4.842151
-1.638718
3.221978
6.993732
7.408282
6.499470
6.403755
6.377707
5.372867
2.257928
-2.511764
-6.012383
-6.213540
-3.983564
-0.943002
3.338390
9.671197
16.848483
21.156863
19.163502
12.532568
6.202583
1.679865
-1.972955
-5.485814
-8.573765
-8.983296
-5.986040
-1.785926
1.279742
1.759565
-0.636107
-4.727015
-9.121068
-11.630029
-10.498095
-4.676808
2.963670
6.937522
6.989614
6.880719
9.834669
15.166717
20.030865
23.740169
26.753116
29.241363
30.599558
30.405305
29.959685
30.171823
32.269683
35.670506
37.640015
34.630518
26.163759
18.148268
13.517911
10.957799
9.854734
10.801202
15.337412
21.807357
25.512896
25.111211
22.794619
19.944227
15.872776
10.237894
3.859581
-1.107814
-3.505370
-4.020029
-2.342056
3.091041
12.238778
19.454350
18.817302
10.537578
0.378409
-6.139552
-8.407501
-8.721005
-10.025539
-13.103134
-15.283529
-15.506654
-16.438061
-19.598190
-24.328968
-28.465379
-31.085744
-33.042388
-34.321503
-36.530142
-40.235369
-43.392046
-44.454942
-42.544117
-38.537001
-33.725574
-28.535371
-23.918510
-21.319800
-20.190064
-18.977479
-17.676085
-17.885715
-22.201629
-28.781725
-32.915311
-33.147223
-30.723622
-26.473612
-20.803585
-13.957374
-5.843975
2.275073
7.975227
9.670147
8.158494
5.140210
0.221770
-6.138342
-10.664512
-11.289635
-8.298969
-4.984130
-3.680540
-4.492383
-7.220701
-11.842899
-17.142625
-20.733624
-20.377130
-15.570096
-9.942120
-7.944368
-10.167128
-11.523756
-8.682780
-3.216419
2.089268
5.268224
5.507664
4.060343
2.992740
2.678923
3.477898
5.431402
8.251979
11.537946
15.316604
19.896749
24.364233
27.478857
29.048564
29.536547
29.564789
28.603569
25.958413
22.886466
20.623224
19.866612
20.832223
23.174545
26.126925
28.673228
30.649327
32.912881
36.289855
39.726767
40.796251
39.024445
36.807333
36.485357
37.733716
39.026323
39.726760
39.326643
38.124099
35.898514
31.614296
25.548231
19.289482
15.554756
14.979844
14.564037
10.350741
1.867350
-6.277433
-9.439445
-7.532072
-5.409735
-7.222024
-11.193367
-13.073126
-12.101553
-9.709648
-7.347555
-5.894588
-4.241406
-1.828162
-0.007402
1.052982
2.036166
1.215222
-1.650233
-4.321437
-4.944990
-5.236840
-8.454711
-14.359789
-21.006728
-26.389930
-29.087180
-29.703202
-30.596951
-32.529746
-35.250218
-37.347452
-37.552689
-36.857273
-36.357993
-36.578293
-37.015754
-37.274967
-36.747757
-34.371229
-30.076657
-25.174537
-22.413898
-22.481370
-22.572692
-20.578705
-17.110097
-14.564109
-13.899133
-12.865738
-10.016917
-6.859928
-6.148822
-8.799628
-10.874581
-8.196475
-2.189723
2.965960
5.283804
5.661324
6.078385
7.807824
9.448139
8.995302
6.496697
3.066373
0.162945
-1.364712
-1.129665
0.885661
4.496427
9.834751
15.927803
20.497591
22.225148
21.460691
19.429358
16.445594
12.907317
10.079519
7.901007
5.947501
5.229175
6.549398
8.200070
8.405304
8.044415
9.913502
13.842792
17.229808
19.607591
22.538946
26.085380
27.251520
24.513160
19.930189
17.409617
17.816008
18.398136
17.814123
17.355009
18.792285
21.518718
23.900267
25.653243
26.525650
25.691213
22.609538
18.124791
13.777496
11.740829
13.103417
15.080457
13.595479
9.191069
5.536994
3.434739
1.745152
0.347414
0.227536
0.633299
0.732777
0.558294
-0.496442
-2.703512
-6.007055
-9.988440
-14.851021
-20.187464
-23.612140
-25.483740
-27.925230
-30.700307
-32.709044
-33.203933
-32.061016
-29.904787
-28.216772
-27.603890
-27.437569
-26.547273
-25.542749
-25.128513
-24.498999
-22.088265
-16.685609
-9.927267
-4.114139
-0.938008
1.178994
4.168719
7.356461
9.059540
8.756079
8.411822
9.540617
12.085036
14.682491
15.934616
15.471109
14.848183
13.655994
9.906205
4.613382
1.180234
1.707757
4.651037
6.382987
5.925128
6.309866
7.957085
8.215982
5.989143
2.874203
1.009507
0.053308
-1.475918
-3.326807
-3.760501
-0.930195
3.591579
6.128467
4.384590
0.117946
-2.128037
-0.698292
3.665947
8.798094
11.610513
9.822074
5.556685
3.466355
3.996076
4.679566
3.732782
1.611698
0.410723
0.836570
1.347148
0.406640
-1.848130
-4.717978
-6.850987
-7.491801
-5.562461
-1.914664
0.272005
0.849112
1.439085
2.167765
0.944509
-2.970975
-7.239502
-8.982124
-7.716191
-5.481508
-4.774481
-5.760492
-6.845356
