EVENT_NAME: 202010301151
EVENT_ID: 10614
EVENT_DATE_YYYYMMDD: 2020/10/30
EVENT_TIME_HHMMSS: 11:51:24.00000
EVENT_LATITUDE_DEGREE: 37.879
EVENT_LONGITUDE_DEGREE: 26.703
EVENT_DEPTH_KM: 16.54
HYPOCENTER_REFERENCE: AFAD
MAGNITUDE_W: 6.6
MAGNITUDE_W_REFERENCE: AFAD
MAGNITUDE_L: 
MAGNITUDE_L_REFERENCE: 
FOCAL_MECHANISM: 
NETWORK: TK
STATION_CODE: 3527
STATION_NAME: 
STATION_LATITUDE_DEGREE: 38.63903
STATION_LONGITUDE_DEGREE: 26.51277
STATION_ELEVATION_M: 60.0
LOCATION: -_-_-
SENSOR_DEPTH_M: 
VS30_M/S: 207
SITE_CLASSIFICATION_EC8: C
MORPHOLOGIC_CLASSIFICATION: 
EPICENTRAL_DISTANCE_KM: 86.13
EARTHQUAKE_BACKAZIMUTH_DEGREE: 
DATE_TIME_FIRST_SAMPLE_YYYYMMDD_HHMMSS: 2020/10/30 11:51:16.6866690
DATE_TIME_FIRST_SAMPLE_PRECISION: millisecond
SAMPLING_INTERVAL_S: 0.01
NDATA: 11251
DURATION_S: 
STREAM: HNN
UNITS: cm/s^2
INSTRUMENT: sensor = CMG-5T/GURALP | digitizer = 
INSTRUMENT_ANALOG/DIGITAL: 
INSTRUMENTAL_FREQUENCY_HZ: 
INSTRUMENTAL_DAMPING: 
FULL_SCALE_G: 
N_BIT_DIGITAL_CONVERTER: 
PGA_CM/S^2: 80.922
TIME_PGA_S: 
BASELINE_CORRECTION: BASELINE REMOVED
FILTER_TYPE: BUTTERWORTH
FILTER_ORDER: 
LOW_CUT_FREQUENCY_HZ: 
HIGH_CUT_FREQUENCY_HZ: 
LATE/NORMAL_TRIGGERED: 
DATABASE_VERSION: 
HEADER_FORMAT: DYNA 1.2
DATA_TYPE: Acceleration
PROCESSING: Manual Paolucci et al., 2011
DATA_TIMESTAMP_YYYYMMDD_HHMMSS: 
DATA_LICENSE: U (unknown license)
DATA_CITATION: Turkish Accelerometric Archive v 1.0 - Disaster And Emergency Management Presidency, Earthquake Department
DATA_CREATOR: AFAD
ORIGINAL_DATA_MEDIATOR_CITATION: : AFAD - Disaster And Emergency Management Presidency
ORIGINAL_DATA_MEDIATOR: AFAD PROCESS SERVICE
ORIGINAL_DATA_CREATOR_CITATION: AFAD PROCESS SERVICE
ORIGINAL_DATA_CREATOR: network: TK
USER1: GuestUser
USER2: 
USER3: 
USER4: 
USER5: 
[...]
-1.848657
-2.563530
-2.141760
-2.492292
-3.274634
-3.394825
-2.324711
-0.661485
1.360433
4.072432
5.565884
3.950359
1.655109
1.486277
0.543889
-3.608839
-7.611562
-7.751209
-5.007514
-2.615607
-1.677296
-1.778344
-2.987477
-3.989490
-2.954838
-0.888986
0.260523
0.295358
0.524444
1.247477
1.598325
1.810465
1.959215
1.440164
-0.269505
-1.845802
-1.437527
-0.959584
-2.323428
-3.900666
-2.696553
1.198219
4.121730
4.911292
4.499880
2.413632
-1.026733
-3.831620
-4.198784
-3.669375
-4.103382
-3.970951
-2.426033
-0.388111
1.801385
3.776230
4.536293
4.013477
3.229879
2.592833
1.894279
2.002233
2.874329
3.095256
0.793416
-2.836180
-5.550688
-6.918297
-5.626002
-2.935342
-1.781753
-2.569117
-3.157207
-2.145150
-0.400959
0.765496
1.387794
2.244827
2.274013
0.967283
-0.509848
-1.504330
-1.382882
-0.885797
-0.063284
0.527946
-0.040374
-0.271342
-0.587981
-1.845127
-2.380183
-0.881396
1.921923
4.479211
6.169112
6.545378
5.073582
3.378976
2.283445
1.460934
0.650348
-0.246852
-1.216856
-1.940201
-0.810149
1.030070
0.351914
-2.266880
-3.154979
-1.951493
-1.307228
-1.214338
-0.809200
-0.965166
-0.647897
0.588225
0.366986
-1.799599
-2.463947
-1.046439
-1.236925
-3.635420
-5.498545
-5.035665
-3.236871
-0.268798
3.066440
3.218956
0.685833
-0.484072
0.490014
1.373721
0.706863
-0.865041
-2.537994
-2.759861
-1.470076
-0.749553
-0.969537
-0.525487
0.390543
0.405607
1.969040
5.744875
7.986778
7.032465
5.374889
3.822442
1.391310
-0.121283
0.668907
1.948963
2.486845
1.423637
-0.962933
-2.718106
-3.144581
-3.534340
-5.361376
-6.235039
-4.935212
-3.283597
-2.335872
-2.818206
-4.540114
-5.131970
-3.652640
-1.769115
0.137004
2.486232
3.926963
3.795161
3.122340
2.517617
1.727116
0.288897
-0.992413
-0.162368
2.310817
3.487314
2.528293
1.362467
1.893445
2.432896
-0.337785
-4.227848
-4.175440
-1.993162
-1.564175
-1.933536
-0.351588
2.211976
2.253401
0.248745
-0.067581
1.466353
1.403904
-1.242506
-3.257204
-2.886272
-3.266617
-4.892183
-4.076260
-0.104603
1.153172
-2.886267
-6.137087
-4.370302
-1.091550
-1.222411
-3.381151
-2.209361
0.077104
-2.302562
-5.527963
-5.381410
-5.210066
-6.636672
-6.733955
-4.835994
-2.755707
-1.131394
0.259754
1.953106
4.337795
4.688956
2.339416
0.940425
1.919218
2.778448
1.639924
0.347944
-0.565574
-2.079108
-1.691858
1.580931
3.495837
2.581378
0.582685
-0.324871
0.736770
2.395289
4.522963
5.280515
2.309933
-0.457923
1.019837
4.379867
5.787333
4.027453
-0.334589
-3.785310
-2.932043
-0.709283
-0.247031
-1.359508
-3.270019
-4.463147
-2.742807
0.223070
0.417950
-1.637230
-2.961847
-2.105128
-0.042100
1.554597
1.390158
0.146820
-1.014613
-0.972561
0.857302
2.925350
3.584993
2.247196
1.010761
1.600423
1.891959
0.353005
-1.138561
-0.534465
1.183993
0.850721
-0.296589
-0.075348
0.627601
-0.136854
-3.665715
-6.593932
-5.987639
-4.141144
-4.027855
-4.136121
-2.088784
1.463615
3.017319
2.341987
2.864806
3.528842
1.898568
-2.198614
-4.365199
-1.160822
2.508630
1.453267
-1.996198
-1.367623
1.850875
0.814028
-2.000902
-0.241648
2.054545
-1.098992
-6.536482
-8.822631
-7.114215
-5.294395
-5.179851
-5.536973
-4.945115
-2.207697
1.053481
2.070873
1.099927
0.885278
1.495337
0.098229
-3.293808
-5.472632
-5.519704
-4.469360
-3.505630
-2.484472
0.303157
4.500448
7.136817
6.587954
4.532460
2.721742
1.315219
-0.293715
0.102636
3.011711
5.565234
5.911374
3.556812
0.744708
0.281830
2.069013
2.888074
1.034050
-0.926045
0.463220
3.055028
4.187905
3.672933
1.926862
1.260631
1.020249
0.253597
1.075168
3.086730
2.331062
-2.080564
-3.506229
-0.086574
1.790046
2.245394
3.049392
2.697605
0.818789
-1.022996
-2.227108
-2.631930
-1.198103
1.998428
3.769293
2.657444
3.087686
4.260732
3.608937
1.746125
0.451321
-0.151832
-1.153219
-1.823843
-2.954835
-3.861762
-2.266948
1.065152
3.038742
3.327767
1.869465
-0.095337
-0.194502
0.877181
1.704087
-0.221173
-4.458631
-4.519824
-0.406636
0.919551
-0.562287
-1.046818
0.193384
-0.735197
-3.636112
-3.695422
-1.984810
-1.727794
-1.599128
0.342766
1.662050
0.346534
-1.250789
-2.103740
-3.877428
-4.227959
-2.138885
-0.637588
-0.261949
-0.205462
-0.202950
0.037434
0.679502
1.944182
3.254679
3.310539
1.795122
-0.428892
-1.210293
0.184934
0.571557
-0.265076
0.607333
2.413660
1.912810
0.056275
1.273568
3.589532
2.681663
1.084026
1.650779
1.526509
-0.584845
-0.098743
4.959345
8.169998
5.130377
0.565609
0.254618
3.585463
4.448144
0.933405
-2.113434
-3.200178
-4.596345
-6.431541
-6.253606
-4.093295
-4.970724
-8.610048
-8.179806
-3.640455
-1.317274
-1.023541
1.371504
3.366747
2.142238
1.199221
1.568270
0.566884
-1.326054
-1.830356
-0.828340
0.075765
-0.109699
-0.135431
0.780285
0.103384
-2.751400
-5.177824
-6.227225
-5.725118
-5.156169
-6.882784
-6.924834
-2.776499
0.632486
1.171309
2.143198
4.070971
5.831480
8.336047
9.938707
8.647668
6.954945
7.800053
9.946556
10.814258
7.885100
3.768148
2.705567
2.412464
1.465368
2.307337
4.099856
3.580491
1.779815
1.943000
3.061442
2.405881
0.318063
-2.291630
-4.034564
-4.595038
-3.633505
-1.549452
-0.458312
1.257321
4.682311
6.397316
3.867960
-1.200483
-4.416783
-2.683262
0.655114
0.521429
-0.979866
-0.668873
-0.145427
-0.566254
-1.809592
-2.804702
-3.593634
-3.614973
-0.722843
2.982698
4.824485
5.457453
4.477092
1.707666
-0.361008
-0.799094
-0.880686
-0.457347
1.222197
1.885605
0.478455
-1.754345
-3.692786
-4.179200
-1.953930
-0.009838
-1.629442
-4.280559
-4.966560
-2.206861
2.107169
5.438014
6.837321
6.207179
4.704315
2.458334
-0.555869
-3.052902
-4.797405
-4.515911
-2.179549
-0.628042
-0.207841
0.267277
0.400650
-0.810679
-1.826501
-1.605888
-2.232264
-4.375313
-5.280357
-3.485642
1.165113
5.199219
5.151834
4.022097
4.264991
3.899083
-0.194961
-5.783083
-7.664409
-4.733680
0.164676
3.238191
3.714251
3.454726
2.020588
0.529021
0.138321
-1.085875
-3.173379
-3.961684
-2.199919
0.402872
2.859739
4.120025
3.146255
2.346338
3.520639
5.153111
4.944110
1.979177
-1.063896
-0.396723
2.294879
3.137162
2.079289
1.273410
1.542351
-0.230081
-4.220251
-7.078801
-6.568849
-4.564819
-5.554594
-5.925210
-2.982556
-0.874338
0.190127
3.192720
7.549115
8.307923
5.997610
6.281615
7.979360
8.268386
5.941441
1.903570
-0.879036
-1.152055
-0.274938
-0.847024
-1.806987
-2.562969
-3.521048
-3.052520
-1.440760
-2.346118
-5.539510
-5.683550
-2.824371
-1.098696
-0.360600
0.438377
0.444027
-0.264569
-0.141866
1.498451
3.422772
5.278681
5.530677
2.486662
-1.024626
-1.388965
-0.264247
-3.209724
-8.507880
-8.540202
-4.522414
-3.784318
-4.121355
-0.908506
2.357065
1.503486
-1.184661
0.253873
3.981067
5.008815
3.352181
2.631660
4.197917
5.304120
4.156809
2.615973
3.264632
4.642285
5.027966
4.764048
3.196223
-0.907862
-5.008810
-5.865213
-3.942147
-2.278921
-1.792192
-2.098475
-2.910316
-3.424032
-2.887720
0.104203
2.031662
0.286532
-1.908296
-1.932459
-0.093810
0.402648
-0.210234
1.155180
3.684853
3.672301
1.432596
1.098069
0.665632
-2.422945
-5.225636
-5.664036
-4.151441
-2.914378
-2.829960
-1.240481
1.598300
2.600002
2.092248
1.059167
0.140000
-0.218377
-1.354076
-2.297093
-1.199677
0.510621
0.327668
-1.355327
-1.797179
-1.956911
-3.739699
-5.744041
-7.594928
-8.700187
-8.638364
-7.396279
-3.692621
-0.517743
0.779887
3.192506
6.567912
7.804035
6.205457
3.785308
1.622802
-0.422964
-2.429503
-3.349297
-2.612142
-0.715751
0.662217
1.767791
3.681757
3.182162
-0.932907
-2.801053
-0.031312
3.096494
3.119403
2.271159
3.969847
4.822800
3.521719
5.441019
8.501982
6.598688
2.357151
-0.427652
-0.933522
-1.512512
-4.180575
-6.488378
-6.219750
-3.230652
-0.262892
-0.504216
-2.445795
-4.247098
-5.178190
-4.765207
-4.427226
-2.826763
-1.303813
-1.382266
0.029907
3.505735
6.469101
4.525011
-0.422612
-1.336130
-0.653893
-2.612104
-3.241305
1.342608
7.695815
10.245257
9.778300
8.474395
6.213037
3.264109
0.193105
-1.477650
-0.432328
0.498765
-1.407353
-3.912860
-3.284285
-0.210142
0.184326
-2.219818
-3.456567
-2.789079
-0.204803
2.558035
3.568837
1.860737
-0.220176
1.363027
2.322049
0.317079
-0.820817
-0.719767
-0.997180
-1.387252
-0.966110
1.309685
4.470127
5.574447
3.770319
3.102520
5.748304
7.541450
5.192851
2.955030
4.728719
5.175280
2.238276
-0.390246
0.389274
3.583608
3.950147
1.296205
0.860315
3.318437
4.981977
3.504218
1.985663
3.203898
3.463739
0.679877
-2.864674
-3.561973
-3.879868
-7.259980
-10.778171
-12.292960
-12.179985
-10.879531
-8.982198
-8.930731
-12.162408
-14.135369
-10.382128
-3.435808
0.585746
-1.104781
-2.967278
-3.124813
-4.877475
-6.579612
-6.467579
-5.036577
-4.030482
-2.606384
-0.153596
0.494121
-1.792656
-5.474973
-8.561353
-8.354547
-5.295467
-3.789149
-5.891088
-8.886776
-6.918207
-1.966816
-0.913962
-3.388715
-3.978060
-0.926826
3.064601
5.009007
4.541735
3.423924
0.101240
-5.571298
-8.732367
-6.034803
-2.033333
-0.950040
0.233676
3.635129
7.133551
9.295431
8.615392
3.691933
-2.317644
-5.969834
-6.996326
-6.118895
-3.445809
-1.147106
-1.657370
-2.666287
-2.605406
-1.275767
0.471562
1.505901
3.067450
3.581168
4.274389
7.193820
9.691483
7.916541
3.895302
4.079200
6.827288
6.770802
4.487477
3.550109
4.194688
4.785919
6.151647
8.645858
9.581345
7.441120
4.759562
3.417058
0.833411
-2.997027
-4.777304
-4.019751
-3.946318
-5.590085
-6.508938
-6.529021
-8.200719
-11.628217
-12.928983
-10.089575
-5.441017
-0.692351
3.723356
6.396756
6.290687
5.631988
8.422127
12.800176
14.927536
13.953138
12.037292
9.855330
6.090165
3.457563
3.360595
3.554534
4.084257
8.070663
14.996584
17.405751
12.331346
7.438013
5.913182
4.156440
2.101574
0.263240
-1.192866
-2.831298
-5.634303
-7.254534
-5.285965
-0.710526
1.960677
1.489640
-0.820045
-3.548047
-4.582070
-3.494383
-2.999494
-3.871274
-2.639859
0.214613
2.258184
2.205777
2.421056
5.665915
9.417587
9.718224
9.469682
12.655858
15.629266
13.647204
8.153541
3.305711
-0.873376
-4.630695
-7.522509
-9.034160
-9.734283
-11.155869
-11.949823
-9.981881
-5.477679
-2.063987
-3.925229
-7.372497
-8.898584
-9.999136
-9.730509
-8.321160
-5.379761
-0.929221
3.489310
7.107297
7.303433
3.951878
0.744365
-0.962166
-3.763287
-9.165630
-14.005928
-16.222410
-17.389491
-17.704876
-15.114951
-10.220361
-7.886196
-9.713232
-12.118004
-11.185028
-8.182748
-6.962317
-7.734931
-9.541256
-11.796023
-14.517121
-17.195854
-16.692179
-13.098984
-10.963779
-11.072672
-11.893614
-10.960010
-8.033988
-4.361084
-0.994778
2.613794
8.369809
11.736428
8.718460
1.326210
-7.023807
-13.833301
-17.924207
-19.231877
-18.355074
-16.625005
-13.148864
-9.617177
-9.046972
-8.953141
-5.783597
-0.335436
2.679396
1.977704
0.063113
-2.796692
-7.708226
-11.790972
-10.061531
-2.812379
3.849937
5.523519
5.483665
7.093856
7.841053
7.404850
8.920268
11.757794
11.912193
9.240050
8.496620
13.848126
23.885848
33.355563
38.989503
42.990031
46.265958
46.451424
43.995187
41.362585
39.951355
38.983233
37.539680
35.375919
32.703776
30.547547
30.110402
30.240637
28.336088
24.739756
23.415767
24.868423
26.746613
28.570513
28.131799
25.568236
24.491220
25.024708
24.883806
22.096179
13.966774
0.359083
-13.339301
-21.597370
-22.718320
-18.437241
-12.030999
-5.799552
-1.262398
0.264004
0.124357
-0.513317
-1.499012
-3.259833
-4.621167
-5.057370
-6.959094
-8.970968
-9.149529
-6.095470
-2.756152
-3.760677
-7.198531
-8.190189
-4.964786
0.047485
0.136609
-5.678401
-11.912357
-17.492947
-23.257120
-30.078539
-35.497200
-38.799171
-42.938404
-47.556207
-48.189487
-42.745405
-36.696599
-34.542251
-34.642671
-34.176026
-33.406234
-33.896100
-34.448416
-34.088154
-32.238521
-28.527018
-24.894596
-25.439066
-30.874359
-36.698157
-38.773422
-38.133864
-39.633590
-42.693296
-44.271790
-42.326443
-36.909349
-28.528576
-19.275709
-11.539514
-5.808604
-3.624758
-4.808157
-7.755517
-8.969042
-6.421797
-2.631525
-1.509946
-4.308870
-9.827953
-16.349677
-24.071748
-31.267864
-34.882082
-31.427594
-20.176660
-4.789630
10.545935
22.894598
32.308767
39.228098
41.107857
34.940745
23.434366
10.333174
0.160199
-7.478083
-14.090500
-15.777261
-8.229670
5.995927
21.762361
35.524452
46.114803
55.473113
62.403114
63.281486
51.835046
29.160581
3.765644
-16.429988
-27.411980
-25.682539
-14.044669
0.400285
14.550252
26.983332
36.279506
38.669844
36.541858
35.637441
35.556164
33.448890
29.829650
24.958598
19.665149
16.961311
18.400158
22.556653
25.512488
26.201942
25.922019
26.935960
29.223994
29.468771
27.222477
23.950631
21.150765
17.975889
14.379871
12.258789
11.659088
13.589685
16.920216
18.423396
18.367224
17.608103
16.512572
14.787526
11.598528
9.492196
10.959914
14.379255
17.824015
20.839474
24.440515
28.675463
31.864463
32.545131
29.989728
25.582182
20.335178
14.954489
9.980819
5.710097
3.836616
4.938111
6.886910
8.651185
10.679379
12.547840
13.138757
12.511439
12.836868
14.075500
14.198517
11.677320
6.229474
-1.189137
-10.496921
-19.785248
-25.714488
-27.948230
-28.773879
-27.567883
-22.889198
-17.619912
-15.869445
-18.584267
-24.540809
-32.501380
-40.190814
-44.754640
-44.814892
-41.969835
-38.115231
-35.291199
-36.434430
-42.654892
-52.377540
-63.011197
-72.303603
-78.673127
-80.922246
-80.575792
-78.628876
-74.408991
-66.976884
-58.624669
-51.326561
-42.473809
-32.069237
-21.751591
-12.759819
-4.329777
2.755250
8.085102
12.314089
15.118978
17.379082
21.475638
26.739275
30.045642
30.744198
28.687134
23.146712
14.045420
2.578268
-11.694714
-26.821275
-40.458151
-48.841119
-50.811255
-48.623642
-41.810695
-30.606205
-14.428672
4.183132
21.169996
35.272264
45.769098
50.664316
49.565333
43.460984
33.307152
20.173950
6.475252
-7.402948
-22.032111
-32.561581
-35.568879
-31.407050
-23.737070
-16.694723
-10.768620
-5.552368
-2.229369
-3.230441
-7.813724
-12.062479
-15.644061
-19.105765
-21.491080
-21.305614
-16.215516
-6.525817
3.995182
11.940691
15.266201
13.346903
8.992078
7.028532
9.970559
16.714781
26.201127
37.131656
47.619076
55.144699
58.898254
59.738027
60.314508
62.365924
64.914739
64.773209
57.741847
44.461466
27.932147
11.421657
-2.531859
-13.378283
-18.148600
-13.528286
-2.787302
10.416510
21.783556
25.695274
21.339194
11.780672
0.215609
-11.162105
-21.197001
-30.033433
-36.383814
-39.780872
-40.900567
-40.426704
-40.902134
-43.246339
-44.152639
-40.745851
-34.997367
-28.745523
-21.877030
-14.284563
-4.786291
5.239505
13.846853
19.932375
24.384171
27.673592
30.219582
32.437008
33.064327
33.952741
36.534820
40.830649
46.696814
52.688505
57.023561
59.652085
62.015435
64.493014
64.436841
62.918600
62.585015
62.397354
59.180426
49.833415
34.656644
15.547129
-4.880413
-23.038438
-36.322271
-46.474220
-55.332305
-61.118445
-62.593379
-62.996318
-65.127128
-68.502533
-70.835755
-68.202837
-60.081904
-50.013115
-40.154268
-30.593547
-21.127285
-15.612908
-16.288867
-16.495357
-12.510206
-5.307812
2.076908
7.525384
13.649191
20.945416
27.777506
30.752797
28.464137
24.594159
22.918695
23.540366
22.910538
18.498913
11.764735
7.179883
6.640120
9.386639
13.852556
16.296871
14.749758
10.389285
3.913377
-3.737457
-11.987681
-20.216251
-26.958902
-31.621580
-34.306904
-36.057683
-38.085247
-40.688351
-41.971544
-39.902554
-34.492991
-28.481844
-23.951594
-18.756682
-9.468353
4.358070
19.296971
31.021140
37.867666
41.003317
41.190666
38.036501
31.372618
23.153149
15.637882
9.558011
5.244296
1.009663
-4.260877
-8.072486
-7.187838
-1.511532
6.035118
11.894065
14.932746
18.210556
22.384624
25.778860
29.030623
33.453234
39.248476
44.556362
46.022511
41.323116
32.457813
21.807525
10.819884
1.303412
-6.790217
-12.016823
-13.470104
-13.417068
-12.144857
-8.515260
-5.188808
-5.624698
-10.828081
-19.853117
-28.706495
-35.083864
-37.594392
-34.884903
-28.876893
-22.684046
-19.146711
-19.500380
-22.624732
-26.898592
-31.513884
-35.317962
-37.473250
-35.140340
-27.017838
-16.857728
-8.190128
-0.865974
5.478133
8.468487
8.664623
8.362105
7.013011
3.815853
-0.935635
-5.606786
-7.063205
-5.691828
-5.292967
-7.118121
-8.239385
-6.139013
-0.801942
7.989302
19.617130
31.014616
39.150299
42.293481
42.494011
42.793078
41.483211
35.827932
26.256543
15.387211
5.943545
0.446116
-1.532494
-2.344335
-1.953005
0.028430
2.315836
3.830941
2.606432
-1.469410
-6.553857
-10.539948
-12.419392
-12.848064
-11.131175
-4.983831
3.858565
8.169457
6.463240
1.522521
-3.450522
-7.517263
-12.814791
-19.119983
-23.480456
-23.168836
-18.522788
-12.532666
-8.550339
-7.214110
-6.554154
-5.335291
-4.921681
-4.404511
-2.691074
-0.854936
0.987479
3.034816
4.186836
2.017426
-3.810451
-11.936403
-20.119470
-25.110086
-26.386689
-25.828409
-22.782510
-16.409218
-8.491952
-0.165783
8.390099
15.178569
20.007885
24.496083
27.767931
29.351447
29.595283
29.192031
27.861765
24.478201
18.740389
12.983748
10.961832
13.932730
21.259080
27.673168
29.696341
30.364456
30.639360
27.283412
17.036377
2.580127
-8.440465
-11.072126
-9.178559
-8.182192
-8.010220
-7.028602
-3.659158
-0.431559
-0.635539
-3.292618
-5.704608
-6.124807
-3.920562
1.069742
7.423263
12.242223
13.331166
11.515113
10.109532
10.305668
10.726810
10.654947
9.643519
8.312312
6.686746
4.845901
4.099020
4.832095
6.886964
10.154417
14.625356
19.972155
25.284748
28.550946
27.870908
23.698724
17.832248
12.156571
8.111169
6.424409
6.746698
6.820446
6.016764
5.799604
5.376267
3.377260
1.141949
-0.938651
-2.859518
-4.002749
-5.571515
-7.791449
-10.143499
-13.426014
-18.489750
-24.203084
-28.807392
-30.546246
-28.748079
-25.109695
-21.961805
-20.546808
-19.865826
-18.547484
-16.113839
-13.158319
-11.428250
-11.667063
-12.338001
-11.787881
-10.192125
-8.544590
-6.558761
-3.856804
-0.906304
1.331205
3.081672
5.155684
6.410007
5.535717
2.919433
0.618534
-1.871281
-6.075474
-9.386233
-8.474596
-5.358402
-4.614971
-6.732915
-9.909674
-12.145299
-12.784855
-12.457230
-10.251102
-6.656024
-3.561170
-1.511008
-0.652720
-1.824823
-5.100120
-9.582982
-14.733644
-19.391929
-21.979969
-20.267160
-14.019709
-6.604234
-1.743850
-0.602814
-2.033814
-4.414422
-5.712678
-5.871782
-6.612074
-7.968700
-7.920371
-5.231280
-2.480682
-0.547887
2.477928
5.392339
5.973527
4.029751
2.072795
2.249788
4.281748
7.131512
10.204400
12.119621
12.408018
11.746809
9.607839
7.491465
7.028901
7.890954
8.188767
8.280088
10.449186
14.271466
18.083391
20.646955
20.814220
17.935272
13.346341
7.785521
1.995302
-4.816389
-12.015956
-16.289189
-15.041455
-7.280783
3.720981
13.727008
19.789307
23.424240
25.285170
22.784684
15.589824
6.607154
-0.873279
-6.634627
-11.510700
-15.086633
-15.676607
-14.165895
-12.627254
-10.953672
-8.298160
-5.338246
-3.261096
-3.587778
-7.064859
-11.244575
-13.531979
-13.121507
-11.760172
-10.192973
-6.042441
0.226663
5.590094
8.810476
10.829255
12.190277
11.883365
8.968329
3.500085
