EVENT_NAME: 202010301151
EVENT_ID: 10614
EVENT_DATE_YYYYMMDD: 2020/10/30
EVENT_TIME_HHMMSS: 11:51:24.00000
EVENT_LATITUDE_DEGREE: 37.879
EVENT_LONGITUDE_DEGREE: 26.703
EVENT_DEPTH_KM: 16.54
HYPOCENTER_REFERENCE: AFAD
MAGNITUDE_W: 6.6
MAGNITUDE_W_REFERENCE: AFAD
MAGNITUDE_L: 
MAGNITUDE_L_REFERENCE: 
FOCAL_MECHANISM: 
NETWORK: TK
STATION_CODE: 4501
STATION_NAME: 
STATION_LATITUDE_DEGREE: 38.61259
STATION_LONGITUDE_DEGREE: 27.38138
STATION_ELEVATION_M: 106.0
LOCATION: -_-_-
SENSOR_DEPTH_M: 
VS30_M/S: 340
SITE_CLASSIFICATION_EC8: unknown
MORPHOLOGIC_CLASSIFICATION: 
EPICENTRAL_DISTANCE_KM: 100.81
EARTHQUAKE_BACKAZIMUTH_DEGREE: 
DATE_TIME_FIRST_SAMPLE_YYYYMMDD_HHMMSS: 2020/10/30 11:51:18.3264770
DATE_TIME_FIRST_SAMPLE_PRECISION: millisecond
SAMPLING_INTERVAL_S: 0.01
NDATA: 11251
DURATION_S: 
STREAM: HNE
UNITS: cm/s^2
INSTRUMENT: sensor = CMG-5T/GURALP | digitizer = 
INSTRUMENT_ANALOG/DIGITAL: 
INSTRUMENTAL_FREQUENCY_HZ: 
INSTRUMENTAL_DAMPING: 
FULL_SCALE_G: 
N_BIT_DIGITAL_CONVERTER: 
PGA_CM/S^2: 40.010
TIME_PGA_S: 
BASELINE_CORRECTION: BASELINE REMOVED
FILTER_TYPE: BUTTERWORTH
FILTER_ORDER: 
LOW_CUT_FREQUENCY_HZ: 
HIGH_CUT_FREQUENCY_HZ: 
LATE/NORMAL_TRIGGERED: 
DATABASE_VERSION: 
HEADER_FORMAT: DYNA 1.2
DATA_TYPE: Acceleration
PROCESSING: Manual Paolucci et al., 2011
DATA_TIMESTAMP_YYYYMMDD_HHMMSS: 
DATA_LICENSE: U (unknown license)
DATA_CITATION: Turkish Accelerometric Archive v 1.0 - Disaster And Emergency Management Presidency, Earthquake Department
DATA_CREATOR: AFAD
ORIGINAL_DATA_MEDIATOR_CITATION: : AFAD - Disaster And Emergency Management Presidency
ORIGINAL_DATA_MEDIATOR: AFAD PROCESS SERVICE
ORIGINAL_DATA_CREATOR_CITATION: AFAD PROCESS SERVICE
ORIGINAL_DATA_CREATOR: network: TK
USER1: GuestUser
USER2: 
USER3: 
USER4: 
USER5: 
[...]
1.048476
-0.095969
-0.620337
-0.392134
0.136287
0.269717
0.022809
-0.032371
0.123505
0.012833
-0.450744
-1.148758
-2.269821
-3.439518
-4.018131
-3.210691
-1.590512
-0.178272
1.261090
2.143974
2.894363
3.145324
2.447933
1.271689
-0.100958
-0.902163
-1.298712
-1.222645
-0.573576
0.173696
0.250075
0.023742
-0.454798
-1.175882
-1.443366
-1.570250
-1.068016
0.082663
1.039121
1.901429
2.754696
3.558083
4.121420
4.389527
3.910675
2.279585
0.172448
-1.654112
-2.870883
-3.084746
-2.449705
-1.443991
-0.129018
0.456766
0.790341
1.587493
2.263996
2.934265
3.051795
2.291742
2.082244
2.083803
1.851547
1.776414
1.078088
-0.273360
-1.945914
-3.381847
-4.420296
-4.888860
-5.224930
-5.693806
-5.895822
-5.273563
-3.978542
-2.594360
-1.227636
-0.532427
-0.161130
-0.020841
-0.033000
0.548107
0.934369
0.894776
0.325204
-0.646530
-1.488886
-2.388604
-2.729038
-3.023645
-3.216620
-2.503953
-1.062720
0.911922
2.673637
3.275008
3.029035
2.587281
2.094400
2.090347
2.654308
2.818913
1.879914
-0.025207
-2.096805
-2.952878
-2.210595
-0.606938
0.494796
0.494796
-0.096288
-0.951737
-1.521933
-1.919730
-2.124863
-1.717090
-1.116343
-0.371877
0.482013
1.393267
2.247157
2.393058
2.167660
1.698161
1.122041
0.675923
-0.232525
-1.010660
-1.085168
-0.358473
0.873886
1.717177
1.959409
1.776722
1.153839
0.355129
0.118820
1.177844
2.886873
4.316571
5.312933
5.795526
6.224186
6.592054
6.732655
6.490734
5.658978
4.373933
3.051789
2.672074
3.071430
3.409370
3.631338
2.967616
1.790126
0.774435
-0.398379
-1.312438
-2.580648
-4.477976
-5.982807
-6.715737
-6.845738
-6.271802
-4.802823
-3.694230
-3.160197
-2.584078
-1.896040
-1.004427
-0.471954
-0.351929
-1.049320
-1.847407
-1.568700
-1.027186
-0.647783
-0.177659
0.256924
0.916904
1.195300
1.138872
0.947144
0.295893
-0.526823
-1.169345
-0.891574
0.014691
0.374766
-0.174854
-1.362944
-2.888039
-3.856343
-4.002555
-3.391208
-2.975330
-3.146482
-3.849173
-4.616085
-4.447427
-3.502192
-2.374271
-1.710861
-0.919944
0.226370
1.198104
1.404484
0.731098
0.128480
-0.031449
-0.298622
-0.284905
0.205482
1.147599
2.791160
4.430044
5.589452
6.357611
6.778477
6.797183
6.186459
5.346597
4.090545
2.831375
2.172018
1.443140
1.302228
1.434411
1.335897
0.511311
-1.107621
-2.551037
-3.730398
-4.125700
-3.736633
-3.123415
-2.711902
-2.308494
-2.007029
-2.007340
-1.682806
-0.809586
0.718314
2.583842
4.244237
5.549546
6.291829
5.489690
3.690253
2.279571
1.672900
1.889880
2.247149
2.176693
1.376111
0.851743
0.233537
-0.748484
-1.565900
-2.663270
-3.291140
-3.973567
-4.696833
-4.624818
-4.632924
-4.143472
-3.139317
-2.319095
-1.174651
-0.567356
-0.352559
-0.081957
0.650661
1.489900
1.682875
1.738990
1.247668
0.722053
0.631332
0.930615
1.323423
2.004291
2.472856
2.215348
1.687862
0.789079
-0.009008
-0.196995
0.309915
0.785649
1.244861
1.380473
0.813395
0.003461
-0.682083
-1.068968
-0.864770
-0.023350
0.601715
0.684329
0.651595
0.568045
0.302432
0.184277
0.048665
0.020919
-0.060449
-0.309851
-0.440476
-0.810526
-1.509788
-2.071878
-2.267035
-1.993005
-1.094533
-0.127788
1.025074
2.456642
3.677154
4.568767
4.910760
4.423490
3.996701
3.857659
3.390030
3.215448
3.017173
2.909307
2.647746
1.928844
1.575005
1.524812
1.971242
2.586019
3.560558
4.744283
5.190713
4.997738
3.577080
1.682870
0.438665
-0.541797
-1.413146
-2.293536
-3.019609
-3.703594
-4.036858
-4.240433
-4.458971
-4.053069
-3.542730
-3.303304
-3.462610
-3.806785
-4.054940
-3.715442
-2.774260
-1.888259
-1.001322
-0.383116
-0.177671
-0.419592
-0.694558
-0.448897
0.442716
1.760807
3.323624
4.674760
5.367786
5.877814
5.612512
4.992436
4.252023
2.645561
0.785332
-0.729163
-1.964328
-2.857811
-2.882440
-2.630232
-2.159485
-1.762000
-1.729578
-1.220174
-0.549906
0.326743
1.139171
1.717160
2.548293
3.946504
5.274883
5.958868
6.457672
6.614484
6.164936
4.973106
3.935592
3.510673
3.478563
3.756958
4.231757
4.987134
5.654908
5.403947
4.351782
3.090430
1.701571
0.507246
-0.620364
-1.773849
-2.685726
-3.171748
-2.955392
-2.679803
-2.421671
-1.913826
-1.767926
-1.496701
-0.865090
-0.177675
0.438348
0.923435
0.733266
0.263143
-0.336358
-1.244805
-1.840877
-2.674815
-3.822377
-4.535980
-4.656628
-4.119166
-3.117193
-2.454095
-1.842748
-1.088306
-0.401203
-0.030217
0.111630
0.126594
0.040550
-0.149931
-0.894085
-2.303207
-3.701730
-4.377610
-4.222357
-3.284917
-2.178195
-1.262889
-0.620366
-0.274321
-0.168013
0.084818
0.753216
1.369240
1.708427
2.270205
3.023711
3.380980
3.277790
3.441772
4.160985
5.133030
5.724425
5.314782
3.885084
2.056030
0.517218
-0.664325
-1.629200
-2.954461
-4.528500
-6.452327
-8.097134
-8.525171
-7.920994
-6.205419
-4.282216
-2.652996
-1.068980
0.351053
1.648568
2.791766
3.635680
4.067770
4.073069
3.508797
2.449772
1.455905
1.066837
1.218661
1.875835
2.883732
3.650644
3.803091
3.842060
4.125131
4.286619
4.128560
3.390330
2.078162
0.597025
-0.670562
-1.622031
-2.152323
-2.977844
-4.476752
-5.859687
-6.690820
-6.689261
-5.820406
-4.542532
-3.264034
-2.409520
-1.667860
-0.704232
0.156517
0.891007
1.573122
2.389914
2.776487
2.447588
1.858999
1.092087
0.537479
0.309275
0.515344
1.045324
1.120144
0.515032
-0.653417
-1.984914
-3.336050
-4.294066
-4.266320
-3.554901
-2.744032
-2.269544
-2.199088
-2.094963
-1.856472
-1.653209
-1.430306
-1.048721
-0.388117
0.211072
0.636303
0.961461
1.332447
1.642329
1.761106
1.471800
0.551194
-0.646249
-1.467717
-1.840885
-1.838703
-1.460859
-1.168435
-1.244191
-1.529445
-1.618606
-1.724914
-1.730525
-1.817816
-2.101200
-2.528924
-2.899598
-3.146507
-3.273702
-3.057969
-3.139648
-3.368787
-3.457948
-3.435190
-3.026171
-2.150769
-1.272250
-0.135599
0.688987
0.676828
0.048023
-1.178412
-2.267677
-3.182359
-3.787783
-4.116994
-4.246995
-4.061191
-3.654042
-3.327325
-2.868737
-2.298853
-1.991464
-2.088420
-2.380220
-2.154823
-1.974942
-2.134871
-2.571948
-3.274951
-4.056515
-4.594601
-5.068153
-5.457844
-5.503672
-5.692906
-6.031469
-6.563943
-6.784352
-6.645311
-6.415861
-5.876840
-5.200649
-4.455248
-3.623180
-3.132793
-3.276199
-3.666202
-3.652173
-3.031162
-2.078757
-1.195250
-0.813041
-0.825199
-0.814912
-0.823641
-0.771578
-0.098192
0.925292
1.740526
1.894531
1.582779
1.460883
1.417861
1.228315
1.107044
1.030976
1.065892
1.466806
2.048848
2.881540
3.682121
4.150997
4.709970
5.705708
7.124495
8.846617
10.007584
10.072429
9.856072
9.692714
9.294605
8.715680
7.917905
6.969553
6.178324
5.748729
5.565107
5.556378
5.532061
5.051026
4.566251
4.193706
3.647203
3.173651
2.462231
1.757670
1.963426
2.892761
4.468983
6.280578
7.684401
8.586302
9.194220
9.838924
10.564373
11.315385
11.341261
10.345522
9.034914
7.854929
6.882261
6.385950
5.853165
4.994286
4.070874
2.931417
1.831242
1.151932
0.621641
0.135930
-0.481964
-1.866146
-3.404023
-4.542544
-5.070653
-4.898254
-4.463982
-4.535062
-4.991468
-5.134875
-5.128328
-4.663816
-4.153789
-4.215828
-4.499211
-4.741131
-4.755784
-4.257915
-3.568006
-3.476662
-4.148490
-5.399554
-6.924960
-8.401109
-9.673996
-10.694051
-11.446311
-12.189217
-12.986681
-13.974002
-15.447034
-16.991457
-18.008707
-18.105662
-17.444746
-16.395075
-15.005593
-13.492345
-11.963821
-10.162825
-7.923817
-5.682938
-4.040936
-3.003735
-2.521453
-2.814501
-3.878202
-5.057562
-6.081982
-7.046233
-7.785088
-8.490584
-9.436442
-10.467409
-11.557608
-12.363801
-12.655290
-12.979513
-13.145989
-13.542538
-14.201895
-14.539212
-14.674513
-14.351537
-13.606136
-12.745075
-11.694157
-10.241077
-8.435093
-6.060473
-3.173642
-0.341056
2.191311
4.270390
5.491526
6.043328
6.560526
7.275375
8.489029
9.452033
9.430834
8.692915
7.507631
6.722949
6.504410
6.537456
6.596377
6.736977
6.980768
6.839232
6.730742
6.813045
7.256981
8.290441
9.399346
10.592112
12.007157
13.132896
14.278588
15.597302
16.481121
17.334077
18.303939
18.931186
19.236392
19.430614
19.175288
18.535571
17.965064
17.616524
17.871538
18.817084
20.023879
21.066068
21.460124
21.339787
20.956643
20.274839
19.156582
17.959763
16.903856
15.457635
13.965586
12.687088
11.502740
10.455874
9.558649
8.204707
6.746639
5.398620
3.800263
2.488720
1.374203
0.308009
-0.424922
-0.625067
-0.297104
0.594821
2.207206
4.360483
6.343854
7.929740
8.948860
9.159293
8.721592
7.810962
6.922466
6.613519
6.478842
6.315795
5.946680
5.135499
3.933380
1.965597
-0.808691
-3.717344
-6.201079
-8.528937
-10.368278
-11.689798
-12.752252
-13.266020
-13.102350
-12.473233
-11.396127
-10.078660
-8.975056
-7.826870
-6.677438
-5.399875
-4.210538
-3.581109
-3.061106
-2.778658
-2.768994
-3.012161
-3.809313
-4.688144
-5.387094
-6.292736
-7.608021
-9.077311
-10.915094
-13.265086
-15.735104
-17.809507
-18.636587
-18.073561
-16.720243
-15.017137
-13.427822
-12.124695
-11.067542
-10.052163
-9.082612
-8.033876
-6.992933
-6.307389
-5.722541
-5.610622
-6.009354
-6.180194
-6.040217
-5.678896
-5.290140
-5.583500
-6.440820
-7.366102
-7.812532
-7.588070
-7.166892
-6.760055
-6.767849
-7.625793
-8.931725
-10.219264
-11.262077
-11.535173
-11.235267
-10.967159
-10.652912
-9.707055
-8.165749
-6.075447
-2.912403
0.614456
3.302076
5.291682
6.096940
5.804516
5.209379
4.460237
3.891912
3.461693
3.611958
3.935246
4.142249
4.235152
4.171242
4.529134
5.474680
6.892532
8.346547
9.628162
10.783830
11.638656
11.624003
10.859585
9.430511
7.726470
5.678566
3.042696
0.260615
-2.615928
-4.842778
-6.253148
-7.168766
-7.516059
-7.006966
-5.631513
-3.526870
-0.834262
1.936909
4.862085
7.912585
10.507304
12.753171
14.972227
17.291979
19.391634
20.704113
20.828190
19.422809
16.675332
12.832979
8.611534
4.642922
1.454626
-0.922489
-3.025885
-4.276325
-5.099664
-5.372760
-4.387310
-2.868138
-0.635989
1.711510
3.239410
3.977640
3.987305
3.883803
3.789030
3.388116
2.719406
2.017027
1.827793
2.359331
3.268091
4.321503
5.530168
6.601663
7.502628
8.418869
9.145565
9.346022
8.919856
8.254887
7.644475
6.929938
6.025231
5.129565
3.996656
3.023364
2.676071
2.737174
3.239720
4.136321
5.640840
7.383849
8.754626
9.882547
9.611946
7.804715
5.262995
1.753906
-2.117440
-5.653340
-8.465039
-10.518554
-12.028373
-13.180299
-13.528839
-13.691262
-14.172297
-15.168035
-16.415982
-16.595551
-16.190896
-15.416814
-14.514602
-13.790712
-13.205240
-12.856389
-12.769098
-12.558042
-11.349065
-8.919575
-6.231643
-3.784696
-1.514200
0.492240
2.774894
4.909153
5.906451
5.438821
3.843582
1.143180
-1.931950
-4.530409
-6.495698
-7.657289
-8.323193
-9.173031
-10.281001
-11.007073
-11.009567
-10.311865
-9.097588
-7.426281
-5.893393
-4.379833
-3.217307
-2.836034
-2.672363
-2.526775
-2.544857
-2.923013
-3.509732
-4.340553
-5.360920
-6.723591
-8.326000
-9.817426
-10.799135
-11.106835
-11.818567
-12.924042
-13.647621
-13.965608
-13.815967
-12.969558
-10.851822
-8.118686
-4.858063
-1.774517
0.158662
1.598024
2.233065
2.527048
2.536712
2.200954
1.814069
1.546897
1.471764
1.527256
1.450877
1.003823
1.020034
1.403490
2.186301
3.232543
4.453679
6.389352
8.806994
11.008904
12.986664
14.970346
16.557168
17.196884
17.195326
16.855827
16.560909
17.244894
18.529939
20.280119
22.775388
25.198642
26.768006
27.896239
28.114154
27.967630
27.181078
25.188666
23.049106
20.697555
18.136194
15.025525
11.282933
7.070530
3.163332
-0.175228
-2.599418
-3.943072
-4.245784
-3.549952
-3.026831
-2.669251
-2.371215
-2.242150
-1.618956
-0.574896
0.443600
1.749221
3.223188
4.108877
5.139220
6.216950
6.467287
6.124982
5.414809
4.311205
2.388937
0.150552
-1.748958
-2.830740
-2.785847
-2.049799
-1.712171
-1.725265
-2.055099
-2.368411
-1.853084
-1.037850
-0.074534
1.038735
1.457107
0.771563
-1.325287
-4.397610
-7.556913
-10.739909
-13.114218
-14.793006
-16.172201
-17.889023
-19.593064
-20.884032
-21.596387
-21.825526
-21.837372
-21.051132
-19.923211
-18.506294
-16.905756
-15.647522
-14.913344
-14.620608
-14.913344
-15.057374
-14.850682
-13.881443
-12.018096
-10.340243
-9.248173
-9.257838
-10.416623
-11.912412
-13.093644
-13.706550
-13.567196
-12.531865
-10.710294
-8.974455
-7.207128
-4.942556
-2.887794
-1.816923
-1.165048
-0.517226
0.593237
2.678240
4.665352
6.517475
8.257055
9.786514
11.117387
12.035187
12.485358
12.288330
11.831924
11.570987
11.716575
12.295812
12.953298
12.901547
11.880557
10.463017
9.321690
8.842526
9.235646
9.625337
8.958186
7.179013
4.800963
2.609964
1.635737
2.187539
3.994458
6.062002
7.593332
8.683843
9.112191
8.797944
7.841175
6.339150
4.306210
2.400466
0.626592
-1.055314
-2.296402
-2.995040
-3.429312
-3.631016
-3.530320
-3.450511
-3.611687
-3.774422
-3.656891
-3.195186
-2.462567
-1.714048
-0.795313
-0.173990
0.600716
1.692162
3.219751
5.586266
8.751492
12.630631
16.684664
20.186895
22.847081
25.311175
27.175144
27.861624
27.578241
26.905478
26.719362
27.379342
28.837098
30.695145
32.743984
34.762271
35.748345
35.955660
35.517024
34.376944
32.863073
30.729437
27.818601
24.452606
20.955987
17.050660
12.877538
7.908510
1.889188
-4.656685
-10.451234
-14.806732
-17.877185
-19.616142
-20.836031
-21.800594
-23.371516
-25.990551
-28.998965
-32.056013
-34.148186
-35.649276
-36.865111
-37.921953
-39.072945
-39.735108
-40.009762
-39.863238
-39.428655
-38.696659
-37.892649
-36.987943
-35.852539
-33.912502
-30.977973
-27.727015
-24.673397
-22.220838
-20.090943
-18.347933
-16.977780
-16.079932
-15.885398
-16.199957
-16.647322
-16.867732
-16.525739
-16.185617
-15.568346
-13.911692
-11.176373
-6.761331
-1.488033
3.377181
7.611719
11.131719
14.023849
16.206742
17.662939
18.749086
19.536573
20.029143
20.183772
19.426836
17.393585
14.367712
10.741092
6.985718
3.246867
-0.014067
-2.735045
-4.460597
-4.179396
-2.949843
-1.284148
0.564234
1.380403
0.895627
-0.439610
-2.195402
-4.265752
-6.578646
-9.319264
-12.455185
-15.178658
-16.977159
-17.453518
-16.476173
-14.063830
-10.233636
-5.963870
-1.879285
1.764793
4.747643
7.415000
9.332279
10.068951
10.116338
9.763122
9.459163
9.372183
9.349114
10.091397
11.671983
14.191569
17.713440
21.284880
24.366556
27.228134
29.217741
29.742109
29.738991
29.121720
28.897882
29.339012
29.659806
30.039209
30.055731
29.513905
28.748240
27.658041
25.977070
23.378922
19.477336
14.733082
8.753664
2.107095
-4.522327
-11.206307
-17.461938
-22.791040
-27.532488
-31.402587
-33.042406
-32.941710
-31.309996
-28.455276
-25.148203
-21.314891
-17.636520
-14.470983
-11.663025
-9.413106
-7.359590
-4.852786
-2.041400
1.120085
4.482962
7.831186
10.857059
12.711364
13.416861
13.077362
12.197595
11.566608
11.013558
10.219524
9.327599
7.873584
6.216930
4.324279
2.300380
1.298718
1.325529
1.593636
2.372394
3.955163
5.411672
6.624078
7.512574
7.827132
7.712095
7.316169
5.665750
3.458540
1.372291
-0.522854
-1.973752
-2.848842
-3.479830
-3.922519
-3.645682
-3.119755
-2.069772
-0.986120
0.240004
1.444617
2.435367
1.840231
0.160195
-2.305769
-6.102918
-10.077454
-14.141152
-17.995351
-21.241633
-22.530731
-22.873970
-22.389507
-21.037435
-19.162554
-16.885512
-14.275518
-11.569815
-9.695558
-7.604632
-5.073200
-2.587595
0.369380
3.492207
5.909226
8.171305
9.847911
10.877007
11.678523
12.216608
12.689849
13.300572
13.835852
13.858610
13.118197
11.970635
10.929069
9.581985
7.691204
4.975214
1.781619
-1.318451
-4.443149
-7.314080
-9.590499
-11.587899
-12.838028
-12.787836
-11.437634
-8.086292
-4.012307
-0.708663
1.353893
1.218904
-0.859240
-4.099598
-7.350244
-10.090551
-11.464757
-12.287161
-12.612631
-12.848316
-14.159549
-15.025910
-15.746059
-15.401884
-14.215976
-13.055944
-11.547373
-9.844891
-8.876275
-8.182002
-7.242067
-6.609521
-5.689227
-4.659507
-3.396597
-1.568479
1.704925
5.076219
7.992355
10.359494
11.031009
10.720191
10.024359
9.033297
8.000148
6.956712
5.576894
4.441178
3.637791
3.274599
3.726329
4.350770
4.773818
5.226483
5.974690
7.500096
10.095438
13.839900
17.987147
22.149358
25.923437
28.520338
29.809124
30.113706
29.872409
29.625813
29.601184
29.288184
28.373502
27.050111
25.633195
24.267718
23.322795
22.814014
22.448328
21.866909
21.405515
21.066640
20.079942
18.186044
15.764972
12.946727
9.941430
7.013448
3.718845
0.311699
-2.801153
-5.788056
-7.930733
-9.110094
-9.647244
-9.709594
-9.996095
-10.365834
-10.966582
-11.814238
-13.095541
-15.317404
-18.114761
-21.177732
-24.466100
-27.711759
-30.903172
-33.702400
-35.814525
-37.168156
-37.941614
-38.176676
-37.859000
-37.308133
-36.451124
-35.214401
-33.708324
-32.017065
-30.014677
-28.017901
-26.010525
-24.406869
-23.344103
-23.031104
-23.318228
-23.683602
-23.810174
-23.063526
-21.867954
-20.511518
-19.025393
-17.352839
-15.477646
-13.420390
-10.813825
-7.576585
-4.387042
-1.816017
0.127761
1.739211
3.281764
4.637577
5.455928
5.986531
6.389627
6.686104
6.837304
6.500611
5.955667
5.617415
5.584681
5.535424
5.488973
5.549141
5.778279
6.551738
7.852682
9.463820
10.952440
11.872422
12.020505
11.425992
10.078285
8.055009
5.928232
4.049298
2.689744
1.899139
1.306497
0.762800
0.258384
-0.038405
0.258695
1.409375
3.484713
6.217849
9.119021
11.814435
14.189367
15.910554
17.277590
18.696065
19.425567
19.604201
19.660316
19.468588
19.211080
19.534368
20.359578
20.913874
20.886128
19.829598
18.206613
16.667801
15.437313
14.536035
13.484805
12.311056
10.939967
8.872423
5.897366
2.426310
-0.844600
-3.239796
-4.743380
-5.497510
-5.833268
-5.829838
-4.985924
-3.429342
-1.091508
1.269084
2.494895
2.752091
2.253910
0.863493
-0.960573
-3.083921
-5.653699
-7.832851
-9.426531
-10.915462
-12.349213
-13.544162
-14.093782
-13.999009
-13.021041
-11.610360
-10.047231
-8.445446
-7.330306
-6.750446
-6.824331
-7.089633
-7.501147
-7.662011
-7.883979
-8.419571
-9.347971
-10.254548
-10.294452
-9.724880
-8.545207
-7.074670
-5.878786
-5.064800
-4.145441
-3.136609
-1.826312
-0.623258
0.207875
0.896536
1.740451
3.148326
4.718625
5.715299
5.985276
5.543834
4.091378
1.911291
-0.162488
-1.103670
-0.821222
0.880324
2.906094
4.296199
5.034742
4.710207
3.624995
2.690984
2.331845
2.323116
2.873359
3.387440
3.697322
4.088571
4.817137
5.505176
5.762060
5.923236
5.820046
5.460283
5.228651
5.175653
5.630188
6.770892
7.904736
8.498002
8.421934
7.865455
6.519307
4.746680
2.775779
0.778068
-0.623573
-1.813533
-2.632196
-2.548023
-2.006820
-1.483387
-1.284489
-1.643940
-2.515289
-3.464888
-4.272640
-4.734034
-4.394223
-3.081744
-1.503340
-0.273164
0.642142
0.784301
0.494371
0.078805
-0.282205
-0.448058
-0.535660
-0.906646
-1.902384
-3.853022
-6.667526
-10.026350
-13.361481
-16.257976
-18.421540
-19.625218
-19.819752
-18.404394
-15.677805
-11.731638
-7.071870
-2.431430
1.311474
3.672378
5.244858
6.509951
7.463915
8.417566
9.316349
10.450818
11.827518
13.203283
14.283194
15.082840
15.832917
15.975388
15.653971
14.498615
13.084193
11.439073
9.360929
7.019354
4.527826
2.304405
