EVENT_NAME: 202010301151
EVENT_ID: 10614
EVENT_DATE_YYYYMMDD: 2020/10/30
EVENT_TIME_HHMMSS: 11:51:24.00000
EVENT_LATITUDE_DEGREE: 37.879
EVENT_LONGITUDE_DEGREE: 26.703
EVENT_DEPTH_KM: 16.54
HYPOCENTER_REFERENCE: AFAD
MAGNITUDE_W: 6.6
MAGNITUDE_W_REFERENCE: AFAD
MAGNITUDE_L: 
MAGNITUDE_L_REFERENCE: 
FOCAL_MECHANISM: 
NETWORK: TK
STATION_CODE: 4501
STATION_NAME: 
STATION_LATITUDE_DEGREE: 38.61259
STATION_LONGITUDE_DEGREE: 27.38138
STATION_ELEVATION_M: 106.0
LOCATION: -_-_-
SENSOR_DEPTH_M: 
VS30_M/S: 340
SITE_CLASSIFICATION_EC8: unknown
MORPHOLOGIC_CLASSIFICATION: 
EPICENTRAL_DISTANCE_KM: 100.81
EARTHQUAKE_BACKAZIMUTH_DEGREE: 
DATE_TIME_FIRST_SAMPLE_YYYYMMDD_HHMMSS: 2020/10/30 11:51:18.3264770
DATE_TIME_FIRST_SAMPLE_PRECISION: millisecond
SAMPLING_INTERVAL_S: 0.01
NDATA: 11251
DURATION_S: 
STREAM: HNZ
UNITS: cm/s^2
INSTRUMENT: sensor = CMG-5T/GURALP | digitizer = 
INSTRUMENT_ANALOG/DIGITAL: 
INSTRUMENTAL_FREQUENCY_HZ: 
INSTRUMENTAL_DAMPING: 
FULL_SCALE_G: 
N_BIT_DIGITAL_CONVERTER: 
PGA_CM/S^2: 24.375
TIME_PGA_S: 
BASELINE_CORRECTION: BASELINE REMOVED
FILTER_TYPE: BUTTERWORTH
FILTER_ORDER: 
LOW_CUT_FREQUENCY_HZ: 
HIGH_CUT_FREQUENCY_HZ: 
LATE/NORMAL_TRIGGERED: 
DATABASE_VERSION: 
HEADER_FORMAT: DYNA 1.2
DATA_TYPE: Acceleration
PROCESSING: Manual Paolucci et al., 2011
DATA_TIMESTAMP_YYYYMMDD_HHMMSS: 
DATA_LICENSE: U (unknown license)
DATA_CITATION: Turkish Accelerometric Archive v 1.0 - Disaster And Emergency Management Presidency, Earthquake Department
DATA_CREATOR: AFAD
ORIGINAL_DATA_MEDIATOR_CITATION: : AFAD - Disaster And Emergency Management Presidency
ORIGINAL_DATA_MEDIATOR: AFAD PROCESS SERVICE
ORIGINAL_DATA_CREATOR_CITATION: AFAD PROCESS SERVICE
ORIGINAL_DATA_CREATOR: network: TK
USER1: GuestUser
USER2: 
USER3: 
USER4: 
USER5: 
[...]
-6.474870
-7.686667
-7.257375
-5.324304
-2.450583
0.018469
0.832543
-0.250781
-2.068634
-3.428472
-3.935412
-3.501069
-1.903856
0.336347
2.191450
3.104641
3.340752
3.426612
3.654516
3.615377
3.312666
3.104967
2.546260
2.299420
2.070257
1.192739
-0.016848
-1.324287
-2.153826
-2.640563
-3.319219
-4.123190
-4.711252
-4.788586
-3.472936
-1.339425
0.405515
1.540611
1.310185
-0.344475
-2.115611
-2.907586
-2.398749
-1.025019
0.302626
1.115754
0.734445
-0.236191
-0.565417
-0.929365
-1.830241
-2.457761
-2.550246
-2.625686
-3.209329
-3.911659
-3.904081
-2.915765
-1.171141
0.418182
1.610727
2.318742
2.061801
0.920395
-0.215959
-0.849792
-1.190381
-1.789808
-2.782540
-3.782532
-4.742120
-6.003158
-7.493677
-8.398657
-8.461471
-7.919174
-7.098471
-6.452008
-6.264823
-6.418545
-6.475046
-5.690642
-4.197279
-1.928352
0.906859
3.457034
5.109488
5.900204
6.166934
5.567823
4.549208
3.831095
3.486402
3.112669
2.617409
2.155923
2.187491
2.937803
4.285650
5.596565
5.881919
4.949161
3.338062
1.616168
0.381645
0.105133
0.902794
2.347231
3.906251
5.358579
5.907504
4.919507
2.811884
0.596306
-1.050462
-1.094021
0.657864
2.949833
4.666049
5.141742
4.050210
2.111146
0.575488
-0.249631
-0.699437
-0.792869
-0.527086
-0.008779
0.819500
1.897146
3.210587
4.382298
4.776237
4.225422
3.036668
1.894947
1.103603
-0.156804
-1.427943
-1.593976
-1.079457
-0.060838
1.439470
3.076141
4.507952
4.905678
3.916734
1.651599
-1.175718
-4.163702
-6.644114
-6.916522
-4.640019
-1.352160
1.028193
1.655716
0.883311
-0.452853
-2.177903
-3.971766
-4.757113
-4.010588
-2.536164
-1.197156
-0.699682
-1.068050
-2.079405
-3.507425
-4.858424
-5.915234
-6.270659
-5.984359
-5.404815
-4.449959
-3.007731
-2.149780
-2.784875
-4.327478
-5.758969
-6.602712
-6.719503
-6.149744
-4.765913
-3.136502
-2.187959
-2.585366
-4.004232
-4.780740
-5.279157
-6.276624
-6.738109
-6.117530
-4.751060
-2.644379
-0.154494
2.310454
4.121050
3.947126
1.678834
-1.195199
-3.240639
-4.426867
-4.953692
-4.357104
-3.073019
-2.374789
-2.898774
-4.064169
-4.728936
-4.321424
-2.845422
-0.988740
0.725898
2.524184
4.158329
5.186418
6.326880
7.888425
9.235009
9.534251
8.393161
6.662429
5.238829
4.387195
3.945596
4.137831
5.153609
6.790280
8.198417
8.240085
6.709477
5.206332
5.425714
7.016930
8.334159
8.524184
8.316485
8.271664
8.128043
7.734108
7.602166
7.669087
7.982849
8.100590
7.175408
6.148270
5.999914
6.146380
5.666902
4.920065
4.487304
3.975946
3.472794
3.201017
2.753736
1.671359
-0.333677
-2.642058
-4.257892
-4.908138
-5.293551
-5.320064
-4.373730
-2.643941
-0.504433
0.964310
0.508507
-1.316922
-2.977895
-4.268605
-5.113294
-4.783749
-3.458314
-2.107311
-0.879097
0.213070
0.970642
1.376576
0.954547
0.146789
-0.428332
-1.032177
-1.676426
-2.586141
-3.993643
-5.100326
-5.554867
-5.965848
-6.367990
-6.461106
-6.512556
-6.785280
-6.889128
-6.591149
-5.785281
-5.303590
-6.342092
-8.101233
-9.322499
-9.622369
-8.773572
-6.971499
-5.308628
-4.264441
-4.141334
-5.015696
-5.761901
-5.763794
-5.289994
-4.705400
-4.479706
-4.588920
-4.177936
-3.148901
-1.277383
1.536679
3.854533
4.032879
2.348864
-0.169427
-2.209185
-2.580708
-1.571875
0.352673
2.471033
4.173991
4.947662
5.110542
4.696720
4.075198
4.552469
5.952399
7.348857
8.340961
8.931868
8.679662
7.586236
6.653163
5.888965
5.011447
4.576161
4.696743
4.996932
5.304066
5.357413
4.333747
2.547144
0.940780
0.298109
0.720772
2.178151
4.253581
5.645304
6.097008
6.048714
5.811344
5.803454
6.107431
6.458757
7.436656
8.847318
9.672757
9.519982
8.126053
5.867546
3.471098
1.276985
0.190504
-0.126727
-0.472683
-0.671859
-1.178483
-1.827467
-1.739398
-0.735614
0.911157
2.694607
3.997947
4.507731
4.009630
2.821192
1.674421
1.001131
0.867611
1.210729
1.648544
2.168744
3.420317
5.237857
6.331602
6.029522
4.937044
3.717041
2.162759
0.314603
-1.462530
-2.874451
-3.559420
-3.775641
-3.555629
-3.348242
-3.457141
-3.848866
-4.869691
-6.241840
-6.959953
-6.579903
-5.303078
-2.965023
-0.308157
1.749282
3.027684
3.293467
2.381543
1.033700
-0.116228
-1.227331
-2.521828
-4.132296
-5.516124
-6.041056
-6.101028
-6.203299
-6.312198
-7.063770
-8.667609
-10.535335
-12.220929
-13.420414
-13.909993
-14.223436
-14.752787
-15.109475
-15.102213
-14.611369
-13.773620
-12.790669
-11.646420
-10.360441
-9.222189
-8.469036
-7.705150
-6.396444
-5.030605
-3.751255
-2.555238
-1.520837
-0.823554
-1.072604
-2.276824
-3.937165
-5.036589
-5.152116
-4.483558
-3.653069
-3.297009
-3.473458
-4.180207
-5.109808
-5.452292
-4.943139
-3.970606
-3.080142
-2.726923
-2.661265
-2.539105
-2.633168
-2.603179
-1.559308
-0.101298
0.951412
1.582407
1.705830
1.434053
1.014550
0.545489
0.622195
0.949215
0.802121
0.493097
0.006044
0.408505
2.476676
5.551785
9.302394
12.990188
16.236697
18.693438
19.137250
17.058667
14.044167
11.714007
10.225382
9.420149
8.700143
8.296738
8.431208
8.624075
8.577044
8.546743
8.826415
8.906277
8.618402
7.624092
6.351374
5.329918
4.670517
5.194506
6.951125
8.639879
9.189435
8.526878
7.296774
6.304358
5.867493
6.358338
7.862750
10.370627
13.194159
15.360498
16.311251
16.144587
15.210252
13.267084
10.530992
7.585305
4.945488
2.980540
1.650373
0.655116
0.467303
0.923110
0.811370
0.221098
0.385240
1.264971
2.698360
3.970450
4.546521
4.990965
4.839136
4.098613
3.039278
2.725519
3.294330
3.684165
2.957530
0.934502
-1.267187
-2.920900
-4.054414
-5.010845
-5.315450
-4.556615
-3.888688
-4.744110
-7.039548
-9.995336
-11.889893
-11.904096
-10.652524
-8.905374
-7.692311
-7.347299
-7.901903
-9.315718
-11.193545
-12.720049
-13.750659
-14.789477
-16.091550
-17.446969
-18.118680
-17.695701
-16.831122
-16.235480
-15.777147
-14.870586
-14.008847
-13.626588
-13.326083
-13.065666
-12.556513
-11.827034
-11.019903
-10.258227
-9.631335
-9.332724
-9.706458
-10.115544
-10.418255
-10.996533
-11.519571
-11.781878
-11.714957
-11.488000
-11.535978
-11.726000
-11.829533
-11.533131
-10.677390
-9.514833
-7.812190
-5.567569
-3.130714
-1.197959
0.277728
1.317496
1.832646
2.512252
4.150185
7.053578
10.842381
15.316155
19.165249
20.694913
20.059502
18.346446
15.978092
13.594902
11.467707
10.178260
10.018856
10.573147
11.421313
11.855024
11.872071
12.017590
11.902693
11.208255
10.098100
8.828854
8.298872
7.766364
6.699138
5.814991
5.882859
6.365812
6.693463
6.820990
6.964930
7.367707
7.668843
7.243658
5.893921
4.230107
2.346283
0.621548
-0.523961
-0.310577
0.876918
2.109866
2.713084
1.836197
-0.350025
-2.184923
-3.269510
-4.199743
-4.425434
-4.265711
-3.456055
-1.867995
-0.279304
0.731739
1.329906
1.460589
0.928713
0.108328
-0.917863
-1.682692
-1.834836
-1.955730
-2.615130
-3.730336
-4.839229
-6.010306
-7.601834
-9.097088
-10.710713
-12.044983
-12.089488
-10.564244
-7.091410
-2.019155
3.115284
7.027193
9.499401
10.804950
11.559998
11.855452
12.385438
13.687830
15.135108
16.006317
15.424251
13.757913
12.094415
10.992466
11.135460
12.553382
14.709304
16.359864
16.954243
16.519273
14.819159
11.991212
8.523432
5.915180
4.835643
4.615002
4.547138
4.301245
3.509901
2.308837
0.555062
-1.767838
-3.767508
-5.212573
-6.733079
-8.539884
-9.853637
-9.954645
-8.677189
-7.094495
-6.370697
-6.466023
-7.192658
-9.089109
-12.084354
-15.271516
-18.230460
-20.125333
-21.061247
-21.680560
-21.512945
-20.954866
-20.701078
-20.404677
-19.136059
-15.827366
-11.370638
-7.355194
-3.821124
-1.125116
0.514711
1.128661
1.338573
1.749241
2.526700
3.588248
4.374861
4.737866
4.700936
4.403907
3.022288
0.638467
-1.317327
-3.072365
-4.900950
-5.876637
-5.624742
-4.217868
-2.434734
-1.083099
-0.047119
0.395115
-0.223251
-1.973554
-3.686294
-4.166403
-4.040770
-3.991842
-4.517089
-5.465314
-5.871244
-5.956785
-6.816310
-7.908473
-8.453291
-8.807770
-8.606380
-8.365219
-9.087119
-10.178019
-11.017659
-11.231039
-10.609514
-9.396767
-7.997784
-6.755051
-5.312192
-3.983916
-3.178679
-2.991178
-3.299571
-3.436879
-2.414788
0.173266
3.613587
7.464890
11.105020
14.221795
16.689900
17.977457
18.709777
19.964821
21.178515
21.616645
21.013116
19.605929
17.685489
15.032729
12.127131
9.725001
8.235429
7.837075
7.856331
7.857280
8.457657
9.165040
9.274574
8.535313
7.436521
7.157800
7.704515
7.835514
7.505341
7.400230
7.453893
7.586154
6.880983
5.044822
2.391432
-0.952927
-4.510668
-7.222139
-7.918471
-6.996442
-5.828203
-4.838308
-4.204472
-4.541590
-5.664687
-6.848074
-7.920982
-8.637201
-8.364158
-7.466750
-6.135633
-4.363546
-2.783062
-2.060843
-2.521697
-4.068402
-5.950649
-7.395398
-8.180745
-8.177586
-8.071525
-8.105614
-7.475881
-6.531125
-6.057010
-6.012186
-6.342990
-6.262812
-5.943683
-6.527643
-7.996066
-9.586016
-10.782345
-11.237517
-10.438278
-8.547506
-6.803197
-5.915574
-5.576559
-5.763110
-6.540565
-7.801919
-8.823060
-9.043385
-8.044968
-6.063287
-4.359381
-3.327505
-2.613808
-2.481547
-2.764056
-3.118219
-2.685139
-0.765957
1.841035
4.092601
4.813242
4.535468
4.496644
5.047148
5.955919
6.686030
6.846384
6.207817
4.694255
2.734673
1.241944
0.942074
2.130200
4.432901
6.776323
7.811356
6.991603
5.310428
4.104629
3.416504
3.066445
3.550030
4.482791
4.901035
4.111269
2.274792
0.713882
0.033648
-0.120705
-0.418997
-1.060090
-1.350806
-0.588183
0.603100
1.554800
2.473988
3.534904
4.142226
3.653278
2.457896
0.898249
-0.549657
-1.908232
-2.908224
-3.367816
-3.672736
-3.568569
-3.440095
-3.560674
-3.729863
-3.809722
-3.358965
-2.016484
0.093352
2.026107
2.813667
2.603127
2.612283
3.400790
4.016318
3.676044
2.275487
0.370197
-1.021522
-1.872209
-2.381674
-2.450801
-2.045814
-1.148091
-0.727953
-1.744043
-3.980138
-6.127850
-7.255051
-7.296400
-6.406252
-4.845970
-2.856082
-0.763290
1.349072
2.990477
4.229108
4.871151
4.624626
4.348115
4.308344
4.293194
4.392943
4.702602
4.953865
5.346225
6.046664
7.023933
7.980368
8.672600
9.341474
9.791283
9.740465
9.620202
9.598739
9.652718
10.357892
11.318115
11.926699
12.309274
12.769500
13.542855
14.232247
14.429848
13.901760
12.797286
11.781512
10.617379
9.197567
8.166009
7.702630
7.454843
6.910657
5.641727
4.207394
3.095661
1.488665
-0.158419
-0.819398
-1.034357
-0.560558
0.632618
1.386088
1.232681
0.312866
-0.808969
-1.788128
-1.937115
-0.876829
0.843174
2.620627
4.205846
5.386080
6.556845
8.125018
9.553041
10.516105
10.783466
9.797679
7.673957
5.077700
2.111811
-0.383752
-1.695611
-1.877111
-1.676984
-1.909304
-2.768514
-3.985361
-5.004607
-5.255867
-4.876764
-5.043743
-5.289321
-5.373599
-4.973978
-3.703151
-2.352779
-1.346155
-0.902343
-1.184852
-2.035224
-2.994496
-3.683253
-3.750485
-4.156416
-5.045928
-6.679439
-9.447097
-12.621948
-15.572054
-18.115913
-19.567606
-18.848228
-17.215976
-16.177155
-15.865918
-15.474505
-14.436315
-12.391819
-9.640572
-6.545577
-2.978678
0.906084
3.973933
5.271275
4.975824
3.474572
1.680078
-0.074644
-1.593257
-2.937943
-4.129853
-5.162042
-6.004207
-7.456847
-9.608347
-11.731438
-14.064755
-16.592515
-19.502848
-22.073537
-23.508501
-22.927064
-20.702644
-18.201080
-15.686258
-13.270868
-11.086852
-9.245953
-8.109594
-7.986487
-7.479544
-5.565098
-3.280704
-1.505776
-0.150670
0.687711
1.798185
3.664337
5.648543
7.656739
9.592335
11.501416
13.542440
15.352721
16.518750
17.158584
17.381753
17.697410
18.411422
19.216974
19.756430
19.801886
19.620386
19.482447
19.622284
19.809469
19.985606
20.401009
20.635542
20.493499
19.979615
18.977098
17.661451
16.444289
15.830974
16.055722
16.397578
16.426620
16.119805
15.729026
15.278589
14.334784
13.153606
11.441813
9.548834
7.838620
6.005615
4.414402
2.455136
0.256919
-1.768319
-5.004407
-8.712716
-11.140413
-11.704486
-11.064968
-10.305817
-10.861052
-13.209836
-15.342712
-17.151411
-18.180759
-17.980316
-17.058919
-15.368903
-13.318093
-11.336728
-9.894184
-8.838002
-8.270769
-8.195011
-8.574741
-9.633129
-11.367018
-13.389415
-15.044075
-15.827212
-15.181381
-13.409294
-11.612271
-10.090814
-9.067145
-8.869543
-9.046939
-8.878378
-7.700669
-5.681741
-3.282764
-0.509106
2.565056
5.406580
7.070081
7.864901
8.530303
9.188760
9.992103
10.960217
11.731363
11.862677
11.536292
10.595327
8.867436
6.498135
4.459008
3.062869
1.501644
-0.083256
-2.003697
-4.150778
-5.702218
-6.327844
-5.741040
-4.414342
-2.619844
-0.836394
0.064486
0.477364
0.761770
0.853628
0.466006
-0.327864
-1.034928
-1.439912
-1.440541
-1.114784
-1.051335
-1.515977
-2.255870
-3.093300
-4.327192
-5.899150
-7.015302
-7.601787
-7.658603
-7.211319
-6.644717
-6.281397
-6.329059
-6.953106
-7.677847
-8.401957
-9.409525
-10.585021
-11.219800
-10.849220
-9.979590
-8.859646
-7.773792
-6.493496
-4.766232
-2.848944
-1.317071
-0.930077
-1.518771
-1.903236
-1.519399
-1.243830
-1.468575
-1.617562
-1.469834
-1.789274
-3.369440
-5.645939
-7.634561
-8.999765
-9.897485
-11.021213
-12.656302
-14.032239
-14.388927
-13.494675
-11.137365
-7.089409
-2.072710
2.942728
7.452171
11.216038
14.076501
15.927501
16.855527
17.329642
17.755147
18.079010
18.415184
18.580588
18.633936
18.948645
19.566699
20.046495
20.019351
19.531982
18.291461
16.162373
14.380505
14.101468
15.038963
17.066730
19.871007
22.345741
23.942639
24.374772
23.692328
22.553764
21.362801
20.214767
19.041797
17.783284
16.317386
14.679771
12.326884
8.716113
4.924788
2.383455
1.454169
1.489524
1.699121
1.875258
2.277088
2.507202
2.050451
0.864854
-0.903441
-2.501282
-3.402790
-3.588078
-3.501271
-3.780939
-4.384153
-4.735159
-5.058072
-5.942219
-7.526803
-9.135377
-9.772682
-9.135058
-7.553311
-6.070680
-5.711463
-6.468085
-7.992064
-10.355052
-12.975931
-15.421620
-17.707589
-19.919063
-21.533319
-22.045940
-21.388114
-20.083512
-18.630552
-17.109096
-15.765668
-14.368264
-13.665615
-13.588593
-13.596167
-13.217380
-12.184241
-10.873326
-8.888488
-6.213314
-2.981640
0.504766
2.986444
3.563462
2.798318
1.672064
0.795177
-0.058667
-1.011310
-1.585169
-1.496468
-1.270773
-1.652082
-2.261609
-2.189638
-1.062750
0.621585
2.066653
2.923657
3.378201
3.238684
2.489006
1.221655
-0.064005
-0.462043
-0.079153
0.390227
0.931892
1.756068
2.211875
1.897169
0.772810
-0.907102
-2.881204
-4.877402
-6.524802
-7.619490
-7.322141
-5.395069
-2.789970
0.020620
2.234308
3.429378
4.195157
4.504501
4.265236
3.900657
3.454323
2.461276
1.287989
0.708765
0.689512
1.033261
1.518424
1.792098
1.714134
0.867234
-0.767855
-3.209441
-5.843261
-7.558526
-7.724559
-6.508971
-4.175335
-0.797198
2.575257
4.598920
4.944563
4.740337
4.340088
4.043059
4.079993
4.027280
3.881765
3.820845
3.547806
2.979314
2.890932
3.654503
4.818323
5.859985
6.376397
6.411752
6.372297
6.050016
5.473001
4.813600
4.288984
4.137472
4.573708
5.350536
5.679449
5.107485
3.374228
0.965469
-1.183821
-2.510200
-2.962531
-3.235570
-3.832156
-4.526594
-4.930315
-5.043317
-5.129805
-5.331191
-5.383587
-5.199559
-5.156944
-5.209025
-5.426509
-5.756998
-6.232372
-6.990257
-7.822321
-8.224147
-8.356089
-8.668270
-8.877547
-8.880702
-8.783478
-8.709613
-8.403427
-7.416689
-5.770864
-4.641766
-4.508558
-4.926167
-5.236454
-4.873449
-4.119980
-2.952372
-1.262671
1.036558
3.210789
4.741715
6.115446
7.059254
7.609127
7.646060
7.143855
6.536538
6.070949
6.044436
6.192164
6.483830
6.712050
6.481940
5.652717
4.744265
3.993009
3.023951
1.696625
0.382241
-0.721601
-1.658778
-2.029986
-1.684342
-0.813134
0.438438
1.907812
3.031229
3.907803
4.719668
5.619601
6.648321
7.959868
9.584544
10.954802
11.683019
11.873676
11.319073
10.083918
8.752804
7.385391
6.026184
4.737999
3.722856
2.960867
2.682146
3.023686
3.637005
3.941298
4.000011
4.279051
4.954554
5.460866
5.426145
4.759485
3.816626
3.175534
2.442901
1.608943
0.749733
-0.014149
-0.860417
-1.740460
-2.613875
-3.013807
-2.882809
-2.698780
-2.724031
-3.191514
-3.815877
-4.421932
-4.469594
-3.872058
-2.794412
-1.862913
-1.365755
-0.775480
-0.058311
0.364037
0.240302
-0.253064
-0.962654
-1.439922
-1.466120
-1.384048
-1.218327
-0.842381
-0.527987
-0.604058
-1.152980
-2.109411
-3.261864
-4.415264
-5.327820
-5.991009
-6.566761
-6.941441
-7.155137
-7.298443
-7.618830
-8.301590
-9.203413
-9.927207
-9.839138
-8.927526
-7.642178
-6.212893
-4.908922
-3.941123
-3.133361
-2.411142
-1.982797
-1.488796
-0.921247
-0.620742
-0.226488
0.118209
0.175975
0.053503
-0.217011
-0.542134
-1.019402
-1.581896
-2.077157
-2.279174
-2.008656
-1.425640
-0.515922
0.619489
1.507427
2.042779
2.221441
1.784261
1.217979
0.892541
0.630865
0.440527
-0.007385
-1.147212
-2.827124
-4.560697
-6.031014
-7.003544
-7.659473
-8.318873
-9.008261
-9.313813
-8.910720
-7.905359
-6.355809
-4.510175
-2.365616
-0.257042
1.257471
1.942127
1.834807
1.285254
0.404895
-0.804692
-1.997864
-2.692303
-2.759851
-2.516479
-2.276265
-1.984914
-1.863385
-1.667362
-1.434407
-1.374746
-1.226387
-0.857385
-0.397790
-0.044887
0.357890
1.104100
2.358513
3.981610
5.657106
6.660574
6.953503
6.686777
6.106921
5.601560
5.136918
4.717731
4.405234
4.401448
4.485098
4.189332
3.546661
3.000580
2.788778
2.629690
2.128748
1.204828
0.373712
0.213045
0.673587
1.135707
1.214622
0.988300
0.559958
-0.053672
-0.693502
-1.210227
-1.823227
-2.099423
-1.845950
-1.464953
-1.295129
-1.433384
-1.616462
-1.350679
-0.292288
1.166669
2.628467
4.051440
4.909391
4.911287
4.240522
3.468117
3.318499
3.666983
4.287562
4.761361
4.802082
4.244322
2.989282
1.457412
0.311272
-0.213344
0.025608
0.550859
0.547704
0.058757
-0.808976
-1.765092
-2.635034
-3.545696
-4.402065
-4.767275
-4.652060
-4.257174
-3.611027
-2.868606
-1.958888
-1.266024
-1.175745
-1.438053
-1.968666
-2.421313
-2.584505
-2.825347
-3.195608
-3.527675
-3.236324
-2.078502
-0.635012
0.341941
0.532598
0.061643
-0.846809
-1.762205
-2.283349
-2.242312
-2.131516
-1.884357
-1.449067
-0.918450
-0.165297
0.723273
1.568598
2.317332
2.998201
3.328377
3.511774
3.477370
3.052500
2.600485
2.409200
2.017474
1.312619
0.553787
-0.097091
-0.703461
-1.125805
-1.130223
-0.976497
-0.522269
0.349255
1.631762
3.047790
4.127962
4.644059
4.492231
3.868183
3.057900
2.154814
1.439227
0.757414
-0.015938
-0.664922
-1.304752
-1.847991
-2.075261
-1.990979
-1.562003
-1.102724
-0.764341
-0.386500
-0.031387
0.042478
-0.434790
-1.328091
-2.165521
-2.373851
-2.018422
-1.282314
-0.267798
0.677589
1.267549
1.473989
1.587942
1.625822
1.605938
1.489463
1.118255
0.940859
1.056074
1.343006
1.650456
1.883095
2.255569
2.923180
3.705689
4.327846
4.725573
4.896344
4.821851
4.342689
3.590170
2.985694
2.943082
3.436768
4.388152
5.262201
5.497682
5.096171
4.480330
4.189930
4.416887
5.120799
5.870480
6.158043
5.910887
5.267585
4.466771
4.059263
4.064946
4.036224
3.784964
3.003090
1.534035
-0.321381
-2.420482
-4.268322
-5.471280
-5.912563
-5.766729
-5.658142
-6.020512
-6.369308
-6.315014
-5.723791
-4.311551
-2.651837
-1.423939
-0.759800
-0.563146
