EVENT_NAME: 202010301151
EVENT_ID: 10614
EVENT_DATE_YYYYMMDD: 2020/10/30
EVENT_TIME_HHMMSS: 11:51:24.00000
EVENT_LATITUDE_DEGREE: 37.879
EVENT_LONGITUDE_DEGREE: 26.703
EVENT_DEPTH_KM: 16.54
HYPOCENTER_REFERENCE: AFAD
MAGNITUDE_W: 6.6
MAGNITUDE_W_REFERENCE: AFAD
MAGNITUDE_L: 
MAGNITUDE_L_REFERENCE: 
FOCAL_MECHANISM: 
NETWORK: TK
STATION_CODE: 4501
STATION_NAME: 
STATION_LATITUDE_DEGREE: 38.61259
STATION_LONGITUDE_DEGREE: 27.38138
STATION_ELEVATION_M: 106.0
LOCATION: -_-_-
SENSOR_DEPTH_M: 
VS30_M/S: 340
SITE_CLASSIFICATION_EC8: unknown
MORPHOLOGIC_CLASSIFICATION: 
EPICENTRAL_DISTANCE_KM: 100.81
EARTHQUAKE_BACKAZIMUTH_DEGREE: 
DATE_TIME_FIRST_SAMPLE_YYYYMMDD_HHMMSS: 2020/10/30 11:51:18.3264770
DATE_TIME_FIRST_SAMPLE_PRECISION: millisecond
SAMPLING_INTERVAL_S: 0.01
NDATA: 11251
DURATION_S: 
STREAM: HNN
UNITS: cm/s^2
INSTRUMENT: sensor = CMG-5T/GURALP | digitizer = 
INSTRUMENT_ANALOG/DIGITAL: 
INSTRUMENTAL_FREQUENCY_HZ: 
INSTRUMENTAL_DAMPING: 
FULL_SCALE_G: 
N_BIT_DIGITAL_CONVERTER: 
PGA_CM/S^2: 34.779
TIME_PGA_S: 
BASELINE_CORRECTION: BASELINE REMOVED
FILTER_TYPE: BUTTERWORTH
FILTER_ORDER: 
LOW_CUT_FREQUENCY_HZ: 
HIGH_CUT_FREQUENCY_HZ: 
LATE/NORMAL_TRIGGERED: 
DATABASE_VERSION: 
HEADER_FORMAT: DYNA 1.2
DATA_TYPE: Acceleration
PROCESSING: Manual Paolucci et al., 2011
DATA_TIMESTAMP_YYYYMMDD_HHMMSS: 
DATA_LICENSE: U (unknown license)
DATA_CITATION: Turkish Accelerometric Archive v 1.0 - Disaster And Emergency Management Presidency, Earthquake Department
DATA_CREATOR: AFAD
ORIGINAL_DATA_MEDIATOR_CITATION: : AFAD - Disaster And Emergency Management Presidency
ORIGINAL_DATA_MEDIATOR: AFAD PROCESS SERVICE
ORIGINAL_DATA_CREATOR_CITATION: AFAD PROCESS SERVICE
ORIGINAL_DATA_CREATOR: network: TK
USER1: GuestUser
USER2: 
USER3: 
USER4: 
USER5: 
[...]
0.165814
-1.460567
-1.980057
-1.354791
-0.109892
0.769173
0.270025
-0.705428
-1.551634
-2.409732
-2.843788
-2.212263
-0.656608
0.679984
1.278023
1.104025
1.038933
1.439816
2.405881
3.873597
5.148852
5.757532
5.821373
4.973602
3.288701
1.728040
1.088691
1.394126
1.623829
1.312760
0.332301
-0.903523
-1.509699
-0.819027
0.770738
2.842753
4.823388
6.147149
6.222256
4.875650
3.136922
1.641041
0.734436
0.313837
-0.167787
-0.587760
-1.008986
-1.330068
-1.362927
-1.577608
-1.648021
-1.008986
-0.070148
0.630225
0.740695
0.010905
-0.348670
0.055657
1.012645
2.197772
2.904404
2.267871
0.306326
-2.252007
-4.588774
-5.584881
-5.312931
-4.405388
-3.353264
-2.308963
-1.617978
-1.457437
-2.335563
-3.870250
-5.045049
-5.262860
-4.523369
-3.062537
-1.092855
0.670908
1.474241
0.923456
0.060351
-0.294217
-0.245710
0.206809
0.797651
0.974466
0.821435
0.999189
1.198222
1.367213
1.471737
1.386303
1.377853
1.055206
0.621463
0.784508
1.361267
2.162409
3.351916
4.174338
4.324552
3.899259
2.986082
2.015950
1.657940
1.962436
3.080279
4.573970
5.694317
5.965015
5.050587
4.003470
3.197634
2.611173
2.253163
2.237203
2.345169
2.012821
1.160982
-0.147758
-1.818264
-3.005581
-3.446834
-3.134827
-1.953143
-0.834675
-0.220049
-0.217232
-0.594645
-0.791175
-0.568358
-0.443492
-0.674446
-1.036838
-1.853940
-3.174259
-4.463909
-4.876372
-4.172869
-3.002451
-2.071437
-1.446484
-1.381391
-2.062362
-2.518011
-2.158123
-1.021816
0.454037
1.516488
1.561865
0.533525
-0.755812
-1.299712
-1.061873
-0.544261
-0.275753
-0.367133
-0.418144
-0.206279
0.445587
0.793583
0.536342
0.058160
-0.672569
-1.255587
-1.371690
-0.984576
-0.453819
-0.351799
-0.405626
-0.267929
0.231532
1.370343
2.509466
2.680960
1.629775
-0.172481
-1.783214
-2.813432
-3.367659
-3.310390
-2.846917
-2.640373
-3.084443
-3.874632
-4.588461
-4.915803
-4.754010
-3.822683
-2.264212
-1.052485
-0.356493
-0.152139
-0.511401
-0.988957
-1.141988
-0.844063
-0.243207
0.284420
0.973527
1.334980
0.587978
-0.420021
-0.698543
0.030621
1.772478
3.670495
5.237729
6.169995
6.566184
7.013697
7.146699
7.588266
8.181924
8.818456
9.601760
10.345319
10.682675
10.181962
9.076324
7.936574
7.045617
6.376226
6.206296
6.278274
5.990677
4.897869
3.478346
1.960246
0.734749
-0.230376
-0.732654
-0.820592
-0.687903
0.011218
1.062091
1.890772
2.028155
1.214808
-0.825599
-3.439637
-5.721326
-7.479769
-8.657071
-9.053261
-8.859235
-8.157610
-7.700083
-7.660652
-8.222390
-9.055452
-9.637531
-10.492499
-10.770395
-9.741429
-7.958889
-6.061498
-4.217933
-2.839093
-1.932802
-1.393596
-1.210836
-0.729525
0.442458
2.047245
3.078402
2.877803
2.043176
1.116230
-0.266678
-1.886173
-3.357332
-4.613184
-5.364880
-5.840558
-6.339081
-6.790349
-6.845427
-6.775640
-6.749979
-6.520277
-5.780472
-4.963683
-4.341234
-3.700946
-3.162992
-2.555877
-2.223529
-1.693398
-0.737035
0.351078
1.393188
1.752763
1.025163
-0.123348
-0.582440
-0.131485
0.813925
1.419475
1.436374
1.456090
1.329034
0.863370
0.671534
0.402714
0.168317
0.271589
0.461235
0.627096
0.770425
1.086814
0.946927
0.252187
-0.354928
-0.785855
-0.949213
-0.598713
-0.056691
0.429940
0.871194
1.543089
2.680021
4.184666
5.846096
7.204594
8.421954
9.849613
11.624642
13.516401
14.895241
15.095839
14.492792
13.600896
12.341915
11.496961
11.309819
11.141454
10.260198
8.859452
7.202403
5.350702
3.593824
2.036292
1.175064
0.673099
-0.016321
-0.631886
-1.135729
-1.718434
-2.398152
-3.742568
-5.512591
-7.035073
-7.868135
-7.731690
-6.789723
-5.385847
-4.014518
-2.840345
-2.585607
-3.025296
-3.576394
-4.034860
-4.048629
-3.320091
-2.503302
-2.376872
-2.737073
-3.612696
-4.506469
-5.084168
-5.602093
-5.879050
-5.772023
-5.767016
-5.823972
-6.009549
-6.676437
-7.747025
-8.931838
-10.218985
-11.398478
-12.032193
-11.805621
-10.441176
-8.632662
-6.935869
-5.213414
-3.970080
-3.355767
-3.195539
-3.544786
-4.243595
-4.808149
-4.626328
-4.436369
-4.469855
-4.654806
-5.070711
-5.651226
-5.805821
-5.230939
-4.076482
-1.995078
0.814551
3.591320
5.400148
6.404391
6.641291
6.317392
6.152470
6.710452
7.827669
8.771514
9.052853
8.762439
8.079904
7.342290
6.651618
6.194091
6.286098
6.409398
6.109909
5.239293
4.212518
3.047733
1.551225
-0.399367
-2.218209
-3.724104
-4.852588
-4.943968
-3.994803
-2.340570
-0.480420
0.813299
1.526190
2.547019
4.007538
5.808855
7.392674
8.264855
8.121213
6.971449
5.670846
4.880344
4.527654
4.121450
3.799742
3.416070
2.758884
2.488186
2.509779
2.298227
2.064144
1.885765
1.691112
1.208237
0.497849
0.173324
0.338873
1.026102
1.665764
1.979961
1.982152
1.962436
2.066960
1.837258
1.523060
1.395378
1.352192
1.267383
1.345933
0.836457
-0.410946
-1.985690
-3.724417
-4.734294
-4.692046
-4.012954
-3.101342
-1.990697
-0.845941
0.200238
1.410087
2.764204
4.217525
5.330987
5.758158
5.797902
5.627033
5.240858
4.993631
4.873460
4.268222
3.324690
2.271001
1.309318
0.469684
-0.034159
-0.655982
-1.648647
-2.752720
-4.093068
-5.419646
-6.229550
-6.800676
-7.696640
-8.527199
-8.987855
-9.008197
-9.223816
-9.139634
-8.633913
-8.166372
-7.634677
-7.194988
-6.606337
-6.019250
-5.687214
-5.587072
-5.943204
-6.531855
-6.701472
-6.801302
-6.702411
-6.776266
-6.860762
-6.494928
-6.163831
-5.598338
-4.528375
-3.065666
-1.737836
-0.441301
0.566385
0.642743
0.213694
-0.032907
0.716599
2.738542
4.591182
5.915883
6.774606
6.943597
7.200526
7.315690
7.326017
7.391423
7.075660
6.466355
5.061853
2.378029
-0.943267
-3.771046
-5.585507
-6.233618
-5.665621
-4.309313
-2.128706
0.404279
2.723521
4.533913
5.776309
6.266382
6.288601
6.382485
5.939354
4.977045
3.898007
2.813024
2.015011
1.833503
1.748381
1.837884
2.017515
2.100446
2.606479
3.332827
3.910838
4.500115
5.161996
5.106291
4.140540
2.232509
0.004021
-2.230413
-4.493326
-6.571287
-8.718096
-10.325386
-11.225732
-11.664795
-11.796858
-11.649148
-11.653842
-11.914839
-11.723629
-11.140923
-10.599214
-9.509849
-8.173883
-6.859197
-5.389290
-3.920947
-1.926230
-0.210034
1.284596
2.325767
2.903152
3.182926
3.743412
5.453974
7.478109
9.188984
9.976356
10.252688
10.230781
9.996072
9.577976
9.183351
9.278487
10.154735
11.602736
12.980950
14.293133
15.227589
15.433821
15.323664
14.937488
14.540673
14.697459
15.192539
15.461047
15.169381
14.056546
12.124730
9.781078
6.991791
3.947766
0.932218
-1.925917
-4.657622
-6.808187
-8.532519
-10.020890
-11.415377
-12.791713
-14.143640
-15.604158
-16.608089
-17.253697
-17.434266
-17.136342
-16.587748
-15.811016
-14.914426
-14.461280
-14.400568
-14.762021
-15.286831
-15.658611
-16.152127
-16.133350
-15.498070
-14.416216
-13.273024
-11.883231
-10.297534
-8.801339
-7.202811
-5.760757
-4.482059
-3.518186
-2.639434
-1.810127
-0.900080
0.056909
0.571392
0.553241
0.469684
0.654322
0.604251
0.471875
0.246554
-0.248214
-1.259655
-2.671980
-3.844276
-4.567181
-4.147520
-2.384696
0.009028
2.768898
5.548484
8.267984
10.569389
11.570503
11.310132
10.457980
9.990126
9.814563
9.862757
10.109358
10.299942
10.516501
10.550925
10.248619
9.759172
9.398658
9.234674
9.240620
9.121388
8.881984
8.482039
7.934071
7.382973
6.381233
4.732008
3.183865
1.785622
0.618021
-0.309551
-1.319741
-1.967852
-2.708908
-3.570135
-3.959440
-3.677788
-2.712976
-1.187052
0.561065
2.163974
3.414193
4.224410
4.374624
3.839486
2.686280
1.443885
0.416171
-0.115212
0.628348
1.930203
3.881108
6.272015
8.415695
10.167253
10.772804
10.328108
9.143294
7.418962
6.031986
4.969847
4.041024
3.892374
4.368991
4.997073
5.122878
4.505748
3.248018
1.667641
0.270338
-0.824973
-1.538177
-2.208507
-2.883219
-3.779183
-5.906902
-9.104584
-12.763861
-16.155882
-18.255749
-19.025283
-18.549293
-17.006469
-14.819290
-12.953193
-12.205878
-12.323546
-12.521954
-12.163005
-11.536487
-11.063626
-10.986015
-11.328065
-11.478279
-11.066442
-9.909794
-8.356956
-6.627304
-5.095433
-4.828803
-4.676086
-4.139696
-2.968340
-0.186876
3.114391
6.430992
9.939429
13.232246
15.508928
17.250785
18.643081
19.026127
18.732897
17.688283
16.753201
15.616268
13.665676
11.597416
8.844431
5.308768
1.801582
-0.855329
-2.650387
-3.819866
-4.429484
-4.674208
-4.690794
-4.945219
-5.575180
-6.206704
-6.626678
-7.100478
-8.016158
-9.076419
-9.862539
-10.406126
-11.113071
-12.021866
-13.104346
-14.425604
-15.418581
-15.765951
-15.676449
-15.593205
-16.003477
-16.397476
-16.263222
-16.056991
-15.534058
-13.981221
-11.096172
-7.007533
-2.176899
1.790316
4.486346
6.594662
7.981639
8.889808
9.533538
9.550750
9.096665
8.706109
8.222607
7.487497
6.669144
5.766295
4.888481
4.670045
5.029933
5.937476
6.902914
7.979135
8.810633
8.842553
7.955351
5.888969
3.928989
2.311684
0.856173
0.097279
0.136397
0.405218
0.738192
0.615830
0.205245
0.515062
1.096828
1.806277
2.445312
2.507588
2.578314
2.776409
3.025827
3.403866
4.075448
5.107230
6.290166
7.696232
9.687820
11.932582
14.594813
17.949280
20.581782
22.728278
24.644446
26.480187
28.212030
30.206121
32.224623
33.134044
33.531485
33.379706
32.102887
29.712606
26.576887
22.640966
18.118897
13.931054
10.993431
9.132028
8.103688
7.804825
7.645222
6.804649
5.193604
2.837121
0.493781
-1.620169
-3.633037
-5.570172
-8.136642
-10.899642
-13.972771
-17.503114
-21.122021
-24.138820
-26.541619
-27.620970
-27.622534
-27.544298
-27.530841
-27.516446
-26.803242
-25.321130
-23.010337
-20.229186
-17.324422
-14.573940
-12.320104
-10.848632
-10.426468
-10.684648
-11.022943
-11.145930
-10.757877
-10.182683
-10.212100
-10.814521
-11.531167
-12.494727
-13.864179
-15.828853
-17.874894
-19.584518
-21.017497
-21.936932
-21.904073
-20.525233
-17.638620
-13.702386
-10.171417
-7.467564
-5.974186
-5.924740
-6.867020
-7.786768
-8.033370
-7.607138
-6.431400
-5.077908
-4.590339
-5.066016
-6.348156
-7.554876
-8.048078
-8.437383
-8.324723
-7.959515
-7.426881
-6.837603
-6.358483
-5.354553
-3.875883
-2.371865
-1.050920
-0.178740
0.733811
2.014386
3.819771
6.020407
7.862407
9.297264
10.432319
11.068851
11.170871
11.138012
11.106091
11.608995
12.514974
13.859703
15.305200
16.544153
18.215284
20.063230
21.800393
23.585750
25.602686
27.675640
29.362419
30.546607
31.517365
32.042488
32.757570
33.522410
33.764630
33.239819
32.186130
31.561490
31.333040
31.688546
32.063769
32.001179
31.671021
31.184077
30.892412
30.599807
29.872834
28.915219
27.951972
26.826931
25.567950
24.281116
22.664750
20.670032
18.221230
14.991002
10.841339
6.094262
1.313074
-3.369223
-7.648133
-11.772135
-15.779408
-19.318827
-22.770308
-26.001787
-28.829880
-31.213589
-32.505743
-32.697892
-31.828215
-30.079160
-28.364216
-27.381566
-27.167198
-27.484525
-27.919207
-28.150787
-28.525696
-28.929397
-29.664194
-30.663117
-31.333135
-31.498996
-31.019563
-30.299161
-29.794066
-29.126553
-28.338868
-27.758040
-26.592003
-24.751255
-21.923163
-18.558368
-14.893145
-11.105247
-7.951065
-5.100753
-2.301452
0.371732
2.867163
5.728115
8.735526
11.303873
12.537193
12.722770
11.926949
10.274907
8.426022
5.615142
2.377716
0.022798
-1.899942
-3.633037
-4.567181
-5.376459
-5.936319
-5.935380
-6.089976
-6.413875
-6.545312
-6.674246
-6.535298
-6.393220
-6.001412
-4.697679
-3.429622
-2.221338
-1.361049
-0.716381
0.219015
1.509604
2.849013
3.818519
4.737328
5.465867
6.398133
7.366700
7.917172
7.879932
7.739419
7.471224
7.467782
7.714383
8.211967
9.240934
10.052715
11.564870
13.333328
14.706535
16.244038
17.897018
19.380069
21.369780
23.367314
24.768686
25.402714
24.984931
23.313487
20.379306
17.550274
15.095526
13.159017
12.029282
11.818356
11.673462
10.850415
9.527592
7.804825
6.446013
5.150730
3.615104
1.988724
0.238105
-1.508447
-3.614573
-6.277743
-9.151526
-11.861012
-14.129557
-15.357870
-15.587885
-14.733230
-12.958513
-10.648659
-8.605122
-7.473822
-7.623098
-8.809163
-10.721888
-13.204802
-14.802078
-14.715705
-11.946759
-6.785341
-1.195814
3.739031
7.028093
8.042976
8.277999
7.966931
7.364197
6.968946
6.555544
6.108971
5.617958
4.494169
2.414018
0.628035
-1.079085
-2.343700
-2.666034
-2.594369
-2.172205
-1.706542
-1.244946
-0.538627
-0.215354
-0.200646
-0.201272
-0.051370
0.232159
0.721919
1.552790
1.946476
1.795324
1.064282
-0.337403
-1.771008
-3.260944
-4.112783
-4.631960
-4.429171
-3.024983
-1.549443
0.488774
2.158654
3.164462
2.836182
1.660444
0.232159
-1.520026
-2.567143
-3.252182
-3.419295
-2.575905
-0.976439
0.623967
1.700814
2.001242
1.452648
-0.174358
-2.523330
-5.156771
-7.658461
-9.738299
-11.378762
-12.395523
-12.502238
-12.008409
-11.252332
-10.235257
-9.349620
-9.082678
-9.068595
-9.201910
-9.144015
-8.852975
-9.036049
-9.031980
-8.534083
-8.321280
-9.048253
-10.738475
-13.340933
-16.574291
-20.564977
-24.284653
-26.853000
-28.397076
-28.674972
-27.941739
-26.431149
-24.331282
-22.288997
-20.121846
-17.679929
-15.423275
-13.206053
-11.349345
-9.663818
-7.783326
-5.971682
-4.364391
-2.540855
-0.277630
2.546081
5.222708
7.093499
8.241697
8.467957
8.018254
7.582007
7.471850
7.681837
8.343092
9.053479
9.647450
10.037381
10.246742
10.775621
11.561741
12.864535
14.907446
17.416021
20.413417
23.570729
26.535578
29.126145
31.220066
32.824227
34.032199
34.682813
34.779201
34.475956
33.652282
32.232134
30.901174
29.884726
29.047909
28.528731
28.355985
28.556270
28.619799
28.218289
27.721331
27.493193
27.311059
27.344231
27.094187
26.242348
25.029996
23.342591
20.894415
17.701114
14.015237
9.971349
5.958757
1.977771
-1.881478
-5.228748
-7.703838
-9.117102
-9.635340
-9.422850
-8.379488
-6.922099
-5.626190
-4.687352
-4.494577
-5.208407
-6.303092
-7.212825
-7.852487
-7.976101
-7.615900
-7.489157
-7.980482
-9.536449
-12.139846
-15.226119
-18.243857
-20.778719
-22.572213
-23.662203
-24.210172
-24.335663
-24.084680
-23.212813
-21.694086
-19.862101
-18.425679
-17.150737
-15.937133
-15.095308
-14.425291
-13.877322
-13.479568
-13.582527
-14.338605
-15.910219
-18.127441
-20.656045
-23.167436
-25.123348
-26.232741
-26.203950
-25.663806
-24.914613
-23.931337
-22.990621
-22.083391
-21.388651
-20.419144
-18.574641
-15.830731
-12.644941
-9.455709
-6.489294
-4.026410
-2.297070
-2.038577
-3.039065
-4.722715
-6.574103
-8.018974
-9.074854
-9.637531
-10.232128
-11.034521
-11.886673
-12.385196
-12.151425
-11.825649
-11.544936
-11.146556
-10.482172
-8.830756
-6.280872
-3.353576
-0.954532
0.918136
2.902213
4.580230
5.778187
6.727665
7.735038
8.764943
9.982303
11.020970
11.681912
11.997049
11.955740
11.923506
12.466781
13.829347
15.343067
16.722220
18.084473
19.261463
20.259761
21.091571
21.661132
22.377779
23.048422
24.085212
25.357337
26.515863
28.164775
29.879719
31.080806
31.322400
30.701202
29.305150
27.383036
25.072556
22.696671
20.509491
18.521033
17.051752
15.995246
15.111487
14.580105
14.868954
15.638175
16.746942
17.591270
17.688910
17.110273
15.600621
13.439417
11.405894
9.784521
8.470774
7.099132
5.493719
3.966543
2.514161
1.180072
-0.495754
-2.591553
-4.833497
-6.980932
-8.979405
-10.717820
-11.924540
-12.507245
-12.475324
-12.373930
-12.532907
-12.984800
-13.522442
-14.041932
-14.474110
-14.428420
-14.070097
-13.370663
-12.392081
-11.430085
-10.703425
-10.454945
-10.550081
-11.283313
-12.270658
-13.031429
-13.028613
-12.203061
-10.515344
-8.348506
-6.317800
-4.625701
-3.323220
-1.786969
-0.327076
1.387242
2.950407
3.521847
3.195757
2.019080
0.480325
-0.773963
-1.349157
-1.097862
-0.349608
0.430566
0.738818
0.593611
0.356398
0.249371
0.242173
0.231533
0.117620
-0.284202
-0.535811
-0.597461
-0.370575
0.050337
0.464052
1.084936
1.235776
0.939417
0.197109
-1.124462
-2.823446
-5.079160
-7.670665
-10.291588
-12.367671
-13.751205
-14.186826
-14.073852
-13.448899
-12.753533
-11.896374
-11.007295
-9.911045
-8.376671
-6.962156
-5.461580
-4.401945
-3.373604
-2.331182
-0.786480
0.782631
2.423406
4.136472
5.806978
7.826731
9.424320
10.399460
11.609309
12.696796
13.061378
12.974379
12.522798
11.350502
9.497549
7.203343
3.906457
0.906244
-1.570410
-3.190531
-4.079923
-4.926755
-5.567981
-5.784227
-5.942265
-6.120957
-6.409493
-7.517635
-9.394372
-11.505192
-13.344688
-14.690043
-15.317187
-15.771271
-15.650474
-15.174483
-15.005179
-14.592717
-13.756525
-12.740703
-10.853639
-9.079861
-8.005517
-7.249440
-6.874844
-6.889865
-7.579285
-8.635791
-10.153891
-11.259842
-12.138908
-12.707217
-12.617715
-12.902496
-13.150662
-13.407590
-13.662328
-13.324660
-12.819252
-11.794980
-10.428345
-8.997869
-7.699456
-6.825398
-5.629006
-4.148459
-2.902934
-2.371864
-2.299574
-2.300826
-1.745660
-0.565540
0.963826
2.838686
4.775508
6.746442
8.428526
10.462988
12.496510
14.369179
16.287538
17.756506
18.674376
18.812386
18.133293
16.910300
15.582783
14.110373
12.969998
12.140691
11.426235
11.057898
11.134570
11.409023
11.721030
11.813037
11.533889
11.533263
11.741059
11.797702
11.772666
11.762339
11.466918
10.942421
10.287425
9.591746
8.828784
7.710941
6.316454
4.622790
2.872797
1.528068
0.828008
0.524763
0.531648
0.592047
0.427124
0.175203
-0.083604
-0.291400
-0.318313
0.162059
1.003258
2.005623
3.130038
4.223784
4.967031
5.532524
5.977220
5.963451
5.640178
5.038070
4.232860
3.158516
1.993419
0.988549
0.091646
-0.553648
-0.996780
-1.373254
-1.672743
-1.819515
-1.915276
-1.723127
-1.526284
-1.407052
-1.640197
-2.607513
-3.759467
-5.312618
-6.945569
-8.338492
-9.224129
-9.381541
-9.021027
-8.635165
-8.397013
-8.239914
-7.978604
-7.276666
-6.337203
-5.252532
-4.385985
-3.618328
-3.002763
-2.771809
-2.735508
-2.758353
-2.803417
-2.911696
-3.263134
-3.956310
-4.755261
-5.483173
-6.079022
-6.219848
-5.928808
-5.308236
-4.413211
-3.304756
-2.259830
-1.209896
-0.107388
0.721293
1.833816
2.747305
3.307792
3.473027
3.519656
4.154310
5.200802
6.766783
8.488299
9.828020
10.531523
10.540285
9.741334
8.344344
6.990540
5.936225
5.266520
4.920402
4.875338
5.131954
5.260887
5.071242
4.229104
2.681900
1.086814
-0.414700
-1.615474
-2.078008
-2.305207
-2.695763
-3.123874
-3.414600
-3.312267
-2.994627
-2.702335
-2.533345
-2.383130
-1.952830
-1.285003
-0.725143
-0.279508
-0.271997
-1.052171
-2.232916
-3.392381
-4.272072
-4.772473
-4.919870
-4.961492
-4.916115
-4.965560
-5.123911
-5.209658
-5.318251
-5.485051
-5.706616
-5.970743
-5.958538
-5.718508
-5.501011
-5.096685
-4.736171
-4.514605
-4.729912
-5.106699
-5.011563
-4.411020
-3.251868
-1.893996
-0.945457
-0.630946
-0.576806
-0.607788
-0.414700
0.128887
0.879957
1.999052
3.076525
4.178720
5.172949
5.960634
6.804963
7.705934
8.360930
8.546507
8.317117
7.512846
6.246354
4.636560
2.916609
1.591909
1.237341
1.940218
3.627935
5.668969
7.443059
8.754303
9.891548
10.666716
11.140829
11.659693
12.038984
12.156964
12.179496
11.909424
11.231270
10.297752
8.974304
7.776660
6.657252
5.530334
4.578039
4.200626
4.604640
5.468996
6.374975
7.215861
7.636147
