EVENT_NAME: 202010301151
EVENT_ID: 10614
EVENT_DATE_YYYYMMDD: 2020/10/30
EVENT_TIME_HHMMSS: 11:51:24.00000
EVENT_LATITUDE_DEGREE: 37.879
EVENT_LONGITUDE_DEGREE: 26.703
EVENT_DEPTH_KM: 16.54
HYPOCENTER_REFERENCE: AFAD
MAGNITUDE_W: 6.6
MAGNITUDE_W_REFERENCE: AFAD
MAGNITUDE_L: 
MAGNITUDE_L_REFERENCE: 
FOCAL_MECHANISM: 
NETWORK: TK
STATION_CODE: 3518
STATION_NAME: 
STATION_LATITUDE_DEGREE: 38.4312
STATION_LONGITUDE_DEGREE: 27.1435
STATION_ELEVATION_M: 7.0
LOCATION: -_-_-
SENSOR_DEPTH_M: 
VS30_M/S: 298
SITE_CLASSIFICATION_EC8: C
MORPHOLOGIC_CLASSIFICATION: 
EPICENTRAL_DISTANCE_KM: 72.48
EARTHQUAKE_BACKAZIMUTH_DEGREE: 
DATE_TIME_FIRST_SAMPLE_YYYYMMDD_HHMMSS: 2020/10/30 11:51:11.1122290
DATE_TIME_FIRST_SAMPLE_PRECISION: millisecond
SAMPLING_INTERVAL_S: 0.01
NDATA: 10501
DURATION_S: 
STREAM: HNN
UNITS: cm/s^2
INSTRUMENT: sensor = CMG-5T/GURALP | digitizer = 
INSTRUMENT_ANALOG/DIGITAL: 
INSTRUMENTAL_FREQUENCY_HZ: 
INSTRUMENTAL_DAMPING: 
FULL_SCALE_G: 
N_BIT_DIGITAL_CONVERTER: 
PGA_CM/S^2: 106.101
TIME_PGA_S: 
BASELINE_CORRECTION: BASELINE REMOVED
FILTER_TYPE: BUTTERWORTH
FILTER_ORDER: 
LOW_CUT_FREQUENCY_HZ: 
HIGH_CUT_FREQUENCY_HZ: 
LATE/NORMAL_TRIGGERED: 
DATABASE_VERSION: 
HEADER_FORMAT: DYNA 1.2
DATA_TYPE: Acceleration
PROCESSING: Manual Paolucci et al., 2011
DATA_TIMESTAMP_YYYYMMDD_HHMMSS: 
DATA_LICENSE: U (unknown license)
DATA_CITATION: Turkish Accelerometric Archive v 1.0 - Disaster And Emergency Management Presidency, Earthquake Department
DATA_CREATOR: AFAD
ORIGINAL_DATA_MEDIATOR_CITATION: : AFAD - Disaster And Emergency Management Presidency
ORIGINAL_DATA_MEDIATOR: AFAD PROCESS SERVICE
ORIGINAL_DATA_CREATOR_CITATION: AFAD PROCESS SERVICE
ORIGINAL_DATA_CREATOR: network: TK
USER1: GuestUser
USER2: 
USER3: 
USER4: 
USER5: 
[...]
15.094483
16.604949
17.188855
17.840977
19.440939
21.568487
23.114313
23.552710
23.296735
22.409909
20.652224
18.754975
17.788981
17.499523
16.042555
12.641405
8.065549
2.297462
-4.754855
-11.703595
-17.544280
-21.173861
-22.221528
-22.260962
-22.762581
-24.120040
-25.476873
-25.744114
-23.924794
-19.290120
-13.023874
-7.515836
-3.441917
-0.079268
2.374343
4.372028
7.114153
10.046221
11.248460
10.315635
9.062066
8.334831
8.831431
11.135154
14.489979
17.989061
21.054747
22.509513
21.802618
19.247921
15.042564
10.412259
5.692772
0.705111
-3.900473
-6.826295
-7.665243
-7.899314
-7.933741
-7.468432
-6.892350
-5.862218
-4.545450
-3.948089
-5.266120
-8.415054
-11.390004
-13.434639
-15.320622
-17.433161
-18.974305
-18.927685
-17.058298
-13.929402
-10.731351
-7.959185
-5.014600
-1.995226
0.125124
1.592407
3.563806
5.726714
7.544469
9.885428
13.370742
17.448729
20.677134
21.324250
18.965755
15.039523
10.956518
6.882588
3.035839
0.553427
0.105005
0.490518
-0.648522
-3.736123
-6.933874
-9.512665
-11.515368
-12.797726
-13.147891
-12.338056
-10.907072
-8.810191
-5.442849
-1.035982
3.187514
5.530664
5.437720
4.324027
4.079004
5.441458
7.578706
10.239472
13.530774
16.721628
19.690308
21.731177
22.385803
22.573237
22.260935
20.656894
17.938227
14.926039
12.388240
10.515086
8.526152
5.524291
1.776737
-1.826872
-4.667892
-6.438720
-7.288933
-7.124030
-6.878705
-8.249933
-11.202665
-14.723037
-17.638845
-19.045120
-19.016963
-17.340961
-14.116937
-10.929212
-8.907119
-8.158304
-7.814722
-6.157809
-3.174108
-0.985854
0.334356
2.102356
4.639518
7.942398
11.856101
15.535739
17.381657
17.184824
16.078328
14.642638
12.811729
11.477113
10.542411
8.833228
6.585820
3.602734
-0.304409
-4.830511
-9.826933
-14.856526
-19.845439
-23.855533
-25.206734
-23.295102
-19.070042
-14.239166
-10.205614
-6.591064
-3.441202
-2.300297
-2.769059
-3.230624
-2.443006
-0.645904
1.250395
2.671052
3.333501
3.195810
3.185791
4.501933
6.422952
8.487602
10.875500
12.437911
11.972278
10.147002
7.575407
4.318515
1.257198
-1.227404
-2.523843
-2.764798
-2.589881
-1.184557
0.982106
1.903341
1.550047
1.007748
-0.410105
-2.932570
-5.418111
-7.339768
-8.914707
-10.555360
-12.267046
-12.933575
-11.912831
-8.937266
-4.289762
0.428775
4.562149
8.868255
13.538602
18.074080
22.413044
26.118341
28.671774
29.465650
27.674482
23.469751
17.727949
11.499554
6.426466
3.248117
1.369330
0.021572
-1.139685
-2.365405
-4.073649
-5.664860
-5.271523
-2.629220
1.262578
6.744331
13.087243
19.033997
24.120530
27.702223
29.346307
28.605929
25.621278
21.876228
17.949684
13.010839
6.494243
-1.864834
-11.940911
-23.439841
-35.626574
-46.278113
-53.558237
-57.194077
-57.130873
-53.446541
-45.992758
-36.028718
-25.533651
-14.148009
-1.615510
10.599687
20.908566
28.907146
35.343621
41.131098
46.452322
50.515914
52.484811
50.986537
44.625151
34.519346
22.302573
7.954806
-7.374284
-21.127814
-32.188342
-40.970802
-47.664510
-50.252377
-46.746723
-39.182791
-29.942539
-20.654410
-13.361155
-8.263983
-4.383137
-0.677839
3.074709
6.206108
8.398118
8.852474
6.566264
2.190051
-2.719379
-6.981688
-10.466387
-13.717334
-17.471772
-21.631443
-26.332155
-31.713784
-35.886284
-36.639492
-33.933353
-30.219607
-26.750878
-23.668607
-22.133107
-22.552741
-23.750297
-23.892995
-22.425086
-19.719573
-15.533628
-9.805294
-4.415227
-1.834882
-1.996043
-3.281217
-5.020440
-6.361314
-5.762701
-2.925135
1.687947
7.531437
14.512396
22.310080
29.340168
34.513067
38.327574
40.443856
41.077830
40.876302
39.138331
37.352482
36.590826
35.763456
33.665937
29.748155
24.196922
17.153993
9.456432
1.905631
-5.200195
-10.318657
-12.259715
-11.713047
-9.162430
-5.178632
-0.952946
3.153829
8.048228
14.664947
22.025480
28.465711
33.368246
36.214573
37.009701
36.315323
34.187451
30.560060
25.677853
20.350985
15.794530
12.652793
10.538064
9.081096
8.053143
6.716024
4.842244
2.606102
0.084262
-2.566189
-4.956914
-6.478344
-7.209960
-7.674655
-8.019500
-8.342753
-8.865964
-10.245953
-12.694569
-15.794688
-18.396010
-18.774651
-17.572725
-16.337004
-15.064045
-13.260685
-11.728940
-11.808115
-12.762844
-13.411849
-13.764204
-13.757013
-13.332697
-12.924340
-12.316339
-11.459253
-11.253357
-12.021585
-14.151334
-17.418866
-20.014555
-21.159540
-20.997766
-19.414389
-16.908519
-14.193931
-11.618281
-9.568651
-8.857699
-9.219442
-9.021055
-7.030881
-3.569036
0.222315
3.091486
3.414415
0.029538
-6.671055
-15.128702
-23.477453
-30.263161
-35.593784
-38.698596
-39.213358
-38.635397
-36.832350
-32.874838
-27.277930
-21.069261
-14.905966
-8.887553
-3.358236
0.372721
2.734020
5.049633
7.390280
9.699009
12.478372
16.132976
19.818559
22.748437
24.818407
25.436108
25.028053
25.064033
25.822236
26.517855
27.327064
29.361048
32.568487
36.471238
40.944444
45.056539
47.070496
45.095956
38.895724
29.401994
16.717717
2.995166
-8.774442
-18.135806
-24.999744
-29.168177
-31.387422
-32.458245
-32.686057
-32.150654
-30.989721
-29.095301
-25.965466
-21.419036
-16.425754
-12.111824
-8.967282
-7.740010
-8.384634
-9.787466
-11.443765
-13.058133
-14.175581
-15.738004
-17.572981
-18.213850
-17.314207
-14.144944
-7.563898
1.395664
10.852145
20.186899
27.826871
31.733690
31.964307
29.849265
25.176090
18.364097
11.128721
3.742204
-4.120266
-11.468920
-17.109022
-21.823190
-26.510133
-31.275307
-35.823939
-39.601220
-42.711352
-44.698722
-44.875215
-43.242397
-39.671656
-34.656469
-28.666532
-20.401969
-9.206271
3.098421
14.151115
23.164186
30.997856
38.388117
44.706934
49.009286
52.263037
54.979503
56.470255
56.683662
54.773583
49.977743
43.280279
36.403824
30.555629
25.642444
20.911691
16.042940
11.193591
6.155236
1.325914
-2.524591
-6.127574
-9.434534
-11.909749
-13.996002
-15.235802
-14.690699
-13.231239
-11.677590
-9.917099
-8.353124
-7.180613
-6.262194
-5.354727
-3.978817
-1.641613
0.581689
1.520134
1.680344
1.433131
0.400797
-1.153490
-1.794046
-0.950415
1.059787
3.869816
6.753694
8.897200
9.406318
7.755651
4.709355
0.903286
-3.670380
-7.880431
-10.593153
-11.643323
-10.845067
-8.159580
-5.487550
-3.955179
-2.540780
-0.108134
4.062478
9.659072
16.138731
22.776729
28.508193
33.056813
36.865688
38.763863
38.717545
38.345163
36.972058
32.920345
25.597038
16.543901
8.421393
2.364480
-1.839939
-4.760754
-7.040079
-9.460220
-12.086575
-14.198801
-16.067887
-17.943544
-18.718030
-17.962330
-16.246588
-14.315555
-13.846492
-15.037477
-16.783584
-18.667064
-20.272044
-21.490879
-22.285705
-22.725053
-23.967982
-25.926564
-27.591312
-29.534247
-32.612148
-36.139092
-38.509790
-39.256114
-39.081822
-38.362735
-36.354097
-32.801506
-28.374611
-23.361302
-16.417894
-6.600614
4.882659
16.175050
25.799570
32.878161
37.050963
38.485389
38.339875
37.483090
35.676589
33.627573
32.267924
30.761827
27.860413
23.183483
17.545571
11.895769
6.023479
0.011939
-6.307829
-13.244052
-19.890197
-24.508923
-27.234162
-28.375705
-26.956299
-23.259138
-18.027410
-11.874441
-5.665772
0.110127
5.360005
10.290703
16.030302
22.356630
28.476742
34.154696
39.210250
43.775768
47.840612
50.878448
52.106659
51.343438
48.935189
45.319688
40.138329
33.616727
27.099506
21.760434
17.687443
14.583256
11.926234
8.624907
5.272573
3.440099
3.460121
5.384895
9.047009
13.526474
18.150509
21.592639
23.598147
23.853172
20.912644
15.194624
7.279270
-2.019510
-11.093926
-19.375398
-27.463798
-35.159794
-42.622038
-50.512984
-58.481848
-66.003234
-72.829935
-78.301998
-81.448742
-81.942538
-79.781508
-75.255105
-69.537722
-63.048676
-55.720687
-47.606326
-38.416141
-28.891756
-19.130803
-8.903909
1.039165
9.963366
18.134053
25.491144
32.458648
38.526189
42.535959
45.252737
46.745993
46.247503
44.546769
42.644827
40.047260
35.916065
29.865410
22.500797
14.002158
4.675215
-4.831658
-13.440446
-20.444260
-25.753605
-29.664503
-32.408204
-33.915240
-34.361471
-33.961876
-32.584089
-29.925514
-25.492674
-18.803671
-11.132407
-3.826009
2.215560
6.999498
11.266176
15.496869
20.124345
25.085397
30.119984
35.028465
39.791124
44.375730
48.229978
50.359716
50.152556
48.975340
47.682969
45.733462
43.614039
41.493365
38.546265
35.081279
31.469847
26.648973
19.798804
11.087377
1.821454
-6.883088
-14.152573
-19.692540
-23.586227
-25.375831
-24.662376
-22.284491
-19.566774
-17.648571
-17.033374
-16.468556
-14.394518
-9.737940
-2.384917
7.092843
16.674805
24.655549
29.886964
31.540748
30.433626
26.799038
20.602248
12.397442
3.850612
-3.540912
-9.481419
-13.764694
-16.360696
-17.670904
-18.670381
-19.810359
-20.427133
-19.797854
-17.792659
-14.478513
-10.048803
-4.660927
1.497988
6.882735
10.119589
11.051463
10.272283
8.611290
6.909930
5.683585
4.772665
4.248516
3.473716
2.103115
-0.625879
-5.952121
-13.247891
-21.206741
-28.689951
-34.444582
-37.859500
-39.385311
-40.027119
-40.632940
-41.655261
-42.664125
-42.334312
-39.629737
-33.843199
-25.257266
-14.843871
-3.891938
6.215732
14.438677
20.431743
24.314780
26.140671
26.090598
25.009135
23.954584
22.269809
19.071746
14.717438
10.032059
5.122942
0.113376
-4.619254
-8.938828
-12.410071
-14.988237
-17.162734
-18.877236
-19.565043
-19.981861
-21.350272
-23.158025
-24.060496
-24.204446
-24.078031
-23.295733
-22.046870
-20.567695
-18.623833
-16.382069
-14.143435
-11.539308
-8.679838
-7.021673
-6.849572
-7.371217
-8.543114
-9.320417
-9.004059
-9.347339
-11.102522
-13.207863
-15.476862
-17.554980
-18.785080
-19.202210
-18.848927
-17.519955
-15.539794
-13.969560
-12.416849
-10.124392
-7.236446
-3.495476
1.236830
6.116522
10.418560
14.931508
20.504321
26.351252
31.277882
34.792297
36.793112
37.661776
37.463065
35.383383
31.329480
26.474497
21.995334
18.808223
17.555593
17.885719
19.138651
21.045276
23.275461
25.321336
26.776102
28.070652
29.142090
29.572351
29.644630
29.763847
29.446539
28.243976
27.373110
27.075203
26.275996
25.320015
25.114107
25.266181
24.210066
20.596756
14.890314
8.559907
3.078769
-0.891271
-3.550484
-4.749292
-4.290242
-2.799490
-0.733275
2.225392
5.958539
9.431023
11.800772
12.601532
11.621456
8.954108
4.569133
-0.840972
-6.958905
-13.566560
-19.729241
-25.244488
-30.148599
-33.743134
-35.112484
-34.068583
-31.073305
-26.551595
-21.238508
-16.437046
-13.159826
-12.209489
-14.267579
-18.962346
-25.375990
-32.496523
-38.646375
-42.800726
-45.282199
-46.319226
-45.916502
-44.063074
-41.070925
-37.403804
-33.164975
-28.578178
-23.974796
-19.145485
-13.978219
-9.203356
-4.787414
-0.805807
2.380041
5.270804
8.739845
12.771207
16.467742
19.923328
23.344493
26.976567
31.477310
36.847350
41.978630
46.040345
48.941122
50.368351
49.826365
47.447530
44.405928
40.679340
35.959227
31.446268
28.105826
25.271377
21.925615
18.210293
13.934215
9.083614
4.772489
1.449257
-0.928951
-2.189092
-3.137876
-4.438070
-5.042953
-4.733479
-4.187437
-2.447287
1.483627
7.018889
12.619239
17.658833
21.699270
23.834014
24.130971
22.813253
20.054218
16.202149
11.688877
7.076722
2.766223
-2.173874
-8.000164
-13.484119
-18.374774
-23.158097
-28.504992
-34.887031
-41.772561
-48.342040
-53.834756
-57.021554
-57.337298
-55.237600
-51.783266
-47.973140
-44.133912
-40.943684
-39.577474
-40.418300
-42.698252
-44.607078
-45.279239
-45.115274
-45.105579
-46.114757
-47.375210
-48.160336
-48.848143
-49.711499
-50.606147
-51.033917
-50.013799
-47.878428
-45.531210
-43.209651
-40.867753
-38.031438
-34.170932
-28.668214
-21.308933
-12.652592
-3.549712
5.177349
13.201901
20.344015
26.469760
31.901758
37.423564
43.919495
51.754417
60.907990
70.707120
79.955821
87.705003
93.776612
98.077399
100.362659
100.736907
99.170729
95.241682
89.189775
81.922168
73.516779
63.750494
53.887830
45.168580
37.374952
30.579857
25.067427
20.476863
16.703963
13.307195
9.675423
5.727287
1.494079
-2.550749
-6.497320
-10.711752
-15.223773
-19.570258
-23.275880
-26.156953
-27.809497
-27.121389
-23.755298
-18.989197
-14.607051
-11.422142
-8.734778
-6.406335
-4.396446
-2.068942
0.683509
3.261038
5.817913
7.940141
9.648374
11.832873
14.371599
17.087751
19.986337
23.125872
25.961874
27.126875
25.864231
22.488115
16.340142
7.512621
-1.707615
-8.951440
-13.515093
-16.206223
-17.771149
-18.742463
-19.177429
-18.805059
-18.139168
-17.762416
-17.636627
-17.675122
-18.281570
-19.234108
-19.835862
-20.695776
-21.736872
-21.579165
-19.893150
-17.392600
-14.331608
-10.988987
-8.025000
-5.523825
-3.276742
-1.815717
-1.816036
-2.625256
-3.455443
-4.779732
-7.064690
-10.303120
-14.433377
-19.270835
-24.672491
-30.452782
-36.323508
-41.544921
-45.541873
-48.279628
-49.459974
-48.898911
-46.871186
-43.519490
-38.998719
-33.926268
-28.840674
-24.079893
-20.152734
-17.463493
-15.712703
-14.711047
-15.185755
-17.545814
-21.405706
-26.189655
-31.495557
-36.870615
-41.442403
-44.508414
-46.466682
-47.658293
-47.205188
-44.227433
-39.158111
-32.937238
-25.811083
-18.320688
-11.063419
-3.742627
4.128281
12.865355
22.060860
30.820465
39.100987
47.011636
54.463542
61.082451
66.497238
71.237367
76.289791
82.004983
88.127285
94.402607
99.725082
103.350585
105.458418
106.100840
105.296939
102.946580
99.014403
93.718515
87.056098
78.086824
66.085028
51.804539
36.170351
20.161283
5.374486
-7.204024
-17.577376
-26.316340
-34.048009
-40.597774
-45.712794
-49.697542
-52.424971
-53.473577
-52.666558
-49.680041
-44.653902
-38.609517
-32.701253
-27.764609
-24.258330
-22.503785
-21.682685
-20.724212
-18.942130
-15.763480
-11.408557
-6.827393
-3.014763
-0.150599
1.580790
1.862100
0.273079
-3.364325
-8.568841
-14.366030
-19.879399
-24.471527
-27.657699
-29.354678
-29.879140
-29.588755
-28.611194
-27.404575
-26.500237
-25.771449
-24.333893
-21.746665
-17.960321
-12.924794
-7.541299
-2.805238
1.459563
5.626419
9.545129
13.297990
17.207312
21.168893
24.643254
27.058063
28.334777
28.597625
27.954566
26.869035
25.715288
24.720505
23.949774
23.282307
23.277607
23.930356
24.239829
24.643179
26.050068
28.229561
30.824925
33.565173
35.758434
36.709083
36.355164
34.338066
29.858902
23.409898
16.187039
8.802713
1.813293
-4.283362
-9.415279
-13.681656
-16.534254
-18.163016
-19.720119
-21.536947
-23.754940
-26.458900
-29.054277
-30.845445
-31.815820
-31.902192
-30.645505
-27.946876
-24.683111
-21.656228
-19.173201
-17.182401
-15.128077
-13.346308
-12.243266
-11.308262
-10.634861
-10.620472
-10.768177
-10.479043
-9.706759
-8.984229
-8.173455
-6.604160
-4.848050
-3.623907
-2.983675
-3.258426
-4.363984
-5.995562
-8.620040
-12.318777
-16.420558
-20.772362
-25.471197
-30.240439
-34.305607
-37.272421
-39.307981
-39.790825
-38.193679
-34.577252
-29.215035
-22.701268
-15.466216
-8.074704
-1.569072
3.662030
8.111455
12.496417
16.649818
20.024045
22.638185
24.235017
24.422764
23.175141
20.003050
14.863309
8.782614
2.339242
-4.002430
-9.758313
-14.618302
-18.516371
-21.603347
-23.729967
-24.254116
-23.255589
-21.197198
-18.096465
-13.811950
-8.547991
-3.114741
2.028431
6.766056
10.967021
14.306513
16.796423
18.127272
17.961418
17.129980
16.452500
15.745604
14.881309
14.282372
14.134980
14.354332
14.882225
15.808154
17.057331
18.484873
20.396191
22.571616
24.191917
25.516821
26.864568
28.005474
29.076911
30.019738
30.412449
30.190269
29.343497
27.285407
23.445855
17.993506
11.462516
4.675244
-1.330351
-6.211932
-9.903472
-11.953113
-12.241945
-10.703316
-7.953368
-5.084823
-1.771929
2.169624
6.650967
11.703704
16.421615
19.452567
20.332183
19.152776
16.060168
11.877654
7.560583
3.836499
1.464236
0.836510
1.197928
2.148578
3.367714
4.123727
4.535213
4.799000
4.696669
4.416911
4.216010
3.806077
3.349206
3.211515
3.335113
3.360767
3.041581
2.238932
0.814820
-1.201651
-3.872442
-7.124014
-10.633747
-14.251751
-17.722369
-20.898215
-24.333159
-28.093855
-31.820130
-35.573003
-39.181932
-42.290186
-44.899331
-47.323540
-49.651368
-51.561446
-52.837233
-53.467463
-53.201485
-51.717617
-49.200796
-45.612218
-40.566991
-33.955279
-25.913203
-17.169870
-8.449068
0.030785
7.933611
14.928652
21.128559
26.527701
30.795318
33.753359
35.433741
35.846792
35.107978
33.619405
31.740306
29.364288
26.384018
22.975046
19.101385
14.878191
10.499788
6.391750
2.782821
-0.403977
-3.118264
-5.070900
-6.333231
-7.329578
-8.134418
-8.938319
-9.446509
-8.876998
-7.001978
-4.385960
-1.180399
2.565891
6.436411
9.889807
12.489865
14.144276
15.195060
16.125683
17.185229
17.912766
17.752857
16.364419
14.409593
13.045562
12.525168
12.510768
12.804596
13.818768
15.230977
16.583105
17.373226
18.191823
18.414304
17.589125
15.832378
13.220729
10.704209
8.163594
6.043232
4.516796
3.884376
4.066803
4.559023
5.181418
6.178380
7.236675
7.767697
7.971090
8.032730
7.700714
6.443077
4.235410
1.457288
-1.310195
-3.382680
-4.595882
-5.349090
-6.071318
-6.970973
-7.761732
-8.273990
-8.551870
-8.440475
-7.865957
-7.101183
-6.295416
-5.650491
-5.305031
-5.060645
-4.850994
-4.878223
-5.101655
-5.241224
-5.362643
-5.974723
-7.124402
-8.347931
-9.447856
-10.622256
-12.046054
-13.504900
-14.822618
-15.708504
-15.896889
-15.299527
-13.958665
-11.896518
-9.061455
-5.439708
-1.364537
2.615818
6.039486
8.669898
10.456987
11.127572
10.678211
9.227814
6.815497
3.884981
1.225143
-0.768485
-2.379724
-3.730611
-4.298257
-4.272603
-4.209711
-3.727818
-2.707074
-1.697595
-0.710959
0.744745
2.525576
4.423439
6.552864
9.030570
11.927904
15.096228
18.082432
20.378018
21.699793
22.242706
22.258972
21.166870
18.765818
15.424124
11.067313
5.783941
0.364761
-4.755579
-9.676274
-14.155125
-17.941168
-20.807847
-22.550512
-23.235190
-23.242080
-22.851247
-22.065194
-21.144898
-20.576638
-20.586032
-21.034454
-21.526998
-21.556731
-20.829507
-19.236117
-17.096053
-14.946288
-12.896345
-10.799464
-7.967531
-3.380108
2.551000
8.688323
14.695470
20.075210
24.232679
26.814589
27.985535
28.318165
28.060625
26.844919
24.492683
21.617554
18.223915
13.891512
9.075332
4.898138
1.604946
-0.894050
-2.481820
-3.363012
-3.676878
-3.833032
-4.211047
-4.726747
-5.199890
-5.665523
-6.102993
-6.455035
-6.782670
-7.304315
-7.944246
-8.464953
-9.109577
-9.812717
-10.160378
-10.041161
-9.577104
-8.744739
-7.274327
-5.385539
-3.454193
-1.146403
1.726210
4.773434
7.719897
10.426349
12.650276
14.141341
14.955244
15.294758
15.182726
14.831936
14.254590
13.356499
12.332302
11.195452
10.102725
9.368292
9.162384
9.384240
9.884908
10.555180
10.885933
10.319852
8.634138
5.953334
2.668279
-0.655578
-3.492530
-5.444853
-6.441827
-6.787298
-6.670271
-6.264730
-5.900495
-5.703986
-5.357901
-4.512706
-3.184360
-1.671703
-0.103660
1.566083
3.027421
3.804712
3.750258
3.228925
2.874379
3.024576
3.979294
5.838041
8.078553
10.275882
12.314560
14.173620
15.855255
16.999916
17.003665
15.606465
