EVENT_NAME: 202010301151
EVENT_ID: 10614
EVENT_DATE_YYYYMMDD: 2020/10/30
EVENT_TIME_HHMMSS: 11:51:24.00000
EVENT_LATITUDE_DEGREE: 37.879
EVENT_LONGITUDE_DEGREE: 26.703
EVENT_DEPTH_KM: 16.54
HYPOCENTER_REFERENCE: AFAD
MAGNITUDE_W: 6.6
MAGNITUDE_W_REFERENCE: AFAD
MAGNITUDE_L: 
MAGNITUDE_L_REFERENCE: 
FOCAL_MECHANISM: 
NETWORK: TK
STATION_CODE: 3518
STATION_NAME: 
STATION_LATITUDE_DEGREE: 38.4312
STATION_LONGITUDE_DEGREE: 27.1435
STATION_ELEVATION_M: 7.0
LOCATION: -_-_-
SENSOR_DEPTH_M: 
VS30_M/S: 298
SITE_CLASSIFICATION_EC8: C
MORPHOLOGIC_CLASSIFICATION: 
EPICENTRAL_DISTANCE_KM: 72.48
EARTHQUAKE_BACKAZIMUTH_DEGREE: 
DATE_TIME_FIRST_SAMPLE_YYYYMMDD_HHMMSS: 2020/10/30 11:51:11.1122290
DATE_TIME_FIRST_SAMPLE_PRECISION: millisecond
SAMPLING_INTERVAL_S: 0.01
NDATA: 10501
DURATION_S: 
STREAM: HNE
UNITS: cm/s^2
INSTRUMENT: sensor = CMG-5T/GURALP | digitizer = 
INSTRUMENT_ANALOG/DIGITAL: 
INSTRUMENTAL_FREQUENCY_HZ: 
INSTRUMENTAL_DAMPING: 
FULL_SCALE_G: 
N_BIT_DIGITAL_CONVERTER: 
PGA_CM/S^2: 91.396
TIME_PGA_S: 
BASELINE_CORRECTION: BASELINE REMOVED
FILTER_TYPE: BUTTERWORTH
FILTER_ORDER: 
LOW_CUT_FREQUENCY_HZ: 
HIGH_CUT_FREQUENCY_HZ: 
LATE/NORMAL_TRIGGERED: 
DATABASE_VERSION: 
HEADER_FORMAT: DYNA 1.2
DATA_TYPE: Acceleration
PROCESSING: Manual Paolucci et al., 2011
DATA_TIMESTAMP_YYYYMMDD_HHMMSS: 
DATA_LICENSE: U (unknown license)
DATA_CITATION: Turkish Accelerometric Archive v 1.0 - Disaster And Emergency Management Presidency, Earthquake Department
DATA_CREATOR: AFAD
ORIGINAL_DATA_MEDIATOR_CITATION: : AFAD - Disaster And Emergency Management Presidency
ORIGINAL_DATA_MEDIATOR: AFAD PROCESS SERVICE
ORIGINAL_DATA_CREATOR_CITATION: AFAD PROCESS SERVICE
ORIGINAL_DATA_CREATOR: network: TK
USER1: GuestUser
USER2: 
USER3: 
USER4: 
USER5: 
[...]
-6.482018
-6.278242
-5.174830
-4.244831
-4.204539
-2.646967
-0.467096
0.627940
1.311625
3.174453
5.331368
6.948502
8.873373
9.694486
9.457131
9.223189
8.867951
8.975250
8.693534
8.226618
9.141106
10.829590
11.392601
9.928641
7.594827
5.459242
4.311706
3.157964
0.267307
-2.734718
-4.040777
-3.940613
-3.099337
-1.155852
1.201464
1.545460
0.058544
-1.364778
-2.630818
-3.716001
-5.004377
-7.932571
-11.862151
-14.073739
-13.373922
-11.908795
-11.253650
-10.099983
-7.770586
-6.143835
-6.878160
-7.726026
-6.141154
-3.509604
-2.229988
-2.261668
-2.268219
-2.830373
-3.997143
-4.913567
-5.183805
-3.912875
-1.750997
-0.720486
-0.786290
-0.843097
-0.890908
-0.662314
-0.409522
-0.692479
-2.312479
-3.490417
-2.445327
-1.951496
-2.179233
-1.703705
-1.096954
-0.935677
-1.305495
-1.017649
1.131201
4.138116
5.821016
6.747913
8.157201
8.526945
8.516670
9.279772
10.041012
10.910208
10.659204
8.339040
5.796448
4.422141
3.449878
1.952725
-0.663699
-3.590651
-5.905232
-7.500104
-7.962988
-7.467916
-5.964012
-2.176586
1.543522
1.972828
1.304580
0.972298
0.555017
1.285545
3.998373
5.919832
5.632532
5.233863
6.010925
6.944026
7.242109
8.023824
7.999280
5.642199
1.832053
-2.893859
-7.127143
-10.137855
-12.128567
-12.801779
-13.409535
-13.461689
-11.372401
-7.578151
-3.023554
0.897887
3.379601
5.943213
8.407245
9.114507
9.209087
10.561604
12.401786
13.878080
15.527477
17.668881
20.359994
21.898642
22.216269
21.987601
19.951907
17.239316
14.561779
10.241323
5.347583
2.191068
-0.050611
-2.022089
-3.683348
-6.426962
-8.942564
-10.951579
-13.428404
-14.790612
-15.378204
-16.498441
-16.636836
-15.484100
-14.896582
-14.157057
-13.116310
-12.562916
-11.470673
-10.530746
-9.879944
-8.779324
-8.472865
-7.868906
-6.899509
-7.459181
-9.149911
-10.801554
-13.166390
-16.029437
-18.240715
-20.367613
-21.836536
-23.202157
-25.085844
-26.247030
-27.176483
-28.090425
-28.314750
-29.319276
-31.581120
-33.661485
-34.162836
-33.273165
-31.634005
-28.183477
-22.732968
-17.901965
-14.510379
-11.022315
-7.662681
-3.580237
1.663977
6.722370
10.962715
14.334137
17.717968
21.872693
25.827947
28.670446
30.405774
30.450408
28.601466
26.212433
24.841849
24.999713
26.133216
27.008307
26.153306
24.593799
24.243835
23.210458
20.588451
17.935112
15.845750
13.599108
10.284692
6.321918
2.986097
0.723013
-1.660436
-4.518520
-6.756787
-9.707626
-14.019396
-15.646532
-13.726003
-11.439417
-8.840750
-4.761408
0.228116
5.019720
8.877256
14.371506
21.144168
25.228784
26.539732
25.678527
23.684403
23.200734
24.945058
27.411572
29.219801
30.108231
30.390493
29.765675
29.070747
28.279652
27.142663
26.259122
24.980673
22.789870
20.260928
18.772150
18.056438
17.463573
17.901875
20.812002
25.592128
29.362182
31.693750
32.878129
32.247727
30.350701
28.398146
26.113347
21.309880
14.266942
7.438677
1.942801
-3.567655
-9.233530
-12.783712
-13.615136
-13.689936
-12.890849
-11.533989
-11.512310
-12.286033
-13.553625
-15.112512
-16.983480
-19.798443
-22.469155
-23.936838
-25.572969
-26.505835
-27.240160
-29.195817
-30.320708
-30.816165
-32.371019
-35.189085
-37.847078
-38.777771
-38.050345
-35.478667
-32.216442
-29.917757
-27.661882
-25.578179
-23.778636
-21.753254
-20.458127
-20.444204
-21.114004
-21.763019
-22.340373
-23.454717
-24.385410
-24.610046
-24.811105
-23.649372
-19.653169
-14.296966
-9.642479
-6.249651
-3.825948
-1.803358
-0.264088
-0.000439
-0.809527
-2.576572
-5.041298
-6.191937
-5.612795
-4.378161
-2.333235
1.243552
5.895868
9.731998
12.033165
13.486504
14.775116
15.911101
15.816447
13.840315
9.799677
5.879093
3.362250
-0.679940
-7.418863
-14.427986
-20.085486
-25.590047
-31.322620
-35.221178
-36.982018
-38.305759
-39.347511
-39.656526
-38.456947
-34.794539
-29.698300
-23.923612
-17.421460
-12.144363
-7.278306
-0.699531
6.162475
12.657491
19.063165
24.480791
28.806447
32.410533
34.781499
36.041571
37.581461
39.715730
41.156660
41.465601
41.439195
41.047041
38.950235
34.873300
30.064560
25.503064
22.102097
19.899815
17.913447
17.439705
17.320234
15.934759
16.113718
18.052550
20.097165
21.998770
23.616835
25.785539
27.528932
27.288475
27.251212
28.253802
28.796959
28.564257
28.294330
27.043800
24.564493
22.745953
20.167376
15.337231
9.294129
2.653546
-5.141983
-14.492328
-23.367108
-30.161250
-35.811614
-40.316651
-43.013111
-44.293731
-45.099717
-45.857309
-43.293387
-36.844282
-30.889047
-26.098994
-21.345546
-16.056971
-8.596243
1.279539
11.817329
20.807436
26.633620
28.862506
28.234896
25.904185
22.749842
20.540425
18.319841
14.382195
9.308528
3.259222
-2.476143
-6.578515
-9.288624
-10.306180
-10.518406
-12.811582
-16.446764
-19.446308
-21.966253
-22.950925
-21.705744
-20.028427
-18.031275
-14.476513
-10.618668
-7.489216
-2.903287
3.363408
8.533170
12.492767
16.231799
18.720338
19.654680
21.035117
23.156667
24.528418
24.521246
23.156866
20.689658
16.836392
11.774513
7.355407
2.976320
-3.678224
-11.753569
-20.742820
-30.758275
-39.683000
-46.464733
-52.448583
-58.355188
-63.073345
-65.347287
-64.854076
-63.677453
-62.818493
-60.365629
-56.414718
-51.151891
-43.564284
-35.452406
-27.131752
-16.575659
-3.799330
10.069280
23.910591
37.182650
49.129144
58.687882
64.755417
69.318700
73.552841
76.122347
77.657894
77.574098
74.564007
70.468769
66.065485
59.452821
51.867001
44.572476
36.630525
27.242332
16.758757
5.532518
-5.144945
-13.569907
-21.481147
-29.368190
-35.935562
-41.905762
-48.859356
-55.513899
-59.874684
-62.794501
-64.475925
-64.442458
-61.870781
-55.519395
-46.409854
-35.636918
-22.483983
-9.097143
1.600719
11.142706
20.899984
29.631679
37.589688
44.137132
47.776273
49.801655
50.144100
48.022165
43.870779
38.115560
31.183371
23.121675
14.092096
5.281841
-2.874162
-11.169453
-17.425675
-18.926861
-16.384034
-11.667502
-7.027905
-2.788490
2.050267
7.574919
13.505027
19.819186
26.718107
32.871883
38.538615
44.935912
49.814068
51.867370
53.002113
53.349832
52.528025
50.355835
46.486127
42.735543
41.007276
40.934338
41.539538
41.667311
41.159756
39.500048
35.267384
29.798497
24.469830
18.536235
10.669667
1.116438
-9.082046
-19.250129
-29.382536
-39.339670
-48.727862
-56.921091
-64.114795
-70.176510
-73.124868
-73.244649
-72.579887
-71.704486
-70.360345
-68.482627
-66.763120
-65.254253
-62.029564
-57.888178
-54.195059
-49.154349
-42.883931
-37.247911
-32.922255
-29.843059
-26.238663
-22.090452
-18.918191
-17.078009
-16.850346
-18.729999
-21.061952
-22.974178
-27.270437
-32.427864
-35.703502
-37.920674
-39.303047
-40.229708
-41.030420
-39.962063
-38.147319
-36.485203
-33.204675
-29.134020
-25.403985
-21.298895
-17.081505
-13.603988
-9.759793
-5.655013
-2.165087
1.095277
5.020129
9.776679
14.733320
18.696950
21.582569
24.034503
25.631473
27.509501
29.064281
27.859664
25.139317
22.116197
17.606197
12.637693
8.024701
4.310723
0.773570
-3.912324
-7.381850
-10.176959
-13.215590
-14.993182
-15.505701
-15.084771
-12.829206
-8.927620
-3.815559
3.493162
11.574638
19.004344
27.532225
37.578317
46.635432
54.218386
61.618932
68.317141
73.186921
75.641026
75.941591
75.239839
74.158378
74.051006
74.290768
73.944526
74.148613
75.406204
75.623010
74.079634
72.097298
70.255180
69.128739
66.104067
61.091202
57.035363
53.035673
47.015838
40.272883
33.650602
26.469618
17.228469
6.602814
-3.578298
-13.291910
-22.772548
-31.307018
-37.109700
-40.356178
-42.385047
-44.226853
-45.198806
-44.268187
-42.076217
-39.588608
-37.112168
-35.141384
-31.462225
-24.523285
-15.907922
-7.144585
1.779756
10.744115
17.884077
22.483966
25.297614
26.691081
26.514529
25.116956
23.770569
23.236335
22.459509
19.482922
14.465404
9.507448
2.980715
-6.418645
-15.863918
-24.962366
-35.501780
-45.344443
-52.852089
-58.614132
-63.545099
-68.123036
-71.514697
-73.219387
-72.911687
-71.369005
-68.991214
-65.268624
-61.039447
-57.190908
-53.919066
-52.417023
-52.638246
-53.442681
-54.229123
-54.385821
-52.368814
-48.452338
-44.263799
-40.563545
-38.871958
-38.327871
-37.431065
-36.526194
-35.968457
-35.984936
-35.214389
-32.844043
-29.431982
-24.935086
-19.631620
-13.747425
-7.639872
-1.179910
6.550708
15.760451
26.001361
36.375975
45.741757
54.259711
61.500184
66.342354
68.646623
68.457042
65.945163
61.183265
55.183594
47.668814
38.830950
30.065987
22.037485
16.326317
13.022138
11.127284
10.450039
10.541517
11.469965
13.652008
16.785802
20.394542
23.690581
25.868591
26.345670
26.283279
27.136344
28.828862
30.415594
31.106725
30.599170
28.274352
24.066195
18.622747
12.841780
6.590832
-0.055335
-6.596028
-12.697141
-17.762743
-21.165261
-22.664896
-22.526265
-22.123328
-22.530993
-23.350008
-24.148548
-24.039699
-23.225411
-22.636653
-22.594500
-21.944939
-19.468188
-16.071948
-11.266694
-2.546477
9.741878
22.752422
35.109335
46.117727
54.929148
61.527467
65.919200
67.523925
66.592611
63.533815
57.924089
50.516645
43.046536
34.951026
26.035297
18.828875
12.272050
3.230373
-6.555831
-14.919680
-22.064369
-27.530153
-31.511230
-34.849843
-37.187690
-37.480573
-37.497052
-38.659169
-39.196816
-38.291634
-35.689865
-30.930213
-25.234941
-20.603410
-17.751604
-15.664799
-13.319270
-10.976224
-8.622630
-6.344419
-3.445771
1.225779
6.708241
11.297272
15.104552
18.632635
21.678637
24.448235
27.218142
29.030094
29.666936
29.251516
26.944691
22.349691
16.293561
10.388817
4.331755
-2.337058
-8.713955
-13.830743
-18.956838
-24.238973
-27.619155
-29.760323
-31.646491
-31.572076
-27.982570
-20.899068
-11.938431
-2.867047
6.094831
15.121234
24.358896
33.123163
40.774056
47.595422
53.118833
56.231223
57.665328
58.831093
59.199596
58.052370
55.808519
52.150691
47.089122
40.566732
32.786094
25.050748
17.202793
9.076571
1.326955
-6.178208
-14.089448
-21.806181
-28.325469
-34.263096
-39.915012
-44.742365
-49.700942
-55.082036
-59.483459
-62.819280
-65.418642
-67.216087
-69.548971
-72.758533
-75.117164
-76.527767
-77.394556
-77.392731
-76.373079
-74.316054
-72.214358
-70.217206
-67.477389
-64.333978
-61.130074
-56.642794
-51.676227
-46.907578
-40.740153
-34.014334
-27.827365
-20.661655
-10.986894
-0.897371
7.753977
15.409212
22.219411
28.469044
35.159809
42.071139
47.749660
52.376538
55.886628
57.573251
57.001170
56.086298
56.410129
56.811205
57.093777
58.514543
61.543173
64.708610
67.521638
70.094867
71.675085
72.458351
72.913405
72.150540
69.624390
64.964244
57.218351
46.898571
36.038390
24.702954
12.231495
-0.292080
-11.522352
-21.567278
-30.816182
-37.636692
-41.912166
-44.804995
-46.559009
-47.257970
-47.347040
-46.878956
-46.045435
-44.645765
-43.017462
-42.337500
-40.788303
-36.540203
-30.429547
-24.184878
-19.856430
-18.582708
-19.862709
-23.714734
-29.980573
-37.768346
-46.073564
-53.995661
-60.964767
-65.817868
-67.462686
-65.553946
-59.541010
-49.760155
-37.155066
-23.201766
-9.938083
1.401932
9.820616
16.243972
22.251945
27.288622
30.811121
32.792762
32.154605
30.318692
29.111594
27.557670
26.219969
26.419403
27.402449
28.370295
29.730258
32.388487
36.574234
42.395144
49.200690
55.716491
61.604409
66.262309
69.624115
71.668110
72.239186
71.093821
67.677653
61.746540
54.308694
46.659279
39.579426
33.528569
28.124518
22.796781
16.846435
9.708881
0.945469
-8.544475
-17.378616
-26.222684
-35.470968
-42.956898
-47.904616
-51.564306
-53.676934
-54.683631
-55.324581
-54.855567
-53.520422
-51.399492
-48.700935
-44.989513
-39.702489
-33.615410
-26.928368
-19.599173
-11.438901
-2.393265
7.138795
16.746858
26.370123
34.958186
41.492600
44.747070
45.599515
45.405901
44.233236
42.734221
41.030152
39.567122
37.959841
36.789038
36.279621
36.454547
36.738361
35.945404
34.006809
31.982283
31.681334
30.701936
26.951042
23.080093
20.877501
19.318924
16.835275
12.425786
6.792483
0.687028
-6.755472
-15.627460
-24.707294
-32.856782
-39.994647
-45.880157
-49.911179
-51.636033
-51.585504
-51.071509
-49.988572
-48.812258
-48.327113
-48.654121
-49.174085
-49.412680
-49.571239
-49.953776
-51.046715
-52.561551
-53.442299
-53.578212
-54.750567
-57.040019
-58.657538
-59.866498
-61.465093
-62.615732
-62.919474
-61.154675
-56.505151
-49.030463
-39.071542
-27.665760
-15.465818
-3.994580
6.340327
15.567751
22.549501
26.818387
28.688039
27.753623
24.487911
20.805575
18.061342
16.159973
14.405338
13.286961
12.606924
11.876632
11.614150
12.265262
13.971739
16.077468
17.914237
20.214474
22.840750
24.000311
24.021059
24.363814
24.837791
24.861020
25.116294
26.253519
27.141639
26.806565
25.252021
22.857094
20.482641
17.654338
14.052660
10.470835
7.488043
5.753262
5.104557
4.973607
5.117512
5.217986
4.429682
3.339226
2.774280
2.120612
1.427856
0.943257
0.831851
1.175537
1.722105
2.355535
3.360297
4.800917
5.720058
6.296718
8.071754
11.467994
15.984434
20.539031
25.259905
31.450907
38.099482
42.858824
45.252126
46.257508
46.715044
47.130390
46.979587
45.372926
43.141794
40.987287
38.373965
35.283527
32.433819
29.444823
25.711301
21.320115
15.228309
6.906339
-3.048623
-13.969297
-25.809149
-38.176063
-50.598507
-62.536389
-72.643358
-80.188540
-85.544507
-89.053740
-90.960693
-91.395967
-90.239818
-88.280513
-86.152448
-83.754803
-79.406812
-71.756230
-61.362692
-49.500888
-36.839960
-23.731076
-11.803816
-1.909111
6.139172
11.905794
15.666541
18.003693
18.107580
15.880791
13.015882
10.544021
8.588984
7.190480
5.851538
4.923016
5.528837
8.029474
11.549801
15.467209
20.027700
24.020181
26.772716
29.781492
32.309739
32.952786
32.991216
33.252384
33.448095
33.730977
34.323769
34.767655
34.930483
35.350792
34.952744
32.744569
29.511740
25.304204
19.784752
13.483858
7.266414
1.280703
-4.374315
-9.177162
-13.482727
-17.238895
-19.697107
-21.245757
-22.370648
-22.950174
-23.576853
-25.084864
-27.476069
-30.196415
-33.157492
-36.154864
-38.857529
-41.440138
-42.780942
-42.397238
-41.712001
-40.263626
-36.908025
-32.301932
-27.017700
-20.865165
-13.827886
-6.852650
-0.903619
4.615138
10.526633
16.443712
22.013655
27.053745
31.379401
35.248724
38.668230
41.496769
44.341750
47.567679
50.732806
53.256400
54.985833
56.449409
57.165047
57.309262
57.425557
57.029060
55.164917
50.950246
45.092345
39.300521
34.448350
29.871653
24.998076
20.181891
15.527949
10.251399
4.387914
-1.730881
-8.417687
-14.996537
-20.177540
-24.008781
-26.275278
-26.845187
-26.203381
-24.211192
-21.287106
-18.072034
-14.899152
-12.382693
-10.399190
-8.286016
-6.371692
-4.819394
-3.318902
-1.562479
-0.643028
-0.930638
-1.604470
-2.042226
-1.843413
-1.026954
0.517279
1.885928
3.069066
4.948335
6.821089
7.941563
8.816033
9.602401
10.068313
10.266816
10.075374
9.404643
8.499698
7.816869
8.177926
8.936995
9.199403
9.399147
9.543052
9.534018
9.430678
9.089711
8.823195
9.077848
9.649234
10.006569
10.025145
9.591733
8.155072
6.200035
4.342407
2.159670
-0.607520
-3.786991
-7.401079
-10.884254
-14.921790
-19.765896
-24.813194
-30.450840
-35.563905
-39.311077
-42.157372
-44.434727
-45.497264
-45.004052
-43.318670
-40.912960
-38.339731
-36.076100
-33.667598
-31.220318
-28.732709
-24.709207
-19.008041
-12.105086
-4.464741
2.813888
8.865292
14.136184
18.221110
20.362514
21.334083
21.871655
21.617238
20.519336
19.315960
17.776927
16.141106
14.844353
13.399317
11.659572
9.722528
7.455411
5.441743
3.703549
1.547801
-0.410028
-2.041506
-3.853842
-5.509518
-6.463168
-6.664227
-6.357147
-5.523006
-4.271930
-3.058701
-2.320106
-1.799906
-1.316622
-1.197225
-1.343375
-1.724671
-1.898121
-1.651534
-1.766972
-1.765148
-1.143506
-0.801062
-0.752084
-0.705899
-1.031666
-1.697122
-2.179240
-2.732397
-3.929569
-5.449058
-6.737435
-7.814862
-8.643184
-8.606615
-7.825831
-6.772364
-5.676398
-4.754154
-3.664082
-1.961017
0.267558
3.043360
6.826443
11.365219
16.141312
20.794559
24.819923
28.465268
32.252694
36.083861
39.207108
41.533712
43.248255
44.820098
46.627396
48.579566
49.972102
50.560240
51.117977
51.580476
51.424089
49.977501
47.253742
43.535110
39.609873
35.472136
31.038450
26.337045
21.348998
15.901827
10.268214
4.184164
-2.306584
-8.369229
-14.635068
-20.634429
-26.592530
-32.099574
-37.204263
-41.642602
-44.841927
-47.166745
-49.002347
-51.290869
-53.589629
-54.805414
-55.371600
-56.179137
-56.873134
-57.045653
-56.512734
-55.515107
-53.673374
-51.059817
-47.766260
-43.590440
-38.881354
-34.179402
-30.136356
-26.730190
-23.562271
-20.636633
-17.952036
-15.179957
-12.453170
-9.669922
-6.715745
-4.194943
-2.269141
-0.334963
1.499945
2.648028
3.641932
5.338483
7.161912
8.408335
9.129247
9.383899
9.139410
8.295887
7.278642
6.368423
5.930667
6.618075
7.894279
9.134187
10.466850
11.728163
12.687323
13.527669
14.396245
15.035259
15.556079
16.643049
17.994636
19.174051
20.565967
21.930272
22.692133
23.189687
23.989394
24.803992
24.763937
24.300122
24.104027
23.363497
22.118552
21.275340
20.818350
20.487930
20.597710
20.879042
20.837125
20.378274
19.441066
17.915993
16.089076
14.289149
12.434313
10.576685
8.734878
7.153035
5.646265
3.552560
1.046574
-1.134922
-3.021090
-4.905397
-6.766437
-8.413737
-10.062588
-11.957752
-13.911858
-15.784687
-17.373975
-18.824596
-20.443666
-22.046914
-23.172115
-23.636550
-23.136204
-21.489599
-19.002301
-15.980806
-12.725095
-9.393691
-6.100134
-3.106869
-0.318348
2.213001
3.916687
4.836449
5.390463
4.975353
3.740644
2.719987
1.948746
1.151756
0.010734
-1.204431
-1.846000
-1.736840
-1.634505
-1.696276
-1.145054
-0.495182
-0.663358
-1.422501
-2.160549
-3.150184
-4.565440
-6.342101
-8.334364
-10.099857
-11.736609
-13.221044
-14.393708
-15.257705
-15.887486
-16.542085
-17.137433
-17.720371
-18.469277
-18.891522
-18.938712
-19.034296
-19.177655
-19.161871
-18.922419
-18.754007
-18.429245
-17.743077
-17.506418
-17.831564
-17.958481
-18.424467
-19.870744
-21.548135
-22.812935
-23.569596
-23.666731
-23.098757
-22.240419
-20.765365
-18.468231
-16.220732
-13.815642
-11.263508
-9.429220
-7.913528
-6.560390
-5.659241
-4.915993
-3.863768
-2.600593
-1.175485
0.672142
2.578400
4.520644
6.821500
9.329583
12.169601
15.530165
18.703978
21.016313
22.538209
23.302552
22.826329
21.783336
21.402970
21.758444
22.451126
22.932548
23.148114
23.218806
23.032328
22.519189
21.635338
20.878056
20.414552
19.719004
19.061924
18.559022
17.923346
17.106502
16.049550
14.968089
13.937505
12.976099
12.308781
12.106482
12.407357
13.054747
14.099837
15.554727
17.391186
19.429287
21.024396
22.410107
23.831803
24.980196
25.488608
25.156326
23.995450
21.897402
18.821855
15.161235
11.342713
7.421819
3.736381
0.406764
-2.665371
-5.438145
-7.733802
-9.553583
-10.877634
-11.690755
-12.079497
-11.878202
-10.944790
-9.503860
-7.936981
-6.381271
-5.134538
-4.252933
-3.617952
-3.536711
-4.284376
-5.520325
-6.783884
-8.086220
-9.007297
