EVENT_NAME: 202010301151
EVENT_ID: 10614
EVENT_DATE_YYYYMMDD: 2020/10/30
EVENT_TIME_HHMMSS: 11:51:24.00000
EVENT_LATITUDE_DEGREE: 37.879
EVENT_LONGITUDE_DEGREE: 26.703
EVENT_DEPTH_KM: 16.54
HYPOCENTER_REFERENCE: AFAD
MAGNITUDE_W: 6.6
MAGNITUDE_W_REFERENCE: AFAD
MAGNITUDE_L: 
MAGNITUDE_L_REFERENCE: 
FOCAL_MECHANISM: 
NETWORK: TK
STATION_CODE: 3518
STATION_NAME: 
STATION_LATITUDE_DEGREE: 38.4312
STATION_LONGITUDE_DEGREE: 27.1435
STATION_ELEVATION_M: 7.0
LOCATION: -_-_-
SENSOR_DEPTH_M: 
VS30_M/S: 298
SITE_CLASSIFICATION_EC8: C
MORPHOLOGIC_CLASSIFICATION: 
EPICENTRAL_DISTANCE_KM: 72.48
EARTHQUAKE_BACKAZIMUTH_DEGREE: 
DATE_TIME_FIRST_SAMPLE_YYYYMMDD_HHMMSS: 2020/10/30 11:51:11.1122290
DATE_TIME_FIRST_SAMPLE_PRECISION: millisecond
SAMPLING_INTERVAL_S: 0.01
NDATA: 10501
DURATION_S: 
STREAM: HNZ
UNITS: cm/s^2
INSTRUMENT: sensor = CMG-5T/GURALP | digitizer = 
INSTRUMENT_ANALOG/DIGITAL: 
INSTRUMENTAL_FREQUENCY_HZ: 
INSTRUMENTAL_DAMPING: 
FULL_SCALE_G: 
N_BIT_DIGITAL_CONVERTER: 
PGA_CM/S^2: 33.625
TIME_PGA_S: 
BASELINE_CORRECTION: BASELINE REMOVED
FILTER_TYPE: BUTTERWORTH
FILTER_ORDER: 
LOW_CUT_FREQUENCY_HZ: 
HIGH_CUT_FREQUENCY_HZ: 
LATE/NORMAL_TRIGGERED: 
DATABASE_VERSION: 
HEADER_FORMAT: DYNA 1.2
DATA_TYPE: Acceleration
PROCESSING: Manual Paolucci et al., 2011
DATA_TIMESTAMP_YYYYMMDD_HHMMSS: 
DATA_LICENSE: U (unknown license)
DATA_CITATION: Turkish Accelerometric Archive v 1.0 - Disaster And Emergency Management Presidency, Earthquake Department
DATA_CREATOR: AFAD
ORIGINAL_DATA_MEDIATOR_CITATION: : AFAD - Disaster And Emergency Management Presidency
ORIGINAL_DATA_MEDIATOR: AFAD PROCESS SERVICE
ORIGINAL_DATA_CREATOR_CITATION: AFAD PROCESS SERVICE
ORIGINAL_DATA_CREATOR: network: TK
USER1: GuestUser
USER2: 
USER3: 
USER4: 
USER5: 
[...]
-2.738480
-2.699516
-2.732764
-2.770369
-2.800815
-2.788620
-2.766775
-2.737771
-2.676397
-2.693148
-2.717369
-2.794193
-2.859500
-2.884032
-2.866856
-2.817932
-2.789862
-2.791984
-2.806556
-2.829533
-2.816092
-2.820392
-2.857686
-2.875371
-2.880295
-2.838529
-2.831314
-2.833124
-2.866061
-2.884368
-2.876530
-2.886122
-2.897893
-2.911531
-2.933574
-2.943789
-2.935017
-2.923132
-2.887281
-2.849873
-2.851995
-2.913256
-2.954285
-2.957963
-2.954482
-2.941664
-2.939740
-2.940305
-2.930288
-2.958556
-2.987446
-3.011356
-3.029663
-3.027116
-3.007139
-2.957281
-2.921119
-2.907367
-2.942793
-3.000319
-3.049441
-3.074284
-3.068936
-3.049581
-3.021511
-3.022700
-3.007702
-3.009513
-3.016615
-3.045505
-3.097740
-3.108266
-3.111321
-3.085741
-3.065453
-3.040807
-3.043863
-3.056567
-3.084212
-3.123996
-3.146039
-3.137267
-3.128495
-3.105716
-3.087607
-3.115874
-3.114261
-3.136926
-3.137803
-3.150508
-3.165391
-3.140434
-3.118900
-3.147479
-3.183528
-3.201213
-3.222633
-3.209814
-3.193261
-3.158655
-3.165445
-3.193091
-3.222914
-3.232818
-3.203503
-3.186327
-3.184714
-3.206756
-3.231289
-3.269828
-3.265725
-3.251350
-3.246313
-3.254038
-3.267676
-3.274156
-3.279390
-3.271863
-3.270561
-3.230664
-3.234964
-3.256696
-3.279361
-3.313853
-3.340253
-3.347667
-3.344186
-3.327010
-3.316370
-3.323473
-3.323416
-3.335809
-3.326726
-3.337252
-3.350268
-3.345853
-3.367273
-3.414216
-3.428789
-3.436513
-3.403774
-3.378817
-3.359774
-3.338863
-3.354991
-3.370497
-3.415261
-3.437926
-3.448763
-3.444660
-3.436199
-3.418712
-3.397801
-3.401791
-3.437840
-3.472644
-3.477878
-3.475643
-3.453175
-3.452185
-3.425671
-3.420012
-3.499325
-3.531328
-3.507927
-3.468029
-3.473264
-3.494372
-3.493071
-3.538146
-3.581354
-3.581608
-3.531128
-3.479402
-3.468763
-3.460925
-3.481722
-3.536135
-3.584012
-3.600763
-3.593236
-3.589755
-3.592500
-3.564119
-3.554413
-3.577078
-3.576710
-3.591282
-3.580020
-3.592413
-3.613211
-3.616889
-3.630839
-3.642610
-3.658116
-3.651211
-3.622519
-3.601919
-3.593458
-3.586554
-3.612331
-3.650870
-3.679760
-3.699313
-3.697077
-3.684881
-3.683268
-3.681966
-3.700585
-3.702707
-3.700471
-3.694189
-3.706272
-3.729870
-3.754714
-3.770531
-3.745263
-3.722173
-3.719626
-3.722993
-3.733830
-3.754939
-3.772312
-3.790931
-3.791497
-3.777745
-3.755900
-3.763313
-3.788157
-3.809266
-3.811699
-3.802927
-3.789486
-3.794409
-3.804624
-3.811103
-3.841239
-3.849897
-3.848284
-3.846359
-3.831051
-3.838464
-3.850235
-3.862629
-3.875022
-3.887416
-3.883935
-3.868627
-3.855808
-3.857619
-3.875615
-3.866843
-3.881104
-3.880736
-3.888772
-3.917662
-3.940638
-3.953032
-3.952664
-3.950428
-3.935120
-3.924791
-3.928470
-3.936817
-3.955124
-3.961915
-3.969328
-3.973318
-3.970460
-3.995926
-3.996492
-3.978071
-3.972100
-3.983560
-4.000622
-4.011770
-4.027276
-4.052743
-4.036812
-4.019013
-3.983784
-3.967231
-3.996432
-4.011627
-4.053901
-4.087149
-4.081489
-4.072717
-4.074839
-4.068246
-4.064143
-4.064397
-4.081148
-4.090429
-4.086637
-4.101210
-4.112047
-4.107010
-4.103841
-4.106896
-4.124892
-4.131061
-4.125090
-4.130947
-4.139606
-4.151376
-4.158167
-4.161223
-4.163656
-4.142745
-4.142688
-4.156949
-4.165608
-4.175822
-4.183236
-4.212126
-4.207089
-4.206721
-4.204485
-4.208164
-4.204683
-4.198401
-4.197410
-4.198910
-4.208191
-4.219028
-4.247607
-4.248172
-4.269281
-4.283853
-4.292200
-4.280938
-4.273723
-4.271798
-4.260847
-4.264214
-4.271628
-4.284021
-4.297349
-4.309119
-4.305016
-4.314920
-4.310505
-4.313872
-4.319729
-4.320606
-4.328953
-4.325473
-4.329774
-4.327227
-4.324369
-4.335517
-4.362851
-4.386761
-4.398220
-4.397852
-4.411491
-4.425441
-4.403596
-4.403228
-4.388542
-4.371366
-4.369442
-4.372497
-4.387692
-4.404754
-4.449519
-4.466270
-4.446604
-4.423203
-4.418166
-4.433049
-4.454780
-4.487094
-4.511004
-4.491649
-4.470427
-4.458543
-4.453506
-4.459985
-4.479538
-4.502514
-4.508371
-4.512049
-4.514794
-4.527810
-4.527442
-4.533299
-4.534487
-4.532874
-4.516320
-4.500078
-4.505313
-4.520507
-4.546907
-4.561791
-4.588191
-4.594671
-4.587766
-4.588332
-4.587964
-4.575768
-4.565440
-4.553866
-4.575597
-4.615693
-4.629331
-4.628652
-4.625171
-4.625426
-4.619144
-4.616597
-4.613427
-4.628000
-4.635724
-4.651542
-4.652730
-4.657342
-4.664444
-4.643222
-4.663708
-4.677969
-4.690362
-4.704623
-4.704878
-4.718827
-4.698850
-4.692879
-4.718968
-4.723892
-4.731305
-4.730626
-4.733681
-4.736426
-4.729521
-4.731643
-4.741547
-4.749894
-4.758241
-4.760674
-4.766843
-4.766474
-4.760504
-4.768540
-4.775019
-4.790214
-4.798250
-4.788855
-4.796891
-4.802437
-4.811407
-4.815396
-4.809737
-4.828355
-4.836391
-4.864347
-4.867092
-4.858942
-4.854528
-4.828014
-4.812706
-4.819186
-4.830957
-4.848641
-4.873174
-4.886190
-4.902007
-4.894169
-4.907496
-4.926115
-4.930727
-4.930359
-4.941818
-4.948298
-4.941082
-4.936045
-4.922916
-4.920369
-4.922491
-4.915275
-4.913662
-4.934148
-4.951522
-4.973253
-4.986891
-5.002397
-5.015413
-5.006953
-4.993200
-4.986296
-4.985928
-4.991785
-4.995152
-4.996963
-5.009667
-5.017703
-5.028229
-5.034398
-5.030606
-5.034595
-5.016485
-5.011137
-5.032246
-5.041527
-5.051430
-5.063824
-5.083065
-5.088299
-5.088554
-5.098457
-5.112096
-5.110483
-5.110737
-5.116905
-5.089769
-5.052050
-5.054483
-5.070301
-5.098568
-5.126213
-5.133315
-5.145086
-5.153745
-5.166138
-5.164214
-5.161044
-5.156319
-5.157818
-5.155894
-5.161128
-5.172588
-5.189650
-5.198931
-5.202610
-5.209089
-5.208099
-5.220803
-5.212965
-5.227226
-5.227792
-5.232715
-5.233592
-5.215171
-5.230366
-5.244938
-5.252040
-5.268169
-5.280562
-5.288598
-5.273912
-5.245842
-5.251388
-5.264093
-5.279288
-5.278919
-5.290068
-5.310243
-5.329484
-5.324136
-5.315052
-5.314062
-5.312760
-5.347564
-5.366183
-5.357099
-5.340546
-5.344847
-5.349770
-5.340375
-5.319464
-5.323143
-5.346741
-5.373453
-5.396740
-5.397928
-5.407832
-5.403729
-5.398069
-5.407661
-5.430949
-5.439918
-5.426166
-5.421129
-5.428231
-5.429420
-5.428118
-5.431485
-5.445746
-5.458762
-5.463685
-5.459582
-5.437426
-5.430210
-5.443226
-5.477096
-5.510655
-5.518069
-5.485018
-5.468465
-5.482726
-5.510994
-5.525877
-5.512436
-5.522028
-5.518859
-5.510087
-5.513765
-5.529583
-5.536373
-5.521065
-5.521631
-5.536203
-5.533034
-5.544493
-5.564668
-5.565545
-5.574203
-5.574458
-5.599302
-5.612629
-5.614128
-5.600999
-5.588180
-5.614269
-5.630086
-5.626917
-5.616589
-5.619644
-5.619588
-5.625445
-5.633169
-5.651788
-5.644572
-5.635800
-5.652240
-5.672415
-5.679828
-5.677593
-5.666331
-5.658804
-5.662482
-5.691683
-5.749831
-5.756000
-5.746605
-5.716668
-5.706962
-5.702859
-5.694709
-5.711772
-5.726655
-5.759592
-5.771362
-5.744226
-5.752262
-5.769636
-5.767711
-5.768588
-5.758260
-5.770654
-5.778378
-5.766805
-5.775774
-5.793148
-5.818926
-5.816067
-5.823792
-5.845834
-5.824612
-5.820509
-5.816717
-5.807634
-5.794193
-5.781063
-5.795636
-5.826393
-5.846879
-5.877326
-5.881315
-5.886550
-5.878400
-5.854999
-5.850896
-5.872938
-5.910544
-5.911421
-5.899847
-5.893877
-5.921833
-5.909326
-5.908958
-5.918550
-5.918804
-5.906920
-5.879784
-5.869455
-5.849789
-5.842574
-5.814815
-5.823473
-5.866992
-5.891525
-5.899250
-5.911332
-5.930573
-5.925847
-5.928903
-5.958727
-5.982014
-5.963905
-5.951709
-5.948539
-5.955330
-5.912320
-5.844720
-5.763425
-5.662521
-5.620445
-5.663653
-5.825138
-5.989114
-6.128811
-6.206569
-6.281214
-6.310726
-6.307868
-6.340805
-6.392728
-6.447452
-6.444594
-6.410299
-6.320911
-6.161491
-5.945733
-5.735889
-5.580204
-5.565518
-5.666308
-5.889734
-6.181014
-6.451128
-6.673620
-6.767562
-6.699340
-6.503192
-6.272805
-6.079146
-5.953653
-5.972271
-6.128154
-6.318898
-6.480695
-6.538843
-6.536919
-6.536239
-6.556414
-6.578768
-6.534513
-6.389410
-6.135679
-5.832769
-5.649382
-5.602948
-5.636507
-5.766555
-5.986868
-6.233016
-6.504686
-6.832694
-7.069815
-7.010308
-6.742882
-6.566965
-6.518663
-6.517984
-6.510457
-6.321467
-5.882538
-5.487185
-5.409625
-5.573601
-5.860212
-6.166743
-6.287142
-6.217053
-6.122685
-6.055086
-6.090201
-6.226163
-6.269371
-6.218579
-6.319059
-6.513226
-6.551143
-6.465179
-6.413453
-6.420244
-6.353890
-6.149337
-5.758653
-5.480332
-5.903585
-6.715909
-7.083446
-6.747543
-6.005139
-5.415250
-5.280730
-5.550533
-6.130659
-6.840891
-7.447162
-7.770501
-7.592094
-6.892332
-5.915240
-4.983280
-4.544662
-4.976318
-6.047297
-6.976964
-7.280072
-7.076764
-6.661491
-6.451024
-6.780277
-7.117311
-7.140288
-7.296171
-7.729695
-8.115908
-8.065427
-7.411108
-6.594313
-6.333112
-6.426121
-6.391515
-6.585060
-7.444072
-8.480189
-8.747191
-8.046495
-7.094614
-6.470488
-6.173803
-6.017495
-5.941803
-5.976607
-6.107278
-6.295531
-6.123661
-5.402110
-4.908711
-5.262554
-6.179149
-7.081426
-7.478844
-7.033067
-5.966644
-4.775096
-3.983201
-4.054422
-5.002454
-6.239644
-6.941471
-7.172056
-7.384276
-7.744032
-8.209927
-8.294843
-7.789305
-6.810345
-5.593274
-4.829393
-4.920223
-5.510621
-6.080786
-6.416887
-6.575883
-6.735501
-7.096813
-7.154027
-6.655960
-6.446427
-6.629700
-6.962066
-7.315908
-7.496380
-7.415708
-7.175050
-7.062940
-7.185207
-7.556791
-7.767144
-7.430308
-6.665492
-5.991564
-5.570066
-5.375473
-5.552833
-6.407488
-7.606392
-7.941248
-6.929918
-5.340583
-4.379676
-4.575711
-5.511915
-6.364080
-6.860166
-7.502233
-8.456489
-9.254495
-9.753383
-9.865068
-9.619741
-9.091792
-8.254454
-7.604182
-7.725826
-8.159973
-8.105446
-7.749311
-7.668950
-8.080064
-8.335860
-8.008672
-7.765835
-8.162942
-8.971531
-9.525822
-9.459468
-8.989102
-8.210592
-7.041142
-5.927097
-5.438056
-5.525151
-5.705312
-5.414541
-5.120346
-5.781711
-7.210945
-8.444400
-8.438740
-7.005345
-4.622617
-2.518463
-2.116885
-3.104447
-4.165153
-4.705750
-5.237631
-6.262232
-7.501289
-8.401698
-8.979023
-9.445229
-9.521430
-8.963290
-8.237382
-7.433971
-5.892881
-4.662426
-5.166916
-6.741197
-8.077677
-8.638506
-8.701634
-8.476227
-7.778644
-7.080749
-6.980778
-7.176191
-6.917480
-6.336617
-6.070747
-5.721149
-5.048777
-4.461067
-4.263985
-4.303769
-4.466188
-5.123817
-5.954816
-6.270374
-6.680865
-7.979061
-9.099529
-8.598037
-6.866458
-5.669930
-6.077931
-7.053976
-7.131733
-6.482394
-6.029770
-5.940382
-5.711240
-5.717098
-6.228747
-6.942402
-7.972917
-8.641752
-7.685513
-5.627737
-4.638506
-5.250691
-6.508735
-7.376774
-7.516471
-7.646209
-8.082845
-8.867156
-10.030266
-11.214231
-12.110594
-12.484045
-12.291009
-12.004596
-11.477892
-10.645223
-10.240844
-9.554777
-7.722662
-5.850395
-5.401505
-6.605701
-8.173757
-8.644632
-7.440011
-5.461916
-4.559214
-5.676881
-7.827298
-9.310070
-9.537853
-8.136206
-5.902881
-4.627293
-4.889626
-6.613310
-9.479618
-12.207728
-13.573155
-14.056169
-14.124278
-13.290986
-11.352733
-8.962534
-7.259590
-6.851165
-6.912737
-6.076332
-4.373078
-2.609128
-1.385209
-1.327881
-2.752758
-4.852752
-5.939293
-5.533046
-4.678589
-4.291328
-4.116968
-3.779508
-3.635962
-3.256172
-3.349803
-5.540062
-8.855202
-10.804236
-10.259168
-8.227849
-5.937253
-3.797616
-1.718363
0.153593
1.454393
1.721197
0.547815
-1.921329
-4.990266
-7.217875
-7.923437
-8.845323
-10.979244
-12.732497
-12.964327
-11.651389
-9.575871
-7.763365
-6.692584
-6.393721
-6.668815
-6.545812
-5.457289
-4.274145
-3.450814
-2.857812
-2.835034
-3.939317
-5.885549
-8.398581
-11.531325
-14.996180
-17.902640
-19.504312
-19.963981
-19.322735
-17.891830
-16.140953
-13.547815
-10.263375
-7.580906
-5.574799
-3.335871
-1.012904
0.988224
2.857378
4.049549
3.734925
1.811726
-0.405923
-0.853454
0.552239
1.123141
-1.749081
-6.880405
-11.472944
-14.938422
-17.693923
-20.775310
-24.678726
-26.974189
-25.952898
-23.245217
-21.157871
-19.349412
-15.220843
-9.584858
-6.440795
-7.011272
-9.022868
-9.724385
-8.627147
-7.913378
-9.186673
-11.861870
-14.690205
-16.160837
-14.842607
-11.861643
-10.442877
-11.103618
-12.450993
-14.605768
-17.014839
-17.659707
-15.625275
-12.857833
-12.864935
-15.866640
-17.597794
-15.388747
-11.130695
-7.293774
-5.363613
-5.822661
-7.299829
-7.832955
-7.759442
-8.577680
-8.940860
-7.146095
-4.373051
-2.501406
-1.917120
-0.861902
1.802514
3.771893
2.407400
-0.504663
-1.145484
0.304096
0.921064
-0.281576
-1.253575
-1.185975
-0.696000
1.040871
4.444833
7.576446
7.029002
2.899302
-0.445720
-0.560828
0.521469
0.246998
-1.728805
-5.016243
-8.270066
-9.753460
-8.936665
-5.242611
-1.439928
-0.908556
-1.897985
-4.105985
-9.484448
-16.272593
-20.505941
-21.044359
-19.118556
-15.769374
-12.666397
-10.557264
-9.485861
-9.903199
-10.609696
-9.984012
-9.354594
-10.409076
-12.552957
-13.959470
-13.190608
-11.325500
-8.076544
-4.034504
-2.126443
-2.952150
-5.633261
-9.395989
-14.749551
-20.710375
-24.811128
-26.041781
-25.598806
-23.900220
-20.884084
-18.407978
-17.454230
-17.534167
-17.633089
-17.576073
-17.955749
-18.149605
-15.174555
-7.984152
1.106785
8.373758
10.617043
8.296679
5.093903
4.863007
8.148380
9.745185
4.758595
-4.057700
-13.767614
-21.647026
-23.229400
-20.762943
-20.356696
-24.023246
-28.970306
-31.791482
-32.474323
-33.028926
-33.624615
-30.679757
-23.606386
-17.224006
-14.870847
-14.490123
-10.895360
-3.120106
5.615688
11.223660
11.649517
8.704461
5.858384
5.777514
7.979402
11.360021
14.167615
13.317007
8.851460
3.800440
3.799740
3.799040
3.798339
3.797639
3.796939
3.796239
3.795539
3.794839
3.794139
3.793439
3.792738
3.792038
3.791338
3.790638
3.789938
3.789238
3.788538
3.787837
3.787137
3.786437
3.785737
3.785037
3.784337
3.783637
3.782936
3.782236
3.781536
3.780836
3.780136
3.779436
3.778736
3.778035
3.777335
3.776635
3.775935
3.775235
3.774535
3.773835
3.773134
3.772434
3.771734
3.771034
3.770334
3.769634
3.768934
3.768234
3.767533
3.766833
3.766133
3.765433
3.764733
3.764033
3.763333
3.762632
3.761932
3.761232
3.760532
3.759832
3.759132
3.758432
3.757731
3.757031
3.756331
3.755631
3.754931
3.754231
3.753531
3.752830
3.752130
3.751430
3.750730
3.750030
3.749330
3.748630
3.747929
3.747229
3.746529
3.745829
3.745129
3.744429
3.743729
3.743029
3.742328
3.741628
3.740928
3.740228
3.739528
3.738828
3.738128
3.737427
3.736727
3.736027
3.735327
3.734627
3.733927
3.733227
3.732526
3.731826
3.731126
3.730426
3.729726
3.729026
3.728326
3.727625
3.726925
3.726225
3.725525
3.724825
3.724125
3.723425
3.722724
3.722024
3.721324
3.720624
3.719924
3.719224
3.718524
3.717824
3.717123
3.716423
3.715723
3.715023
3.714323
3.713623
3.712923
3.712222
3.711522
3.710822
3.710122
3.709422
3.708722
3.708022
3.707321
3.706621
3.705921
3.705221
3.704521
3.703821
3.703121
3.702420
3.701720
3.701020
3.700320
3.699620
3.698920
3.698220
3.697519
3.696819
3.696119
3.695419
3.694719
3.694019
3.693319
3.692619
3.691918
3.691218
3.690518
3.689818
3.689118
3.688418
3.687718
3.687017
3.686317
3.685617
3.684917
3.684217
3.683517
3.682817
3.682116
3.681416
3.680716
3.680016
3.679316
3.678616
3.677916
3.677215
3.676515
3.675815
3.675115
3.674415
3.673715
3.673015
3.672314
3.671614
3.670914
3.670214
3.669514
3.668814
3.668114
3.667414
3.666713
3.666013
3.665313
3.664613
3.663913
3.663213
3.662513
3.661812
3.661112
3.660412
3.659712
-4.348288
-12.938650
-17.518155
-17.527163
-15.159103
-12.130866
-10.838198
-11.849454
-12.360520
-10.156803
-5.938320
-1.471142
2.449779
3.913950
1.961453
-1.899671
-7.189776
-11.663453
-11.859527
-5.130135
4.824191
11.375233
10.960346
3.435728
-5.080555
-7.716260
-5.051572
-3.366720
-6.746952
-12.656147
-14.817497
-12.128842
-8.021477
-4.436713
-1.094730
2.511200
5.517648
8.001808
10.570006
10.250052
8.247443
7.973555
7.444125
6.685610
7.654571
11.778121
16.848203
17.289894
13.362161
9.713003
7.814665
9.048817
13.804840
16.282775
12.668477
5.656188
-2.132998
-8.593429
-11.733370
-11.247169
-8.226091
-5.777104
-5.906258
-6.581667
-6.206584
-5.934217
-5.187493
-3.256437
-2.444350
-2.920866
-2.608658
-1.036170
1.301076
4.177420
8.722722
14.354312
18.884674
20.382149
17.488100
12.553140
8.443322
5.331082
2.228491
-0.223884
0.973850
5.470286
9.897933
9.616575
2.631365
-8.073053
-17.227413
-20.044892
-18.170174
-16.562202
-17.142056
-18.789210
-19.802022
-18.857962
-15.618693
-12.309391
-13.260886
-16.776514
-18.668939
-18.688841
-17.308399
-15.222959
-13.287234
-10.920730
-7.340012
-3.987446
-0.917190
1.276567
1.118155
1.041915
4.297369
10.595671
17.296117
21.348388
22.502858
21.451139
18.897294
15.898974
13.318984
11.874147
12.677831
15.124950
15.579092
13.012486
8.592655
3.079068
-2.768186
-7.755126
-11.369735
-9.933889
-2.104825
5.501689
8.387370
7.988045
6.379488
3.819106
0.584231
0.396250
3.890438
6.180996
6.134325
4.721859
1.563553
-2.112684
-2.981695
-0.835561
-0.277771
-3.651155
-5.451136
-0.833933
6.719046
10.951847
10.277993
9.386572
12.294974
16.142750
18.038634
18.187433
15.668137
10.991520
6.633008
3.691025
1.544616
-0.072346
1.386533
6.259278
10.680389
11.882793
9.602543
5.573029
0.472791
-5.315947
-13.039459
-19.780332
-19.332726
-11.573696
-2.476883
3.662678
6.885139
5.956366
3.202383
0.903768
-1.859553
-5.485055
-8.208846
-8.037326
-7.354721
-9.720256
-12.039413
-10.961824
-9.625269
-9.770919
-9.607180
-9.468030
-9.997771
-9.396093
-6.882987
-1.673773
4.303000
7.005351
5.570163
3.359012
2.764840
2.889361
3.367781
4.664807
6.528942
8.261105
8.618135
9.714400
14.839263
20.320826
21.286052
17.691053
12.970859
9.693965
7.034604
4.265369
2.864108
1.189253
-4.071594
-10.571243
-11.776411
-6.877521
-1.969293
-0.441626
0.365793
3.033283
5.958804
4.126764
-4.515889
-12.540696
-14.511557
-12.991672
-11.669123
-10.827155
-8.209466
-3.727971
1.214495
6.268081
11.094137
12.403924
8.605674
2.049999
-5.234017
-9.581014
-8.931091
-6.054748
-5.772731
-7.681341
-8.550041
-8.886180
-8.186145
-6.083898
-3.424812
-1.171294
-0.155022
-1.848864
-5.426433
-9.462795
-11.088783
-5.821676
3.295369
9.975583
11.849679
13.689225
18.046840
22.069853
23.542739
20.075666
13.949837
9.465888
8.263832
9.982610
12.064315
13.875537
16.942058
20.231750
20.344443
15.261636
7.986335
3.050440
3.391907
6.326144
5.839045
1.942126
-1.177895
-1.806616
-2.444363
-3.655446
-4.344551
-6.077300
-10.559070
-15.220436
-15.152564
-8.215563
1.433419
6.290913
3.781578
-1.476779
-5.039407
-8.485626
-13.583685
-16.290046
-12.601011
-5.912082
-3.498266
-5.334975
-3.584137
3.032269
7.396109
4.911986
0.286415
-1.614102
-2.187419
-5.408288
-11.325264
-14.153015
-12.024934
-9.863859
-11.215007
-13.489343
-12.618428
-9.200187
-7.102297
-6.078244
-5.919796
-5.000637
-1.331522
1.886892
3.743247
5.233252
5.656268
3.348316
-2.013689
-6.821968
-6.504157
-0.791952
5.760024
9.557065
11.138891
10.925387
9.612834
7.791066
6.915207
9.779722
14.092827
15.558554
12.854372
