EVENT_NAME: 202010301151
EVENT_ID: 10614
EVENT_DATE_YYYYMMDD: 2020/10/30
EVENT_TIME_HHMMSS: 11:51:24.00000
EVENT_LATITUDE_DEGREE: 37.879
EVENT_LONGITUDE_DEGREE: 26.703
EVENT_DEPTH_KM: 16.54
HYPOCENTER_REFERENCE: AFAD
MAGNITUDE_W: 6.6
MAGNITUDE_W_REFERENCE: AFAD
MAGNITUDE_L: 
MAGNITUDE_L_REFERENCE: 
FOCAL_MECHANISM: 
NETWORK: TK
STATION_CODE: 0918
STATION_NAME: 
STATION_LATITUDE_DEGREE: 37.3697
STATION_LONGITUDE_DEGREE: 27.2643
STATION_ELEVATION_M: 47.0
LOCATION: -_-_-
SENSOR_DEPTH_M: 
VS30_M/S: 630
SITE_CLASSIFICATION_EC8: B
MORPHOLOGIC_CLASSIFICATION: 
EPICENTRAL_DISTANCE_KM: 75.17
EARTHQUAKE_BACKAZIMUTH_DEGREE: 
DATE_TIME_FIRST_SAMPLE_YYYYMMDD_HHMMSS: 2020/10/30 11:51:11.6985120
DATE_TIME_FIRST_SAMPLE_PRECISION: millisecond
SAMPLING_INTERVAL_S: 0.01
NDATA: 10501
DURATION_S: 
STREAM: HNN
UNITS: cm/s^2
INSTRUMENT: sensor = GMS+/GEOSIG | digitizer = 
INSTRUMENT_ANALOG/DIGITAL: 
INSTRUMENTAL_FREQUENCY_HZ: 
INSTRUMENTAL_DAMPING: 
FULL_SCALE_G: 
N_BIT_DIGITAL_CONVERTER: 
PGA_CM/S^2: 38.791
TIME_PGA_S: 
BASELINE_CORRECTION: BASELINE REMOVED
FILTER_TYPE: BUTTERWORTH
FILTER_ORDER: 
LOW_CUT_FREQUENCY_HZ: 
HIGH_CUT_FREQUENCY_HZ: 
LATE/NORMAL_TRIGGERED: 
DATABASE_VERSION: 
HEADER_FORMAT: DYNA 1.2
DATA_TYPE: Acceleration
PROCESSING: Manual Paolucci et al., 2011
DATA_TIMESTAMP_YYYYMMDD_HHMMSS: 
DATA_LICENSE: U (unknown license)
DATA_CITATION: Turkish Accelerometric Archive v 1.0 - Disaster And Emergency Management Presidency, Earthquake Department
DATA_CREATOR: AFAD
ORIGINAL_DATA_MEDIATOR_CITATION: : AFAD - Disaster And Emergency Management Presidency
ORIGINAL_DATA_MEDIATOR: AFAD PROCESS SERVICE
ORIGINAL_DATA_CREATOR_CITATION: AFAD PROCESS SERVICE
ORIGINAL_DATA_CREATOR: network: TK
USER1: GuestUser
USER2: 
USER3: 
USER4: 
USER5: 
[...]
0.009153
-0.396344
0.134102
0.854179
0.706891
0.379324
-0.159434
-1.261369
-1.994954
-2.310572
-2.311610
-1.383719
-0.130858
0.154627
-0.146963
-0.283860
-0.155015
-0.055784
-0.317370
0.072283
0.976275
1.369564
1.375799
0.611302
-0.836904
-2.197568
-3.383148
-4.506125
-5.055534
-4.825639
-4.806416
-4.862265
-4.279865
-3.859301
-3.431982
-1.919613
-0.585445
-0.896387
-1.651532
-1.487358
-0.844172
-0.802090
-1.168622
-1.187325
-1.446313
-1.916233
-1.642438
-0.811699
0.599880
2.339286
3.353420
4.317939
5.627429
6.547268
7.267864
7.392293
6.737938
6.541294
7.122395
7.312026
6.913543
6.593509
5.654708
4.045706
2.884284
2.226811
1.628046
0.876019
0.432335
0.851341
1.173973
0.852121
0.467665
-0.248775
-1.157183
-2.523302
-5.236578
-7.938164
-9.746148
-11.312549
-11.443212
-9.765110
-8.395094
-7.401222
-5.795856
-4.016445
-2.379647
-1.356681
-0.733497
-0.163306
-0.415800
-1.061323
-1.831016
-2.905675
-3.281559
-3.087252
-2.680975
-2.136761
-1.899073
-1.555400
-1.010147
-0.774537
-1.505783
-2.687987
-3.112967
-2.657333
-1.516173
-0.591918
0.239339
1.317377
1.201001
0.107638
-0.980529
-2.310281
-3.770436
-4.581691
-4.471290
-4.209184
-4.077221
-3.901098
-3.616652
-3.128028
-2.450293
-1.353553
-0.307208
0.566652
1.589618
1.853023
1.651704
1.924980
2.113831
1.600270
0.782781
0.257271
-0.604119
-1.686052
-2.050247
-1.760605
-0.790112
0.209475
0.151547
-0.292396
-0.010547
0.337282
-0.009248
-0.433449
-0.558137
-0.628014
-0.540732
-0.292393
-0.361491
-0.666459
-0.790368
-0.384350
0.263771
0.727717
1.389866
1.880568
2.370490
2.867946
2.449720
2.320875
2.765598
2.522196
2.596750
3.266172
2.947697
1.857451
0.698107
-0.130033
-0.201728
-0.768542
-1.766310
-1.934639
-1.833849
-2.243762
-3.060992
-3.657938
-3.982128
-4.129936
-4.309176
-4.368402
-3.638974
-3.096318
-2.700432
-1.528359
-0.466687
-0.024562
0.433669
1.149590
1.504433
1.909931
2.661700
2.853669
3.018102
3.946253
5.078322
5.561491
5.789048
6.289621
6.531985
6.408076
5.829573
5.397839
5.332378
4.751277
3.924176
2.546627
0.622007
-0.588511
-1.418469
-2.874209
-4.866109
-6.487580
-7.230776
-7.518079
-8.067228
-9.379055
-10.837132
-11.792039
-12.762012
-13.358179
-12.831110
-12.191561
-11.809182
-10.989874
-10.713221
-11.031956
-10.088478
-8.489606
-7.550545
-6.597976
-4.990012
-3.089809
-1.542891
-0.185344
0.710336
1.201818
2.231798
3.075264
3.671952
4.478012
4.372806
3.502844
2.863295
2.317523
1.674598
1.026737
0.135214
-0.519141
-0.846708
-1.502882
-1.776158
-1.428068
-0.707991
0.369526
1.426263
2.452606
3.297112
3.751706
3.282046
2.103999
1.179745
0.722813
1.228322
1.583944
1.111167
1.275081
1.648368
1.693568
0.941020
-0.182476
0.024300
0.526951
1.117404
2.804077
5.102504
7.058817
7.709536
7.778894
7.860202
7.455224
7.033880
6.837496
5.703090
2.922534
-0.088955
-2.388160
-5.042988
-8.332689
-10.530325
-11.095840
-11.342359
-11.026481
-9.621656
-8.081751
-6.978517
-6.357411
-6.558212
-7.482466
-8.502314
-9.043411
-8.991976
-9.024707
-9.356170
-9.879343
-9.845832
-8.147729
-5.804622
-4.029887
-2.471020
-0.807206
0.316291
0.659704
1.352246
3.249851
6.128599
8.795117
10.807540
12.636566
13.720058
13.382360
11.606327
9.573903
8.247788
6.974146
5.619717
4.583243
3.722892
3.198161
3.358438
2.744087
0.945455
-0.151805
-0.595228
-1.243609
-1.840815
-1.815098
-1.889391
-2.887679
-4.036892
-4.959068
-4.911270
-4.041047
-4.162359
-4.996733
-5.710055
-6.788871
-8.287212
-9.851275
-11.018671
-11.859540
-12.934979
-14.161083
-15.905944
-18.066693
-19.295395
-19.636730
-19.586335
-18.659223
-16.390150
-13.006412
-9.149638
-5.500937
-3.173936
-1.393486
0.915851
1.925309
2.047920
3.615880
5.904176
8.350930
11.899100
16.220340
20.449102
24.364325
27.823914
30.752019
33.035639
34.636069
36.132073
36.948004
35.745019
32.527794
27.623895
21.658845
14.534970
5.371137
-3.996874
-11.485982
-17.545589
-21.842669
-23.937957
-24.536462
-24.259030
-23.808072
-22.611061
-21.427558
-21.607577
-20.619939
-17.998881
-15.380679
-11.913557
-8.025090
-3.817109
1.341882
5.627014
8.459004
11.084219
14.135973
17.278386
19.730855
21.551049
23.430990
25.798515
27.545454
27.715863
27.781584
28.509714
28.349697
27.323614
26.297791
23.926110
21.067624
19.643836
18.213035
16.105798
13.758795
11.080068
8.738521
6.783248
4.351561
1.981698
1.189146
0.917170
-0.415180
-2.041846
-3.798916
-6.279440
-9.302618
-12.217994
-14.895941
-17.932887
-19.992067
-19.641900
-19.114830
-19.461620
-18.181224
-14.847102
-12.004981
-10.310774
-8.140673
-5.406096
-3.340161
-2.610992
-2.070155
-0.845089
-0.694943
-1.796359
-2.813350
-3.329509
-3.043764
-1.836102
0.674036
4.379885
9.497313
16.404803
23.053043
27.358177
29.440997
29.550879
27.807837
25.379007
22.770418
18.855455
13.885056
10.485474
8.696193
6.100852
3.246782
0.681314
-2.612803
-5.597536
-7.464228
-9.140770
-10.752110
-11.796377
-12.533598
-13.431355
-14.119221
-13.845165
-13.853477
-16.006953
-18.543067
-19.402899
-19.745272
-19.994130
-19.433291
-18.282778
-17.601147
-17.921700
-18.056000
-17.383460
-15.470529
-11.740521
-5.971335
2.185118
10.300788
16.586133
22.213486
26.425623
28.921733
31.016762
32.443667
33.339347
34.645721
36.346681
37.322630
36.926484
34.871200
30.007306
23.850547
18.363729
12.677669
8.089648
5.420533
2.431904
-0.808181
-3.786680
-7.270687
-11.066416
-13.942306
-14.504444
-14.073488
-13.461994
-11.531659
-10.594935
-11.403333
-10.936010
-10.551813
-12.528127
-14.211423
-14.362348
-14.285456
-14.075823
-13.594213
-12.415126
-10.969258
-9.325965
-6.540474
-3.463263
-1.140158
0.639513
2.332420
3.475400
4.227428
6.187897
9.330310
12.205681
14.175242
14.962858
14.708026
13.605052
11.729268
10.670195
11.387674
12.816658
14.500214
16.691616
18.426347
18.708975
18.106573
16.600179
14.107446
11.876560
9.414220
6.011520
2.731171
-0.824792
-5.195387
-9.073721
-10.997303
-11.355782
-11.545412
-11.017304
-9.757949
-9.354009
-9.754831
-10.210723
-10.343205
-10.415420
-11.171864
-11.363832
-10.640897
-10.604270
-10.895469
-11.600479
-13.217534
-14.260762
-13.084792
-9.622865
-5.166286
-0.068340
4.390057
7.056835
9.075751
9.045359
6.208433
3.079529
0.886828
0.850201
3.738301
7.181526
8.869238
9.354485
9.369032
8.238782
5.843722
3.162138
0.933330
-1.649542
-4.697919
-6.709821
-8.411820
-10.781163
-12.018178
-11.713729
-11.540983
-11.066647
-8.716266
-5.088087
-1.604340
1.623017
4.873234
7.552221
9.791161
12.717966
16.048971
19.014222
21.265371
21.709834
20.387876
18.661198
16.294973
13.671837
12.305977
11.843331
11.626944
11.644349
11.867230
11.498360
10.106784
9.388526
9.096547
7.526250
6.030766
5.470447
5.454342
6.945670
9.470614
11.666693
13.966678
16.574489
18.400398
19.106707
19.216069
18.706665
17.440556
15.572565
12.770969
9.150324
5.790486
2.681843
-0.700075
-3.958084
-6.737601
-9.261505
-11.665657
-13.562742
-14.393999
-13.684313
-12.540295
-11.777096
-10.274339
-8.806649
-8.237498
-8.254642
-9.653752
-12.152459
-14.697665
-17.179747
-19.348809
-20.316444
-20.535169
-21.593203
-22.858792
-22.399522
-19.894060
-16.339655
-12.642638
-8.996016
-5.242369
-2.060211
0.528116
3.169697
4.732721
5.479294
6.889574
7.866302
6.935034
4.910144
2.788879
-0.371717
-4.674772
-9.197072
-13.425054
-16.637864
-19.000712
-21.039890
-22.401074
-22.813325
-23.011268
-23.138554
-23.007371
-22.745784
-21.237312
-18.388437
-15.538263
-12.915126
-10.048587
-7.296865
-5.138193
-3.175386
-1.993182
-1.581710
-0.258451
1.428742
2.294289
3.535460
5.100822
5.214860
4.434258
3.623003
2.194020
0.893362
0.557742
0.964799
2.103622
3.265045
3.688726
3.492862
2.996186
2.959299
2.646539
0.957528
-1.472081
-4.569554
-8.110710
-11.353392
-13.261128
-13.451018
-12.348043
-9.166145
-4.778665
-0.672513
3.132048
5.921956
7.076885
7.033504
7.112473
7.581874
7.463680
7.100525
7.266517
7.613307
7.671755
7.426795
6.600213
4.725728
2.432238
0.854667
-0.259217
-1.520650
-2.712984
-2.930150
-1.576239
-0.211938
-0.076858
-0.697963
-2.233971
-4.491873
-6.355708
-7.718450
-9.210037
-10.364445
-10.946845
-11.965654
-13.839880
-16.496786
-19.379690
-22.304676
-25.898046
-29.180213
-31.575793
-33.766415
-34.636637
-33.709525
-32.171699
-29.975621
-27.302089
-24.153442
-19.742582
-15.043120
-10.469906
-5.858505
-2.255524
0.203959
2.420040
4.705218
6.417869
7.805289
9.040486
9.430138
9.416371
9.729132
10.281918
10.230485
9.860575
9.694064
9.401046
9.352210
8.982301
8.302489
7.875950
7.509937
7.919332
9.333769
11.510624
13.859706
15.970840
17.587116
17.658812
16.927566
16.201775
14.642908
13.116252
12.361107
11.324373
10.213346
9.163105
7.884527
7.199520
6.955858
6.832208
6.938714
6.727782
6.850913
7.831017
8.614478
9.162588
9.626015
9.708102
9.472752
8.112867
5.420113
2.503180
0.135135
-1.313330
-2.003533
-2.328503
-1.915731
-0.843928
0.187870
1.344877
2.361349
2.907381
2.718790
1.058873
-1.427365
-4.346117
-7.710631
-10.716146
-12.925212
-14.327439
-15.601340
-16.848746
-17.735853
-18.675173
-19.429019
-19.842570
-20.446790
-21.519631
-22.730928
-23.429184
-23.872088
-23.974696
-23.157206
-22.378941
-21.524564
-19.719956
-17.672465
-14.834241
-10.918758
-7.436569
-4.587434
-2.098597
-0.597139
-0.088772
0.375953
0.911075
1.398919
2.920640
5.847186
8.814775
10.620942
11.615593
11.890168
11.819512
12.479322
12.619338
11.310887
9.679804
7.828699
5.619632
3.893475
2.554631
0.985633
-0.192934
-0.048242
1.219945
2.317724
3.335236
4.605761
5.256999
5.726660
5.796538
5.132831
4.753051
4.701617
5.209464
6.265420
7.000824
7.679598
8.565147
9.019741
9.042601
8.577616
7.782467
7.514387
7.258256
6.657153
5.936298
5.199856
5.408969
6.329847
6.887829
6.642608
5.677051
4.621874
3.256794
1.654546
0.413894
-0.714018
-1.760363
-2.988285
-4.611055
-6.457485
-8.292226
-10.168789
-12.592683
-15.183868
-17.787002
-20.091143
-21.522464
-22.327485
-22.530623
-22.271894
-21.541686
-20.239469
-18.598255
-16.925089
-15.392458
-13.891519
-12.971421
-12.357849
-11.181879
-10.534017
-10.724947
-10.608310
-9.785885
-8.375864
-6.850767
-4.890298
-2.543294
-0.756350
0.904866
2.369178
2.916249
3.186408
3.456048
3.549045
3.713998
3.649056
3.217062
3.021717
2.717789
2.187603
2.457242
3.400720
4.727874
6.238425
7.197748
7.534408
7.069424
5.973463
4.824770
3.491121
2.121106
1.090866
0.385337
-0.087181
-0.370327
-0.498912
-0.963377
-1.833859
-2.448989
-2.430286
-1.969976
-1.625524
-1.052735
0.065306
1.225690
2.016683
2.334899
2.587134
2.454393
1.699248
1.289854
1.749644
2.879634
4.492534
6.158685
7.410767
8.400223
9.156668
9.487613
9.456441
9.606587
10.289517
11.239748
12.621454
13.952246
14.770775
15.486695
15.548780
14.605563
13.293476
11.996195
10.701512
9.160049
7.289980
5.179886
3.007967
1.014248
-0.853223
-2.636790
-4.524263
-6.243667
-6.956470
-6.994655
-6.740082
-5.533200
-3.586759
-1.805270
-0.234973
1.155565
1.769137
1.402605
0.247677
-1.088569
-1.466011
-0.906471
0.090519
1.444949
2.994725
4.974676
7.257517
9.057709
9.572310
9.635693
10.521762
11.002852
10.657621
10.585146
10.729318
11.068575
11.666561
12.249480
12.482493
12.181162
11.813071
11.457709
10.767246
10.012101
9.684014
9.639854
9.536727
9.482176
9.339563
9.230721
9.303196
8.729629
7.778879
7.062179
5.947775
4.542691
2.792635
0.455763
-1.729405
-3.918988
-6.283655
-8.349070
-10.420199
-12.455221
-13.937196
-14.733385
-14.572848
-13.690936
-12.852924
-12.196490
-11.591231
-11.020780
-10.423573
-9.745579
-9.126811
-8.400759
-7.009962
-5.178857
-3.415033
-1.618218
0.055987
1.319758
2.407407
3.047475
2.978637
2.735235
2.467934
2.272329
2.535993
2.886680
2.878888
3.276593
4.204484
4.805587
5.109776
4.923522
4.005763
3.166453
2.532360
1.803711
1.809946
2.634190
3.541819
4.937293
6.829442
8.689901
10.907280
13.506518
15.913528
17.974787
19.528459
20.527786
20.945493
20.786516
20.566233
19.789267
18.223127
17.171587
16.276946
14.594170
12.562525
10.250331
7.673174
5.028477
2.268963
-0.609266
-3.517887
-5.918142
-7.160092
-7.076187
-5.998150
-4.399538
-2.624283
-0.603029
1.655134
3.695871
5.233697
6.156653
7.035189
8.119980
8.789402
9.103202
9.184510
9.014102
8.959811
9.347125
9.605595
9.204773
9.053848
9.361933
9.643262
10.208258
10.831181
11.150956
11.253824
10.424386
8.077643
4.634419
0.703351
-3.087442
-6.848361
-10.991400
-14.629969
-17.827452
-21.835411
-25.821030
-28.885252
-31.181340
-32.546680
-33.447815
-33.585232
-32.442253
-31.247839
-30.409048
-29.535449
-29.013575
-28.541316
-27.894234
-27.785131
-28.241543
-28.471697
-28.180497
-27.466395
-26.423167
-25.183813
-23.717943
-22.242980
-20.564360
-18.429846
-15.834764
-12.470250
-8.709070
-5.060629
-2.283190
-0.667693
0.794021
1.776204
1.938819
2.469006
3.152455
3.444695
3.553278
3.142845
2.585123
1.895959
0.630630
-0.622750
-1.891976
-3.438374
-4.641618
-5.131021
-5.235967
-5.477551
-5.842265
-5.878632
-5.498851
-4.763448
-3.361740
-0.873163
2.232883
5.404649
8.968406
12.528785
15.288820
17.622835
20.075304
22.209038
24.199900
26.501444
28.328652
29.743088
31.383523
33.292818
35.075865
35.930242
36.559660
37.503137
38.030986
38.483762
38.791327
38.182432
36.753708
34.511911
31.125058
26.809533
22.396856
18.396950
14.737340
11.316196
8.265222
5.715081
3.628365
2.194966
1.324225
0.721304
0.245928
-0.269451
-0.994203
-2.354088
-4.042059
-5.589497
-7.334877
-9.157668
-10.500149
-11.379982
-12.186821
-12.606346
-12.615178
-12.557509
-11.911986
-11.109302
-10.903046
-10.867458
-10.710558
-10.318827
-9.575112
-8.300690
-6.527254
-4.425731
-1.603872
1.838833
5.162044
7.572171
8.520324
8.529676
8.352515
7.926756
7.045104
5.837703
4.390276
2.475267
-0.007075
-2.826076
-5.564809
-7.767641
-9.436649
-10.733930
-11.419198
-11.307497
-10.813678
-10.253358
-9.503927
-8.995821
-9.280267
-10.056972
-11.055260
-12.345787
-13.686969
-14.867354
-15.446116
-15.314673
-14.853325
-13.859453
-12.267075
-10.206076
-7.693341
-4.498715
-1.037567
1.906384
4.893975
8.166012
11.287643
14.026117
16.505342
19.017818
21.211818
22.912000
23.751829
23.812615
23.860153
23.407118
22.066456
19.919994
17.092421
14.009236
10.762137
7.522312
4.572647
1.982501
-0.562185
-3.093623
-5.542195
-8.024018
-10.279322
-12.514365
-14.892021
-16.857684
-18.118338
-19.190400
-20.246356
-20.817326
-21.006696
-20.570546
-18.969336
-16.743384
-14.547046
-12.476176
-10.919906
-10.240093
-9.984741
-9.779004
-9.474037
-8.837085
-8.211824
-7.733850
-7.588640
-8.135970
-8.935016
-9.752246
-10.503754
-11.173695
-11.876627
-12.519552
-12.920634
-12.664502
-11.901823
-10.857037
-9.348824
-7.480832
-5.695187
-3.984875
-1.365375
2.092396
5.398723
8.603220
11.584057
13.609208
14.523072
14.764916
14.682570
14.291100
13.534916
12.418434
10.969189
9.165361
7.445957
6.192837
5.003879
3.754136
2.551151
1.497533
0.737452
0.104398
-0.580350
-1.298868
-1.712158
-1.673712
-1.505902
-1.358613
-0.911552
0.010105
1.163734
2.449066
3.779078
5.159485
7.369331
10.731248
14.269028
17.600812
20.640097
22.714344
24.079944
25.036670
25.075895
24.437386
23.776536
22.906054
21.357578
19.574531
18.145029
16.547976
14.514253
12.501052
10.340822
7.830945
5.215342
2.653511
0.102590
-2.452747
-4.936907
-7.192991
-8.982792
-10.860134
-13.013870
-14.944205
-16.835575
-18.604854
-20.116184
-21.157073
-21.234224
-20.283993
-18.347942
-16.083285
-13.966955
-11.829065
-9.818461
-8.136983
-6.853470
-5.595673
-4.164611
-2.822650
-1.697335
-1.247936
-1.553683
-1.740196
-1.499910
-1.328723
-1.227932
-0.969983
-0.416417
0.437960
1.267919
2.181263
3.256183
4.293437
5.016371
4.861550
4.064322
3.421137
3.325803
3.665580
3.854431
3.862224
4.196027
4.928313
5.842436
6.714218
7.364677
7.804464
8.063973
7.855379
7.287787
6.810074
6.290278
5.530458
4.460734
3.120591
1.660176
0.348348
-0.523173
-1.173631
-1.576011
-1.460155
-0.953867
-0.266520
0.612534
1.756033
2.740814
3.393611
4.125637
4.895849
5.634110
6.528491
7.346241
7.828630
8.006831
7.947085
7.495089
6.439652
5.312260
4.351119
3.170993
2.017105
0.929457
0.097940
-0.105978
-0.244434
-0.410945
-0.383149
-0.547062
-0.687077
-0.557453
-0.446012
-0.077401
0.509155
0.975699
1.267159
0.996741
0.190681
-0.898785
-2.225939
-3.656221
-5.121832
-6.322219
-7.106198
-7.637423
-8.290480
-9.727515
-11.450556
-12.262070
-12.223105
-11.923852
-11.321710
-10.011959
-8.172023
-6.328969
-4.410063
-2.537916
-1.341424
-0.648883
0.057167
0.392787
0.239005
-0.264165
-1.498582
-3.009132
-4.372654
-5.777478
-6.737061
-7.387779
-8.224751
-8.706620
-8.704542
-8.829230
-9.193684
-9.499431
-9.788293
-9.973767
-9.889342
-9.783356
-9.864663
-10.355624
-11.276761
-12.233486
-12.792506
-13.094616
-13.279051
-12.903686
-11.935271
-10.648121
-9.290054
-8.064468
-6.820180
-5.558746
-4.515518
-3.508917
-2.396850
-1.405056
-0.830449
-0.877207
-1.431032
-2.334245
-3.254083
-4.032347
-4.898673
-5.842669
-6.917848
-7.869638
-8.254354
-8.497496
-8.706349
-8.248378
-7.316071
-6.319081
-5.271956
-4.398616
-3.547616
-2.747531
-2.269298
-1.681702
-0.914607
-0.217130
0.283962
0.443460
0.312278
-0.092700
-0.581843
-1.154371
-1.757032
-1.968483
-1.952897
-1.919386
-1.510771
-0.791214
-0.184915
0.321633
0.736742
1.077558
1.890372
3.204019
4.369857
5.052528
5.003692
4.435839
3.587178
1.967265
-0.147245
-2.040434
-3.737237
-5.134269
-6.116191
-6.684823
-6.637285
-6.127620
-5.285712
-3.927126
-2.044327
-0.074247
1.537613
2.805021
4.133474
5.642726
6.738428
7.315373
7.556438
7.408630
7.059502
6.402030
5.597789
5.087605
4.769649
4.544431
4.426236
4.563654
5.045524
5.429981
5.327113
4.959541
4.726270
4.726530
4.912524
4.897718
4.552227
3.911899
2.548378
0.636746
-1.584010
-3.978031
-5.923952
-7.067190
-7.347480
-7.112130
-6.671303
-5.787053
-4.667453
-3.841910
-3.083907
-1.970022
-0.540778
1.084590
2.794123
4.569897
6.308264
7.607104
8.278344
8.499667
8.344846
7.926619
7.831545
8.217820
8.721250
9.390153
9.962682
9.888908
9.329109
8.662025
7.979875
7.407346
6.940284
6.595572
6.689089
6.804686
6.489328
6.217091
5.918878
5.364793
4.935657
4.524705
3.750337
2.946875
2.298235
1.616864
1.330600
1.393464
1.422818
1.563353
1.704667
1.665442
1.465421
1.189548
0.746124
-0.025646
-1.067055
-2.319916
-3.288070
-3.644991
-3.796436
-3.782927
-3.640315
-3.521600
-3.327553
-3.198189
-3.176108
-3.291445
-3.588619
-3.741622
-3.515624
-2.915040
-1.949742
-0.642330
0.860688
2.311232
3.464862
3.950628
3.734242
3.110279
2.033022
0.834713
0.010210
-0.713503
-1.553073
-2.452649
-3.524191
-4.695744
-5.577656
-5.997441
-6.047576
-5.729360
-5.086434
-4.372331
-4.159841
-4.351030
-4.358303
-4.274138
-3.998524
-3.479767
-3.072711
-2.753975
-2.274703
-1.740620
-1.473578
-1.240046
-0.805195
-0.271631
0.328174
0.685355
0.852386
1.138131
1.284640
