EVENT_NAME: 202010301151
EVENT_ID: 10614
EVENT_DATE_YYYYMMDD: 2020/10/30
EVENT_TIME_HHMMSS: 11:51:24.00000
EVENT_LATITUDE_DEGREE: 37.879
EVENT_LONGITUDE_DEGREE: 26.703
EVENT_DEPTH_KM: 16.54
HYPOCENTER_REFERENCE: AFAD
MAGNITUDE_W: 6.6
MAGNITUDE_W_REFERENCE: AFAD
MAGNITUDE_L: 
MAGNITUDE_L_REFERENCE: 
FOCAL_MECHANISM: 
NETWORK: TK
STATION_CODE: 0918
STATION_NAME: 
STATION_LATITUDE_DEGREE: 37.3697
STATION_LONGITUDE_DEGREE: 27.2643
STATION_ELEVATION_M: 47.0
LOCATION: -_-_-
SENSOR_DEPTH_M: 
VS30_M/S: 630
SITE_CLASSIFICATION_EC8: B
MORPHOLOGIC_CLASSIFICATION: 
EPICENTRAL_DISTANCE_KM: 75.17
EARTHQUAKE_BACKAZIMUTH_DEGREE: 
DATE_TIME_FIRST_SAMPLE_YYYYMMDD_HHMMSS: 2020/10/30 11:51:11.6985120
DATE_TIME_FIRST_SAMPLE_PRECISION: millisecond
SAMPLING_INTERVAL_S: 0.01
NDATA: 10501
DURATION_S: 
STREAM: HNZ
UNITS: cm/s^2
INSTRUMENT: sensor = GMS+/GEOSIG | digitizer = 
INSTRUMENT_ANALOG/DIGITAL: 
INSTRUMENTAL_FREQUENCY_HZ: 
INSTRUMENTAL_DAMPING: 
FULL_SCALE_G: 
N_BIT_DIGITAL_CONVERTER: 
PGA_CM/S^2: 21.246
TIME_PGA_S: 
BASELINE_CORRECTION: BASELINE REMOVED
FILTER_TYPE: BUTTERWORTH
FILTER_ORDER: 
LOW_CUT_FREQUENCY_HZ: 
HIGH_CUT_FREQUENCY_HZ: 
LATE/NORMAL_TRIGGERED: 
DATABASE_VERSION: 
HEADER_FORMAT: DYNA 1.2
DATA_TYPE: Acceleration
PROCESSING: Manual Paolucci et al., 2011
DATA_TIMESTAMP_YYYYMMDD_HHMMSS: 
DATA_LICENSE: U (unknown license)
DATA_CITATION: Turkish Accelerometric Archive v 1.0 - Disaster And Emergency Management Presidency, Earthquake Department
DATA_CREATOR: AFAD
ORIGINAL_DATA_MEDIATOR_CITATION: : AFAD - Disaster And Emergency Management Presidency
ORIGINAL_DATA_MEDIATOR: AFAD PROCESS SERVICE
ORIGINAL_DATA_CREATOR_CITATION: AFAD PROCESS SERVICE
ORIGINAL_DATA_CREATOR: network: TK
USER1: GuestUser
USER2: 
USER3: 
USER4: 
USER5: 
[...]
-3.870042
-6.405895
-8.833166
-9.192164
-7.651220
-5.677762
-4.569851
-4.472437
-4.205914
-3.142683
-1.926188
-0.749439
0.863461
2.461814
3.476469
3.511798
1.923838
-0.370431
-2.138670
-3.501931
-4.525156
-4.756089
-3.775464
-2.445191
-1.651340
-0.407310
1.876051
3.995499
4.671156
4.195002
3.674169
3.727942
4.199681
4.127467
3.297249
2.723163
2.795640
2.833307
2.492752
2.080242
1.432901
0.002100
-1.844069
-2.724941
-2.096042
-0.813827
0.664773
2.762400
5.083428
6.533453
7.142350
7.587074
7.932047
7.313541
4.986800
1.160680
-3.018206
-5.243897
-5.045433
-4.582785
-4.648505
-4.335484
-3.578779
-3.505783
-4.358081
-4.966197
-4.581999
-3.651249
-2.988580
-2.634775
-2.304350
-1.854171
-0.982129
0.317751
1.834277
3.503547
5.254903
6.787275
7.717765
8.008446
7.939609
7.707377
7.254862
6.634018
5.883030
4.784732
3.326656
1.879230
1.286700
2.074578
3.583051
4.747851
4.793831
3.977641
2.998577
1.626224
-0.342036
-2.292373
-3.438728
-3.664985
-3.014784
-1.422406
0.284011
1.590904
2.957544
4.043375
3.511371
0.951619
-2.198585
-4.457786
-5.949113
-7.759954
-9.853423
-10.741568
-10.319184
-10.025646
-10.224887
-10.113185
-9.404538
-9.193865
-10.464648
-12.826457
-14.563265
-13.537180
-10.332163
-7.520693
-5.115501
-1.659028
2.333346
5.388478
6.690695
6.206489
4.560340
2.251784
-0.071579
-1.101558
-0.716321
-0.416808
-0.582279
0.162217
2.315434
4.448909
5.545391
6.032456
6.362363
6.656681
6.845014
6.329635
4.667641
2.772115
1.945275
2.308432
3.233206
4.302672
5.603071
7.382483
9.262684
10.137064
9.832617
9.560121
9.711567
9.727673
9.966661
11.033789
12.310549
12.928278
12.538627
11.085746
8.991758
6.991026
5.975075
5.871948
5.345659
3.548326
0.773746
-2.002133
-4.218732
-6.053212
-7.896004
-10.079872
-12.223216
-13.509846
-13.212411
-10.997109
-7.707407
-5.126871
-4.368348
-4.950746
-5.696799
-6.036315
-6.537666
-7.238519
-6.875362
-5.360654
-4.010899
-3.653977
-4.515107
-6.124108
-6.594287
-4.972555
-3.089236
-2.572297
-2.726079
-1.911965
-0.364267
0.021749
-1.186170
-2.604243
-3.374194
-4.332217
-5.942517
-7.523464
-8.312638
-7.598015
-5.640143
-3.815792
-2.826075
-1.569837
0.634815
3.016628
5.169845
6.986663
8.505267
9.503557
9.177289
7.475031
5.288306
3.450189
2.009517
0.901088
0.005150
-1.303041
-2.190407
-0.953391
1.517263
2.889618
2.977940
3.208355
3.512544
2.620762
0.850445
-0.377477
-0.682184
-1.034948
-1.928549
-2.439251
-2.613814
-3.733413
-5.994952
-8.351046
-10.011481
-10.787927
-10.350996
-8.809792
-6.567474
-4.067207
-2.084137
-0.821405
-0.255109
-0.005731
0.397689
0.044926
-2.055297
-4.853256
-6.605910
-7.041020
-6.157808
-4.442299
-2.990196
-1.717072
-1.041934
-2.001516
-3.681434
-4.015495
-2.543129
-0.748392
0.174565
0.087024
-0.755922
-1.461970
-1.066342
-0.142347
-0.505501
-2.096059
-2.655598
-1.400918
0.788147
3.753399
7.441065
10.009392
9.835608
7.991517
5.964289
4.318920
3.210491
1.971659
0.311743
-0.730965
-0.140511
2.256368
5.467620
7.961913
9.458957
10.078504
9.497924
8.350010
7.942436
8.198308
8.080115
7.654356
6.960257
4.911209
0.837789
-4.478361
-9.092617
-11.773421
-12.756642
-12.040980
-9.736318
-7.074995
-5.071923
-3.423695
-1.501671
0.230463
1.008728
0.889496
0.008884
-1.399317
-2.232652
-2.668022
-3.871006
-4.657842
-4.558610
-5.628852
-8.131196
-9.869042
-9.127664
-6.609213
-4.247661
-2.620994
-1.028615
1.031605
2.999608
3.805929
3.615000
3.064553
1.853516
-0.065648
-1.971565
-3.024143
-3.290664
-3.572252
-3.553807
-2.331338
0.352585
3.768794
6.064104
6.238150
5.190507
4.404710
4.499007
5.011010
5.854478
7.196959
8.841551
10.784876
12.763010
13.891702
13.446981
11.650167
8.763627
4.935688
1.260752
-1.258736
-2.188444
-1.645788
-0.426696
1.188801
2.974187
4.331216
4.698529
3.705957
1.799261
-0.569042
-3.018133
-4.728184
-5.317337
-5.605419
-6.813598
-9.207878
-11.995187
-13.248566
-12.523293
-11.823737
-11.647094
-10.823109
-8.937193
-6.699811
-4.344494
-1.362357
1.557435
3.271385
3.526218
3.053961
3.063834
4.031990
5.739705
7.567173
8.867573
9.532839
9.398281
8.676127
8.388045
8.722627
8.848875
8.031906
6.706052
6.036371
6.069622
6.826068
8.421304
9.588702
9.243731
7.637327
5.511907
2.989302
0.038079
-2.797546
-5.032069
-5.671097
-4.421612
-2.799621
-1.586244
-0.932926
-1.306212
-2.524782
-4.456935
-6.975903
-9.474610
-11.557688
-12.798598
-12.805611
-11.656916
-10.167666
-9.449926
-9.535648
-9.698002
-9.987383
-11.186211
-13.249027
-14.886083
-14.653850
-12.613112
-10.363001
-8.675807
-6.901851
-4.628621
-2.734133
-1.998988
-1.679733
-0.985632
-0.374397
-0.488694
-0.788725
-0.578312
-0.393616
-0.853404
-1.126679
0.419721
3.841125
7.105370
8.629949
8.929203
8.802956
8.290695
7.479960
6.198007
4.332354
2.298113
0.890951
0.502339
0.525979
0.010601
-1.552682
-3.427426
-4.546245
-4.572741
-4.136589
-4.253224
-4.551177
-3.985921
-2.348603
-0.508406
0.546253
1.140863
2.087718
3.710749
5.887086
7.843139
8.621145
8.534903
8.876499
9.798416
10.044158
8.480876
5.530952
2.679740
0.532759
-1.734234
-4.736111
-7.777473
-9.859512
-10.534648
-10.099795
-9.096830
-7.727852
-5.924542
-3.714436
-1.715781
-0.752041
-1.064540
-2.176086
-3.474925
-4.510878
-4.852992
-4.074726
-2.023078
0.567589
2.849391
4.636076
5.663979
5.766328
5.039499
3.428679
1.212599
-0.815408
-2.198411
-3.336973
-4.477613
-5.043646
-4.559438
-3.244751
-1.678609
0.101062
2.262851
3.974723
4.456593
3.614946
1.808521
0.313818
0.034828
0.725552
1.792680
2.674852
3.045542
2.843963
2.216365
1.368743
0.705297
0.853885
1.622020
2.278455
2.961126
4.016824
5.076678
5.648428
6.382533
8.084534
9.910703
11.554256
13.360943
14.306239
13.968022
13.133649
12.172768
10.555974
7.319266
2.917760
-0.365186
-1.134098
-0.399733
-0.011899
-1.056165
-3.050402
-4.775780
-6.007858
-6.797811
-6.356205
-4.213378
-2.058083
-2.128998
-3.814631
-4.483792
-2.976358
-0.750146
0.987962
2.810235
4.881885
6.563104
7.553341
7.912341
8.090023
8.340441
7.786097
6.103061
4.138697
2.485795
1.625964
1.337883
0.911085
0.336479
0.175165
0.517540
0.881476
1.155272
0.583004
-0.875592
-1.658791
-1.411231
-1.218482
-2.147152
-3.632763
-4.579357
-4.998881
-4.785351
-3.948897
-3.192971
-3.357663
-4.456221
-6.026257
-7.906716
-9.547929
-10.104350
-9.036184
-6.874654
-4.665067
-3.000213
-2.118560
-1.324708
0.358329
2.705593
4.588652
5.702018
6.396899
6.139470
4.389154
1.626523
-1.295865
-3.864968
-5.445915
-5.699967
-5.826993
-6.705786
-7.939943
-9.443998
-11.120799
-12.642259
-13.801602
-14.009935
-12.873189
-11.170669
-9.952097
-9.066287
-7.993705
-6.950735
-6.169093
-5.660726
-5.509020
-5.418880
-4.776733
-3.721035
-2.903804
-2.355952
-1.674580
-0.680187
0.678919
2.802783
5.784400
9.045788
12.150275
14.830561
16.929747
18.563429
19.633673
19.454435
17.938949
16.267863
14.714712
12.421222
9.882251
8.254287
7.234959
6.314082
5.997426
6.481115
7.053904
6.724000
5.490623
4.288678
3.207005
1.507345
-1.064357
-3.758669
-6.022285
-7.737012
-8.559956
-8.917656
-9.233792
-9.208074
-9.260027
-10.279355
-11.980574
-13.244604
-13.876099
-14.031439
-13.328246
-12.065773
-11.058392
-10.143228
-8.989078
-8.329527
-8.551887
-8.766714
-8.057027
-6.178644
-3.563819
-1.218893
0.336338
1.402167
2.384610
3.424722
4.273905
5.242840
7.197335
9.924639
12.282034
13.613865
14.302511
14.787759
14.774252
14.091842
13.189669
12.732479
12.747806
12.976663
13.711547
14.799456
15.448617
15.042341
13.681938
11.726666
9.162497
6.279854
3.358505
0.484953
-1.877116
-3.365585
-3.953179
-3.749260
-3.066589
-2.366254
-1.920491
-1.819960
-2.243121
-3.111004
-3.917583
-3.979147
-3.123210
-2.081800
-1.070782
0.721358
3.382162
5.783198
7.128797
7.630929
7.500786
6.336248
4.493195
3.465554
3.600895
3.711557
3.149420
2.676903
2.804970
2.932777
2.889916
3.033309
3.462187
3.894701
3.708449
2.755361
1.464835
0.113264
-1.165053
-2.084371
-2.521559
-2.349592
-1.242720
0.509156
2.123615
3.220616
3.835747
4.090321
4.502314
5.332013
5.569702
4.435556
2.504702
0.379022
-1.758347
-3.563473
-5.274823
-7.380241
-9.452929
-10.912564
-11.704595
-12.082556
-12.116585
-11.608997
-10.419779
-8.528408
-6.351292
-4.104558
-1.372837
1.485650
3.554703
4.836139
5.874432
7.008840
8.054666
8.635768
8.694477
8.142211
7.103660
5.738840
4.093731
2.905294
3.034400
4.377401
5.797033
6.423335
6.355796
5.978614
5.796258
6.048234
6.780521
7.856481
8.840742
9.467044
9.318717
8.443300
7.454884
6.353210
4.840322
3.124296
1.976383
1.825459
2.079773
1.972230
1.258648
0.113073
-1.086275
-2.088978
-2.919455
-3.505750
-3.458731
-2.865420
-2.449790
-2.686698
-3.489639
-4.633916
-6.296430
-8.448866
-10.492979
-11.805845
-12.060676
-11.887670
-12.033398
-11.881173
-10.513234
-8.429115
-7.285356
-7.474206
-7.431344
-6.301612
-4.766902
-3.640028
-3.166470
-3.175301
-3.841864
-5.457880
-7.681492
-9.734177
-10.901573
-10.952746
-10.181495
-9.248667
-8.669383
-8.166472
-7.103241
-5.394226
-3.357385
-0.725935
2.779634
6.317934
9.005494
10.682816
11.596681
12.171029
12.673941
13.330635
14.157997
15.146934
16.376417
17.269500
17.235471
16.567609
15.722585
14.583244
12.881765
10.721796
8.111129
5.050804
2.012820
-0.572130
-2.226591
-2.665078
-2.710017
-3.420741
-4.614633
-5.440175
-5.808265
-6.062057
-6.298965
-6.274545
-5.561222
-4.467078
-3.854544
-3.838957
-4.024171
-4.519807
-5.395484
-6.254016
-6.794851
-6.535602
-4.945821
-2.605831
-0.786675
-0.055427
-0.321688
-1.216848
-2.214615
-3.129257
-4.036625
-4.736699
-5.129987
-5.587956
-6.117882
-6.354270
-6.432978
-6.641571
-6.877439
-7.050444
-7.023687
-6.391151
-5.236222
-4.113504
-3.203795
-2.405527
-1.837674
-1.527250
-1.025637
-0.047090
1.183951
2.175226
2.490845
2.276278
2.061970
2.035475
1.911567
1.524254
1.134083
1.014331
1.176687
1.387100
1.294884
0.802884
0.450640
0.480514
-0.016161
-1.610356
-3.560952
-5.014872
-6.105636
-7.276929
-8.544076
-9.603408
-9.956692
-9.436635
-8.434190
-7.646573
-7.349657
-7.272765
-7.067027
-6.411892
-5.487117
-4.552211
-3.575223
-2.681620
-2.292227
-2.568100
-2.962166
-3.349479
-4.136835
-5.077194
-5.431516
-4.947048
-4.124882
-3.113344
-1.511874
0.222597
0.996447
0.630955
-0.082887
-0.600603
-0.825561
-0.447338
0.569135
1.618598
2.355301
3.064209
3.961708
4.898952
5.713325
6.337549
6.855267
7.299731
7.391430
6.949306
6.289756
5.985309
6.284823
6.829038
7.036593
6.691103
6.123771
5.403955
4.029783
2.127764
0.232758
-1.458850
-2.618713
-3.103698
-3.288912
-3.458020
-3.684796
-4.056004
-4.525403
-5.120530
-5.806577
-6.186616
-6.254674
-6.370010
-6.334421
-5.769425
-4.892707
-3.993130
-2.804171
-1.079830
0.997795
3.274142
5.638291
7.752023
9.113988
9.516889
9.423893
9.281801
9.077105
8.760708
8.260396
7.632278
7.008057
6.011848
4.235816
1.852446
-0.226475
-1.015909
-0.762634
-0.190365
0.619073
1.574760
2.151186
1.987534
1.061202
-0.447009
-1.938336
-2.897918
-3.277697
-3.127031
-2.480208
-1.313589
0.552065
3.180918
6.356582
9.534324
12.019265
13.419155
13.618658
12.914688
11.792231
10.687180
9.932815
9.397954
8.954271
8.395771
7.431513
6.227750
5.382206
5.580930
6.763135
8.343564
9.661108
10.222467
10.246626
9.923996
9.318478
8.390068
6.885753
5.281427
3.980251
2.516200
0.353633
-2.339640
-4.348424
-4.898092
-4.902247
-5.730386
-7.586947
-9.589756
-11.328122
-12.930889
-14.040877
-14.204530
-13.489907
-12.369787
-11.174853
-9.926667
-8.604967
-7.391071
-6.699827
-6.540588
-6.447071
-6.512791
-7.460943
-9.321140
-11.180558
-12.332108
-12.669026
-12.307948
-11.292514
-9.604541
-7.381706
-4.905337
-2.712895
-1.316381
-0.664623
-0.518113
-0.760215
-1.150646
-1.164152
-0.504601
0.306915
0.779694
1.132720
1.450677
1.359239
0.911141
0.602797
0.536817
0.445380
-0.124810
-1.263112
-2.068391
-1.849926
-1.266746
-1.351689
-2.075661
-2.711572
-2.982768
-3.182789
-3.806490
-4.721132
-5.386397
-5.903334
-6.443391
-6.894087
-7.200872
-7.518047
-8.225654
-9.363696
-10.360165
-10.473423
-9.540076
-8.019393
-6.546508
-5.437558
-4.449140
-3.218618
-1.477393
0.757651
3.362865
6.289411
9.175694
11.298518
11.987943
11.427365
10.357642
9.124784
7.699179
6.048095
4.472344
3.322352
2.644359
2.240940
1.865317
1.616460
1.491253
1.211484
0.790401
0.290869
-0.213340
-0.502720
-0.681180
-1.008487
-1.125121
-0.532590
0.417902
1.379045
2.555015
3.958542
5.531438
7.130051
8.231987
8.508381
8.289658
7.859223
6.680397
4.272610
1.198517
-1.511121
-3.083755
-3.366382
-2.940621
-2.184955
-1.103021
-0.356706
-0.703236
-1.998178
-3.632637
-5.122145
-6.070297
-6.177840
-5.678305
-5.024988
-4.202042
-2.823193
-0.786351
1.259841
2.873781
4.339392
5.594852
6.317787
6.658344
6.854469
6.897592
6.841743
6.782517
6.917857
7.613257
8.575698
9.243822
9.709327
10.134048
10.375893
10.402910
10.635144
11.378341
12.394814
13.173859
13.117230
12.044390
10.219262
7.989934
6.004269
4.928831
4.477096
3.851835
3.113576
2.796660
3.002397
3.404779
3.569213
3.290743
2.624699
1.823835
0.983747
0.056636
-0.887619
-1.829017
-2.641570
-3.276962
-4.138611
-5.639809
-7.542088
-9.322796
-11.138573
-13.366342
-15.603982
-17.282081
-18.484286
-19.555828
-20.614381
-21.245876
-20.919347
-19.937943
-18.976540
-18.095926
-17.106469
-16.222997
-15.739568
-15.822173
-16.621219
-17.989155
-19.293709
-19.767005
-19.063553
-17.235305
-14.692176
-12.103588
-10.003623
-8.411764
-6.701191
-4.738643
-3.245756
-2.539706
-2.065628
-1.158258
0.040052
1.118870
2.241847
3.616540
4.904730
5.685074
6.034983
6.044335
5.783270
5.725602
6.046157
6.363334
6.291639
5.740673
4.920846
3.984384
2.960380
1.917153
0.933153
0.073842
-0.725983
-1.486842
-1.989232
-1.982737
-1.426053
-0.465431
0.839645
2.413579
4.016348
5.242974
5.745885
5.858106
6.049037
6.299973
6.487007
6.409857
6.152168
6.157884
6.407263
6.484415
6.262574
5.937605
5.773433
5.728494
5.301437
4.422123
3.542290
2.683239
1.656377
0.657571
0.186093
0.490802
1.101517
1.251664
0.780965
0.222465
-0.012883
-0.147182
-0.556576
-1.086241
-1.452513
-1.552523
-1.242878
-0.635020
-0.123277
0.200135
0.722790
1.533526
2.395437
3.271376
3.889884
4.140301
4.512550
5.269774
6.334304
7.721986
9.291504
10.574239
11.346271
11.592272
11.028057
9.557512
7.364552
4.732065
2.176209
-0.048962
-2.048654
-4.018733
-6.087784
-7.839657
-8.556356
-7.888492
-6.251693
-4.429420
-2.597536
-0.602517
1.440818
3.468568
5.495538
7.203253
8.111923
8.115560
7.524589
6.758535
6.026510
5.235517
4.199044
2.894751
1.443169
-0.212591
-2.023432
-3.635551
-4.958808
-5.884879
-6.031388
-5.586144
-5.335208
-5.699921
-6.500005
-7.392566
-7.986655
-7.952884
-7.144745
-5.510804
-3.468767
-1.766766
-0.547155
0.262802
0.377621
-0.122951
-0.758862
-1.249822
-1.369055
-1.039148
-0.603517
-0.205291
0.337884
1.034583
1.777780
2.343036
2.471882
2.254197
1.780642
0.841841
-0.341920
-1.077842
-1.072126
-0.669484
-0.274117
0.137876
0.566754
0.669104
0.246462
-0.564532
-1.504371
-2.321081
-2.825029
-2.968940
-2.746058
-2.148331
-1.286940
-0.341124
0.420517
0.859006
1.077212
1.186576
1.271781
1.332308
1.279835
1.058774
0.807320
0.938763
1.849251
3.456436
5.318453
7.075525
8.480610
9.429024
9.839718
9.715290
9.390581
9.013659
8.458536
7.702613
6.705884
5.473806
4.138600
2.870933
1.668469
0.468861
-0.605538
-1.617852
-2.834085
-4.361000
-5.816738
-6.546425
-6.567206
-6.532136
-6.738650
-6.776056
-6.277820
-5.542676
-4.951703
-4.540229
-4.268251
-4.078880
-4.043550
-4.239934
-4.486712
-4.781288
-5.293809
-5.955956
-6.597582
-7.074515
-7.313241
-7.344672
-7.112438
-6.345083
-5.013771
-3.502440
-1.936558
-0.354830
0.910500
1.736044
2.237397
2.574317
3.072553
3.882510
4.770138
5.716993
6.876858
8.059323
9.192172
10.343724
11.154720
11.328766
11.097054
10.702467
10.183712
9.662878
9.250887
8.911112
8.567440
8.147916
7.693323
7.222365
6.664644
6.146408
5.862482
5.628433
5.020057
4.107234
3.167654
2.059745
0.742463
-0.382331
-1.002916
-1.200858
-1.048373
-0.620275
-0.006182
0.757277
1.342015
1.506709
1.457095
1.478916
1.691927
2.178993
2.805554
3.134681
3.013630
2.659048
2.300829
2.017683
1.848575
1.797402
1.816366
2.006777
2.437733
3.124560
4.122849
5.390518
6.600777
7.256952
7.385279
7.458274
7.523217
7.163180
6.175024
4.742924
3.304071
2.185251
1.188263
0.154388
-0.661023
-0.998720
-1.112757
-1.614628
-2.698638
-4.115931
-5.468542
-6.630742
-7.723325
-8.547048
-8.627315
-7.785926
-6.374086
-4.660656
-2.762531
-0.994030
0.328190
1.091389
1.430127
1.552999
1.647555
1.849396
1.956421
1.497412
0.295467
-1.445756
-3.306473
-4.822477
-5.723352
-6.009615
-6.043124
-6.050916
-5.750104
-4.779610
-3.197102
-1.521079
-0.184052
0.771375
1.507818
2.075152
2.214909
1.765771
1.051150
0.485377
0.063515
-0.592658
-1.635625
-2.770550
-3.601287
-3.852482
-3.573230
-3.020183
-2.200095
-1.052699
0.209774
1.453284
2.625618
3.505713
3.842633
3.469607
2.516000
1.438743
0.522283
-0.340925
-1.081003
-1.417401
-1.423375
-1.432465
-1.622615
-1.907579
-2.288917
-2.839884
-3.449558
-3.888305
-3.936881
-3.812971
-3.834011
-3.955321
-4.161316
-4.443164
-4.802162
-5.279354
-5.721738
-5.919680
-5.851620
-5.842787
-6.092163
-6.310107
-6.333745
-6.307508
-6.394009
-6.706509
-7.164739
-7.546597
-7.760644
-7.704793
-7.250458
-6.646237
-6.170861
-5.576770
-4.605237
-3.465894
-2.310446
-1.054207
0.123062
0.856128
1.209674
1.566856
2.065091
2.659701
3.221320
3.541356
3.566814
3.477455
3.391732
3.023382
2.066398
0.668069
-0.711298
-1.737121
-2.668907
-3.872671
-5.180861
-6.284354
-7.035862
-7.454866
-7.707879
-7.865557
-7.780093
-7.389401
-6.870643
-6.366432
-5.777018
-4.873544
-3.734721
-2.658761
-1.765158
-1.060926
-0.399037
0.549897
1.831333
2.926256
3.412542
3.623215
4.176781
5.173772
6.366367
7.504671
8.307615
8.818579
9.276292
9.711664
10.087029
10.291727
10.242632
10.005465
9.624646
9.129530
8.566354
7.973824
7.441561
7.201277
7.364152
7.699254
8.071242
8.574933
9.099925
9.358136
9.156037
8.346861
7.090625
5.805034
4.761288
3.988739
3.237231
2.274792
1.086874
-0.217679
-1.466642
-2.471943
-3.115127
-3.328656
-3.119282
-2.730668
-2.527269
-2.784438
-3.534906
-4.351616
-4.516567
-3.808958
-2.646756
-1.486891
-0.603679
-0.201038
-0.230131
-0.370664
-0.735377
-1.630277
-2.779229
-3.736733
-4.510321
-5.368073
-6.323759
-7.128259
-7.696110
-8.072773
-8.168367
-8.009907
-7.776634
-7.597653
-7.545699
-7.509070
-7.177086
-6.444539
-5.540806
-4.654477
-3.913358
-3.478505
-3.353296
-3.308355
-3.033000
-2.389554
-1.413085
-0.155288
1.236809
2.512530
3.462503
4.127769
4.724977
5.391283
6.246699
7.301878
8.355238
9.152207
9.566018
9.592515
9.232478
8.534483
7.591786
6.445431
5.166595
4.017123
3.151837
2.391757
1.603622
0.758858
-0.142276
-0.969896
-1.676204
-2.450571
-3.360277
-4.147373
-4.713926
-5.151894
-5.535310
