EVENT_NAME: 202010301151
EVENT_ID: 10614
EVENT_DATE_YYYYMMDD: 2020/10/30
EVENT_TIME_HHMMSS: 11:51:24.00000
EVENT_LATITUDE_DEGREE: 37.879
EVENT_LONGITUDE_DEGREE: 26.703
EVENT_DEPTH_KM: 16.54
HYPOCENTER_REFERENCE: AFAD
MAGNITUDE_W: 6.6
MAGNITUDE_W_REFERENCE: AFAD
MAGNITUDE_L: 
MAGNITUDE_L_REFERENCE: 
FOCAL_MECHANISM: 
NETWORK: TK
STATION_CODE: 0918
STATION_NAME: 
STATION_LATITUDE_DEGREE: 37.3697
STATION_LONGITUDE_DEGREE: 27.2643
STATION_ELEVATION_M: 47.0
LOCATION: -_-_-
SENSOR_DEPTH_M: 
VS30_M/S: 630
SITE_CLASSIFICATION_EC8: B
MORPHOLOGIC_CLASSIFICATION: 
EPICENTRAL_DISTANCE_KM: 75.17
EARTHQUAKE_BACKAZIMUTH_DEGREE: 
DATE_TIME_FIRST_SAMPLE_YYYYMMDD_HHMMSS: 2020/10/30 11:51:11.6985120
DATE_TIME_FIRST_SAMPLE_PRECISION: millisecond
SAMPLING_INTERVAL_S: 0.01
NDATA: 10501
DURATION_S: 
STREAM: HNE
UNITS: cm/s^2
INSTRUMENT: sensor = GMS+/GEOSIG | digitizer = 
INSTRUMENT_ANALOG/DIGITAL: 
INSTRUMENTAL_FREQUENCY_HZ: 
INSTRUMENTAL_DAMPING: 
FULL_SCALE_G: 
N_BIT_DIGITAL_CONVERTER: 
PGA_CM/S^2: 31.044
TIME_PGA_S: 
BASELINE_CORRECTION: BASELINE REMOVED
FILTER_TYPE: BUTTERWORTH
FILTER_ORDER: 
LOW_CUT_FREQUENCY_HZ: 
HIGH_CUT_FREQUENCY_HZ: 
LATE/NORMAL_TRIGGERED: 
DATABASE_VERSION: 
HEADER_FORMAT: DYNA 1.2
DATA_TYPE: Acceleration
PROCESSING: Manual Paolucci et al., 2011
DATA_TIMESTAMP_YYYYMMDD_HHMMSS: 
DATA_LICENSE: U (unknown license)
DATA_CITATION: Turkish Accelerometric Archive v 1.0 - Disaster And Emergency Management Presidency, Earthquake Department
DATA_CREATOR: AFAD
ORIGINAL_DATA_MEDIATOR_CITATION: : AFAD - Disaster And Emergency Management Presidency
ORIGINAL_DATA_MEDIATOR: AFAD PROCESS SERVICE
ORIGINAL_DATA_CREATOR_CITATION: AFAD PROCESS SERVICE
ORIGINAL_DATA_CREATOR: network: TK
USER1: GuestUser
USER2: 
USER3: 
USER4: 
USER5: 
[...]
-0.841809
-0.674257
-0.295255
-0.447218
-1.238989
-1.594610
-1.174564
-0.614763
-0.134451
0.685378
0.655765
-0.310570
-1.269892
-2.502489
-3.508829
-3.964721
-3.716641
-2.830831
-1.716686
-0.777364
-0.074690
0.955810
1.534575
1.583932
1.577958
1.414565
1.885006
2.411557
2.374411
1.895660
0.562013
-0.644868
-0.604343
0.206914
0.854516
1.359766
1.557970
0.858936
-0.046354
-0.758377
-1.022819
-0.785910
-0.856306
-0.845394
-0.181166
0.659184
0.922070
0.532420
0.057565
-0.208696
-0.185575
0.202259
0.577625
0.201483
-0.397022
-0.808233
-1.298933
-1.172166
-0.672890
-0.196475
0.442036
0.641539
0.848056
1.283947
1.257192
1.403963
1.662952
1.228362
0.630897
0.029016
-0.975246
-1.856118
-2.680100
-3.305361
-2.722700
-1.816888
-0.918869
0.370360
0.994844
1.414370
1.949753
1.566077
0.993809
1.027840
0.961860
0.383098
-0.803780
-2.236919
-2.802172
-2.216914
-1.132122
-0.028107
0.842636
1.312558
1.726889
2.551653
3.271991
3.490197
3.474352
2.975079
2.261758
1.399849
0.389353
0.105688
0.035292
-0.349943
-1.777886
-3.855768
-4.351664
-3.853168
-3.304278
-2.585239
-1.781775
-0.983507
-0.220308
0.666541
0.334818
-1.095203
-1.764104
-1.806705
-1.970617
-1.791116
-0.588649
0.810722
1.803296
2.604681
2.802626
3.106815
3.449450
2.750156
1.892404
0.965293
-0.141057
-0.627601
-0.653057
-0.554344
-0.706567
-1.042186
-1.134143
-0.628114
0.464471
1.205850
0.972060
0.186004
-1.030229
-2.413232
-2.959523
-2.702611
-1.992664
-1.630287
-2.095530
-2.469854
-2.902107
-3.029652
-2.124879
-1.343236
-1.237249
-0.936697
-0.448592
-0.840580
-1.521690
-1.239841
-0.625749
0.168883
1.151066
1.539680
1.781266
1.485651
0.140574
-0.680291
-0.881610
-1.204241
-0.644700
0.537246
0.922742
0.980152
0.974958
0.410224
0.109674
-0.062292
-0.577930
-0.418431
0.354899
1.403843
2.549941
3.062724
3.304309
3.443806
3.250539
2.739058
1.886500
1.049010
0.353612
0.545582
1.500750
1.755064
1.430095
0.737815
-0.024343
0.160873
0.588192
0.478571
0.092298
-0.794809
-1.980128
-3.198958
-4.365055
-4.797828
-4.521953
-4.162433
-3.507297
-2.395749
-1.521888
-0.714788
0.078284
0.347925
0.446378
0.430533
0.506387
0.788496
0.804863
0.858116
1.307776
1.812246
2.251775
2.281909
1.598980
0.895790
0.439898
0.703044
1.525990
2.134628
3.047194
3.542312
3.184873
3.067459
3.222801
2.445317
0.494981
-0.791389
-1.356902
-1.792532
-1.300530
-0.547981
-0.005325
0.454725
0.570843
0.703325
0.989331
1.329888
1.832021
2.158550
1.856441
1.310930
0.842829
0.030536
-0.984116
-1.707569
-2.302436
-3.037578
-3.570881
-3.587504
-3.991442
-4.739573
-4.730740
-4.825294
-5.060123
-4.706578
-4.361605
-4.048843
-3.645422
-3.307203
-3.275510
-3.372402
-3.460462
-3.425912
-2.857019
-1.972248
-0.828749
-0.104515
-0.036195
0.195520
0.446457
0.697653
1.036911
1.375650
2.006887
2.416543
1.839080
0.985483
0.339182
-0.721449
-1.594009
-1.669080
-1.187989
0.012400
1.182136
1.415928
1.135640
0.914319
0.791190
0.940038
1.219550
1.429443
2.190045
3.130666
3.736965
4.357552
4.802536
5.184915
6.118003
7.154218
7.294754
7.045638
6.591565
5.464952
4.426401
3.609433
2.906761
2.361510
1.596235
0.506509
-1.332646
-3.349743
-4.593770
-5.488410
-5.905596
-5.403723
-4.477909
-3.699124
-3.236216
-3.016191
-3.105550
-3.495461
-4.085393
-4.627787
-4.581027
-4.158384
-3.706906
-3.534419
-3.652093
-3.063457
-2.066727
-0.822177
0.913333
1.730305
1.279349
0.114810
-1.173897
-1.903584
-2.218162
-1.937351
-1.156488
-0.531745
-0.301589
-0.775405
-1.679656
-2.382846
-2.741585
-2.446227
-1.794988
-1.216484
-0.530175
-0.089348
-0.104154
-0.137663
0.222896
0.479289
0.364992
0.838550
1.955294
3.158540
4.199431
4.595059
4.442057
4.603114
5.072516
5.788437
6.865696
6.991945
6.590604
6.287456
4.706250
2.694089
1.438372
0.375663
-0.562098
-0.740298
-0.384934
-0.534300
-1.112542
-1.525312
-1.998088
-2.358905
-2.005879
-1.283203
-0.105674
0.981975
1.013408
0.742991
0.372823
0.329703
0.711043
0.677275
0.652598
1.068488
1.530356
1.510875
1.366185
1.312934
1.281763
1.224875
0.861461
0.528699
-0.149813
-1.063676
-1.318507
-1.241355
-1.068348
-0.517119
0.294397
1.094483
1.777414
2.222138
2.271236
1.832229
1.794044
2.150447
1.768849
1.662346
2.001084
2.227603
2.752335
2.824552
2.600114
2.694151
3.174983
3.761540
3.423063
2.276189
1.299463
0.605884
-0.504363
-1.302109
-1.102866
-1.088318
-1.577719
-1.913079
-1.851253
-2.209731
-2.589771
-1.982432
-1.354572
-0.744376
-0.142492
-0.052352
-0.105083
-0.562274
-1.206497
-1.533284
-1.857992
-2.409738
-2.987721
-3.506736
-4.448913
-5.281208
-5.508244
-5.723071
-5.820483
-5.703586
-5.449532
-5.471091
-5.922827
-6.751485
-8.203327
-9.490995
-10.311081
-10.184054
-9.687116
-9.986368
-9.984029
-10.115470
-10.457064
-10.366663
-10.065072
-8.740774
-6.725493
-4.372254
-1.983427
-0.091796
1.320044
1.855427
2.071815
2.266642
1.979340
1.150941
0.636342
1.223938
2.341981
3.948646
5.936652
8.056619
9.887204
10.909392
11.732858
12.310323
12.845966
13.249387
12.966241
12.034714
10.354796
8.788657
7.786213
7.157576
6.247870
4.672379
3.098446
1.171489
-0.956529
-2.459285
-3.086883
-2.466036
-0.971071
0.552469
1.907939
3.339781
4.887220
6.251522
7.400477
8.579565
9.628509
10.149605
9.900229
8.439555
6.004491
3.264201
0.344411
-2.247553
-4.341800
-6.179138
-7.737484
-9.080224
-9.847057
-10.182157
-10.575184
-10.859889
-11.079651
-11.082248
-11.316557
-12.203144
-12.675401
-12.575389
-12.559282
-12.652278
-12.041822
-10.528673
-8.816541
-6.947510
-5.354871
-4.074994
-2.836939
-1.532643
0.828129
4.020419
7.004893
9.823636
12.760314
15.434366
17.385224
18.888243
19.691187
19.713268
19.455060
18.497557
16.944405
15.067324
12.862934
10.840382
8.934986
6.856324
4.517375
2.090624
-0.077138
-2.324389
-4.897909
-7.338687
-9.699197
-12.349348
-15.476953
-18.272574
-19.098375
-18.514675
-17.717706
-16.875797
-16.489261
-16.524588
-16.945411
-17.189332
-16.847996
-16.808510
-16.507697
-15.913347
-15.997771
-16.346898
-16.246106
-15.146248
-13.808961
-12.563113
-10.825265
-9.561492
-9.143005
-8.827126
-8.198227
-7.145127
-5.249859
-2.131603
1.668023
5.879902
10.127368
13.543058
16.127490
18.576323
20.898910
22.878083
24.815953
26.430152
27.961485
29.449956
30.158344
30.048983
28.766770
26.662911
24.192000
20.952175
17.430243
14.114307
10.592374
6.762617
3.043001
-1.084710
-5.956396
-10.705992
-14.913192
-18.103660
-19.199360
-18.275884
-16.596483
-14.671082
-12.466950
-10.452189
-8.949950
-7.085075
-4.050205
-0.580743
3.310581
7.366859
10.151572
11.666799
11.973327
11.354820
11.013746
11.553805
13.156315
15.566702
18.196074
20.373710
21.473569
21.083398
19.365554
16.347052
12.566391
9.030691
5.087675
0.547972
-4.647126
-10.183039
-14.530254
-18.082059
-20.697142
-21.683739
-21.527358
-20.326189
-18.578729
-16.474868
-14.348926
-12.671863
-11.296131
-10.650866
-10.278877
-10.089505
-10.479676
-10.721518
-11.626549
-13.023320
-13.102807
-12.148159
-10.585134
-8.518160
-6.997217
-6.046466
-5.032590
-4.917512
-5.849298
-6.595870
-7.513109
-8.734017
-9.119252
-8.688556
-7.657535
-5.579131
-3.452929
-1.630397
0.994560
4.062680
7.380956
11.771295
16.717278
20.740045
23.813880
26.317265
28.092260
29.232642
29.086914
27.301790
24.385636
20.093492
13.829969
7.010023
0.943664
-4.959821
-9.891513
-13.165887
-14.915682
-15.679139
-16.921088
-17.966653
-18.345913
-19.244969
-20.012062
-19.990500
-20.297025
-20.615499
-19.776967
-18.602296
-17.513088
-16.465442
-16.212167
-16.469856
-16.404653
-15.327135
-13.358612
-10.595459
-6.652961
-2.287819
1.635457
4.622270
6.406357
7.318403
8.554640
10.327038
12.200226
14.572427
16.873972
19.141228
21.108192
22.318192
23.132566
23.072561
23.247645
23.416236
21.463302
18.388950
15.032749
10.474603
5.930743
2.555320
-0.438764
-2.325976
-2.561585
-2.120498
-1.522511
-1.624598
-2.470142
-3.361924
-4.265655
-5.585015
-7.759272
-9.607259
-10.902201
-11.876330
-11.379393
-10.552550
-10.332006
-10.726332
-12.060759
-13.401420
-14.267485
-13.984337
-12.531973
-11.649021
-11.345091
-10.927643
-10.943748
-11.033626
-10.404207
-9.077831
-7.207760
-4.799451
-2.505179
-0.724729
0.660615
1.610327
2.595109
3.631324
5.413853
7.833592
10.062402
12.274327
13.965158
15.603775
17.239535
18.783077
20.471050
22.096939
23.828034
24.086764
22.790003
21.378685
18.677880
14.470939
10.228930
5.821189
0.729479
-4.863583
-10.734077
-16.541707
-21.296498
-23.786112
-24.332143
-23.567126
-21.525089
-19.099115
-16.709509
-14.283535
-12.023033
-9.528221
-6.803514
-3.809947
-0.003826
5.128150
10.989554
15.436783
17.879901
18.710640
18.246696
16.725496
14.380053
12.468422
11.464160
11.777441
13.386705
14.541894
14.632554
14.297455
12.723782
9.270948
5.012833
1.473496
-0.730373
-2.361455
-2.418343
-0.709588
0.849280
1.947060
2.751823
3.516321
3.727773
3.348253
3.025883
2.567913
2.632596
4.358755
7.102685
8.807283
9.529180
9.592824
8.165141
5.630586
3.250594
1.776672
1.252981
1.927080
3.211114
4.408385
4.896231
4.133294
2.339337
-0.386146
-2.733668
-3.729097
-3.253201
-0.965684
2.210759
5.165881
7.635236
9.726628
10.888571
10.825449
10.511910
10.495286
10.751419
10.648812
10.093689
9.792099
9.575974
9.667673
10.177079
10.618945
11.200307
11.390978
10.467245
8.744984
5.929881
1.746319
-3.265901
-8.645694
-13.357104
-16.886569
-19.451776
-20.253159
-19.349945
-18.152414
-17.137499
-15.883858
-14.421623
-12.776512
-11.121269
-9.829442
-8.231868
-6.808339
-6.430375
-6.569090
-7.246823
-8.294207
-9.028569
-9.115590
-8.458636
-7.323969
-6.031882
-4.026992
-1.013423
2.278617
5.923682
9.687720
13.291742
17.426729
21.779141
25.194311
26.789548
26.820721
25.256659
21.730571
17.423620
13.367864
9.924382
7.373982
5.477937
3.798019
1.772350
-1.045352
-3.938646
-6.478655
-8.307680
-8.674731
-7.730213
-5.255144
-1.793995
2.626997
8.335139
13.521926
17.147248
19.362290
19.891439
18.303479
15.268871
11.345338
6.199596
1.042165
-2.869160
-6.131324
-8.282201
-8.952401
-9.787554
-10.787140
-11.445131
-12.200015
-12.935936
-13.653154
-14.272180
-14.480513
-14.035789
-12.909694
-11.014946
-8.787694
-6.207158
-2.829914
0.322370
3.122150
5.520329
6.535763
6.313663
5.288100
3.718064
2.149586
1.272611
0.806589
0.426549
0.508897
0.836725
1.183257
1.422245
1.767477
2.457162
2.792784
2.337412
1.239634
-0.601081
-2.839240
-4.799447
-6.164267
-6.612365
-6.358311
-6.026586
-6.433901
-7.531939
-8.965857
-10.737733
-11.887724
-12.613774
-12.687028
-11.650033
-10.496143
-8.857785
-7.119936
-5.846553
-4.470301
-3.669695
-4.275733
-5.748616
-7.044856
-8.207057
-9.523560
-10.928903
-12.683634
-14.652414
-16.172055
-16.745362
-16.325056
-15.709664
-15.338715
-14.801513
-14.581489
-14.546679
-13.996229
-13.279269
-12.412162
-11.442188
-9.738369
-6.931835
-4.112572
-1.028346
2.328116
5.820177
9.620583
12.544532
14.770485
16.840577
18.232155
18.529850
18.120197
17.442723
15.982829
14.355904
12.577534
10.327944
8.839475
8.049263
7.252296
6.690419
6.643662
6.542354
5.815005
4.612800
3.041725
1.419735
0.513666
0.816297
2.318795
4.273810
5.724095
7.316214
9.248109
10.948292
12.996823
15.260701
17.339106
19.241907
21.084182
22.420430
22.327174
21.461109
20.392945
18.758486
16.476166
13.318948
9.608684
6.293787
3.271648
0.408227
-1.981896
-4.100822
-5.652415
-6.996453
-8.716894
-10.194453
-11.554077
-13.147752
-14.185524
-14.790003
-15.729063
-16.301330
-16.597464
-17.154665
-17.014389
-16.219239
-15.426686
-14.540096
-13.498166
-12.024761
-10.548239
-9.634374
-8.882865
-9.008591
-10.522517
-12.433369
-14.603729
-17.207382
-19.725051
-21.121043
-21.706818
-22.194142
-21.370157
-19.607890
-17.513640
-14.976485
-13.010820
-11.606254
-10.711872
-10.312867
-10.162980
-10.478077
-11.257120
-12.392304
-13.621525
-14.801390
-15.512113
-15.556273
-14.996991
-13.809071
-12.671287
-11.443363
-9.944241
-8.589550
-6.888848
-4.752775
-2.196138
1.097201
5.094771
9.404322
13.472029
17.417125
21.068425
23.851579
26.080389
27.776675
28.217762
27.725243
26.959708
25.804002
23.997317
21.593426
19.488788
18.093056
16.911113
15.838792
14.868041
13.526341
11.790832
10.031166
7.730402
4.899972
1.898095
-0.734652
-2.326508
-3.551053
-4.353994
-4.514790
-4.669870
-5.157453
-5.757776
-5.991306
-6.175999
-6.533439
-6.943871
-7.488343
-8.324795
-9.182807
-9.558950
-10.001593
-10.518790
-10.092770
-8.645082
-6.670844
-4.439696
-1.866174
1.079855
3.767934
5.859587
7.831486
9.618691
10.739071
11.032870
10.408909
9.209302
7.721092
6.456543
5.784785
5.041590
3.879649
2.653286
1.356266
-0.630438
-3.233831
-6.405077
-10.065985
-13.172808
-15.556437
-17.205443
-17.842393
-17.747057
-16.858130
-15.760869
-15.249125
-15.074559
-15.360563
-15.895424
-15.977249
-15.845546
-15.796968
-15.786576
-15.723711
-15.648897
-16.308706
-18.056164
-19.690622
-20.775932
-21.845914
-22.283362
-21.852666
-20.944516
-19.645416
-17.984199
-15.760584
-13.364224
-10.887335
-7.871948
-4.759408
-1.793376
0.908471
2.999864
4.411704
5.206595
6.014214
6.869891
7.774924
9.363925
11.568837
14.114823
16.788875
19.704772
22.538581
24.922732
27.302208
29.362428
30.729848
31.043649
29.869759
27.722518
25.387206
23.446221
22.263239
21.953857
22.290777
22.965135
23.445188
23.495584
23.178668
21.636947
18.876135
15.772169
12.278551
8.571145
4.779313
0.777590
-3.074248
-6.809969
-10.496075
-13.380017
-15.020450
-15.930676
-16.080041
-15.410358
-14.555981
-13.038675
-10.604388
-7.829027
-4.819614
-2.011782
0.357823
1.883181
2.149444
1.457684
-0.138329
-2.366098
-4.884547
-7.378577
-9.270206
-9.905597
-9.139281
-7.496247
-5.469797
-3.474258
-1.285453
0.943617
2.646657
4.006283
4.835724
5.104325
5.114976
4.864561
4.574662
4.189687
3.833546
3.751201
3.536114
3.308559
3.302585
3.383894
3.298951
2.732658
2.079343
1.457719
0.651661
-0.302985
-1.545194
-3.122504
-4.915421
-6.566245
-8.086665
-9.886077
-11.911226
-13.595041
-14.434609
-14.533060
-13.966765
-12.581681
-10.318582
-7.381644
-4.134284
-0.850557
2.165610
4.861482
7.132634
8.906591
10.394023
11.704553
12.706480
13.389151
13.899076
13.856476
12.988332
11.694949
10.499239
9.586935
9.042722
8.734119
8.496433
8.659828
8.996488
8.986878
8.621126
7.873255
6.521944
4.897616
3.361090
1.468682
-0.234355
-1.205367
-2.057924
-2.755140
-3.279090
-3.613930
-3.258566
-2.349118
-1.374207
-0.109916
1.459084
2.537122
3.169658
3.599315
3.509437
2.588301
1.037228
-0.821670
-3.442987
-6.223022
-8.567686
-10.603746
-12.005972
-13.047900
-13.909809
-14.906537
-15.881185
-16.393966
-16.766212
-16.852194
-16.664121
-16.056783
-15.047843
-13.939412
-12.825266
-12.174027
-11.934519
-12.044140
-12.564974
-13.105290
-13.132824
-12.415604
-10.865567
-8.277498
-5.000525
-1.498332
1.913461
5.191473
8.250242
10.787136
13.310783
16.102510
18.539654
20.292829
21.582318
22.501638
23.005329
22.908697
22.099781
20.995248
19.349360
16.618161
13.102204
9.165682
4.578441
-0.286751
-4.275486
-7.522844
-9.792435
-10.539267
-10.492507
-9.441225
-7.515564
-5.777456
-4.394191
-3.433308
-3.207309
-3.559293
-4.190528
-4.958920
-5.516121
-6.140083
-6.785085
-6.684034
-6.310487
-6.105009
-5.602357
-4.826689
-4.364560
-4.199607
-3.934902
-3.373283
-2.356809
-0.973025
1.237602
4.000495
6.545962
9.147798
11.371673
12.881965
13.836613
14.308353
14.567862
14.223151
13.161481
11.857967
10.646930
9.716702
8.874016
8.149265
7.461141
6.336607
5.158560
4.341072
3.569562
2.851825
2.550495
2.532053
2.450487
2.500104
2.656485
2.880666
3.057050
2.769747
2.485563
2.294115
2.088640
2.496736
3.229802
3.875846
4.706326
5.617852
6.492492
7.339337
8.031879
8.963928
10.208737
11.425491
12.877335
14.210206
14.594404
14.276449
13.946025
13.594560
13.245953
12.892670
12.052841
10.778941
9.073825
6.756956
4.162915
1.709408
-0.160920
-1.301300
-1.790442
-1.445209
-0.586415
0.224062
0.988560
1.460820
1.649932
1.754879
1.452771
0.863878
-0.133890
-1.660544
-3.343580
-5.148186
-6.975652
-8.641543
-9.961423
-10.664873
-10.155727
-8.337090
-5.950601
-3.263560
-0.508720
2.256251
5.403080
8.619008
11.498277
14.074657
16.218782
17.798952
18.695412
18.618782
17.613221
15.746011
13.079754
9.946954
6.449959
2.801780
-0.781198
-4.303910
-7.716220
-10.522232
-12.342684
-13.298629
-13.103022
-12.324757
-11.528307
-10.421954
-9.520298
-9.018945
-8.856070
-9.141034
-9.626539
-10.079313
-10.262448
-10.134641
-9.907343
-9.737973
-9.691733
-9.886818
-10.061121
-10.180613
-10.427391
-10.301663
-9.606782
-8.510041
-7.258478
-6.021462
-4.675603
-3.367151
-2.439518
-1.959466
-1.567215
-1.537081
-2.104413
-2.773054
-3.371299
-3.417536
-2.963461
-2.529907
-2.158957
-1.999198
-2.050631
-2.586272
-3.539878
-4.372433
-4.916386
-4.945479
-4.299695
-3.114373
-1.423282
0.681878
2.898479
4.976883
6.631606
7.961100
8.992120
9.360212
9.269554
9.318392
9.697135
10.217191
10.699322
10.869211
10.889214
10.960132
10.741669
10.376176
9.924961
9.276581
8.579885
7.524449
6.030265
4.144871
1.716301
-0.845009
-3.207078
-5.526804
-7.767301
-9.804140
-11.689535
-13.379324
-14.707776
-15.306540
-15.147041
-14.595552
-13.482186
-11.782523
-10.308339
-9.456559
-8.689463
-8.069656
-7.767025
-7.471927
-7.401009
-7.529074
-7.741303
-8.004447
-8.532554
-9.244576
-9.189245
-8.561904
-7.663106
-6.459080
-5.487027
-4.676031
-4.010504
-3.762684
-3.621369
-3.309127
-3.000522
-2.633209
-2.027169
-1.305013
-0.973548
-1.192791
-1.545554
-2.438376
-4.039844
-5.693525
-7.389029
-9.169477
-10.755359
-12.043547
-12.958968
-13.426030
-13.438238
-13.064171
-12.426959
-11.452568
-10.079693
-8.491211
-6.854672
-5.319443
-3.708101
-1.929209
-0.385927
0.856545
2.010175
3.109774
4.237687
5.445350
6.427533
7.108127
7.871066
8.663879
9.257970
9.817511
10.495506
11.281305
11.906828
12.204523
12.327135
12.085552
11.407818
10.530064
9.529699
8.422829
7.006315
5.423810
3.788053
2.073586
0.806439
-0.365113
-1.729413
-2.923305
-4.228638
-5.610862
-7.053092
-8.755090
-10.472415
-12.060894
-13.554039
-14.710525
-15.533988
-16.222372
-16.338487
-15.924156
-15.178361
-14.096686
-13.017609
-11.686557
-9.875714
-7.828222
-5.681498
-3.351119
-1.124647
0.848811
2.698360
3.941091
4.647921
5.130830
5.397873
5.370079
4.948737
4.303734
3.476634
2.453929
0.964421
-0.808234
-2.291248
-3.371622
-4.162094
-4.760598
-4.833852
-4.448095
-3.981291
-3.353171
-2.585815
-1.821057
-1.256580
-1.085652
-1.490369
-2.328899
-2.926883
-3.279907
-3.700730
-4.055831
-4.165452
-3.666437
-2.818293
-2.049639
-1.132137
-0.300359
0.390365
1.481391
2.683339
3.534859
4.235195
4.914489
5.526503
6.059808
6.507649
6.578307
6.329191
6.217752
6.449985
7.300207
8.590995
9.909318
11.228941
12.456865
13.563218
14.648789
15.542132
15.958281
15.716179
14.857907
13.793639
12.740801
11.903570
