EVENT_NAME: 202010301151
EVENT_ID: 10614
EVENT_DATE_YYYYMMDD: 2020/10/30
EVENT_TIME_HHMMSS: 11:51:24.00000
EVENT_LATITUDE_DEGREE: 37.879
EVENT_LONGITUDE_DEGREE: 26.703
EVENT_DEPTH_KM: 16.54
HYPOCENTER_REFERENCE: AFAD
MAGNITUDE_W: 6.6
MAGNITUDE_W_REFERENCE: AFAD
MAGNITUDE_L: 
MAGNITUDE_L_REFERENCE: 
FOCAL_MECHANISM: 
NETWORK: TK
STATION_CODE: 3536
STATION_NAME: 
STATION_LATITUDE_DEGREE: 38.19681
STATION_LONGITUDE_DEGREE: 26.83839
STATION_ELEVATION_M: 34.0
LOCATION: -_-_-
SENSOR_DEPTH_M: 
VS30_M/S: 1141
SITE_CLASSIFICATION_EC8: A
MORPHOLOGIC_CLASSIFICATION: 
EPICENTRAL_DISTANCE_KM: 37.27
EARTHQUAKE_BACKAZIMUTH_DEGREE: 
DATE_TIME_FIRST_SAMPLE_YYYYMMDD_HHMMSS: 2020/10/30 11:51:00.6276880
DATE_TIME_FIRST_SAMPLE_PRECISION: millisecond
SAMPLING_INTERVAL_S: 0.01
NDATA: 10501
DURATION_S: 
STREAM: HNN
UNITS: cm/s^2
INSTRUMENT: sensor = GMS+/GEOSIG | digitizer = 
INSTRUMENT_ANALOG/DIGITAL: 
INSTRUMENTAL_FREQUENCY_HZ: 
INSTRUMENTAL_DAMPING: 
FULL_SCALE_G: 
N_BIT_DIGITAL_CONVERTER: 
PGA_CM/S^2: 51.034
TIME_PGA_S: 
BASELINE_CORRECTION: BASELINE REMOVED
FILTER_TYPE: BUTTERWORTH
FILTER_ORDER: 
LOW_CUT_FREQUENCY_HZ: 
HIGH_CUT_FREQUENCY_HZ: 
LATE/NORMAL_TRIGGERED: 
DATABASE_VERSION: 
HEADER_FORMAT: DYNA 1.2
DATA_TYPE: Acceleration
PROCESSING: Manual Paolucci et al., 2011
DATA_TIMESTAMP_YYYYMMDD_HHMMSS: 
DATA_LICENSE: U (unknown license)
DATA_CITATION: Turkish Accelerometric Archive v 1.0 - Disaster And Emergency Management Presidency, Earthquake Department
DATA_CREATOR: AFAD
ORIGINAL_DATA_MEDIATOR_CITATION: : AFAD - Disaster And Emergency Management Presidency
ORIGINAL_DATA_MEDIATOR: AFAD PROCESS SERVICE
ORIGINAL_DATA_CREATOR_CITATION: AFAD PROCESS SERVICE
ORIGINAL_DATA_CREATOR: network: TK
USER1: GuestUser
USER2: 
USER3: 
USER4: 
USER5: 
[...]
0.000723
-0.002654
0.003322
-0.007068
0.003064
-0.002390
-0.011221
0.004366
0.005926
-0.002126
-0.007580
-0.003163
0.005150
0.007229
-0.010953
-0.004458
0.013207
-0.015367
-0.001598
0.010872
-0.009129
0.002302
-0.003153
-0.005230
-0.004709
-0.002890
0.008801
-0.009902
-0.002627
0.013999
-0.006262
-0.002884
-0.003662
-0.002103
-0.000543
-0.006517
0.013226
-0.012749
-0.011969
0.009073
-0.010928
0.004659
0.008037
-0.009107
-0.004430
-0.003650
0.003625
0.004145
-0.006764
0.000510
-0.000528
-0.010138
0.005968
0.008048
-0.011954
0.001296
-0.002860
-0.008574
0.003896
-0.000259
0.007275
-0.007531
-0.008049
0.003641
-0.006489
0.002344
0.004683
-0.005966
-0.006745
0.001049
0.005726
-0.002585
-0.007260
0.001833
-0.005959
-0.004660
0.008849
-0.005697
-0.002319
0.003657
-0.006473
-0.001017
-0.004653
0.006258
0.003402
-0.011404
0.003923
-0.006466
0.001847
0.008342
-0.010620
-0.008541
-0.002825
0.008086
-0.001004
-0.003082
-0.003860
-0.001261
0.003415
-0.006974
0.009132
-0.003076
-0.011128
0.002641
-0.002813
-0.000734
0.001605
-0.000732
-0.008524
-0.003328
-0.000729
-0.000728
0.002390
-0.002025
-0.005141
-0.004621
0.005511
-0.002800
-0.006436
0.000578
-0.006694
-0.001757
0.003439
-0.001236
-0.001755
-0.005131
-0.005389
0.003703
0.002665
-0.003308
-0.003307
-0.006164
-0.001487
0.000592
0.000333
-0.003822
-0.007198
0.006830
-0.003040
-0.005377
0.003976
-0.002777
-0.007452
-0.006152
0.006318
0.001383
-0.003552
-0.005888
-0.005368
0.007362
-0.006665
-0.001209
0.004247
-0.001467
0.008925
-0.000685
0.023994
0.032307
0.023216
0.046337
0.039064
0.028155
0.008154
-0.011328
-0.036525
-0.081723
-0.080683
-0.057043
-0.052367
-0.008984
0.039074
0.003227
-0.043011
-0.037815
0.031025
0.116230
0.174419
0.241440
0.263781
0.266639
0.348207
0.463285
0.549270
0.591353
0.454716
0.274178
0.313404
0.332368
0.317043
0.325097
0.106373
-0.213141
-0.540967
-0.815800
-0.787744
-0.627466
-0.642272
-0.779429
-0.715785
-0.365616
0.220161
0.917899
1.183123
1.122858
0.639690
-0.230531
-0.504066
-0.444838
0.131848
0.977134
0.841536
0.451625
0.314728
0.479682
0.611385
0.190043
-0.128432
-0.355468
-0.542760
-0.593933
-0.620948
-0.627961
-0.934226
-0.961501
-0.350266
0.013150
-0.079066
0.133685
0.347475
-0.064257
-0.247911
-0.151277
-0.010222
0.483338
0.679724
1.001058
1.286024
0.291114
-0.339862
0.092133
0.207471
0.473735
0.575565
-0.008912
-0.118533
-0.221660
-0.278029
0.639213
0.821311
0.183841
-0.243476
-0.675209
-0.142684
0.608306
0.358930
-0.155150
-0.863017
-1.382292
-0.454919
1.167073
1.556466
0.796126
-0.506349
-1.884937
-2.097946
-0.899375
0.410116
0.773272
0.342578
0.131388
0.735869
1.058761
1.032785
1.591287
1.922233
0.995382
-0.256699
-0.586863
-0.337225
0.628853
1.556485
1.376207
1.302954
1.315683
0.753806
0.561319
0.519757
-0.268897
-1.447723
-2.138965
-2.025185
-1.919459
-1.704370
-1.324588
-1.727487
-1.528244
-0.190179
0.406769
1.078530
1.775228
0.883706
0.045436
0.216624
1.007878
1.541702
0.719277
-0.370448
-0.492278
0.221825
1.107375
1.371040
1.109714
1.155694
0.745002
-0.224451
-0.826332
-1.162990
-1.167665
-1.047911
-1.111553
-1.006087
0.012724
1.498858
2.232443
1.556788
0.091438
-0.311461
0.173267
0.831000
2.072172
2.095552
0.963744
1.308977
1.590826
1.741233
2.827323
1.777342
-0.137926
-0.384185
-0.736429
-0.568098
1.508747
2.596137
1.130527
-0.385737
-1.320122
-1.448186
-0.451196
-0.093495
0.126270
0.304472
-0.689659
-0.604194
0.844532
1.646437
1.805935
1.766192
1.607475
0.503722
0.036660
0.398777
-0.736667
-0.595612
0.588411
0.245518
0.711283
1.524877
1.542542
1.865954
1.481759
0.706352
1.159908
1.741529
1.099644
0.231500
-0.737433
-1.402698
0.191759
2.057933
2.399788
2.014293
0.800918
0.157474
0.076947
-0.848345
-1.673367
-2.083020
-2.413704
-2.738932
-2.668015
-1.370213
0.102932
0.509989
0.969260
1.563610
0.478560
-0.704422
-0.364645
-0.012658
0.800157
1.636870
1.236049
1.402042
1.105388
0.193344
0.736519
0.493378
-0.738441
-1.576192
-1.958049
-1.821670
-1.180822
0.590277
1.654807
1.452968
1.287237
0.293626
-1.013266
-0.892732
-0.283576
-0.451125
-0.176030
0.847976
1.596109
2.152013
2.356711
2.071487
2.545824
2.956259
1.708075
0.535224
0.162977
-0.344089
-0.313435
0.426385
0.580428
-0.055743
0.509773
1.654831
1.402597
1.393766
1.128284
-0.458117
-1.027787
-0.111585
0.865143
0.916578
0.746431
0.077010
-1.385742
-0.467201
1.337667
1.469630
1.862400
2.035407
1.013221
-0.030785
0.386143
1.163110
1.212467
2.113083
2.050740
1.307804
2.748738
3.317891
2.104256
1.293002
0.200678
-0.631877
-0.398604
-0.191568
0.592412
1.483417
1.136628
0.384861
-0.479386
-0.283520
0.718665
0.489551
-0.525361
-1.768610
-2.294379
-0.711352
0.906743
1.194567
0.996105
0.214724
0.931165
2.597318
1.759048
-0.436510
-1.275300
0.223303
2.053628
1.788926
0.358125
0.234476
1.375898
1.386030
1.835169
3.078939
2.087925
0.815064
0.477886
-0.933432
-2.206554
-2.315396
-2.771028
-3.244843
-2.831552
-1.643112
-0.224779
0.782602
1.661658
1.897268
1.876228
2.147167
0.890671
-2.264989
-5.135683
-5.579626
-2.875701
1.167328
4.474175
5.115023
2.350314
-0.362441
-0.924058
-0.510507
-1.165381
-2.835688
-3.969574
-2.937515
-0.404776
0.622347
1.501403
2.019381
2.129004
2.905711
2.770113
1.963015
0.973040
0.844456
0.819520
1.166830
2.400209
2.830646
4.093898
4.881515
2.863899
1.076177
2.592184
5.298187
5.984495
6.072038
6.444026
6.058272
3.772055
-0.073808
-1.189250
0.832265
1.265559
0.384167
-0.503979
-1.075207
0.509378
2.374773
3.133296
3.185770
3.816747
4.123794
2.193200
1.332589
1.330252
1.208942
1.045289
0.528871
1.186605
1.452089
4.047950
8.502452
7.942133
4.079645
3.110192
3.760652
0.743708
-2.476894
-5.850499
-10.251746
-9.125651
-5.987134
-2.319469
4.200707
8.269712
7.575613
3.652599
1.459639
1.554196
-1.138038
-3.620379
-2.966542
-2.199966
-0.608108
3.105536
4.917418
6.218337
8.992139
8.009179
5.797775
4.884432
3.582217
3.658849
2.546784
0.370189
1.330033
3.649761
5.684784
8.099847
7.812025
4.749622
4.053705
4.088515
1.688780
0.417996
1.286401
1.952187
2.334567
5.510231
9.423635
6.892977
0.967412
-3.131725
-5.972286
-5.999820
-3.559819
-1.463751
-1.209437
-1.467646
0.518281
2.743974
3.171033
2.341076
0.310211
-0.028785
0.748961
-0.111130
0.672072
1.554764
-0.431680
-2.511122
-3.160021
-2.203554
-2.319670
-4.115704
-4.908255
-4.686412
-4.555229
-3.963996
-0.160213
3.255996
3.637856
4.800578
4.484961
1.639464
-1.038742
-4.097509
-8.132223
-9.059334
-7.525144
-7.447732
-3.178965
2.988706
3.114175
1.760266
2.974162
0.842767
-5.725464
-8.523683
-7.869586
-8.478741
-6.802717
-3.265457
-1.380060
0.959151
2.427620
2.423725
1.664424
-1.151979
-3.444170
-4.161388
-2.980223
-1.530457
1.411935
6.285183
4.737226
-1.471745
-5.666737
-5.135510
-1.716444
-1.555906
-5.026924
-5.193954
-0.995584
-2.601988
-5.602306
-2.971895
0.421714
3.029785
2.063709
0.138050
2.697025
3.950146
1.407799
1.128029
3.161234
4.269924
2.902247
1.286492
1.125956
3.453478
8.700531
9.821690
7.335972
5.102488
1.839544
-1.313258
-2.605083
0.814763
4.658810
4.043161
3.324384
3.993287
6.469915
8.373756
6.506545
4.193832
0.412391
-4.367338
-5.396277
-3.631673
-0.277549
5.184852
8.503648
6.868930
3.928098
-0.644336
-6.429107
-9.756733
-10.857369
-8.409834
-5.328986
-7.016957
-7.873151
-3.971436
0.590609
7.855800
12.407974
4.895227
-4.804507
-9.185492
-10.663051
-10.107926
-10.472899
-11.180505
-7.802482
-4.149105
-4.421601
-0.592101
6.572039
7.157297
3.332735
-1.146702
-3.302255
-1.767805
-1.203848
-0.354925
1.150950
1.528914
1.741145
-0.289200
-3.555261
-5.102178
-5.713671
-6.913019
-8.892449
-10.480669
-9.289113
-7.263961
-5.076195
-2.350968
-4.722129
-7.595941
-7.444755
-9.934110
-11.881589
-8.573703
-6.028756
-7.334349
-6.038625
-2.841920
1.695187
8.246276
10.075303
6.573112
3.620331
4.377296
5.848623
5.903694
6.579611
3.010661
-2.343155
-5.044740
-4.959536
3.877510
10.865269
10.261309
9.283544
7.806504
6.631055
4.631363
-0.548409
-5.958075
-7.920361
-10.408157
-15.525844
-14.597173
-6.786210
-6.894272
-10.769489
-5.711547
1.122688
4.956084
5.308331
3.807652
3.029908
1.522995
-1.924644
-6.230036
-7.359246
-6.666704
-6.427197
-2.392741
5.390167
8.032268
3.925598
-0.408369
0.082333
4.860765
5.265484
4.193163
7.106202
4.291877
-2.565216
-1.355735
5.274063
10.145751
14.725720
15.155378
5.976739
-1.870330
-4.034196
-5.398496
-1.026601
5.246536
8.782238
12.904756
13.588466
12.435357
13.794724
10.849736
5.565798
6.449269
8.651323
5.569957
2.740306
6.033125
9.175538
7.370672
4.755849
2.379753
-3.724533
-8.522705
-6.639127
-0.675893
6.550072
4.725203
-3.879089
-7.299452
-8.237473
-6.121662
-2.146952
-2.956388
-5.522115
-7.986013
-14.639707
-17.053990
-6.773154
3.103224
2.861641
-0.254015
3.408714
7.223926
8.503544
12.597228
12.527091
6.530610
-4.020383
-10.699275
-7.559979
-1.767933
2.180281
4.110618
7.436947
8.084030
3.125580
-2.823104
-4.256762
-2.482546
-4.871371
-5.407531
-3.039746
-2.141207
-2.964151
-6.537778
-6.861447
-2.379411
6.046163
11.766513
11.287502
8.781003
2.752050
-4.069974
-2.824906
5.296220
3.119106
-2.849061
-1.609448
1.725454
5.725361
3.651115
0.540136
-1.930776
-8.176115
-11.190721
-4.772894
3.962323
2.299550
-1.487086
2.188890
7.114611
7.092531
3.745163
1.140211
-1.011446
-4.904846
-10.497389
-15.227502
-15.131127
-10.167740
-7.000129
-5.192403
-1.252502
3.041462
5.554978
5.845659
6.213751
4.067030
-4.878857
-13.516919
-13.904491
-8.127511
-2.359624
-2.380664
-3.089829
-3.729637
-8.834595
-10.527242
-7.209745
-2.208432
0.102465
-0.864910
1.601847
5.990108
6.333002
1.553273
-4.158503
-11.139765
-12.418342
-5.718146
-4.242404
-2.567679
-2.530012
-9.125778
-11.527851
-11.220025
-2.987459
7.742516
6.867099
4.227857
2.019312
-3.364118
-2.946930
-0.056231
-3.600504
0.015726
6.991275
5.355258
7.787206
11.682168
12.796573
14.062163
8.700554
1.189885
-0.646153
-4.352261
-12.485075
-19.194879
-22.215719
-16.766567
-14.427096
-17.341431
-6.439490
3.599762
2.549261
2.102981
0.968835
3.159199
5.608552
3.731210
5.160974
10.077083
10.221775
2.928272
-2.499578
-4.562134
-4.614866
-3.956873
-8.107184
-13.542308
-17.836530
-24.847666
-29.397760
-26.728124
-29.906643
-39.791851
-37.941523
-30.895577
-31.801646
-29.101098
-25.660730
-25.134180
-18.505421
-12.221114
-3.912436
15.902402
32.337400
29.582822
27.331154
32.438712
25.330684
11.570258
3.882427
4.899420
6.537777
2.426431
-2.582933
-11.918211
-18.110039
-17.183446
-22.545054
-27.599098
-19.223660
-4.436110
0.409342
-6.078880
-14.210395
-17.866627
-19.146763
-20.424560
-11.794289
1.692343
13.487885
28.392071
35.613620
33.962017
32.878006
29.433484
23.386608
15.886849
8.176159
5.635370
5.625240
7.751181
13.476727
22.855389
33.769799
36.163302
30.134089
21.164564
7.689104
-9.782107
-21.421527
-22.893371
-20.214643
-18.752409
-18.671100
-12.439787
0.112460
13.152032
19.392957
20.832592
23.383254
19.758713
14.971971
7.279984
-3.546883
-5.697241
-10.487360
-18.968522
-24.671986
-23.739678
-16.870633
-18.626664
-24.773551
-27.821927
-24.382079
-17.716693
-9.124608
3.558562
3.884052
-4.962343
-18.286878
-34.970472
-44.480575
-49.146785
-49.474352
-50.421464
-45.570298
-29.463646
-13.035142
1.355482
5.871808
2.914611
4.967038
11.811664
18.411069
22.894405
30.794208
34.644489
28.485133
23.055465
21.521276
19.616140
13.469512
13.490035
19.235842
18.333669
16.265658
14.763161
11.821290
9.935376
5.775713
-4.112352
-6.168674
2.460038
11.346181
18.521751
22.374370
22.874424
20.187126
22.114605
20.916296
14.143109
12.216411
11.834813
16.028247
17.135379
18.832964
27.634162
30.223010
27.074104
18.535533
4.018144
-5.982660
-5.917458
-4.559650
-5.265438
-3.575387
1.174990
3.887747
2.093791
-1.730511
-9.273132
-10.511964
-7.892983
-5.760287
-3.065714
-6.770783
-8.554088
-11.489205
-11.764558
-3.230921
5.034895
7.206556
-1.441117
-14.393924
-28.453083
-39.642066
-43.189196
-37.922140
-24.504866
-14.845915
-11.061095
-5.008761
-1.782443
-8.011936
-17.931953
-23.613596
-23.798290
-25.059982
-24.565383
-10.842621
8.126932
14.235636
16.164673
24.418540
28.372469
25.661012
19.543478
12.065800
6.849921
6.712764
11.305982
15.928813
15.444346
14.587633
19.180071
20.596067
17.649780
13.081762
7.915499
5.983605
7.189449
10.709565
10.836593
9.554119
7.679116
0.303266
-7.960470
-13.141800
-10.803368
-4.491267
0.781504
5.367188
0.398868
-7.081928
-5.207702
-0.625394
2.377783
4.922211
13.192444
21.327597
21.289152
22.421741
26.371513
30.988370
32.837658
28.553047
20.875867
13.345456
8.274527
1.856182
-5.450569
-7.270502
-5.230284
-6.866042
-3.897153
0.893748
-6.448072
-13.800283
-19.680648
-26.367074
-27.397572
-27.300677
-26.956484
-24.788720
-21.015070
-20.080164
-22.107652
-21.068060
-18.077351
-16.534588
-13.742861
-10.527453
-13.477377
-19.788177
-27.438602
-33.438720
-38.353268
-44.761223
-40.079165
-32.519917
-27.788243
-16.929943
-10.263258
-7.539331
-7.855727
-9.083389
-5.942794
-3.603843
5.103059
16.627664
24.562276
33.610254
35.983495
33.874959
36.796051
38.993688
39.446205
41.054949
44.415048
50.042661
51.034456
42.422890
30.242893
21.825114
13.983501
9.892417
15.161031
19.766458
18.403976
17.380751
16.387919
15.548610
15.729669
7.610883
-8.861519
-21.070091
-23.353710
-23.921302
-21.053983
-9.145701
2.370851
6.514411
5.707053
3.550460
-5.354383
-15.782506
-22.567643
-29.215622
-27.484788
-20.914736
-17.133294
-15.352324
-13.920482
-6.687243
2.366969
5.400020
4.790605
7.456085
10.690976
3.835701
-0.808948
3.269669
3.121083
3.857266
6.203231
9.304601
12.658985
8.531794
2.437119
-3.168412
-10.319302
-19.611200
-27.982220
-32.979115
-33.209008
-30.363769
-30.206349
-27.280322
-20.053837
-8.783805
1.599639
8.580384
15.143681
17.439251
17.655899
17.023624
20.675962
25.453875
20.697525
12.365210
2.170359
-11.629811
-14.656626
-5.909719
2.973306
9.946257
16.194975
26.999244
30.878099
26.874038
27.514367
23.816571
12.625770
0.069109
-6.572376
-7.648074
-2.073973
8.218033
11.509034
9.228012
5.786868
5.344224
-1.865893
-12.104645
-9.898175
-11.047647
-15.667879
-14.650886
-10.339517
-3.644258
0.151732
2.916703
4.991730
5.051737
6.898168
13.709284
21.840021
23.214195
24.265996
25.394169
16.133703
4.780547
-4.015194
-12.696897
-18.201897
-19.518920
-16.614194
-15.677470
-19.114198
-26.462253
-35.358524
-38.376766
-36.134968
-25.645279
-5.142315
6.438919
6.194998
4.222841
-1.595180
-3.852562
-1.360608
5.735733
14.335871
19.780088
25.493944
22.728975
16.393496
12.400345
6.141757
-2.576573
-8.454341
-6.622976
-1.147846
6.364643
4.318712
-5.746255
-9.606146
-13.984793
-22.215019
-24.728792
-16.511812
-4.949021
4.320278
11.429868
13.379687
11.709120
11.412206
9.062606
5.377280
6.834059
8.029252
7.067593
8.140695
13.309038
20.735025
24.184484
27.725901
30.701284
29.461932
28.726530
24.354637
18.732741
15.853474
14.522164
17.300903
17.855249
16.242091
16.947362
16.963988
14.845841
14.421641
15.909593
9.978832
1.812249
-0.759193
-5.110564
-9.521422
-10.572442
-11.685547
-11.598524
-6.125992
-0.497859
-2.310259
-3.867047
-6.130924
-13.117641
-14.575457
-12.965415
-18.852534
-25.355304
-27.238620
-32.311108
-36.542986
-38.412794
-43.869219
-46.425594
-40.155834
-35.184135
-34.171559
-27.252639
-16.564487
-8.462584
-4.631266
-2.182173
-2.605594
-2.909002
-2.016698
-4.516184
-2.278282
1.584468
0.467726
-1.312982
-4.247319
-9.948705
-13.848080
-15.968305
-17.838113
-17.875779
-18.065928
-16.712017
-14.289420
-16.162346
-25.068748
-33.953069
-35.019416
-27.159877
-18.834573
-16.050640
-3.757381
11.892598
17.158095
21.600127
25.852529
26.048655
23.824263
20.045420
16.707663
11.867148
1.917259
-1.200735
0.922609
-2.752586
-3.198087
0.885465
3.545490
1.834919
0.470619
1.274861
1.808685
3.738242
5.111896
6.960665
5.062542
1.168882
2.736582
3.448347
0.571678
-0.457002
0.096565
-3.620713
-12.270984
-18.684913
-23.632452
-29.023155
-27.184517
-18.529828
-8.277566
1.523479
9.190790
12.525172
13.651786
19.557091
24.542818
25.094047
26.711363
25.936216
20.774628
13.919873
14.430578
17.763142
15.227029
16.637310
16.126607
12.164627
9.979980
11.224269
16.611078
17.158410
17.570143
18.016945
15.697218
15.199504
15.106508
9.505133
2.913523
3.095362
-1.790353
-6.252645
-3.138027
-5.392032
-6.901802
-3.398831
1.650799
9.479166
16.899957
27.340810
32.329654
28.619650
30.636489
30.621423
21.598386
11.143247
4.729318
0.081032
-5.456959
-6.137291
-3.419857
0.627328
2.967318
-0.318485
-3.066309
-3.196192
-3.606625
-5.444222
-6.793456
-8.667680
-10.000289
-10.066269
-16.509551
-21.197842
-17.243653
-11.208464
-7.221286
-6.886444
-5.904260
-4.498915
-1.167130
3.952117
7.485741
9.532713
7.726808
5.341879
5.917006
11.391357
14.370376
13.736803
13.768496
6.699692
0.032749
-1.720943
-5.153256
-8.432825
-7.290105
-3.891560
-3.660885
-3.850774
-2.855602
-0.665758
1.268475
-1.545590
-3.315388
-3.636980
-8.798827
-15.030139
-20.108601
-26.343290
-29.782616
-27.849163
-26.051568
-22.808884
-17.367264
-11.502743
-8.103938
-8.036657
-7.952751
-10.472239
-10.424701
-6.746386
-3.357972
-2.321757
-4.394964
-4.654991
-1.738056
0.753899
0.562711
1.111861
2.983230
3.748248
3.489260
4.381044
4.755371
3.822545
1.760768
-0.929647
0.568435
4.667574
7.035360
3.712150
-0.776119
-1.224997
-1.495675
-1.092774
-0.507256
0.695211
-0.208001
-0.652203
4.577186
6.842623
9.446537
12.660387
10.692906
9.662927
9.819049
10.510552
10.545881
8.185891
4.123900
-4.558841
-13.968154
-16.929767
-18.384467
-18.355372
-12.331612
-8.421065
-5.297874
-3.310649
-6.066266
-6.983505
-9.792115
-11.951825
-7.873467
-2.605373
1.758469
4.137425
2.606354
-0.264341
-3.279985
-8.881100
-12.507200
-12.003769
-8.761085
-5.741022
-5.486448
-3.364923
-0.346419
-0.065608
-1.526542
-0.477079
4.772312
8.059676
8.671691
12.335978
15.227196
13.245168
9.754407
4.816480
1.662379
1.048548
-1.089861
-1.809417
-3.867557
-7.567171
-9.221372
-11.677737
-14.003957
-16.853091
-15.517363
-9.566599
-4.711276
1.969956
6.835670
8.258420
8.277124
7.158825
7.044268
6.502912
5.825179
5.179657
-0.357036
-5.640974
-4.645543
-2.641172
-0.781233
0.377073
1.679291
0.112891
-6.172712
-13.048768
-20.555021
-21.822688
-16.083374
-10.909835
-6.176084
0.015486
2.572642
-3.263563
-7.008376
-4.045982
-4.931789
-9.599558
-16.531205
-20.610859
-17.593653
-13.410090
-9.594098
-12.020589
-11.939281
-4.960615
-2.399042
-3.200945
-3.624885
0.260465
3.522891
6.055110
6.215907
2.343288
6.045761
9.833957
10.800295
13.520326
16.245552
22.443096
25.490954
25.513295
27.352973
23.945598
14.549533
6.460361
2.536308
4.139077
11.081635
15.435607
12.650636
6.003435
-0.638570
-6.662068
-9.722912
-8.925683
-7.182899
-6.220458
