EVENT_NAME: 202010301151
EVENT_ID: 10614
EVENT_DATE_YYYYMMDD: 2020/10/30
EVENT_TIME_HHMMSS: 11:51:24.00000
EVENT_LATITUDE_DEGREE: 37.879
EVENT_LONGITUDE_DEGREE: 26.703
EVENT_DEPTH_KM: 16.54
HYPOCENTER_REFERENCE: AFAD
MAGNITUDE_W: 6.6
MAGNITUDE_W_REFERENCE: AFAD
MAGNITUDE_L: 
MAGNITUDE_L_REFERENCE: 
FOCAL_MECHANISM: 
NETWORK: TK
STATION_CODE: 3536
STATION_NAME: 
STATION_LATITUDE_DEGREE: 38.19681
STATION_LONGITUDE_DEGREE: 26.83839
STATION_ELEVATION_M: 34.0
LOCATION: -_-_-
SENSOR_DEPTH_M: 
VS30_M/S: 1141
SITE_CLASSIFICATION_EC8: A
MORPHOLOGIC_CLASSIFICATION: 
EPICENTRAL_DISTANCE_KM: 37.27
EARTHQUAKE_BACKAZIMUTH_DEGREE: 
DATE_TIME_FIRST_SAMPLE_YYYYMMDD_HHMMSS: 2020/10/30 11:51:00.6276880
DATE_TIME_FIRST_SAMPLE_PRECISION: millisecond
SAMPLING_INTERVAL_S: 0.01
NDATA: 10501
DURATION_S: 
STREAM: HNE
UNITS: cm/s^2
INSTRUMENT: sensor = GMS+/GEOSIG | digitizer = 
INSTRUMENT_ANALOG/DIGITAL: 
INSTRUMENTAL_FREQUENCY_HZ: 
INSTRUMENTAL_DAMPING: 
FULL_SCALE_G: 
N_BIT_DIGITAL_CONVERTER: 
PGA_CM/S^2: 81.116
TIME_PGA_S: 
BASELINE_CORRECTION: BASELINE REMOVED
FILTER_TYPE: BUTTERWORTH
FILTER_ORDER: 
LOW_CUT_FREQUENCY_HZ: 
HIGH_CUT_FREQUENCY_HZ: 
LATE/NORMAL_TRIGGERED: 
DATABASE_VERSION: 
HEADER_FORMAT: DYNA 1.2
DATA_TYPE: Acceleration
PROCESSING: Manual Paolucci et al., 2011
DATA_TIMESTAMP_YYYYMMDD_HHMMSS: 
DATA_LICENSE: U (unknown license)
DATA_CITATION: Turkish Accelerometric Archive v 1.0 - Disaster And Emergency Management Presidency, Earthquake Department
DATA_CREATOR: AFAD
ORIGINAL_DATA_MEDIATOR_CITATION: : AFAD - Disaster And Emergency Management Presidency
ORIGINAL_DATA_MEDIATOR: AFAD PROCESS SERVICE
ORIGINAL_DATA_CREATOR_CITATION: AFAD PROCESS SERVICE
ORIGINAL_DATA_CREATOR: network: TK
USER1: GuestUser
USER2: 
USER3: 
USER4: 
USER5: 
[...]
-0.006455
0.009912
-0.010349
-0.000737
0.011213
-0.014243
-0.002812
0.007060
0.003684
0.002646
-0.002808
-0.000469
0.001090
0.002390
0.001352
-0.004881
0.000315
0.000576
-0.005138
0.003435
-0.010072
-0.011370
0.011751
-0.000717
0.009674
0.002662
-0.016041
0.006560
-0.003830
0.004744
-0.002269
-0.009801
0.014618
-0.001487
0.003969
0.002412
-0.003822
-0.003301
-0.005638
0.006832
-0.010312
0.001378
0.009172
-0.009270
0.002940
-0.005631
0.001383
0.007359
-0.006927
-0.000172
-0.000951
0.009441
-0.001728
-0.008741
0.003210
-0.003284
0.001133
-0.004061
0.006331
0.005812
-0.012371
-0.001459
0.005815
0.001660
-0.007691
-0.000157
0.007637
-0.002233
-0.001193
-0.001192
-0.000152
0.005304
-0.004826
-0.008202
0.000891
0.004269
0.002452
-0.005080
0.000895
-0.001182
0.001936
0.007652
-0.012869
-0.001957
0.003758
0.002201
0.005059
-0.012604
-0.001173
0.011297
-0.004029
-0.007664
-0.000130
0.000390
0.009743
-0.000907
-0.007660
0.004031
-0.000124
0.002474
-0.006617
-0.007395
0.008192
0.006634
-0.009210
-0.001676
0.005858
-0.002713
0.004042
-0.003491
0.002485
0.006123
-0.009982
0.002748
-0.000628
-0.006082
0.008985
0.001193
0.000415
-0.004520
-0.006337
0.015224
-0.000361
-0.012829
0.003798
0.002500
0.000942
-0.000616
-0.008408
0.005101
0.003024
-0.004768
0.010819
-0.007623
-0.000349
0.006146
-0.018790
0.012902
0.000954
-0.007098
0.012386
-0.013330
0.001737
0.003556
-0.004755
0.013949
-0.002415
-0.009948
0.006679
-0.005530
0.007720
-0.002670
-0.021113
0.020191
-0.000070
0.000711
0.003829
-0.018250
0.011364
0.002533
-0.005259
0.006951
-0.000581
-0.007854
-0.005775
0.009553
0.005917
-0.010967
0.002022
0.013713
-0.004990
-0.015119
0.012157
0.007742
-0.013818
0.006705
-0.002126
0.003590
0.006968
-0.013553
0.003593
-0.002641
-0.001861
0.008531
0.000220
-0.002117
-0.005234
0.001262
0.004380
-0.000555
-0.007308
0.003603
0.000487
-0.008344
0.009841
0.001789
-0.004185
0.001271
0.002052
0.004391
-0.008077
0.002574
0.003095
-0.009893
0.009071
-0.004695
-0.000798
0.008555
-0.014564
0.011154
0.001284
-0.008067
0.012196
-0.008324
-0.004946
0.013238
-0.002607
-0.005203
0.011683
-0.008578
-0.000005
0.002074
-0.008316
0.014025
-0.004417
-0.001299
0.000780
-0.009350
0.014290
0.000523
-0.012724
0.008318
0.010397
-0.008305
-0.006485
0.008582
0.001050
-0.005703
0.002610
0.005988
-0.001284
-0.005959
0.001315
0.001576
-0.001280
-0.002318
0.002618
0.004697
-0.004913
0.006518
-0.000235
-0.008287
0.010677
-0.009844
-0.009323
0.014057
-0.003866
-0.001008
0.006786
-0.000746
-0.004642
-0.008537
0.009128
0.006791
-0.000222
-0.003598
-0.009831
0.004457
0.000562
0.008615
0.004460
-0.010346
0.006021
-0.009824
-0.005927
0.018233
0.003946
-0.012938
-0.007482
0.013561
0.004470
-0.006180
-0.003841
0.003693
-0.000462
-0.005916
0.010970
-0.000199
-0.002017
-0.002535
-0.000456
0.005520
-0.000454
0.002404
-0.004868
0.001367
0.006044
-0.001748
-0.003306
0.002670
-0.000446
-0.003562
0.005271
0.004752
-0.001481
-0.005117
0.005534
-0.002258
-0.007712
0.011252
0.002161
-0.010566
-0.001474
0.007359
0.001646
-0.004848
0.007882
-0.001209
-0.006144
0.009703
0.000612
-0.009258
-0.005880
0.012565
0.004253
-0.011852
0.001398
0.006074
-0.001977
-0.008990
0.006857
0.002701
-0.000675
0.004262
-0.003790
0.005303
-0.002229
-0.000670
0.006085
-0.000408
0.000632
-0.005082
0.002712
0.007389
-0.004300
-0.002740
-0.000401
0.000899
0.002978
0.000901
-0.000917
-0.003514
-0.000655
-0.000914
0.007140
0.004543
-0.007665
0.002727
-0.001948
-0.003766
0.001691
0.001951
0.006109
-0.008437
-0.000903
0.006631
-0.004278
0.003776
-0.000899
-0.000898
0.001181
-0.005312
0.006378
0.001963
-0.004011
0.002225
-0.003489
-0.001670
0.006124
0.001969
-0.003745
-0.006601
-0.001405
0.007168
0.000675
-0.002961
-0.002960
0.000678
0.004575
-0.003217
-0.006073
-0.000617
-0.010227
-0.009707
-0.000095
0.000686
0.019390
0.005364
-0.005546
0.009522
0.000431
0.009524
0.010564
-0.001385
0.005111
0.009528
0.017062
0.008231
-0.017745
-0.033850
-0.072035
-0.073852
0.002781
0.002522
-0.078005
-0.082680
-0.057222
-0.036699
0.025906
0.023569
-0.036437
-0.034357
-0.016173
0.029028
0.159692
0.288278
0.316334
0.172683
0.023578
-0.014088
-0.048896
-0.008371
0.061767
0.043325
-0.199297
-0.455428
-0.312035
0.023327
0.274523
0.158408
-0.391780
-0.692850
-0.311769
0.153476
0.291154
0.483383
0.693796
0.564173
0.035806
-0.369950
-0.077191
0.449360
0.455855
0.117638
0.063607
0.084390
0.142579
0.264411
-0.320586
-0.859603
-0.745044
-0.675685
-0.564504
-0.752315
-0.702179
0.264419
0.749147
0.736939
0.684207
0.339755
0.441066
0.605760
0.438990
0.484190
0.246763
-0.434867
-0.526304
0.072462
0.085971
-0.548122
-1.079606
-0.739049
0.041554
-0.220550
-0.482915
-0.329131
-0.370434
-0.034812
0.135596
0.069097
0.354063
0.266522
-0.061304
0.243924
0.628901
0.562402
0.018449
0.278997
1.081941
0.357189
-0.368082
-0.099481
0.359530
0.427330
-0.026483
-0.492506
-1.024250
-0.666548
0.185491
0.217704
-0.297935
-0.421324
0.154583
-0.018162
-0.533281
0.164457
0.672824
0.041848
-0.393262
-0.211683
-0.164664
-0.220253
-0.017114
-0.155050
-0.297921
0.515153
1.192629
1.038068
0.819864
0.159016
-0.447022
-0.062045
0.212790
-0.276352
-1.193591
-1.663510
-1.378284
-0.542350
0.292285
0.486333
0.919107
1.140690
0.012779
-1.372822
-0.835881
1.086403
1.670102
0.906385
-0.196588
-0.854579
-0.025139
1.306432
1.540744
0.416729
-0.889903
-1.186557
-1.104469
-1.247860
-0.978999
-0.406989
-0.294249
-0.006945
-0.341005
-1.143168
0.606630
2.311488
1.501532
0.994207
0.600919
0.133857
1.020446
1.648566
0.957065
-0.560239
-1.905576
-1.491245
-0.233448
0.592875
0.440652
-0.759215
-1.736981
-2.252099
-1.693338
-0.219933
0.449750
-0.156807
-0.702579
-0.030818
0.907465
1.039168
-0.004059
0.114396
1.658198
1.419992
1.134508
1.771979
1.354273
0.589777
0.081672
-0.171601
0.164280
0.242731
-0.479423
-0.821536
-0.043011
0.365086
-0.024565
-0.321219
-1.111952
-1.246251
-0.142236
0.080906
-0.487725
-0.873220
-1.064148
-0.589551
0.629021
1.434562
0.773454
0.052599
0.645650
1.068293
0.352893
-0.620196
-0.929059
-0.267689
0.299645
0.191582
0.142227
-0.306910
-0.873983
-0.878138
-0.628240
-0.524592
-0.716559
-0.542514
0.025080
0.355246
-0.327423
-0.871116
-0.345865
0.827248
2.242205
2.540939
2.216750
1.291717
0.335512
0.825176
1.153783
0.359674
-0.406900
-0.877599
-1.369079
-0.799147
-0.197004
-0.579122
-0.068677
0.451639
-0.005291
-0.472093
-0.728743
-0.289734
0.199929
0.709595
2.161439
2.424065
0.948844
-0.019570
-0.535728
-0.235435
0.181234
-1.120462
-2.222916
-2.582694
-2.314872
-0.783020
-0.119572
-1.244106
-2.132771
-0.828995
0.979510
0.171373
-2.070163
-2.136403
-0.044491
1.615947
2.497860
2.206921
0.550901
-0.059812
0.809892
1.299295
1.431259
0.999785
-0.204238
0.293478
2.710360
3.708909
1.733375
-0.804038
-0.669996
1.331776
1.313074
-1.075751
-3.398075
-3.816820
-1.430591
0.858745
0.875631
0.117889
0.147763
1.528950
2.048487
-0.011732
-1.816339
-1.273682
0.007754
0.687567
0.073737
-0.687382
0.177646
0.311168
-0.859346
-1.260167
-1.156518
-0.690234
-0.696207
-1.358874
-0.454881
1.634173
2.210080
0.867081
-1.660460
-2.744211
-0.004697
3.101868
3.188372
0.738761
-0.537478
0.578227
0.604464
-0.823479
-1.107145
0.938269
2.849902
2.671442
0.870992
-1.835010
-3.523240
-2.300771
0.028568
0.194821
-0.936987
-0.850743
0.312239
0.892821
1.444310
1.353911
-0.103126
-0.319771
0.908932
1.743827
0.644230
-1.721735
-2.096839
-0.202610
1.584334
2.364938
1.509263
0.390704
0.357194
0.192762
0.097429
-0.760844
-1.726920
-2.230349
-3.087582
-2.614024
-1.794975
-1.040088
-0.288579
0.533328
2.227795
2.346250
1.604614
2.036609
1.959459
1.066897
1.845682
3.279083
1.429276
-1.836525
-2.273194
-1.114368
-0.575868
-1.300620
-2.455807
-1.910553
0.030434
1.654764
-0.713020
-3.993109
-1.925355
1.626972
2.981403
1.710620
-0.053463
-0.236859
0.565306
2.458755
2.586302
0.452569
-0.689889
0.529982
2.154832
2.461878
1.781027
0.245280
1.073681
2.714377
1.508795
0.808981
1.081219
0.618053
-1.892603
-2.855302
1.621800
2.875960
0.059038
-0.749879
-1.798821
-3.201826
-4.993704
-6.621149
-4.187383
1.745198
5.236740
3.407715
0.707168
1.318144
2.759337
0.378565
-3.149602
-4.381161
-5.537127
-5.970159
-2.976333
1.358415
3.017554
2.522178
1.745213
0.172579
-1.169381
-2.138055
-3.322336
-2.538615
-0.671922
-0.166932
-1.221069
-1.622150
-0.030811
0.143235
-0.879990
-1.423424
-1.258210
0.578090
0.266110
-1.399521
-0.749841
0.712134
2.848986
3.396318
2.520122
2.854704
3.478668
4.121594
2.507138
-0.067681
0.111560
1.672766
3.691943
4.953377
2.928227
-0.494214
-0.776321
1.921889
3.791959
2.544295
0.317306
-1.898773
-3.212419
-2.090480
-2.572349
-4.220056
-3.442310
-0.959966
0.365111
1.428602
2.866418
2.783034
3.424142
2.593665
-0.664863
-2.345561
-1.625743
-0.499388
-1.072175
-2.983287
-3.854028
-2.332826
-1.268556
-1.835888
-2.849242
-2.297754
1.327828
4.679355
4.859115
3.096591
-0.030754
-0.934745
3.142573
2.502506
-2.806370
-7.024481
-9.569946
-5.219871
0.774534
4.810030
4.106580
-2.202403
-3.224589
1.802441
4.206594
1.823744
0.646477
-1.593241
-4.550179
-4.187282
-2.802198
0.637909
4.321419
3.821887
0.139158
-0.948230
-0.582995
-0.652352
-1.262806
-1.102788
1.146024
2.771133
1.518273
-4.331180
-3.697085
1.647121
3.416661
6.390745
6.087597
4.807202
3.829696
0.719496
0.465704
1.940667
1.415157
-2.789965
-5.392059
-3.111036
-1.708029
-3.816044
-7.190169
-8.705914
-6.908838
-2.511226
1.515178
3.592803
5.699781
7.986519
7.941321
4.175726
-0.378005
-4.276861
-8.055184
-9.432473
-8.012061
-5.554396
-2.411203
1.917051
3.352010
2.838710
4.859446
4.058842
2.923138
5.338980
4.763076
5.029858
6.836545
3.966370
2.828848
5.759031
8.224489
5.613822
-0.355643
3.792332
14.573741
14.181232
5.418482
-1.160659
-6.138851
-5.654902
-2.145177
-3.919131
-6.438359
-7.765772
-8.940962
-10.030687
-11.653456
-8.968494
-2.785757
-1.630568
-3.227360
-4.839739
-7.838239
-6.961781
-6.884629
-6.398083
-0.954385
0.889449
-2.703920
-4.423323
0.938288
6.464072
6.992701
3.253862
-2.457135
-4.723349
-0.939309
6.494731
7.639529
5.258757
7.172208
6.108460
4.499978
3.851078
2.910200
3.953429
-1.054376
-3.037184
0.995974
3.525335
6.761265
4.320747
1.632669
4.975104
7.456408
4.539735
0.836484
5.123695
9.555077
8.811363
9.053208
8.267151
7.331987
5.752080
3.611593
5.021874
5.959118
7.306275
5.291256
-2.188241
-4.912166
-4.663307
-4.465363
-1.620124
0.941968
2.552530
4.061523
-0.428045
-8.040543
-9.365619
-6.039289
-0.174508
0.553363
-7.160445
-11.260361
-10.160502
-7.405403
-3.670459
-3.202096
-6.252030
-9.870077
-11.784825
-9.164286
-1.640886
4.718493
8.505391
11.685471
7.933384
-1.040817
-6.113564
-2.910885
4.929692
9.744231
9.290937
2.746085
-7.547477
-15.915900
-18.169646
-17.637900
-16.362958
-11.450226
-5.246447
0.464032
4.174038
3.511631
-0.078620
-1.034565
-1.267836
-1.138990
4.622404
10.992953
15.971147
14.932855
8.434762
4.828405
-2.699929
-9.336219
-3.807058
-0.026914
-3.300248
-1.530708
2.534401
6.391176
6.308052
2.985361
3.202788
0.508995
-4.112535
-10.913518
-14.880693
-9.280615
-1.726303
3.936119
6.769669
8.232423
7.080613
6.374045
6.656674
4.640356
2.327384
-1.237930
0.067664
0.416534
-4.965337
-8.343099
-9.247090
-3.039415
4.703748
8.307769
9.547123
9.062137
11.988424
16.227578
17.353153
13.685751
5.013399
-2.936277
-2.562210
2.062179
4.346839
3.224642
-0.279626
-1.926813
-4.066521
-5.622789
-4.801402
-2.928994
0.442015
5.138361
8.798751
6.155614
2.415476
2.221171
8.311431
15.037602
14.721726
11.941431
5.422296
0.510865
-0.270516
-1.932770
-4.791775
-9.548385
-12.247632
-10.217545
-5.848507
-1.771708
0.389562
1.169906
0.985212
-0.051002
-2.965337
-11.028013
-17.249713
-15.532387
-14.837766
-16.266229
-11.723666
-7.114863
-9.393806
-13.844669
-17.151254
-13.779205
-4.972033
1.860644
6.089927
3.939309
0.449588
4.982019
9.474187
10.944215
13.480070
11.302177
2.092885
-6.460492
-6.046681
-0.776248
2.460461
0.905751
-2.126779
-1.379685
-2.413561
-3.185590
-0.738835
-1.888047
-3.949305
-1.922594
-0.025508
3.737751
7.629335
6.856526
9.163786
10.520295
9.637864
12.616884
12.710401
9.327964
4.921782
1.811581
2.914037
3.961163
0.781604
-1.059889
3.436694
4.147420
5.450677
9.029501
9.379149
14.645425
13.306582
8.299297
6.214660
-0.808424
-6.214713
-9.545457
-8.506384
-4.906000
-4.610383
-4.891191
-4.545179
-2.963711
-0.915180
-3.138273
-6.353679
-4.338659
-3.063197
-2.215833
0.088829
-0.934396
2.932250
12.613023
12.627311
9.949624
10.091718
7.172187
10.447083
16.786720
14.860801
8.203210
6.503290
3.125009
-6.712401
-13.071259
-13.371550
-9.647256
-6.610568
0.085211
7.635107
9.428285
11.189773
9.186703
3.396997
-0.652005
-1.260121
-2.901074
-3.840913
1.245344
7.878259
16.419170
20.149438
18.855275
23.879967
28.993759
29.012204
30.282990
33.928833
40.758393
50.787514
56.261864
55.975860
54.813140
57.119361
60.057597
54.030462
43.804180
32.242430
15.322707
-5.656929
-27.719537
-42.084183
-47.530996
-49.276375
-51.058642
-54.003890
-56.661055
-58.489301
-62.617012
-71.257671
-78.516885
-81.116122
-68.795848
-44.562617
-23.389972
-8.452276
-4.902806
-5.371946
-11.780420
-23.704546
-29.521528
-37.957230
-40.612317
-33.969791
-31.824107
-31.498097
-32.630165
-31.850860
-25.785538
-17.985485
-12.144603
-6.234102
3.965686
9.563426
14.417451
19.757241
19.278230
18.802077
17.946662
20.514469
28.185676
36.500589
38.036597
30.053670
21.579522
15.865408
16.259996
17.754183
14.325247
10.716292
7.629731
9.089368
8.251357
1.879771
-1.897514
-11.810776
-24.911651
-33.834938
-37.268549
-30.870984
-14.844861
4.233276
12.090997
10.459136
4.215874
-2.259620
0.723816
10.903343
20.388769
24.219568
21.285490
15.395253
9.714130
0.996579
-9.088909
-22.730881
-33.422668
-31.398815
-23.952826
-16.866616
-12.571093
-5.589049
0.709285
1.206741
0.784619
-0.424340
-5.964669
-15.322028
-20.445690
-22.591631
-22.676055
-20.206440
-15.922607
-15.464115
-14.774430
-2.438051
7.545351
15.753239
23.433539
28.810736
36.346604
39.558635
42.152159
36.452073
25.619232
14.061638
0.189772
-7.683013
-16.643187
-18.092172
-14.058235
-15.174716
-17.406901
-22.828776
-22.669537
-19.852353
-15.565142
-2.434392
10.297874
22.459170
31.991614
38.828447
44.997677
43.028377
34.704894
22.888572
15.042023
9.837574
8.021537
14.067896
16.956516
17.986237
19.859425
21.037733
19.795524
16.069154
14.724077
17.933510
21.816782
21.889518
21.183210
17.349816
12.637367
7.509549
0.645442
-2.016398
-2.083677
-0.925631
0.005118
0.911190
-0.181913
-2.100038
-1.812474
-1.881571
-0.245292
-1.389569
-0.493628
5.110866
4.394167
2.579429
0.775602
-2.310180
-2.486302
-2.199777
0.636890
1.235136
1.591539
8.601117
11.330500
5.427535
-8.517586
-27.483241
-46.367589
-61.839105
-69.833203
-73.442417
-74.022738
-71.451554
-69.700457
-71.261142
-68.053007
-63.878016
-61.737008
-49.927178
-38.568045
-30.979703
-21.451155
-11.587766
-2.738771
1.933676
7.056300
12.712748
19.447751
27.733570
34.795362
38.670061
34.764711
26.814255
21.469271
21.389524
24.068251
27.860864
27.152738
21.674753
20.948962
13.365558
2.390104
1.671328
-0.595926
-3.973687
-6.946211
-9.932761
-10.554905
-14.758728
-21.430606
-30.864077
-37.555698
-35.110761
-27.626847
-17.212230
-7.228309
3.500108
15.488658
18.178296
14.901584
12.331182
6.049735
2.758476
3.554925
3.287625
3.702735
4.539709
5.966355
5.363694
-0.523165
-8.009676
-12.800315
-13.259064
-11.893983
-10.503444
-6.272083
-1.810049
2.800313
6.010266
3.866663
0.923233
-0.522634
-0.510424
-0.226237
-0.126225
-0.258446
-0.798762
-0.804996
0.780888
3.572615
5.083426
8.892145
11.662830
10.212547
9.159449
3.815764
-4.394980
-10.747084
-15.034812
-15.384459
-17.430130
-21.695778
-28.751334
-40.202163
-44.228045
-42.142627
-36.452150
-19.563857
4.044372
29.046516
49.986669
62.496314
67.834806
66.667669
62.961561
55.541032
41.661373
29.730233
17.877284
-2.074970
-23.021615
-34.707274
-28.909513
-10.783946
7.722702
25.351853
38.079443
44.309458
44.734439
39.406860
37.286375
32.394167
20.702533
17.809759
16.907326
16.544951
17.545837
10.018543
7.438269
6.762614
5.247649
5.966687
-0.746494
-10.289068
-22.996135
-36.559916
-44.495825
-46.827501
-46.665664
-46.788274
-43.565072
-39.585427
-33.649989
-27.201509
-24.268728
-24.876584
-34.633986
-40.990765
-35.150662
-23.071193
-9.971615
-5.751424
-1.621373
7.394393
15.496036
25.410340
32.046632
34.406884
37.131851
44.886703
53.834930
58.325799
59.312398
43.560332
21.919068
7.591309
-8.848623
-18.656419
-23.030650
-22.510854
-15.316061
-11.772046
-14.487399
-24.221422
-33.091196
-35.324680
-34.445624
-28.512784
-18.950726
-5.967264
12.627185
24.790559
30.877702
32.341235
26.660112
22.777102
17.847227
16.903231
16.522672
12.346125
12.607712
8.712233
-0.063246
-7.180886
-13.128012
-19.756509
-21.210949
-19.092800
-21.229910
-20.012377
-14.752335
-9.832070
-7.245819
-9.428388
-11.981127
-14.121614
-15.021708
-8.614791
-1.591185
3.075546
11.787904
19.470801
24.597322
19.346894
5.931700
1.624229
-0.588473
0.171609
6.370971
10.186443
14.129202
18.914388
24.902039
22.847536
13.221577
0.848572
-17.382200
-30.970140
-38.794348
-42.606182
-41.271493
-31.137686
-16.406506
-10.423270
-3.001440
4.632881
6.512822
8.766050
10.671449
17.417103
25.334311
29.203815
29.677892
27.685733
28.406070
28.763772
27.476363
23.968458
15.094527
5.479478
1.902734
3.477708
2.035478
-0.164236
0.541554
0.142812
0.452456
2.410847
1.458020
-2.909458
-6.750385
-7.457472
-8.808005
-10.600922
-4.360516
3.631505
8.841411
11.762243
10.467041
10.130382
4.271058
-3.370534
-1.844137
2.987028
8.835444
12.819246
9.791392
7.429583
10.348596
11.091534
6.752371
5.172723
9.614236
9.863874
4.556297
-4.363093
-16.340212
-28.265897
-39.034055
-39.954152
-37.098782
-37.571819
-33.977929
-23.831393
-12.689426
-10.244749
-8.598858
0.025957
7.706776
10.366281
10.483957
6.157263
-3.774443
-11.686973
-15.221114
-12.140526
-3.250227
5.772553
12.396376
14.257614
11.115982
6.200914
8.973158
14.741046
13.525333
10.039509
4.672964
-1.283254
-6.732145
-11.617859
-15.269415
-20.913912
-23.512889
-23.813180
-23.782526
-19.075270
-14.025901
-12.865516
-11.156762
-5.483949
-1.234405
3.212563
11.900243
18.410807
21.407231
21.778441
18.057006
11.069510
1.583566
-2.362568
-3.951567
-8.649469
-7.043063
-2.770140
3.897844
9.497662
14.138937
22.173819
20.205818
17.626843
17.458775
14.627825
13.711364
10.969515
12.065477
17.168359
22.044204
22.333586
18.196523
15.486106
13.657341
13.231062
7.239516
0.164738
-0.357914
0.446328
8.989057
16.916915
17.694142
20.166354
18.914534
15.671072
10.935764
5.521162
3.706424
2.062614
3.636289
4.521839
3.155980
