EVENT_NAME: 202010301151
EVENT_ID: 10614
EVENT_DATE_YYYYMMDD: 2020/10/30
EVENT_TIME_HHMMSS: 11:51:24.00000
EVENT_LATITUDE_DEGREE: 37.879
EVENT_LONGITUDE_DEGREE: 26.703
EVENT_DEPTH_KM: 16.54
HYPOCENTER_REFERENCE: AFAD
MAGNITUDE_W: 6.6
MAGNITUDE_W_REFERENCE: AFAD
MAGNITUDE_L: 
MAGNITUDE_L_REFERENCE: 
FOCAL_MECHANISM: 
NETWORK: TK
STATION_CODE: 3536
STATION_NAME: 
STATION_LATITUDE_DEGREE: 38.19681
STATION_LONGITUDE_DEGREE: 26.83839
STATION_ELEVATION_M: 34.0
LOCATION: -_-_-
SENSOR_DEPTH_M: 
VS30_M/S: 1141
SITE_CLASSIFICATION_EC8: A
MORPHOLOGIC_CLASSIFICATION: 
EPICENTRAL_DISTANCE_KM: 37.27
EARTHQUAKE_BACKAZIMUTH_DEGREE: 
DATE_TIME_FIRST_SAMPLE_YYYYMMDD_HHMMSS: 2020/10/30 11:51:00.6276880
DATE_TIME_FIRST_SAMPLE_PRECISION: millisecond
SAMPLING_INTERVAL_S: 0.01
NDATA: 10501
DURATION_S: 
STREAM: HNZ
UNITS: cm/s^2
INSTRUMENT: sensor = GMS+/GEOSIG | digitizer = 
INSTRUMENT_ANALOG/DIGITAL: 
INSTRUMENTAL_FREQUENCY_HZ: 
INSTRUMENTAL_DAMPING: 
FULL_SCALE_G: 
N_BIT_DIGITAL_CONVERTER: 
PGA_CM/S^2: 34.453
TIME_PGA_S: 
BASELINE_CORRECTION: BASELINE REMOVED
FILTER_TYPE: BUTTERWORTH
FILTER_ORDER: 
LOW_CUT_FREQUENCY_HZ: 
HIGH_CUT_FREQUENCY_HZ: 
LATE/NORMAL_TRIGGERED: 
DATABASE_VERSION: 
HEADER_FORMAT: DYNA 1.2
DATA_TYPE: Acceleration
PROCESSING: Manual Paolucci et al., 2011
DATA_TIMESTAMP_YYYYMMDD_HHMMSS: 
DATA_LICENSE: U (unknown license)
DATA_CITATION: Turkish Accelerometric Archive v 1.0 - Disaster And Emergency Management Presidency, Earthquake Department
DATA_CREATOR: AFAD
ORIGINAL_DATA_MEDIATOR_CITATION: : AFAD - Disaster And Emergency Management Presidency
ORIGINAL_DATA_MEDIATOR: AFAD PROCESS SERVICE
ORIGINAL_DATA_CREATOR_CITATION: AFAD PROCESS SERVICE
ORIGINAL_DATA_CREATOR: network: TK
USER1: GuestUser
USER2: 
USER3: 
USER4: 
USER5: 
[...]
-0.009830
0.012768
0.005753
-0.008276
0.003153
-0.003862
0.001852
0.001331
-0.013217
0.006783
0.004185
-0.004909
-0.002312
0.002103
0.004180
-0.010369
0.004437
0.003397
-0.003099
0.009628
-0.001803
-0.004661
0.003390
-0.003365
0.001310
0.001568
-0.004667
0.005462
-0.010385
0.003641
0.010394
-0.014025
0.004417
0.006754
-0.003638
-0.003640
0.000256
0.006489
-0.002604
-0.003645
0.002329
-0.000790
0.003625
0.001546
-0.004430
0.003362
0.002581
-0.001057
-0.001837
-0.001319
0.004135
-0.002101
-0.004960
0.002832
-0.000286
-0.000547
0.002049
0.002048
0.002566
-0.001591
0.002564
-0.001594
0.000223
0.003859
-0.007832
0.006454
0.000738
-0.008096
0.007229
-0.003682
0.000473
0.005667
-0.005764
-0.001349
-0.000571
0.001766
0.005401
-0.003692
-0.001096
0.000462
-0.000838
0.000719
-0.005776
0.006951
-0.000583
-0.007598
0.007986
-0.005523
-0.000588
0.004346
-0.002150
0.008240
-0.002152
-0.006829
0.000443
0.002000
0.003558
-0.003977
0.004075
0.005113
-0.004760
0.003032
0.003291
-0.001646
-0.009960
-0.001909
0.008221
0.000167
0.005101
0.001463
-0.002694
0.005358
-0.002956
-0.006854
0.007172
0.004833
-0.001403
-0.001404
-0.005302
0.007426
0.000670
-0.005046
0.003006
-0.000632
0.003263
-0.003232
-0.002454
0.004298
0.004297
-0.001159
-0.004537
0.001436
-0.003501
-0.000125
0.005329
-0.002725
-0.000908
0.002208
-0.004288
-0.002990
0.006360
0.003242
-0.000136
-0.002475
-0.004295
0.004276
0.004275
-0.001441
-0.003521
-0.000665
-0.000146
0.001931
0.002189
-0.003787
0.007122
-0.002231
-0.004310
0.006859
-0.002234
0.002440
-0.003795
-0.003797
0.005034
-0.003280
0.001914
0.002433
-0.001725
-0.000687
-0.004065
0.002688
0.004764
-0.004329
-0.002771
-0.000954
0.001123
0.003719
-0.001477
-0.000699
-0.000441
-0.002001
0.000076
0.002413
-0.003563
-0.005642
0.008643
0.005525
0.000069
-0.003050
-0.005908
0.006559
0.000323
-0.002535
-0.000199
0.000579
0.003695
-0.012671
0.000316
0.016420
-0.001765
-0.004104
0.000051
0.002128
0.001088
-0.006966
0.005242
0.005240
-0.005931
0.002900
0.004977
0.003157
-0.003598
-0.006976
0.005232
0.000814
-0.002044
0.003409
0.000811
0.000809
-0.001790
0.003664
0.003403
-0.004911
0.002881
0.001062
-0.001018
0.003657
-0.005696
-0.001541
0.004173
0.000275
0.001572
0.000532
-0.006743
-0.008303
0.008581
0.009619
-0.004150
-0.005190
-0.005192
0.001042
0.005197
0.003117
0.002077
-0.004418
-0.007797
-0.001823
0.002332
-0.000007
0.002589
0.002588
-0.001310
-0.004428
-0.001572
0.006739
0.000763
-0.004693
-0.001058
0.003617
0.003875
-0.004179
-0.000803
0.002313
0.000234
-0.001846
-0.004445
0.003347
0.001528
-0.004968
-0.000813
0.004381
-0.000556
-0.007571
0.001780
0.003857
0.000219
0.001776
0.000996
-0.001084
-0.003163
0.002291
-0.000049
-0.005505
0.003846
0.001506
-0.004210
0.009297
0.002022
-0.009928
0.007215
0.004097
-0.009153
-0.003179
0.002794
0.006170
-0.002664
-0.005003
0.005906
-0.000849
-0.003188
0.003305
-0.003450
-0.005010
0.005899
0.004339
-0.006313
-0.002418
0.004075
-0.001121
-0.003460
0.001734
0.001732
-0.002165
-0.002426
-0.000869
0.002247
0.002246
0.006141
-0.001393
-0.007369
0.003280
-0.000358
-0.002697
0.000419
-0.004258
-0.002182
0.001454
0.003271
0.001711
-0.004784
-0.000369
0.002487
-0.002970
-0.000633
0.000665
-0.002194
-0.002975
0.002220
0.004296
-0.002459
-0.003759
-0.004539
-0.003502
0.004550
0.004029
0.003508
-0.000130
-0.005326
0.002206
-0.002991
-0.001174
0.006099
-0.001436
-0.003775
-0.000399
0.002976
0.002975
0.001415
-0.000664
-0.001704
0.001671
0.002449
0.002708
0.001668
-0.003789
-0.002751
0.001924
0.001143
-0.000417
0.000102
0.000360
0.001138
-0.001721
-0.004060
0.002173
0.000354
-0.001206
0.001390
0.002168
0.002427
-0.000691
0.002684
-0.003811
-0.002254
0.005798
-0.001997
-0.000959
0.001897
0.003974
0.003194
0.000855
0.001633
-0.002265
-0.003305
0.002408
0.002407
-0.000711
0.003963
-0.003571
-0.003832
0.001881
0.000062
0.000320
-0.003318
0.003954
-0.001242
-0.001503
0.007328
0.000832
0.000831
-0.003067
-0.000211
0.002386
-0.001252
0.003942
-0.001514
-0.007490
0.000561
0.003417
-0.003078
-0.002560
0.003154
0.000815
-0.003083
0.001592
0.000551
-0.000749
0.001328
-0.003869
-0.000233
0.003402
0.001843
0.000283
-0.003615
-0.003876
0.000799
0.004954
-0.001022
-0.000244
0.001313
-0.001805
0.003129
0.001569
-0.001809
-0.002330
0.001046
0.001824
-0.002853
0.001302
0.001301
-0.003376
-0.003118
0.001816
0.002075
-0.003381
0.000514
-0.001306
-0.004684
0.000250
0.002327
0.007521
-0.001572
-0.008846
0.004660
0.001542
0.005697
0.011151
0.009331
0.023617
0.039202
0.077386
0.106739
0.117128
0.108815
0.054002
-0.007564
-0.076923
-0.134593
-0.181872
-0.290196
-0.285002
-0.023937
0.157120
0.052173
-0.118496
-0.118757
0.030349
0.165427
0.372201
0.630928
0.710676
0.659240
0.677423
0.901861
1.260340
1.308396
0.895363
0.660272
0.634034
0.299971
0.118912
0.321270
0.370884
-0.168655
-1.454507
-2.494619
-2.422925
-1.904169
-1.624141
-1.849361
-2.086011
-1.345673
0.313983
2.001953
3.292999
4.211797
3.726549
1.603724
-0.949016
-2.396964
-1.348022
0.290852
0.743626
0.450087
-0.309475
-0.577297
-0.635746
-0.921752
-1.556626
-2.292030
-1.218930
0.694779
0.755303
-1.081517
-2.401399
-1.386747
0.061199
-0.030760
0.055741
1.442381
1.522648
0.712950
1.288075
1.214300
-0.196501
-1.493004
-0.311841
3.140214
2.880705
-0.297297
-1.194277
-1.418718
-1.550162
-0.447968
0.127157
0.139625
-0.174436
-0.699428
1.176355
3.357625
2.481946
1.214017
-0.047677
-0.315239
1.309608
0.741495
0.165328
0.594983
-1.852292
-3.711452
-2.172328
-0.021711
1.624437
2.317237
0.340662
-3.348304
-5.140704
-3.226475
-0.192387
0.552626
1.063588
3.472675
3.480207
0.130238
-0.252401
2.947419
4.932304
4.586812
2.838313
0.290248
-1.840370
-1.365515
0.258293
0.193349
0.279331
1.015772
0.689762
0.238804
0.114893
-1.174856
-3.005442
-2.808279
-1.791029
-2.769576
-4.157257
-5.009557
-5.611960
-4.261948
-2.250306
0.274117
4.990982
6.985219
4.138421
1.462031
1.562560
3.363010
3.523286
1.112378
-2.410076
-5.142056
-4.365871
-1.762478
-1.010971
-1.736764
-1.349451
0.051996
0.798308
-0.215308
-1.907697
-1.129953
0.658028
0.189665
-1.364008
-0.243630
3.973181
6.511113
4.938476
2.513022
1.589286
0.523717
1.552397
4.790662
4.290348
3.431554
3.727688
1.777609
2.481839
3.461422
1.350027
0.493312
-2.020204
-5.578506
-3.229426
2.919019
5.417466
2.985777
-0.103644
-1.433397
-1.993978
-3.345032
-2.410128
1.004780
-0.048581
-3.144236
-1.623816
0.012201
-1.432889
-1.701750
-0.557993
-0.368364
0.416654
1.887199
-0.513058
-4.302554
-3.154641
-1.142220
-1.113127
-0.318758
0.815128
2.481538
3.323704
2.519721
3.086274
3.413840
1.805356
1.348682
1.731839
-0.608931
-3.217002
-2.308855
-0.285264
1.253600
0.825761
-1.337847
-2.320551
-4.295048
-5.829239
-4.268554
-2.860353
-2.636954
-4.330642
-5.205022
-2.596434
-1.782063
-1.982345
1.378791
3.303410
0.915362
-0.873141
-1.019652
-0.247882
1.281890
2.837119
5.284391
4.426636
-1.682587
-5.164258
-4.574586
-3.112613
-0.645338
-0.386351
-1.617133
-1.401007
0.332683
2.866198
2.900746
3.026472
4.245562
1.753347
-1.090074
-0.404807
-0.239856
-0.094387
5.162795
10.146701
8.846302
4.365564
0.569054
1.166259
4.896525
7.652142
7.920481
4.287626
0.374221
1.089101
4.260866
4.102926
-1.385712
-4.889463
-2.029419
-0.716294
-1.568334
-0.187149
-1.710429
-4.908434
-3.392429
0.169507
1.117659
-0.080392
-1.081279
-2.624561
-3.309051
-2.035150
-3.762349
-6.463677
-2.720422
3.794556
3.561283
-1.517440
-3.297631
-0.729047
3.792732
5.374198
1.086207
-1.691233
0.740973
2.804049
2.106830
-1.940355
-6.808148
-6.920368
-4.965616
-4.564016
-3.114772
-0.346946
2.409190
3.132383
-0.184335
-3.393769
-2.896575
-1.182627
-1.180810
-3.617694
-4.318289
-0.444372
1.800282
-0.358651
-3.933318
-4.655215
2.391509
8.285901
3.168991
-3.093755
-1.185501
5.505860
8.569562
2.103417
-5.233209
-4.262198
-1.217979
1.189029
4.714858
6.322560
7.421377
8.922575
6.777670
0.136182
-5.873550
-8.217697
-9.722534
-9.017785
-4.924882
-1.533094
-1.662979
-2.408255
1.014446
4.783158
5.800928
6.427227
5.425301
1.297327
-3.533838
-6.272832
-7.145134
-4.335485
4.675343
12.800363
11.865977
6.221218
2.042590
-2.026935
-6.608723
-8.388394
-5.816433
-2.330869
-2.287489
-1.957065
1.078582
0.625285
-1.199586
0.292001
3.597806
5.450729
4.238911
3.150482
0.486041
-3.010436
-2.621565
2.823169
9.195015
5.411494
-3.013560
-2.797694
2.734063
4.809867
1.358069
2.054246
12.867345
20.913135
13.611058
0.056626
-5.848420
-6.512907
-5.660610
-3.810284
-5.744777
-7.543152
-3.128657
3.972617
8.414128
8.398541
8.264499
8.458025
6.777845
4.442270
0.749149
-2.155058
-2.854355
-2.141553
-5.804022
-11.746994
-3.921226
5.728112
1.933161
2.044080
12.255556
17.013205
11.317272
1.068647
-11.996382
-20.060878
-22.009139
-23.051849
-14.297671
1.984841
13.940139
13.327865
5.609379
5.645485
2.884151
-7.360318
-10.546372
-9.508081
-10.056453
-6.359697
2.256285
7.191095
6.815989
3.759558
-0.868209
-1.628291
2.874785
10.887325
15.291689
11.399325
8.336660
8.111959
5.032929
2.368228
5.128521
7.702041
7.596314
6.225517
-1.884958
-8.380976
-8.062242
-12.923280
-19.684001
-14.685548
3.353514
15.508054
11.153304
4.653649
0.832722
-2.833125
-3.149523
3.924735
11.197716
3.430654
-4.783209
1.034033
1.855418
-11.090378
-22.419897
-19.573881
-12.768222
-13.642862
-12.111012
-5.558108
-3.963653
-6.587570
-8.737671
-10.467467
-12.020880
-13.490388
-13.165420
-9.428919
-7.062435
-7.833168
-2.864328
6.933597
7.614708
3.807028
6.653824
11.500832
13.051645
7.591582
-4.544777
-14.593380
-16.255377
-13.699781
-8.107499
-0.508509
-3.800029
-9.918085
0.595761
12.628470
8.146173
0.698625
3.716867
7.809250
3.576850
-0.720232
-0.805957
-2.056221
-0.414229
10.257815
17.136988
7.911848
-0.364099
-0.983127
-3.904479
-6.376431
-6.897267
3.023788
16.592764
13.418918
2.681930
-2.780212
-2.029743
-5.877167
-20.012180
-25.276119
-10.578711
3.355239
0.285561
-0.496862
6.799758
9.289892
8.373949
9.193256
18.203825
24.297979
13.121723
3.050519
3.073897
0.269961
-4.352091
-7.603608
-10.289609
-8.621640
4.148290
14.826568
7.638009
6.539709
15.186863
10.186069
-5.813298
-18.620378
-15.617981
-8.210700
-8.445532
0.064464
15.340635
16.495303
3.374683
-1.661179
3.964873
0.486840
-9.327713
-15.998555
-18.678842
-15.552016
-8.511787
-1.895759
-0.733039
-4.841270
-11.046867
-16.466926
-19.162799
-16.503556
-5.318210
6.511620
9.024353
0.851014
-14.182276
-14.362037
7.225196
7.856950
-15.460859
-19.244900
-8.452063
-2.749899
-7.168033
-19.888609
-19.526754
-8.985633
-10.985847
-16.150814
-8.116193
5.761647
10.794649
1.379100
-7.147004
-1.288979
2.942380
1.124263
5.424200
11.752145
18.976290
21.503831
9.768554
-3.908229
-7.999575
-5.055626
-0.143416
3.440341
7.233731
10.016883
8.515423
6.666654
-0.005487
-6.192640
2.282287
6.499358
-0.728686
2.641802
12.537400
5.902147
-12.436431
-17.585292
-5.160594
9.176776
13.001338
9.506419
9.596817
16.365329
20.850481
16.157512
12.187737
9.473941
-0.958600
-9.286501
-13.334986
-5.334654
13.873364
9.716556
-6.736366
-10.089451
-3.894507
7.351105
4.237785
-3.027406
11.661690
22.112412
-0.662482
-27.400656
-19.917003
-7.411516
-17.931859
-21.666543
-6.260748
11.604010
10.371410
-3.652162
-5.211031
-4.562392
-3.749579
6.874148
17.372927
18.608902
2.550567
-15.578118
-8.836622
5.165907
3.627820
0.610614
4.836777
12.408232
14.208682
7.916322
13.103886
21.029664
7.230012
-7.032807
-5.326133
-3.440739
1.313532
7.963850
4.383208
2.191804
2.795763
-6.384956
-16.371475
-16.187301
-6.635116
6.703965
11.360824
7.554703
8.581045
7.566910
-2.140100
-0.287176
16.314331
21.814915
12.635235
14.924309
25.470366
15.267460
-3.868865
-5.006650
-1.612523
-12.964383
-19.196476
-2.709007
16.733581
20.663869
10.977381
1.383112
-6.327061
-17.006382
-15.101245
-4.500897
3.658932
15.157298
6.193226
-25.293246
-30.960084
-9.689768
4.992313
7.730786
4.286002
2.890268
1.369065
4.553299
19.364746
25.597876
12.657276
-6.138753
-8.650970
-1.109909
-8.142347
-20.252209
-20.311438
-11.387112
-4.924087
-6.264231
-9.598873
-8.298476
-9.045051
-7.570869
8.610334
12.686351
-4.535484
-18.990272
-23.216437
-16.466369
-8.507860
-3.881395
0.859628
10.749771
17.726876
3.349760
-9.966984
-0.375575
11.323332
3.906437
-11.044766
-13.215388
-7.038628
-7.432697
-6.973689
8.911898
13.424325
-9.078592
-20.456688
-1.467134
14.276619
2.468347
-11.326110
-9.603850
-6.653927
-6.458842
0.705816
11.579440
12.579805
5.007828
-0.278450
-2.401794
-2.686241
3.555201
12.315613
12.248852
5.113286
2.376889
8.006059
17.840871
17.220544
-1.244541
-18.838104
-18.244276
-3.592587
4.870391
1.982810
6.331324
14.705980
11.295226
7.720039
12.976182
13.415448
-0.323419
-15.633102
-13.739915
-5.420848
-6.782553
-7.851239
-4.426201
-9.854832
-22.931291
-27.361634
-22.288887
-10.877543
1.942782
4.985702
7.605980
8.025764
0.462100
1.559358
1.340373
-2.242348
0.682378
-2.375611
4.289773
20.866342
12.042284
-1.092103
9.183016
13.083950
4.986203
1.791316
1.256193
3.039498
-5.883012
-21.585204
-14.938524
-4.580539
-19.910225
-34.452554
-19.163135
10.883181
21.062445
3.750211
-1.185900
15.298971
9.266379
-12.344495
-23.610112
-25.453166
-13.894014
-4.750704
-0.322182
12.401769
23.135638
20.563415
6.821171
-3.610071
-5.248948
-2.963251
-2.706602
-7.156947
-5.806934
-1.104097
1.544236
13.491740
15.704962
-4.724488
-3.950381
20.730688
15.919785
-5.236236
-7.027077
-5.620175
2.695774
8.145185
-7.251781
-2.565829
17.826472
4.951333
-13.851710
0.798680
14.114902
2.493664
-10.440702
-8.965481
0.170815
-2.474663
-15.280443
-24.355956
-22.516281
-4.195111
2.932141
-16.264970
-18.836414
5.199391
17.450305
12.241957
9.183968
18.617698
30.459738
23.808379
9.762206
3.906776
-1.835655
1.558731
14.623498
12.002698
-0.267181
2.282700
13.628322
13.328809
0.174160
-1.943210
13.000198
17.070501
0.156750
-12.480960
-0.611646
13.703903
11.764735
14.626856
20.878430
6.277653
-15.635331
-14.339870
4.706053
7.007856
-14.067637
-24.366917
-14.290260
-1.437984
8.385139
7.693895
3.050542
3.393695
4.998799
11.123866
6.666767
-3.834093
-0.308264
2.974682
4.905016
4.283650
-3.072979
-6.592836
-10.027229
-8.726572
3.892952
12.032000
4.209087
-0.349841
6.155006
9.013491
5.403236
-13.726335
-29.725703
-21.525090
-12.656095
-13.952338
-17.217622
-13.747384
-6.858340
0.014599
7.934662
7.422918
6.551655
10.658584
7.191720
-2.189540
-1.582983
5.960417
2.003890
3.905910
21.735599
25.944098
8.324299
-6.955252
0.342927
14.509109
17.485009
13.303524
9.871469
18.695784
31.015017
31.077879
26.614546
20.567147
12.973870
10.303454
6.105084
0.653593
-5.710203
-5.416147
11.742822
18.220394
8.282451
9.244630
22.118208
18.635238
-7.481570
-25.746114
-27.796204
-16.924138
1.233379
4.965723
0.170666
7.840832
16.595789
11.626427
2.825489
3.551539
9.292409
0.956715
-12.663698
-19.615089
-20.988483
-14.025146
-10.502954
-6.745931
-6.480710
-14.548323
-18.322752
-22.343182
-23.045596
-16.513213
-4.477387
4.541494
3.294867
-0.005486
-12.872572
-28.319153
-27.704283
-20.473645
-18.486161
-22.859875
-20.367403
-9.480531
-12.659052
-28.642314
-34.033279
-21.342318
-8.818648
-7.801658
-4.801600
7.144347
9.397572
-7.049635
-13.327707
-1.096796
3.649163
0.371150
3.175863
1.820913
-7.594117
-3.369773
14.418354
19.136518
3.420557
-5.337520
6.673888
22.692736
32.962140
29.659969
13.429668
0.632719
-4.464708
-11.830429
-20.029225
-14.419019
0.116554
4.249720
1.641129
4.963820
5.932753
1.734642
3.193757
0.080697
-14.996234
-24.469452
-26.274061
-24.979119
-16.507049
-2.405549
12.603840
15.675595
10.077595
5.831167
4.588696
9.191523
7.376003
2.233377
5.144854
5.938184
-2.193852
-13.420243
-18.289854
-14.715449
-15.733221
-16.311465
4.678821
15.755064
1.453540
-5.053129
-5.109499
-0.738126
2.779650
-5.425641
-8.602604
-8.577927
-16.330702
-21.039257
-16.588394
-10.191610
-3.120729
7.061653
12.704071
9.691022
6.200519
3.658688
3.226433
0.900730
-15.557907
-17.471099
2.717283
-0.120942
-10.623361
-2.298060
0.190775
-6.025472
-8.095045
-4.448424
0.844866
5.203771
8.310853
9.134576
13.867547
14.972079
10.139874
16.244939
22.695754
17.819649
7.578817
-2.559406
5.753685
19.899606
11.722111
2.222916
7.225006
5.928503
-5.469855
-10.249846
-7.180949
-7.933498
-13.141846
-19.189244
-22.732740
-8.662671
9.952557
6.352951
0.185280
10.482739
13.962849
-5.082038
-20.984771
-16.625607
-10.490669
-10.781611
-8.233288
-4.666416
-2.902074
1.127964
3.642257
3.515749
7.737755
14.178960
13.841520
5.117732
2.664223
15.938882
21.948612
8.997621
-1.542723
-0.541579
-1.431805
-5.888385
3.945648
14.391695
5.964562
-1.452852
3.424289
14.614571
16.284877
4.307237
2.283903
9.281270
5.751802
-7.773016
-14.327222
0.495395
18.270014
17.418493
11.971158
9.676367
6.267172
-0.857224
-10.301348
-6.858385
3.585583
2.121789
-6.948009
-7.538203
1.871889
8.238020
13.082171
21.518912
13.594431
-0.301076
10.983241
21.845176
14.814036
1.168166
-3.767685
3.350474
-3.474150
-6.682805
9.334484
19.624410
13.482716
0.613032
-2.583413
1.104251
6.812390
7.678974
-4.876650
-17.795949
-11.765957
0.730957
-5.655699
-8.503536
-1.547991
-4.662869
-2.564725
3.634375
4.031040
2.731420
-0.731808
2.602053
7.444125
-2.574865
-13.645136
-9.044907
-2.030655
3.288352
10.080243
2.415529
-5.421930
6.211256
13.153552
3.193529
-10.560404
-16.614037
-11.905225
-3.323274
2.301740
-1.002769
-8.243022
-9.655122
-8.016507
-0.011500
6.120321
-4.820066
-10.819408
-7.119015
-8.850110
-12.480887
-14.703982
-11.652230
-12.578564
-9.864769
-2.762716
-8.771149
-6.101255
2.259634
-3.744124
-12.336469
-14.858297
-6.502084
10.362308
11.747130
-9.296411
-16.059730
0.389553
6.993112
3.363114
11.619317
21.938596
19.076212
13.713562
10.245139
1.846581
-5.767218
-7.378300
-8.741563
2.036986
20.316594
16.634902
-0.132339
-15.731145
-21.910505
-9.073295
3.758200
6.333018
5.070285
0.965431
-4.474370
-1.783955
10.606714
10.600218
1.815386
-0.877889
-6.908143
-5.949861
6.204419
12.917860
17.966968
22.175207
9.789991
-7.650569
-6.665270
-2.441965
-4.559594
-1.149362
2.259052
4.110936
7.594423
4.262118
-5.883119
-9.598841
-9.438046
-16.868708
-21.727149
-13.664473
-7.931397
-13.182866
-13.299503
-12.023524
-14.672379
-10.194501
-6.147837
-7.797365
-9.140626
-9.204271
-9.282982
-5.268529
6.509867
16.898504
14.551500
10.029459
11.809127
12.179555
13.549830
7.436450
-3.834881
-4.578338
-4.748488
-2.710090
5.077751
6.312427
6.623368
8.464602
2.448375
-6.298272
-8.703724
-2.350581
7.335904
13.418368
9.573542
-3.125993
-5.903433
3.806431
9.609905
2.889967
-3.667356
4.223093
8.687204
2.547068
2.806056
9.974610
12.227836
6.037045
-1.342703
-5.730964
-13.045510
-16.025569
