EVENT_NAME: 202010301151
EVENT_ID: 10614
EVENT_DATE_YYYYMMDD: 2020/10/30
EVENT_TIME_HHMMSS: 11:51:24.00000
EVENT_LATITUDE_DEGREE: 37.879
EVENT_LONGITUDE_DEGREE: 26.703
EVENT_DEPTH_KM: 16.54
HYPOCENTER_REFERENCE: AFAD
MAGNITUDE_W: 6.6
MAGNITUDE_W_REFERENCE: AFAD
MAGNITUDE_L: 
MAGNITUDE_L_REFERENCE: 
FOCAL_MECHANISM: 
NETWORK: TK
STATION_CODE: 3514
STATION_NAME: 
STATION_LATITUDE_DEGREE: 38.4762
STATION_LONGITUDE_DEGREE: 27.1581
STATION_ELEVATION_M: 197.0
LOCATION: -_-_-
SENSOR_DEPTH_M: 
VS30_M/S: 836
SITE_CLASSIFICATION_EC8: A
MORPHOLOGIC_CLASSIFICATION: 
EPICENTRAL_DISTANCE_KM: 77.41
EARTHQUAKE_BACKAZIMUTH_DEGREE: 
DATE_TIME_FIRST_SAMPLE_YYYYMMDD_HHMMSS: 2020/10/30 11:51:11.9545590
DATE_TIME_FIRST_SAMPLE_PRECISION: millisecond
SAMPLING_INTERVAL_S: 0.01
NDATA: 10501
DURATION_S: 
STREAM: HNE
UNITS: cm/s^2
INSTRUMENT: sensor = CMG-5T/GURALP | digitizer = 
INSTRUMENT_ANALOG/DIGITAL: 
INSTRUMENTAL_FREQUENCY_HZ: 
INSTRUMENTAL_DAMPING: 
FULL_SCALE_G: 
N_BIT_DIGITAL_CONVERTER: 
PGA_CM/S^2: 56.288
TIME_PGA_S: 
BASELINE_CORRECTION: BASELINE REMOVED
FILTER_TYPE: BUTTERWORTH
FILTER_ORDER: 
LOW_CUT_FREQUENCY_HZ: 
HIGH_CUT_FREQUENCY_HZ: 
LATE/NORMAL_TRIGGERED: 
DATABASE_VERSION: 
HEADER_FORMAT: DYNA 1.2
DATA_TYPE: Acceleration
PROCESSING: Manual Paolucci et al., 2011
DATA_TIMESTAMP_YYYYMMDD_HHMMSS: 
DATA_LICENSE: U (unknown license)
DATA_CITATION: Turkish Accelerometric Archive v 1.0 - Disaster And Emergency Management Presidency, Earthquake Department
DATA_CREATOR: AFAD
ORIGINAL_DATA_MEDIATOR_CITATION: : AFAD - Disaster And Emergency Management Presidency
ORIGINAL_DATA_MEDIATOR: AFAD PROCESS SERVICE
ORIGINAL_DATA_CREATOR_CITATION: AFAD PROCESS SERVICE
ORIGINAL_DATA_CREATOR: network: TK
USER1: GuestUser
USER2: 
USER3: 
USER4: 
USER5: 
[...]
-4.232763
-2.213094
-0.417588
1.646914
3.417795
2.632911
-0.198163
-1.465153
-1.997775
-3.584276
-4.848109
-3.567859
-1.387172
-0.002734
0.603135
0.526098
-0.289411
-2.114280
-2.192895
-0.540726
-0.511049
-1.275095
-1.739521
-2.644379
-4.346749
-4.107748
-3.568181
-1.924852
0.591131
1.071343
-0.055467
-2.185324
-2.425272
-1.617657
0.114705
1.328338
2.547653
2.837169
3.912515
5.445658
4.538274
3.611947
2.557122
1.229513
0.240358
0.178160
-1.187335
-2.991998
-4.388434
-4.093867
-3.633546
-3.051356
-2.234585
-2.488741
-2.479270
-0.823628
2.059855
4.174240
6.444276
6.616660
5.612350
3.443975
2.938505
3.299058
3.192975
4.740325
5.004268
3.373251
2.345262
2.557742
1.568902
0.397891
0.266867
1.267387
0.174675
-1.482231
-1.301954
-1.357522
-2.113359
-3.239222
-4.251109
-4.189544
-3.326046
-1.672299
-0.154626
-1.198086
-3.406557
-4.713960
-4.665339
-5.325828
-6.301724
-6.358238
-5.308149
-3.040955
0.039538
2.606983
4.188116
4.334294
4.133495
3.667806
2.449121
2.695067
3.301883
2.784415
0.005752
-3.022017
-4.091050
-3.314375
-3.162198
-3.816373
-4.780271
-5.700283
-5.352990
-3.544539
-1.163053
0.270006
0.982273
0.881873
0.198651
-1.803022
-3.314697
-3.727976
-2.561386
-1.196208
-0.779772
0.612243
2.733575
3.429424
4.422683
6.310696
5.390052
4.399318
4.507926
4.701463
4.676836
3.317024
-0.242419
-3.080754
-1.918585
-0.075404
0.302514
-0.545514
-1.822291
-3.517084
-5.109898
-4.420363
-2.894167
-1.258099
0.236841
0.887858
1.206736
0.965209
0.357760
0.259886
0.053088
0.531406
0.922584
0.226734
-0.600456
-1.376816
-0.999529
-0.800941
-1.220535
-2.690218
-2.963949
-1.157392
0.750828
1.746928
1.520555
2.101166
2.936880
3.311957
3.372575
1.998240
1.289760
0.492248
-2.565514
-5.096968
-6.305550
-6.907631
-8.968029
-10.010225
-8.598320
-5.730939
-2.042367
0.396580
3.162614
4.834674
4.935073
4.135035
2.916350
1.332376
-1.255908
-1.499646
-0.441664
0.544018
1.548327
2.498016
2.630303
2.038325
1.892462
1.613048
1.835315
1.525592
1.771223
1.131887
-0.107004
0.049277
0.473606
1.526852
3.321096
3.989794
3.389607
3.658285
4.396442
3.711642
1.750696
-0.195411
-2.671298
-4.558681
-5.194544
-4.992483
-6.555935
-8.181901
-7.543197
-5.592039
-2.901778
-0.139533
2.260581
3.371288
4.722259
6.205202
5.701626
2.799515
-0.118382
-2.113741
-1.379374
-0.513035
-1.124272
-1.706147
-2.998711
-3.061224
-1.943255
-1.537238
-1.971671
-1.804970
-1.989983
-3.504815
-4.780645
-5.023120
-3.650364
-0.054298
2.431060
2.689320
2.596813
2.866754
2.828236
2.891064
3.802551
4.211094
4.955880
6.342528
5.489764
1.491469
-2.940628
-5.005130
-5.352424
-4.303598
-2.766983
-3.374431
-4.703303
-4.952723
-3.124697
-1.117973
0.107973
0.726786
1.177952
0.657327
-0.928226
-2.442742
-2.603129
-1.868446
-2.405488
-2.706687
-3.077344
-1.377816
2.052496
3.491869
2.570278
2.137423
2.893576
3.616893
4.061112
5.763166
8.002261
7.206011
4.204764
0.116172
-2.115031
-0.627984
0.750771
1.367690
3.620045
6.936066
7.548565
4.473439
0.710356
-0.464444
-0.071687
-1.270165
-1.353201
-0.825315
-2.367298
-3.593245
-3.391499
-2.590199
-1.106309
0.012607
2.142147
3.457757
3.517428
3.912395
3.776950
2.510907
1.151411
0.270864
-0.516546
-0.241237
-0.493183
-0.827533
-2.745856
-4.190597
-4.784785
-4.626609
-2.138410
0.272122
0.880201
0.309377
0.195401
-0.470456
-2.605680
-4.234487
-5.017476
-5.704486
-5.300363
-4.735223
-5.300996
-5.841827
-3.475180
-1.202302
0.435028
1.657816
1.974485
1.371141
0.477649
1.521739
2.601190
2.553831
1.809991
3.090241
4.867436
4.518248
4.192738
4.918581
4.275457
3.006256
1.989949
1.682436
1.999420
3.152749
3.108548
-0.160116
-2.506557
-3.285442
-2.793233
-2.895211
-2.617377
-2.150741
0.255371
3.026141
3.412899
2.144015
1.007733
0.637391
-1.208632
-0.947531
-0.956687
-1.661377
-2.283980
-2.087918
-2.081288
-2.384697
-1.656644
-0.788726
0.845131
1.379332
0.356394
-1.147072
-1.741891
-2.528669
-4.361116
-4.261664
-3.220731
-2.651171
-2.134967
-1.427435
0.460893
2.718616
6.110410
7.772051
8.147759
7.479061
6.732695
6.368668
4.119469
1.736720
-0.142139
-0.888820
-2.787253
-4.345654
-4.783875
-4.565081
-3.643807
-2.610451
-1.915864
-2.440594
-2.247373
-0.358412
1.808383
3.114837
2.240289
-0.305373
-2.044051
-2.201912
0.481088
3.928764
4.617984
1.941929
-1.548055
-3.328724
-2.912604
-3.281998
-3.640026
-3.404183
-5.105290
-6.612544
-5.938164
-3.132349
-0.208454
2.127568
3.263217
2.255750
0.512337
-0.520388
-0.950086
-0.549751
0.054539
0.706819
1.094208
1.898035
0.677771
-0.490083
-0.951668
-0.713298
1.558316
3.147341
4.614814
4.032623
3.649968
3.181438
2.472643
2.916862
3.010000
0.545478
-2.384100
-4.872616
-5.251798
-4.167296
-3.387780
-1.443569
0.064947
1.254269
1.196492
1.548205
1.123875
0.424236
0.968539
2.310670
2.336559
2.170489
3.305823
4.210680
4.527032
3.777509
2.296460
0.876345
-0.990516
-2.162158
-0.750253
0.224379
2.692372
4.790340
5.050178
6.914512
9.405238
11.399333
11.567296
9.297575
6.564375
3.198785
0.796145
0.550514
0.602292
1.557348
3.767397
6.250861
6.096788
5.073535
4.195514
2.782345
0.839395
0.477262
1.534613
0.603234
-0.517261
0.045985
0.491152
-0.790362
-2.195953
-4.184051
-6.045860
-6.927986
-7.758018
-10.867874
-13.698632
-13.497518
-12.147178
-9.592045
-5.919575
-4.116491
-4.679738
-3.333503
-1.485902
-0.786264
0.240461
2.240556
2.887153
2.479556
2.754549
2.608369
3.105630
3.583000
4.069842
4.217915
3.499017
1.613529
-2.126822
-3.978528
-3.496738
-2.914548
-3.050940
-3.814355
-4.272151
-4.726791
-5.411591
-7.535449
-10.796219
-12.549736
-12.399137
-11.579525
-9.902098
-8.870321
-8.436836
-8.282449
-9.409574
-9.314858
-7.432212
-3.332887
-0.355635
-0.180410
0.226554
-0.253343
-0.966242
-0.670411
0.009652
0.422931
1.886299
4.475529
6.320289
8.289758
9.645465
8.464667
7.221671
6.672000
4.991731
3.851345
4.675377
6.185472
6.026348
5.783558
5.740303
5.021090
4.689582
4.082765
3.607604
2.994788
2.332405
1.050891
-1.531710
-2.667991
-0.738303
2.657911
6.522340
8.282486
7.510231
4.796290
2.459952
1.905545
1.627710
2.228527
3.296296
3.684001
1.916909
0.814725
0.597508
-2.064655
-5.266385
-7.312576
-8.081042
-6.964336
-4.551278
0.247370
5.764285
11.015046
14.754449
17.440922
18.580675
17.525534
16.327055
14.073120
11.839391
9.440540
10.121235
10.459056
8.290050
6.661559
5.006232
4.000027
2.113592
0.409328
-1.084982
-3.167165
-4.735353
-7.141466
-9.701335
-10.238693
-10.652604
-9.272271
-7.842369
-8.669875
-8.601996
-8.623465
-8.732074
-9.739541
-10.463175
-12.480319
-15.757507
-18.906196
-21.651078
-22.141394
-22.042573
-20.425133
-15.850016
-8.569482
-0.576996
7.335612
12.100793
14.842517
15.439546
14.569733
14.092046
13.292639
13.623515
11.720346
7.363707
2.767435
-0.952078
-4.652964
-6.779348
-6.251462
-4.722424
-3.192439
-2.444180
-4.187594
-5.569191
-4.816511
-5.716633
-6.678953
-6.571923
-5.336506
-2.734647
-0.013761
0.765755
1.226392
3.651763
5.013784
4.807933
5.034621
5.359498
4.748892
3.297205
2.832147
2.476644
1.942443
1.228597
-0.391685
-2.384203
-3.641406
-3.181085
-2.225712
-2.504495
-6.182333
-9.701048
-11.659468
-13.088423
-13.196084
-12.230293
-10.257982
-9.275142
-7.757786
-5.123092
-2.903571
-2.883681
-4.083738
-3.183617
-2.502922
-0.599123
1.915281
3.656800
5.681520
6.213510
3.966521
0.579462
-1.475569
-1.814654
-0.016937
1.585033
1.524098
-1.050610
-1.465468
-1.000095
-3.953669
-8.491216
-12.383430
-12.424158
-11.573289
-10.492260
-8.097514
-6.585209
-4.536810
-1.689003
-0.247105
-0.520520
-0.634811
0.974736
3.115010
6.934923
11.054454
12.475200
14.581376
16.411928
16.058320
14.726291
13.805647
15.267437
18.120610
20.140595
19.166594
16.784792
13.886470
11.331021
7.669284
5.103416
4.267701
4.970181
8.051305
11.497719
12.028762
9.570871
7.208643
0.868642
-6.342749
-10.975329
-12.164336
-13.344818
-14.215578
-14.180849
-15.184844
-16.200835
-17.186202
-18.734816
-21.072733
-22.066624
-21.957069
-21.266271
-20.356994
-19.418039
-18.765759
-17.410368
-14.613709
-11.229492
-8.625423
-6.789188
-6.527771
-4.704797
-3.165656
-3.440965
-3.325727
-2.060632
-2.833203
-5.117763
-6.378123
-8.023663
-8.422735
-9.851375
-10.336954
-10.616368
-9.676150
-9.215513
-10.124791
-7.696263
-4.290577
0.009863
4.982789
8.472772
11.000437
13.543888
15.855599
16.608910
16.081023
15.223208
16.485461
18.670253
19.879149
22.095828
24.572978
26.882795
28.395415
30.170400
30.678080
29.113048
26.994873
26.081491
26.836065
26.920678
25.837753
25.136536
25.128958
23.206530
21.465326
19.606359
16.988081
14.736988
9.612198
5.322176
0.702857
-3.750077
-5.209973
-6.328574
-7.568413
-9.280886
-8.094089
-7.998426
-9.324141
-9.594714
-9.317827
-10.358445
-13.341697
-14.920304
-15.117630
-14.561961
-13.865164
-13.713303
-15.141942
-16.504912
-17.106045
-17.266117
-14.817067
-10.238792
-6.747546
-3.406583
1.081080
5.560534
8.997792
11.312345
13.512291
14.532386
14.100794
11.495461
8.186701
5.158302
0.864491
-2.988573
-5.477405
-7.086005
-10.449385
-13.332553
-15.209832
-13.740781
-9.621250
-5.629585
-4.054452
-6.165681
-5.922892
-5.604329
-5.537712
-4.424479
-4.586445
-5.972146
-7.704510
-11.151240
-14.239942
-16.131114
-17.023027
-17.369058
-18.724134
-21.339255
-22.751792
-21.946388
-19.237815
-15.518618
-11.871405
-7.940043
-5.518145
-3.859346
-2.200231
-0.411038
0.023710
0.880893
1.869732
2.109364
3.630509
7.085763
10.013130
12.820209
16.072138
17.490989
18.530659
20.933298
21.395830
18.106013
16.000782
13.852298
9.700246
5.989889
4.119871
3.489375
2.243222
-0.469772
-2.622992
-3.820207
-4.586779
-3.402509
-1.937247
-0.790547
0.635250
1.191235
0.490649
-0.545549
1.567573
3.912435
4.203846
4.805295
4.596287
5.547239
7.488609
7.640786
5.628378
1.528736
-2.460404
-5.621722
-7.562146
-7.874710
-7.779994
-8.168963
-7.819776
-7.096775
-7.564990
-5.429135
-1.360435
1.335194
1.249948
0.794678
1.198169
0.947170
0.191333
-1.523034
-5.105209
-9.737157
-12.118960
-13.146633
-15.318480
-17.200812
-17.174291
-17.067894
-16.949499
-16.510646
-14.902994
-13.095489
-11.744518
-10.085403
-7.965650
-6.827791
-6.126574
-4.182994
-1.524305
2.613538
6.360519
9.113924
11.060346
14.003184
17.729011
19.458217
18.667966
18.171651
17.942437
16.326259
14.310694
11.177475
9.480788
12.168839
14.727444
13.196195
11.034451
7.861135
1.351908
-4.284982
-5.732564
-5.822545
-4.637959
-1.633555
-0.975277
-2.521049
-2.702273
-1.392662
-0.447708
1.503765
3.942712
4.804315
4.231912
4.355674
5.630557
5.652972
7.636018
11.002554
12.992861
13.182609
10.433623
6.207377
3.440079
1.433669
-1.165665
-5.248258
-10.144465
-13.819462
-17.066972
-18.177996
-20.003498
-20.993284
-18.034660
-12.255066
-6.824975
-3.316048
0.682562
3.181496
4.031418
4.569091
5.879965
6.340918
7.712096
11.272169
15.219948
19.437669
23.542046
26.174846
26.996037
27.250508
26.264826
25.932055
25.984780
24.594974
22.575936
20.093103
17.455566
15.770245
12.983688
9.446030
5.672212
1.815360
-1.993503
-4.287534
-5.566838
-6.998003
-5.379616
-4.304269
-6.002535
-9.431269
-13.979551
-18.805352
-23.319537
-27.942329
-29.627334
-30.683738
-29.554719
-24.336162
-19.038673
-16.562471
-15.858098
-14.452507
-15.722970
-16.533111
-15.741914
-13.026395
-8.824776
-4.914567
-1.409114
3.028034
6.072534
9.035579
11.702792
14.712879
18.560259
20.592241
22.384591
22.062554
19.409863
14.450828
9.990632
5.748284
2.131695
-0.652020
-3.172108
-5.060438
-3.915633
-1.726737
-3.317342
-4.769029
-2.981100
-0.681070
0.808819
4.154833
7.843405
8.898230
8.738790
8.424015
6.104095
2.085277
-3.089396
-9.871407
-18.556586
-25.157688
-29.220706
-32.693642
-33.436850
-31.178496
-27.279653
-22.020999
-15.052082
-10.285637
-6.495719
-0.999326
3.782589
7.608499
9.825494
12.349686
17.153070
21.309857
22.876782
24.460439
25.614716
23.923397
21.661884
18.562447
13.696234
7.329712
3.121778
-0.040803
-3.010794
-2.737696
-1.086474
1.956133
3.575151
4.088829
3.283424
1.724076
1.831421
0.546750
-3.896397
-6.441111
-6.644436
-6.515307
-6.341660
-9.511503
-13.990327
-19.534710
-24.483958
-28.427633
-31.555170
-31.851948
-29.969934
-27.119286
-23.987015
-23.488491
-23.963337
-24.281584
-24.973014
-22.539435
-17.870864
-12.762493
-8.989939
-5.765477
-3.391884
-2.467137
-0.613537
1.603773
2.797199
3.303300
3.416328
5.190050
8.675298
12.305461
14.544241
14.998248
14.019195
14.342494
15.446255
16.066647
16.752709
17.201349
18.074318
17.788590
18.156405
18.996539
19.555996
19.273741
17.421088
16.569587
17.582421
18.501801
17.377201
15.963085
17.233547
19.966746
23.157426
27.041113
33.647898
39.272789
40.096190
38.323730
34.917727
31.317872
28.554679
28.140452
27.588570
24.933985
22.160688
20.529671
20.979258
21.505249
21.534611
19.840766
15.922032
14.144205
12.021925
9.737049
8.506052
7.124770
5.208973
3.813800
2.618162
3.135314
5.391458
4.826948
3.936613
2.910834
2.361163
0.821705
-2.209536
-5.273612
-8.770226
-10.532899
-10.398402
-9.925768
-9.782115
-10.639930
-11.361670
-11.827043
-13.264207
-16.073496
-19.069377
-22.951802
-29.189194
-35.439530
-42.386978
-48.167521
-52.091937
-54.990260
-55.711683
-55.419642
-56.287876
-56.015093
-51.543532
-44.202064
-36.244624
-30.514913
-27.225097
-24.377922
-21.214079
-18.247246
-16.358286
-16.664536
-15.867971
-13.488696
-10.846424
-6.838342
-2.075371
1.135831
1.230547
2.624772
5.097185
5.550876
5.919954
8.427413
11.342783
12.467698
12.565887
11.815733
11.011274
10.269013
10.067582
10.441712
12.867714
18.073327
23.211376
25.453628
23.504996
20.973857
16.965459
11.037159
6.677994
5.891847
7.477083
8.034963
8.966024
11.726691
13.699634
12.652386
11.645866
11.346877
10.495376
9.486646
8.789533
7.155674
3.055717
-0.734203
-3.192725
-5.737756
-8.235428
-8.649970
-5.825527
-1.327446
2.402170
3.239147
1.626442
-2.175791
-5.754177
-7.044846
-6.790691
-6.251439
-6.516961
-5.572008
-5.585268
-5.658832
-5.480450
-6.084425
-7.003490
-9.324990
-12.192056
-17.126465
-21.351133
-21.015837
-18.031008
-15.071121
-12.240995
-8.638299
-4.604013
-1.483107
1.050556
4.806061
8.159653
8.305200
5.061162
1.190418
-0.443124
-0.728221
0.136855
1.699359
2.248083
2.513920
3.410568
2.943931
1.420891
-0.875035
-2.790517
-3.463635
-2.320093
1.516868
7.115239
11.663204
12.439563
14.256223
17.193694
20.426680
23.485704
26.826982
28.074081
25.494953
20.579487
14.108462
10.567331
9.310759
8.862119
7.379175
5.042521
2.392987
-0.492706
-2.240540
-2.443865
-1.891353
-3.258743
-5.327349
-5.338400
-4.817460
-4.297783
-3.367984
-1.190455
1.439504
2.704599
2.988116
3.248902
4.392128
6.250464
9.107110
12.903974
17.855116
21.620408
22.419499
20.443083
17.461094
15.653589
13.639602
11.298844
10.750435
11.311156
11.156452
10.415138
8.172884
4.627965
0.092312
-5.026795
-10.650424
-15.717752
-18.719315
-21.636581
-24.308215
-27.477111
-31.978666
-36.512425
-39.595444
-40.796449
-39.404749
-35.758800
-31.327651
-27.359981
-25.300847
-23.685302
-21.661212
-19.408857
-18.275733
-16.461599
-13.733767
-11.215574
-8.721376
-7.195179
-5.713184
-4.436723
-3.319385
-1.849387
0.512524
2.840021
3.878428
4.505450
6.868309
11.472788
16.186192
18.765950
18.506111
16.639882
15.040122
14.096114
12.295239
9.545622
5.516070
0.205005
-5.775705
-9.839039
-10.865134
-11.514257
-10.472693
-9.003326
-8.738121
-8.960705
-8.664874
-8.662665
-8.771273
-9.397349
-11.436909
-13.638751
-15.796391
-15.230934
-12.762941
-8.262333
-1.342038
4.373150
6.491324
8.552984
12.111794
15.239329
15.057474
14.021276
15.489695
16.716272
18.901695
21.174257
21.969874
22.381890
23.638776
22.916405
20.952618
19.468727
19.377484
20.562070
20.077437
18.836652
15.081146
9.502349
4.207386
-0.608628
-4.779307
-7.771714
-8.808544
-8.501663
-7.075550
-4.286784
-0.952451
1.475130
3.340411
3.607511
1.583105
-0.725450
-2.209025
-3.185867
-3.715964
-3.481067
-2.833523
-3.390772
-4.770790
-4.788155
-4.211964
-3.812261
-2.211239
0.982913
3.905861
4.801562
2.850720
0.839574
-0.757029
-2.935191
-4.838991
-6.483268
-7.202798
-7.688693
-6.890234
-5.331203
-4.159877
-3.815425
-3.331109
-2.316066
-2.982870
-4.398880
-6.110406
-8.345398
-9.402118
-9.182060
-8.118711
-6.947701
-6.552419
-7.394132
-9.198480
-9.528409
-8.366239
-6.780687
-4.934033
-3.450144
-2.641582
-1.565919
-0.714419
0.337564
2.515409
5.276392
8.781846
12.443581
16.322533
20.395970
22.871225
22.995618
21.514253
19.078778
16.257808
14.739819
13.747191
11.581658
9.806672
7.690076
6.344155
5.957396
5.562744
3.639369
0.552561
-2.519408
-6.421724
-9.484853
-13.078710
-15.834326
-16.927354
-17.950923
-20.020477
-21.851345
-21.697905
-21.573195
-21.965953
-19.917869
-14.905793
-10.663130
-7.462664
-4.283034
-2.092244
-1.235061
-0.605829
0.845226
3.395938
5.994009
6.280683
5.146612
4.344048
3.772907
3.792166
3.352681
1.663572
0.043921
0.409210
2.010864
5.071782
8.862332
10.888947
10.608902
10.145422
10.224668
9.913366
9.004088
6.590714
2.852573
-1.226863
-3.631713
-5.397543
-7.464255
-9.896573
-11.471076
-11.064427
-9.862792
-9.503502
-9.818276
-9.250925
-9.083278
-10.188303
-11.068850
-12.787322
-15.033364
-16.471791
-18.206996
-18.582073
-15.912965
-11.036018
-7.050037
-5.128873
-3.403456
-1.447563
1.053266
3.602715
5.118809
6.199522
7.604798
9.610891
11.509638
12.466905
12.591299
12.530996
11.365984
11.593934
12.352928
12.575195
10.834939
7.848846
8.009547
9.682554
10.953332
9.701181
7.236344
3.950316
2.193326
2.385916
3.390856
4.494618
6.179307
8.473969
9.129090
9.701177
11.299674
12.010362
9.318837
5.756553
2.536826
0.197015
-1.699840
-4.181726
-6.667716
-10.001102
-13.774604
-17.446128
-19.129870
-18.172919
-16.636936
-16.352471
-17.018328
-14.439201
-9.853664
-7.299479
-7.555529
-8.944072
-10.691590
-12.002466
-11.506784
-8.592676
-3.512089
1.624697
6.081735
8.237480
9.164437
9.722001
9.520886
7.548574
4.622784
3.688249
4.491759
5.402930
5.500488
4.931242
3.970186
3.372209
3.043543
3.963870
4.849152
4.051640
4.020383
4.545743
5.140245
5.888189
5.876507
5.501745
4.838730
4.501223
5.568993
8.076767
11.513709
14.262694
15.891184
17.823714
18.328237
17.188166
15.284998
12.056747
8.402272
5.029420
2.604048
0.572697
-0.553797
-0.366891
0.106691
-0.042014
-0.726814
-0.972130
-1.450764
-3.013585
-4.502212
-6.265200
-9.321383
-13.059525
-15.997628
-15.654755
-12.425242
-7.308031
-1.222818
4.969109
8.433203
8.733454
9.044439
9.653149
10.181982
10.626201
10.602206
9.894990
8.398155
6.855855
5.698736
3.392391
0.945866
-0.827541
-1.833114
-2.027599
-2.069906
-2.671040
-3.066955
-3.286697
-4.020434
-5.361303
-7.099034
-8.649226
-9.023356
-8.328770
-8.357185
-8.139969
-6.266163
-5.237859
-6.803522
-8.456639
-10.576393
-12.405683
-13.600688
-13.961558
-13.351585
-11.281716
-9.233632
-7.932861
-5.843733
