EVENT_NAME: 202010301151
EVENT_ID: 10614
EVENT_DATE_YYYYMMDD: 2020/10/30
EVENT_TIME_HHMMSS: 11:51:24.00000
EVENT_LATITUDE_DEGREE: 37.879
EVENT_LONGITUDE_DEGREE: 26.703
EVENT_DEPTH_KM: 16.54
HYPOCENTER_REFERENCE: AFAD
MAGNITUDE_W: 6.6
MAGNITUDE_W_REFERENCE: AFAD
MAGNITUDE_L: 
MAGNITUDE_L_REFERENCE: 
FOCAL_MECHANISM: 
NETWORK: TK
STATION_CODE: 3514
STATION_NAME: 
STATION_LATITUDE_DEGREE: 38.4762
STATION_LONGITUDE_DEGREE: 27.1581
STATION_ELEVATION_M: 197.0
LOCATION: -_-_-
SENSOR_DEPTH_M: 
VS30_M/S: 836
SITE_CLASSIFICATION_EC8: A
MORPHOLOGIC_CLASSIFICATION: 
EPICENTRAL_DISTANCE_KM: 77.41
EARTHQUAKE_BACKAZIMUTH_DEGREE: 
DATE_TIME_FIRST_SAMPLE_YYYYMMDD_HHMMSS: 2020/10/30 11:51:11.9545590
DATE_TIME_FIRST_SAMPLE_PRECISION: millisecond
SAMPLING_INTERVAL_S: 0.01
NDATA: 10501
DURATION_S: 
STREAM: HNN
UNITS: cm/s^2
INSTRUMENT: sensor = CMG-5T/GURALP | digitizer = 
INSTRUMENT_ANALOG/DIGITAL: 
INSTRUMENTAL_FREQUENCY_HZ: 
INSTRUMENTAL_DAMPING: 
FULL_SCALE_G: 
N_BIT_DIGITAL_CONVERTER: 
PGA_CM/S^2: 40.039
TIME_PGA_S: 
BASELINE_CORRECTION: BASELINE REMOVED
FILTER_TYPE: BUTTERWORTH
FILTER_ORDER: 
LOW_CUT_FREQUENCY_HZ: 
HIGH_CUT_FREQUENCY_HZ: 
LATE/NORMAL_TRIGGERED: 
DATABASE_VERSION: 
HEADER_FORMAT: DYNA 1.2
DATA_TYPE: Acceleration
PROCESSING: Manual Paolucci et al., 2011
DATA_TIMESTAMP_YYYYMMDD_HHMMSS: 
DATA_LICENSE: U (unknown license)
DATA_CITATION: Turkish Accelerometric Archive v 1.0 - Disaster And Emergency Management Presidency, Earthquake Department
DATA_CREATOR: AFAD
ORIGINAL_DATA_MEDIATOR_CITATION: : AFAD - Disaster And Emergency Management Presidency
ORIGINAL_DATA_MEDIATOR: AFAD PROCESS SERVICE
ORIGINAL_DATA_CREATOR_CITATION: AFAD PROCESS SERVICE
ORIGINAL_DATA_CREATOR: network: TK
USER1: GuestUser
USER2: 
USER3: 
USER4: 
USER5: 
[...]
-5.360520
-1.952974
1.198772
3.553021
3.039226
0.042030
-2.185255
-2.680554
-3.065821
-2.628199
-2.282427
-5.069276
-9.135444
-9.250177
-7.356119
-5.667392
-2.615960
0.197539
1.470589
0.315098
-2.084602
-2.468615
-1.049169
0.475921
1.545835
1.681261
1.553049
0.815429
-0.107773
-0.966084
-1.356053
1.052741
4.149941
6.530836
9.196685
10.612683
10.661901
11.841848
12.623046
12.709255
14.286383
14.667578
13.479485
11.117089
6.311418
0.679096
-2.954154
-5.701191
-9.597138
-12.804680
-13.126311
-10.860777
-8.812173
-7.949157
-5.145689
-2.036577
-2.186106
-3.854767
-5.054772
-5.600229
-6.742867
-8.826577
-10.511226
-11.130037
-11.646339
-10.444449
-7.704304
-6.376708
-5.332813
-4.230923
-3.629977
-1.796422
-0.960051
-0.871020
-0.078537
0.070368
-0.298598
-0.951891
-1.076969
0.461601
3.382937
4.273540
4.503951
5.232798
6.464155
7.504289
7.362910
7.313695
7.767305
8.435336
8.252892
7.465741
5.755387
3.203963
2.150039
2.948479
1.813050
-0.570976
-1.420822
-1.055615
-1.913298
-2.076307
0.383898
2.169178
2.624982
3.663548
5.110894
4.801490
3.991769
3.997099
4.646008
4.157606
2.510889
0.399592
-1.461860
-1.509194
-2.148381
-4.117671
-4.795730
-4.061554
-4.159045
-5.509208
-7.169405
-7.439624
-7.111094
-6.307952
-3.225173
-0.640202
-0.136748
-0.537376
-1.689733
-1.934873
-0.579691
1.918759
3.434131
2.722530
2.668613
3.193696
3.296206
3.147304
1.715636
-0.501304
-2.137363
-4.059317
-5.950863
-7.237076
-7.721717
-7.460898
-6.540828
-4.279684
-2.742682
-2.205372
0.218783
3.476172
4.719755
5.010981
5.186532
3.894050
0.878985
-1.380902
-2.818840
-3.646743
-3.619782
-4.069626
-4.076521
-2.742968
-0.712233
0.449845
0.863016
0.632295
-1.254235
-2.638255
-2.317875
-2.193734
-1.014415
-0.273343
-0.859865
0.299705
1.573069
1.996898
2.045176
2.717283
3.802871
2.689700
-0.107181
-1.799667
-3.013152
-4.504382
-5.165200
-5.766769
-4.573656
-1.600595
2.513853
5.921086
6.594133
5.154940
2.885649
3.325152
4.324533
4.226415
3.521710
3.696321
5.873139
7.535534
8.179740
7.009515
4.954018
3.875643
3.707932
3.934581
1.571872
-4.014681
-9.927883
-13.702513
-14.452986
-14.010348
-12.064566
-7.842908
-4.016550
-1.059162
1.360604
2.965631
4.454044
4.094795
2.686638
2.469711
3.527086
4.582266
4.284774
2.043069
-1.401151
-3.497087
-3.790504
-3.062912
-2.321840
-2.989240
-3.523097
-2.603654
-2.800832
-3.377010
-3.456005
-3.686726
-4.050676
-5.070117
-5.540651
-3.845340
-1.514603
-0.600802
0.297638
1.379778
1.815206
1.885114
2.797347
4.328079
4.334037
4.374165
4.246266
1.778541
-0.339026
-1.481978
-2.418972
-2.410193
-1.284793
0.990772
2.202694
1.411154
0.679177
-0.029603
-1.166286
-2.574757
-3.572567
-3.533693
-4.405797
-4.238396
-2.935879
-2.955313
-3.259388
-5.001404
-6.217397
-4.857825
-3.437125
-2.596679
-1.628333
-0.908577
-0.216408
0.924667
1.327179
1.054138
1.362919
2.088004
1.782675
0.310567
-1.065929
-2.197282
-0.725484
2.957299
4.660133
5.656693
7.146359
7.210938
5.311555
1.770782
-1.874067
-3.382538
-1.621083
0.654168
-0.085960
-1.421390
-1.294742
-0.717621
-0.610095
-0.111657
1.557634
3.733825
5.304997
3.674267
0.598388
-1.895670
-3.732357
-3.570912
-2.030148
-0.300042
1.084608
1.681166
2.093709
2.040419
1.346686
1.242612
0.869571
-0.092503
-0.928556
-1.216957
-0.305038
0.383056
-0.798454
-1.541090
-1.448298
-1.666793
-2.521342
-3.289370
-1.458636
0.414105
0.877433
-0.368028
-3.437324
-4.238582
-1.760821
0.335745
0.720076
1.490929
3.376209
4.894402
3.651136
-0.132272
-2.256421
-2.298740
-1.942623
-1.409389
-0.885559
0.547053
-0.162981
-2.672713
-2.273649
1.808197
4.640191
3.002565
-0.004035
-2.385866
-4.568010
-5.124751
-2.803732
-1.102779
-0.820330
0.770591
2.943960
3.819830
3.512933
3.177509
3.200709
2.467791
1.776252
1.335185
-0.159180
-2.642893
-2.562953
0.072489
1.286918
1.086605
-0.235345
-1.468580
-1.786448
-1.783625
-1.083306
-0.630009
-2.139108
-4.050403
-4.285513
-2.235655
0.828943
2.443061
2.216416
2.904196
4.090412
2.950282
1.083187
-0.704910
-2.846928
-4.055398
-5.737852
-8.226267
-8.619998
-7.712153
-5.354770
-2.886414
-2.813371
-1.447530
1.798573
3.990439
5.736219
6.318670
4.838725
4.871329
7.083570
7.703639
5.380742
1.803292
0.856579
0.952506
0.319589
0.743731
1.506434
3.788268
6.041262
6.814936
6.318383
5.219318
4.328092
2.785451
1.551276
0.414907
-0.661587
-0.683216
-0.043398
0.328706
0.449399
2.055994
5.486111
8.086442
6.552265
3.748174
3.162906
1.609293
-2.282579
-5.451876
-6.062223
-5.710182
-5.783221
-5.474753
-3.664395
-1.356542
-0.035215
0.566358
0.023723
-1.712023
-3.370025
-5.022699
-5.516744
-5.537745
-6.716434
-5.742445
-2.485370
-0.522660
1.782999
2.715922
1.224692
1.011526
2.268276
4.878952
5.536011
3.761081
1.334421
-1.203210
-1.908229
-1.116059
0.452605
2.080203
2.542590
2.180521
1.873937
2.814384
3.929753
3.257337
2.477710
2.870191
2.228496
0.226918
-1.491900
-3.879061
-5.742393
-6.409167
-4.766835
-2.168071
-1.761170
-1.144237
0.089315
-0.037643
0.229132
1.010329
1.481494
1.738237
-0.233874
-0.372431
2.182133
3.194680
0.966141
0.115667
3.052992
5.450187
7.700987
8.544567
6.474964
2.562402
-1.400317
-1.107210
3.026987
3.748937
1.862093
2.169307
4.885313
8.353675
8.820764
4.719486
1.699407
1.629189
0.643291
-1.251390
-3.264881
-2.550768
-1.036337
0.814774
2.658361
1.544876
1.249578
2.115416
1.425132
1.064630
1.365574
1.340183
1.614482
1.943639
1.098494
-0.640700
-0.526277
-0.352293
-1.612487
-2.047598
-1.062637
0.547093
2.738331
4.564049
5.097597
4.267813
2.715767
0.683782
-0.101802
-0.056972
-1.335035
-1.900554
-2.377671
-2.213405
-1.943495
-2.165438
-1.995530
-1.462923
0.283799
1.186941
-0.559150
-2.981107
-5.407453
-9.129104
-10.268921
-7.937557
-4.841611
-3.161035
-2.281090
-0.815875
-0.823710
-1.190482
-1.533116
-2.451928
-3.664787
-3.786103
-2.272298
-1.082320
-1.165078
-0.634038
0.423337
0.682275
0.787606
0.981026
0.240271
-0.035591
0.679462
0.957209
2.002358
1.775713
1.578848
1.331199
-0.272884
-0.047176
2.020864
2.601747
1.036222
-0.421152
0.170390
2.237489
5.627794
8.511827
8.933461
10.153220
9.924693
9.139424
8.996791
7.426877
6.572642
6.259162
4.766365
4.099278
2.639082
0.404901
0.645656
1.517764
3.417464
5.271396
5.840680
5.627201
5.608080
5.054787
3.107441
1.891762
0.751317
-1.770640
-2.175657
0.296774
1.875783
3.011842
3.741315
3.409340
3.691475
4.643834
3.648219
2.662007
3.876123
4.950426
4.787418
3.917508
1.749785
-1.575626
-0.999132
0.614987
-0.670599
-1.524522
-2.416688
-2.974684
-1.418559
0.655750
1.747922
1.722531
0.273621
0.072681
1.652317
0.373941
-4.032982
-7.490682
-7.239581
-6.640830
-6.672489
-4.428273
-1.985309
1.204995
3.894355
4.836996
4.800320
3.263949
0.791521
-0.341399
-0.942342
-2.496895
-4.382172
-7.051466
-9.641449
-12.625792
-14.774706
-16.762178
-17.543058
-17.132396
-15.884737
-14.057138
-12.481578
-9.827327
-8.042361
-6.403164
-5.463972
-4.659263
-2.750785
-2.362379
-2.074915
-0.753902
-0.815029
-1.721616
-3.686203
-6.085903
-7.239200
-9.097517
-11.550822
-12.530450
-12.105054
-11.026676
-10.174631
-7.932295
-3.972081
-2.964549
-3.961732
-4.037279
-2.837897
-1.986793
-2.921907
-3.371437
-1.889922
0.722009
1.814494
2.847417
3.298519
2.462466
1.396317
-1.740065
-3.642896
-2.753234
-2.250094
-3.138499
-7.213131
-11.380240
-10.723181
-7.945419
-3.935674
-2.609018
-3.038486
0.415769
4.897304
7.686351
7.914568
6.679139
4.129595
1.610772
2.098237
4.265337
6.197326
7.520220
10.237167
13.081387
12.893300
12.706780
11.952859
10.382318
11.409912
12.847854
13.756326
14.922166
15.300226
14.215268
10.614307
7.473223
7.353788
9.330292
11.610872
10.068544
6.282629
3.305810
-0.286374
-3.233726
-5.139379
-5.701136
-4.290467
-1.947191
1.274775
3.796736
7.771998
11.850395
14.015928
14.940387
12.161688
9.167940
8.461981
7.599595
4.820896
2.492670
2.857251
5.056953
7.802740
9.977677
9.284571
8.493032
9.777368
9.639124
9.044765
8.095231
8.530659
8.261067
4.543490
1.407736
0.091115
0.150991
2.591761
4.467950
3.659483
3.019669
3.200236
4.759495
6.140383
6.685843
6.901520
5.556686
2.440681
1.488012
0.087064
-5.295726
-7.528654
-7.389780
-7.296987
-5.567194
-3.275642
-0.780640
0.466078
-0.836123
-3.737707
-5.871888
-5.555269
-5.348370
-6.434268
-8.003869
-10.195417
-12.158750
-13.412988
-12.982576
-11.310464
-10.829581
-12.845579
-17.671313
-21.406758
-21.433716
-22.247826
-22.590773
-19.876961
-18.889178
-19.962851
-18.914567
-17.814872
-17.932425
-17.297310
-16.149025
-14.090390
-12.548686
-12.927056
-14.466249
-15.362804
-14.974712
-14.373453
-14.273137
-14.475644
-13.764666
-13.250241
-15.890068
-18.600115
-19.893538
-20.524261
-19.488203
-17.959351
-15.545854
-12.912607
-10.412276
-7.567116
-5.365219
-3.526961
0.073690
4.526071
9.044596
12.316092
15.575362
17.956570
16.824903
15.564082
14.956870
13.898871
11.499485
8.454640
5.502272
2.667460
-0.636007
-2.073632
-0.819391
1.136423
3.544590
4.493187
5.856834
8.376287
9.101685
8.470649
6.449321
4.256519
0.235806
-3.571426
-4.556697
-5.566106
-5.769240
-4.558886
-0.818422
3.548065
7.002634
8.308287
7.959383
8.143712
8.868797
9.702973
8.804850
8.589804
10.370695
11.008004
9.600160
9.826809
13.422445
15.457883
15.939079
16.519962
15.848486
14.222459
9.915851
3.644026
-1.016503
-2.484849
-3.146920
-4.375766
-4.206171
-2.509293
-0.715863
0.030538
2.101086
4.287308
5.297348
7.342503
7.082629
6.674164
9.533118
12.591133
14.940993
15.125321
12.761672
10.653824
9.900529
9.640028
7.998640
5.514614
4.915239
5.517439
6.030610
5.725907
2.865390
-0.189173
-3.141855
-7.173539
-9.334680
-7.382001
-6.183246
-9.607403
-11.916820
-11.314934
-10.267590
-10.639064
-12.515250
-14.456012
-16.350066
-17.015900
-17.319661
-18.621549
-17.076396
-13.702705
-10.584502
-7.196705
-5.285092
-3.914236
-4.639944
-4.895430
-1.766255
-1.149634
-3.008892
-3.880369
-5.357806
-5.301064
-2.770325
0.928446
7.139145
12.685576
16.472122
17.733887
15.213184
12.313794
10.877423
11.438244
12.890919
13.865849
14.312562
13.965853
13.727295
13.582782
12.193433
11.760831
10.830732
7.368017
5.076468
4.624743
3.261413
-0.085315
-4.944277
-8.969379
-10.617664
-10.783494
-9.954646
-9.194452
-7.088167
-5.567780
-5.602888
-3.326069
-0.488746
-0.251752
0.613146
3.278368
5.178695
5.411614
4.925092
4.285278
1.589965
-3.170878
-8.083446
-10.317941
-11.469671
-14.537400
-18.582565
-19.036171
-16.557783
-14.893508
-13.857449
-12.034239
-6.659282
-0.154850
3.227618
4.983116
7.935488
10.219203
11.604793
12.879411
11.625800
9.012933
8.232366
9.049927
10.871884
13.016100
12.701366
8.991627
7.144282
8.674387
10.055902
8.564359
3.813860
0.523559
-0.728798
-2.004980
-2.822224
-1.971433
-1.948234
-2.994947
-3.453882
-5.506872
-5.904051
-2.902777
0.547404
3.585356
6.918294
9.406085
10.537129
12.471625
12.959718
11.772565
12.032129
11.771001
9.289169
7.207340
7.352483
7.680700
7.761267
8.726792
8.725226
8.949368
8.347171
4.643701
0.970639
-0.740028
0.859984
1.126445
0.064998
0.023307
-0.755379
-2.172001
-5.357599
-6.611837
-7.015913
-10.915309
-15.700917
-18.941688
-23.356447
-25.779972
-25.035451
-25.792194
-25.702223
-23.058317
-19.644188
-16.084602
-12.450095
-10.298356
-8.388938
-4.942206
-1.195785
0.975076
0.788243
1.403609
2.494840
-0.751887
-5.045642
-6.854743
-7.487033
-8.437194
-9.609300
-8.468539
-3.461609
2.155983
6.797080
12.925333
18.989636
22.156429
21.885269
20.080557
17.863931
17.811895
17.665501
15.249500
12.120955
7.838172
3.908682
3.095826
5.306813
7.911847
9.503395
9.540701
9.411235
8.883647
7.464518
5.289898
2.119660
-1.430517
-2.080049
-1.812961
-3.985387
-7.052489
-10.530565
-12.992021
-13.397664
-13.305186
-14.829645
-17.356932
-18.299255
-18.920261
-20.547228
-21.007417
-22.569808
-24.726560
-26.402430
-26.573903
-23.294570
-15.592012
-5.747435
-0.374985
2.399328
9.161442
17.535477
21.335816
23.415141
24.210759
23.222354
23.102919
22.752135
20.139268
18.089727
18.810736
20.716079
22.788508
22.181609
18.953377
15.341444
13.121683
10.013828
7.243593
7.220711
5.013802
2.186827
1.052339
2.186204
5.699394
7.589062
7.426054
5.859275
3.822900
2.502831
1.997814
1.485273
0.569595
-0.844832
-0.445141
1.668040
1.133242
-0.847646
-3.068975
-6.112879
-10.682499
-15.699456
-18.693517
-18.804488
-16.034563
-10.950830
-3.702820
5.385640
13.551210
17.041516
17.503589
17.327728
16.732428
12.323625
4.141444
-1.480220
-4.397791
-6.214415
-6.126325
-4.505624
-1.755134
1.463069
4.280957
7.386621
9.408893
8.420173
2.606973
-4.454198
-10.044827
-15.388433
-18.561805
-20.224510
-19.995666
-18.391893
-18.370888
-19.355218
-19.137973
-19.533272
-20.601302
-20.786254
-20.677788
-21.666194
-22.930777
-23.396922
-22.879048
-21.173707
-18.955509
-15.889658
-11.462982
-8.055122
-8.780517
-10.792753
-12.779911
-13.819415
-13.582734
-13.156711
-13.134138
-13.379279
-13.261722
-12.040709
-7.945071
-3.543787
0.028024
3.973191
7.970397
10.314927
9.959128
7.459741
5.769763
7.941879
10.557258
12.612445
15.760742
18.885215
22.125362
25.668020
30.132940
32.022295
30.682790
30.774015
31.867127
32.927637
33.998492
35.553676
37.801654
40.038974
39.385367
36.050238
32.963073
30.685944
29.355844
25.380586
17.866747
9.989270
4.651307
0.934044
-2.606101
-4.799844
-5.184484
-2.080074
2.689550
4.709627
3.694576
2.266982
0.202708
-3.533991
-5.927108
-6.577580
-7.152503
-7.361907
-8.793890
-10.545936
-11.440925
-11.534654
-10.755650
-11.048127
-12.196408
-13.075722
-14.979181
-17.578568
-19.985791
-23.214963
-24.764188
-24.188320
-23.330006
-21.322155
-20.107412
-20.435938
-19.337811
-17.808646
-15.693897
-11.832116
-8.815167
-6.636155
-5.356208
-5.716396
-5.726739
-4.996325
-4.001960
-1.694734
0.752305
3.199971
4.215027
2.753577
1.301532
-0.534841
-2.538927
-4.377808
-6.141768
-7.169672
-6.068723
-2.405689
0.742922
1.535719
2.403751
4.696557
5.704716
5.342020
4.687472
3.968660
2.836994
0.509081
0.247012
1.935112
2.513174
2.863962
2.779324
1.277435
0.565520
2.825724
5.411009
4.759282
2.518518
2.623849
6.067760
11.101649
15.147131
17.169402
17.802323
15.929272
11.400719
5.659933
0.797835
-3.800938
-7.741400
-8.943287
-9.676205
-9.752065
-9.508175
-9.369301
-8.852995
-8.579637
-8.032297
-7.166772
-8.035114
-10.316945
-12.129180
-13.404422
-14.647061
-14.297214
-12.428862
-13.883728
-15.792515
-13.681529
-9.476485
-5.246049
-2.346656
-1.862952
-1.622510
-1.130342
-2.422511
-3.168282
-1.891157
-1.367954
-2.457614
-4.368910
-5.907476
-7.542907
-11.529451
-15.650791
-17.237947
-18.236071
-18.929804
-19.215384
-18.072428
-13.217537
-7.936938
-5.967331
-7.656368
-8.307154
-8.776121
-10.399327
-11.708424
-13.749187
-15.501234
-14.246679
-10.686780
-8.003376
-2.535315
4.565672
10.132793
15.149441
19.178621
22.254505
26.366131
30.145467
31.692187
32.066799
32.626365
33.275588
31.943920
31.598465
33.311330
33.966195
33.406005
31.429192
28.558329
26.418819
23.615041
20.095272
17.680525
16.900271
16.098701
13.325017
9.172955
5.393937
2.039058
0.085443
-0.693557
-2.681342
-5.269131
-6.867885
-6.060041
-5.428061
-6.142170
-7.173523
-7.575404
-6.987938
-6.999535
-8.312081
-9.163181
-9.383871
-12.540315
-15.988297
-17.036891
-19.218408
-22.144757
-22.679554
-22.679866
-21.782994
-20.455711
-19.935016
-18.537827
-14.519305
-7.856879
-2.564681
0.583617
1.431273
0.165749
-1.938964
-3.674083
-3.523610
-1.959335
-0.071547
1.757306
3.575501
5.891818
8.771149
10.806586
11.859573
13.090930
14.518841
13.445168
8.801567
4.093702
1.274251
-0.299425
0.871117
4.372081
6.167392
7.515678
9.630113
10.398458
10.676205
10.322286
9.153942
7.188100
4.447333
0.498093
-5.421691
-11.039279
-13.723307
-13.248694
-11.983481
-11.874701
-13.772203
-14.801361
-13.040220
-10.424528
-8.953984
-9.463076
-8.776550
-8.296608
-8.374663
-6.258347
-3.569613
-1.406902
0.274615
2.863975
4.840478
4.080914
3.457401
4.728570
5.221992
6.858054
9.674688
10.080962
10.542722
12.812017
15.792288
17.503586
17.312051
15.983831
13.220179
9.611067
7.350553
5.661516
4.256180
4.907283
6.611371
8.041789
9.851834
12.184766
13.510167
12.687594
11.249655
10.096045
7.799480
5.314827
3.259017
-0.627840
-5.998718
-10.266768
-12.236998
-13.107221
-14.488419
-13.309100
-10.125692
-8.720980
-8.847938
-11.160176
-15.656441
-19.815086
-21.978107
-21.745816
-21.258977
-21.160542
-20.613515
-18.892499
-15.378369
-12.282109
-9.112495
-5.734102
-2.343483
1.028013
4.103896
6.951878
8.477281
10.043750
12.640320
13.861019
14.290491
14.327170
12.604904
12.570109
13.879837
14.112129
14.835960
15.988006
15.437534
13.485486
10.955065
9.329978
9.015558
7.893295
5.500806
2.828690
0.860968
1.032131
3.742494
7.137815
9.775451
11.123737
12.169827
12.617794
12.380177
13.457928
15.730672
16.601525
14.941642
11.141620
9.369197
10.590836
9.922809
6.283916
1.594547
-2.858457
-7.409894
-11.005840
-11.136247
-8.960996
-9.670090
-11.625586
-12.358504
-12.533739
-13.148788
-14.269169
-13.620574
-13.323392
-14.281703
-16.100208
-19.124363
-20.561674
-20.284868
-19.523106
-17.808047
-16.995187
-15.233732
-11.075397
-6.649349
-3.552463
-2.538034
-2.702924
-1.973137
0.222176
1.661999
0.660427
-1.822659
-1.849930
0.588959
1.286144
-0.476875
-2.387230
-2.528295
-0.188780
1.743836
1.330355
0.702140
0.618129
0.672676
1.118135
0.851051
0.082396
0.020015
-0.300048
-0.869642
-0.444246
-0.112581
-1.563058
-3.717929
-5.620134
-6.342707
-5.461508
-4.590028
-5.139559
-6.993174
-8.312616
-8.474998
-7.693173
-7.629535
-9.462460
-10.152431
-9.251796
-7.718243
-6.256476
-4.460538
-1.470549
1.804708
4.956140
7.113836
8.171838
8.110711
6.929201
5.185304
3.948621
4.094078
4.625118
4.444554
4.332957
5.827639
8.238314
9.407602
10.077828
10.681908
11.409187
12.385057
13.643061
15.584454
17.790112
19.489184
18.737457
15.611734
11.254028
8.468119
8.020469
6.241150
3.541448
1.037045
-1.629114
-1.875822
-0.270481
2.510416
5.032690
4.985043
4.890060
5.748688
6.570638
6.440859
4.449625
0.298504
-4.757325
-8.820672
-11.502819
-11.976174
-11.280557
-12.821003
-14.183392
-12.084631
-8.429748
-4.587089
-2.057917
-2.087383
-3.247577
-4.485200
-4.356671
-3.985507
-5.438492
-6.279562
-6.688967
-8.199006
-8.972050
-8.839132
-9.103081
-9.695873
-9.953553
-9.273610
-7.621560
-5.283299
-4.210250
-4.391441
-3.398643
-2.024651
-1.433736
-1.072917
-0.866958
-0.529023
0.275372
1.773816
2.595140
2.258149
2.508936
2.144358
0.471309
-1.876666
-5.144397
-8.119335
-9.754140
-9.572632
-7.288604
-4.474478
-0.607367
3.987021
7.184222
8.721851
8.439405
7.361971
6.464162
5.289234
3.947535
3.931863
5.263534
6.425299
7.145681
6.578908
4.429994
1.107718
-2.713621
-4.368802
-5.270373
-7.806124
-11.782323
-15.214004
-17.149751
-18.202421
-17.200845
-14.571673
-10.668826
-6.301085
