EVENT_NAME: 202010301151
EVENT_ID: 10614
EVENT_DATE_YYYYMMDD: 2020/10/30
EVENT_TIME_HHMMSS: 11:51:24.00000
EVENT_LATITUDE_DEGREE: 37.879
EVENT_LONGITUDE_DEGREE: 26.703
EVENT_DEPTH_KM: 16.54
HYPOCENTER_REFERENCE: AFAD
MAGNITUDE_W: 6.6
MAGNITUDE_W_REFERENCE: AFAD
MAGNITUDE_L: 
MAGNITUDE_L_REFERENCE: 
FOCAL_MECHANISM: 
NETWORK: TK
STATION_CODE: 3514
STATION_NAME: 
STATION_LATITUDE_DEGREE: 38.4762
STATION_LONGITUDE_DEGREE: 27.1581
STATION_ELEVATION_M: 197.0
LOCATION: -_-_-
SENSOR_DEPTH_M: 
VS30_M/S: 836
SITE_CLASSIFICATION_EC8: A
MORPHOLOGIC_CLASSIFICATION: 
EPICENTRAL_DISTANCE_KM: 77.41
EARTHQUAKE_BACKAZIMUTH_DEGREE: 
DATE_TIME_FIRST_SAMPLE_YYYYMMDD_HHMMSS: 2020/10/30 11:51:11.9545590
DATE_TIME_FIRST_SAMPLE_PRECISION: millisecond
SAMPLING_INTERVAL_S: 0.01
NDATA: 10501
DURATION_S: 
STREAM: HNZ
UNITS: cm/s^2
INSTRUMENT: sensor = CMG-5T/GURALP | digitizer = 
INSTRUMENT_ANALOG/DIGITAL: 
INSTRUMENTAL_FREQUENCY_HZ: 
INSTRUMENTAL_DAMPING: 
FULL_SCALE_G: 
N_BIT_DIGITAL_CONVERTER: 
PGA_CM/S^2: 25.703
TIME_PGA_S: 
BASELINE_CORRECTION: BASELINE REMOVED
FILTER_TYPE: BUTTERWORTH
FILTER_ORDER: 
LOW_CUT_FREQUENCY_HZ: 
HIGH_CUT_FREQUENCY_HZ: 
LATE/NORMAL_TRIGGERED: 
DATABASE_VERSION: 
HEADER_FORMAT: DYNA 1.2
DATA_TYPE: Acceleration
PROCESSING: Manual Paolucci et al., 2011
DATA_TIMESTAMP_YYYYMMDD_HHMMSS: 
DATA_LICENSE: U (unknown license)
DATA_CITATION: Turkish Accelerometric Archive v 1.0 - Disaster And Emergency Management Presidency, Earthquake Department
DATA_CREATOR: AFAD
ORIGINAL_DATA_MEDIATOR_CITATION: : AFAD - Disaster And Emergency Management Presidency
ORIGINAL_DATA_MEDIATOR: AFAD PROCESS SERVICE
ORIGINAL_DATA_CREATOR_CITATION: AFAD PROCESS SERVICE
ORIGINAL_DATA_CREATOR: network: TK
USER1: GuestUser
USER2: 
USER3: 
USER4: 
USER5: 
[...]
0.750349
1.121992
0.583657
-0.860615
-1.362564
0.626889
2.843991
2.202404
0.588328
0.271734
0.432209
0.566872
0.571849
-0.814887
-3.594271
-6.206027
-8.156913
-9.914670
-10.933808
-10.477884
-8.004831
-3.751317
1.393826
6.438207
10.167379
12.520698
13.714618
14.034014
14.089683
13.941027
11.859522
7.607255
3.662874
1.101500
-0.566067
-1.926058
-2.638242
-2.788141
-3.065239
-2.373580
-1.316809
-2.397835
-3.882225
-3.035689
-1.848922
-2.503570
-3.571846
-5.166329
-7.988319
-10.411299
-10.922578
-8.953030
-5.323377
-1.617219
1.178961
3.075735
4.220207
5.393602
6.696060
6.918736
4.825102
2.329037
1.752759
1.557765
0.312843
-1.154753
-1.958680
-2.660601
-2.620792
-2.156472
-2.686099
-3.829947
-4.787818
-5.652079
-6.822362
-7.164769
-6.542151
-5.759991
-3.671642
-0.374757
2.752324
4.975646
7.168180
9.081126
9.173805
8.890176
9.163544
8.238949
4.511023
-0.347378
-4.711916
-7.644310
-8.199129
-7.594549
-7.418523
-7.568423
-6.373569
-2.765686
1.708014
4.481490
4.675243
3.545390
3.638690
5.105977
6.142222
6.134137
5.457408
4.995267
6.092467
8.057039
8.656643
7.747599
6.755518
5.618512
3.717074
1.453014
0.605235
1.764946
2.816741
3.546653
4.408739
3.834639
0.893536
-2.900632
-5.759631
-7.298445
-7.300932
-5.753097
-3.611256
-1.615273
-0.585870
-0.958755
-1.780721
-1.714166
-1.383264
-1.606559
-2.174750
-3.166831
-3.492133
-2.097309
0.398447
2.274385
3.597681
4.810883
5.662084
6.222192
5.584648
4.055474
4.188582
5.446568
5.671109
4.643264
1.694698
-2.065572
-4.564747
-5.284705
-5.049901
-6.229824
-10.086192
-13.183726
-11.550055
-7.264820
-3.562394
-0.554114
1.806980
4.227475
6.613138
8.006407
8.741607
8.745340
7.715939
6.078849
4.573311
3.265257
3.051603
4.211624
5.368225
6.097204
6.201079
5.123162
2.896110
-0.077336
-3.386659
-6.244414
-7.322019
-6.379696
-5.774183
-5.979440
-5.014103
-2.996350
-1.892619
-1.180433
0.125757
0.514194
1.138678
3.540513
5.334347
4.740654
2.632092
-0.462954
-3.636371
-4.715842
-4.040355
-4.568427
-6.424459
-7.758016
-8.657730
-8.843395
-6.912099
-3.452251
-0.692458
1.280511
3.468068
5.035186
5.508525
6.131454
6.793880
6.412287
4.920744
2.862253
1.314108
0.425589
-0.519220
-1.862417
-2.494674
-1.962867
-1.321278
-0.521081
0.631477
2.253330
3.798056
4.340747
4.034727
3.672105
3.762917
3.545842
3.153986
3.228627
3.159897
3.307622
4.393626
6.035072
7.301144
7.679629
6.386502
3.479610
1.304184
0.572407
-0.406612
-1.844974
-3.279604
-3.876096
-3.553591
-3.881692
-4.580814
-5.283045
-5.558899
-5.312277
-5.174504
-4.948407
-3.696952
-1.942304
-0.698624
0.997247
2.665438
2.229110
0.506496
0.019164
1.061007
3.415881
5.063546
4.260241
2.359736
1.171105
0.829320
0.759035
-0.017524
-2.601912
-5.589975
-7.134699
-6.988529
-5.899726
-5.055366
-4.671905
-3.119716
-0.835127
0.151358
-0.584772
-2.233680
-2.830794
-0.790338
2.742905
4.683220
4.599562
4.449352
4.630353
4.913673
5.295579
4.357301
1.569520
-1.254958
-3.328066
-5.800495
-8.949966
-11.429859
-11.782840
-9.502294
-6.081321
-3.926418
-2.405328
-0.088707
2.230091
4.300403
5.578604
5.378011
4.675469
4.720565
4.185339
2.080198
0.291652
-0.433904
-0.883605
-1.224457
-0.975036
-0.324428
0.212043
0.878201
1.774497
2.218602
2.255612
2.280493
3.186741
4.535849
4.719960
4.861776
5.708313
6.388776
6.503224
5.879364
4.323134
2.306938
0.827213
-0.200943
-1.454262
-2.482108
-1.847361
0.325580
1.804063
1.578280
0.570338
-1.302799
-3.211701
-3.089478
-1.606019
-0.297962
1.144134
3.558098
5.350689
5.889959
7.373729
9.248112
9.230387
7.118093
4.203425
1.970153
1.339451
1.892717
1.199816
-0.753870
-2.573204
-4.998050
-8.581051
-13.094557
-16.560934
-16.626242
-13.854632
-10.613726
-7.139883
-2.663695
2.628862
7.710251
12.015390
13.803005
12.593848
9.496314
4.970057
0.338995
-3.913584
-7.388669
-10.433334
-13.071213
-14.670050
-15.499169
-15.676436
-13.820713
-10.485264
-6.175770
-0.746375
3.937248
6.963566
8.262603
7.709340
4.699818
0.738022
-2.213343
-4.078705
-4.937990
-5.598859
-6.722491
-7.983896
-7.872558
-5.781099
-2.566628
1.582391
4.892960
5.848968
5.442184
4.212190
1.901169
-0.975557
-5.192993
-9.848936
-12.463490
-11.897163
-9.598268
-8.251337
-7.606949
-6.995216
-5.038108
-1.722563
1.977998
4.111130
2.573871
-0.384958
-1.888319
-2.885998
-3.329479
-2.281728
-1.355576
-1.892046
-4.013359
-6.383780
-7.884342
-7.755277
-6.947927
-6.288300
-5.208827
-2.741061
1.603887
6.209138
9.736473
11.915634
12.506841
11.757027
10.796668
10.333594
10.282280
9.282113
7.481750
6.789159
7.133124
8.049634
10.234393
12.876317
12.949092
11.269084
10.558767
10.337649
10.004261
10.021989
9.751733
7.433248
4.670347
3.417339
2.758648
2.133855
2.083785
2.441122
2.616837
3.201202
4.396989
4.969847
2.932815
-0.778006
-3.407800
-4.662985
-4.716787
-2.909579
-0.127705
1.356998
1.173821
1.112245
2.070118
3.788380
5.985268
7.630445
6.596069
3.062827
0.084405
-0.655146
0.568942
2.472247
3.660570
3.632892
3.299193
3.546748
4.246493
5.084322
5.627013
6.611943
7.863398
7.723761
4.848591
-0.301527
-5.656903
-9.801254
-12.249736
-13.351910
-12.735201
-11.405064
-11.051148
-11.826152
-11.582329
-8.873851
-5.133794
-1.945758
-0.481581
-1.377874
-4.420984
-7.787220
-9.959536
-10.364765
-9.623346
-9.244550
-10.066515
-10.574062
-9.001968
-7.159929
-6.271408
-5.502932
-4.318031
-2.401041
-1.046335
-0.850406
-2.539121
-6.159442
-9.978801
-12.243795
-12.847129
-13.531011
-13.572062
-12.472685
-10.777125
-9.706982
-9.180773
-8.200819
-6.288183
-3.109788
-0.161531
1.401544
2.426593
4.391476
5.670921
5.072252
5.162131
6.635327
6.939173
5.018142
2.182468
0.050581
-0.532227
-0.121709
-0.623969
-2.189529
-3.171658
-2.940275
-1.793937
0.011404
2.622540
5.037748
7.431185
10.364826
13.377771
16.425236
18.540020
18.910419
17.398039
15.094482
13.025106
10.445694
7.364331
3.719442
0.408564
-1.232880
-2.273166
-3.113480
-3.385291
-4.036829
-5.289526
-5.836570
-4.857549
-2.628939
-0.463463
0.834020
0.519602
-0.201911
-0.022464
-0.222435
-1.605128
-3.364440
-4.102125
-4.580749
-5.645604
-7.261235
-9.099851
-9.385345
-8.049610
-6.953965
-5.681673
-4.020634
-2.582892
-1.782072
-2.062591
-2.315431
-2.039575
-2.228349
-3.834650
-5.787714
-6.044286
-4.216552
-0.981244
2.469274
4.635373
5.130171
5.196725
5.363421
6.126299
7.977979
10.846932
13.905904
15.149273
14.860358
15.116932
16.315206
15.753857
11.624433
5.694956
0.259965
-3.696233
-5.214211
-4.389134
-2.845963
-0.692926
2.818236
5.616904
5.998188
5.282273
4.387223
3.585472
3.881232
4.884822
4.382873
3.211347
2.371032
1.456079
1.156589
1.307113
-0.141201
-4.122279
-7.473587
-6.967593
-4.444158
-2.616736
-2.075910
-3.145741
-5.639628
-8.330067
-9.402074
-8.593790
-7.172842
-6.719717
-7.128989
-8.004757
-8.587565
-8.612444
-8.771674
-8.207212
-6.084653
-4.053838
-3.927261
-4.357681
-5.353494
-8.101156
-10.666884
-10.938695
-9.279211
-6.763551
-3.449250
0.228919
3.394874
6.663148
9.623534
10.874989
10.430264
9.863316
9.737052
9.118479
8.156876
7.519332
7.248766
7.145515
6.253265
3.179366
0.001284
-0.866709
-1.880871
-4.862403
-7.931636
-10.338755
-13.392128
-16.476289
-18.519852
-19.509756
-18.911707
-17.391550
-16.103086
-14.978518
-12.336905
-7.896792
-2.457134
3.828126
10.186471
14.983919
17.139133
16.998874
15.324776
12.264561
8.390467
4.616513
0.513524
-2.908069
-5.560566
-7.943738
-10.107658
-11.671041
-11.517718
-10.760749
-10.948591
-11.605728
-11.242792
-9.318961
-6.458094
-3.838250
-0.548517
3.480767
6.224077
7.343358
8.152886
9.819211
11.756416
13.210641
14.151099
14.202414
13.227127
12.171603
11.336264
9.321935
5.851515
2.040553
-1.648499
-4.450896
-6.446255
-7.622446
-7.279726
-6.479839
-6.605170
-6.338334
-4.057788
-1.624853
0.316083
3.892555
9.140639
15.132629
20.681758
22.962615
21.688148
19.485665
18.763530
18.314139
16.162971
12.804510
9.968525
8.355693
6.658581
4.967688
3.005917
-0.524214
-5.310154
-9.199798
-10.217381
-8.429144
-6.161972
-4.725162
-4.484449
-5.141586
-5.367991
-4.323971
-2.054310
0.094994
1.725555
3.657473
5.489871
6.071126
4.813454
2.531355
0.291241
-1.183819
-1.322834
-2.131737
-3.600266
-3.599643
-1.893510
0.822743
3.980613
5.641029
4.819997
3.831026
4.174368
4.478214
2.618450
-0.820870
-3.682357
-4.934432
-5.186339
-5.159592
-5.744266
-7.390375
-8.558791
-7.794359
-6.286331
-5.171715
-3.156450
-0.600049
0.826497
1.120080
0.068909
-1.461197
-2.839226
-4.084148
-4.932548
-5.552365
-5.571024
-4.520784
-2.806876
-2.505829
-3.832233
-5.257533
-5.121626
-2.735341
0.960865
3.275931
3.327869
3.173926
3.645089
4.451506
4.989844
4.764994
3.853461
3.351823
4.063697
6.025160
8.524337
11.236858
14.163967
16.777280
17.886920
16.311408
12.719388
7.799098
1.978159
-2.908855
-7.056938
-12.152009
-17.843884
-21.998499
-22.632622
-20.370425
-16.564125
-12.606370
-9.043582
-4.449837
0.866044
5.857866
10.550508
14.957033
18.093133
19.042920
19.142751
18.327628
14.172703
6.492931
-1.343582
-6.424347
-8.382386
-8.841418
-9.260330
-10.098468
-11.501687
-13.412455
-15.594101
-17.229636
-17.496471
-15.464412
-11.164560
-6.514524
-2.646647
0.765307
3.388572
4.862080
4.690099
3.396661
1.457593
-1.492528
-5.432865
-9.216149
-11.322534
-11.917471
-11.732115
-11.041389
-9.432598
-6.541875
-2.459721
1.194190
2.329332
2.012426
2.664278
5.210416
8.346826
10.035544
10.068511
9.471708
10.439844
12.456353
12.928137
11.250928
9.444656
9.142989
9.106915
8.975986
9.614465
11.446863
13.585283
14.785112
14.169960
12.289049
10.757387
9.669830
7.923891
4.834443
1.941856
1.255797
1.322040
-0.366675
-4.240459
-8.515429
-11.042905
-11.407393
-10.408157
-8.288086
-4.811133
-1.494966
1.134519
3.952158
6.657215
7.980510
7.382152
5.467653
1.884652
-2.833179
-6.908178
-9.028869
-8.274077
-5.252425
-1.451412
2.394695
5.704020
7.471731
7.349510
5.105353
0.978107
-3.663530
-7.492219
-9.545735
-9.624416
-7.758119
-3.939691
-0.121573
1.478510
1.457052
1.194260
1.406673
2.349618
3.563131
3.761549
2.424261
1.138598
1.747221
3.331754
4.025591
3.444338
1.147622
-2.692263
-6.097062
-7.862283
-9.763410
-13.196199
-16.659466
-18.029409
-17.068115
-14.536594
-10.942395
-7.685317
-6.078392
-5.651702
-5.069825
-4.159223
-3.351562
-1.740905
-0.082976
-0.435957
-1.869965
-1.468467
0.994013
3.004612
4.121405
5.598645
8.035622
10.551904
12.246530
13.124166
13.306101
13.239859
13.484304
13.941472
13.168022
10.436221
6.313950
2.535021
0.052018
-1.232090
-0.706503
0.780066
2.482468
4.429935
6.852918
9.454413
11.339680
11.940529
10.572141
7.422359
3.540179
0.170211
-2.042224
-3.786608
-4.773713
-3.409677
0.020315
3.857714
6.575211
7.943290
8.151660
8.174364
8.663253
8.204222
6.211040
3.699114
2.015997
0.530363
-1.585663
-3.869939
-5.402533
-5.089047
-2.413223
0.743713
0.781967
-2.331428
-6.069928
-8.440661
-9.990360
-12.442574
-15.540419
-16.962299
-15.545393
-12.891339
-9.920690
-8.173194
-8.212379
-9.249865
-10.909036
-12.645023
-13.658252
-13.578013
-13.405098
-12.476458
-10.490116
-8.431623
-5.949240
-2.792925
-0.750603
-0.546899
-0.611274
-0.115232
0.249880
0.324209
0.853839
0.511121
-1.647512
-4.349768
-6.024488
-6.806646
-7.367373
-7.013457
-4.718295
-0.924124
2.316160
3.213078
2.542257
2.468863
2.737876
2.427191
1.196264
-1.030477
-3.082748
-3.408984
-1.780289
0.043091
0.489684
0.573032
1.697289
3.764802
4.895590
3.981569
2.021353
0.309313
-0.723509
-0.614348
1.142167
3.011885
3.575414
3.517880
3.707590
3.106122
1.493601
-0.158417
-1.199324
-1.723354
-1.693497
-1.338959
-0.326661
2.263949
5.080654
6.547009
5.987836
4.722388
3.190105
0.766191
-1.492893
-2.907931
-3.038238
-1.687264
0.082935
1.079683
1.492067
1.779430
1.122915
-0.334107
-0.729384
0.549128
2.305643
3.674033
5.204141
7.048046
9.598538
13.134270
16.149080
17.699093
17.969973
17.750099
17.798304
17.540177
15.761895
11.350085
5.760528
1.804952
0.091668
-0.416501
-1.674173
-4.453868
-7.443797
-8.809386
-8.903928
-9.307602
-10.935361
-12.952490
-14.191814
-14.358508
-12.871317
-10.779857
-8.403525
-5.322471
-1.765592
0.956570
1.907913
2.812605
4.220492
4.431660
3.109922
1.790672
0.582759
-0.593122
-0.634484
0.845866
2.724913
4.148661
6.011226
7.977664
8.724370
8.484281
7.261129
4.363567
0.173187
-3.987336
-7.174126
-8.800953
-8.405674
-6.776046
-4.919701
-2.390047
0.589932
2.296999
2.738616
2.981506
2.676730
1.144135
-1.279778
-3.682544
-5.390230
-5.750675
-3.981098
-0.833180
1.805945
3.260482
3.391413
2.154577
0.115678
-1.865064
-3.435911
-4.993697
-6.087474
-6.303305
-7.042856
-8.540619
-9.823171
-10.117063
-9.566596
-9.175671
-8.546833
-6.855628
-3.947489
-0.590581
2.377269
4.213399
4.451002
4.236104
4.757648
5.074555
4.487704
4.027740
4.567632
6.130396
7.876337
8.534720
7.644646
6.068512
4.298626
2.589696
1.304033
0.804572
1.076385
1.336380
0.882947
0.154281
-0.406447
-1.740625
-4.006863
-5.316472
-4.569766
-3.142597
-1.789757
-0.199937
1.603539
3.016712
3.850187
4.207524
4.208769
3.869472
3.653018
4.159634
4.784429
4.488361
3.277649
2.187914
1.577427
0.900076
-0.552903
-2.126550
-4.979329
-10.248247
-16.143515
-20.671326
-23.845987
-25.703263
-25.059808
-22.432501
-18.212886
-12.729377
-7.265150
-2.750398
0.826385
3.578403
5.465537
6.582641
6.881511
6.482191
6.319540
7.092370
8.641450
10.449590
11.461266
11.057592
9.955418
8.110582
5.139935
2.254812
0.438277
-0.422252
-1.102713
-2.475144
-4.572510
-5.927525
-5.618704
-4.182205
-1.540902
2.321376
6.538504
10.272651
13.088424
14.892832
15.738125
16.289524
16.467105
15.919750
15.101206
13.805591
11.923125
9.994008
8.174674
5.739254
2.422155
-1.094292
-4.488829
-7.375817
-9.457323
-10.344908
-9.634589
-7.591023
-4.763433
-1.670251
1.753521
4.876248
6.923235
7.589392
7.379470
7.460642
8.176248
9.140652
9.166777
7.723750
5.422369
3.252852
2.048982
1.781525
1.818535
0.990971
-0.375862
-1.267801
-1.769439
-2.214787
-3.393466
-5.310143
-7.046752
-7.571403
-6.493796
-4.222269
-1.518767
0.771109
2.410066
3.318802
3.049168
1.612983
-0.846384
-3.107024
-4.030374
-4.150418
-3.972216
-3.951689
-3.762912
-3.581600
-3.927117
-4.733532
-5.924341
-6.938191
-8.094479
-9.618366
-10.596141
-11.243325
-12.223278
-13.571762
-14.455304
-14.027371
-13.149424
-12.204612
-11.192626
-10.733592
-10.245014
-8.670744
-5.966619
-3.639113
-2.364333
-0.397584
2.229102
3.690791
3.602469
3.087458
3.622997
4.704025
5.277816
5.742448
6.231959
6.739197
6.823167
6.073042
4.764366
3.101774
1.232991
0.040006
0.313374
1.065367
0.825900
-0.244241
-0.654446
-0.105223
1.176709
2.549453
3.343431
3.898252
3.977868
3.371735
2.057461
0.546636
-0.284348
-0.867157
-0.918781
0.360974
2.141436
3.119835
3.082206
2.908359
2.931374
2.677290
1.897931
0.611025
-0.857815
-1.609495
-1.133979
0.127117
0.777725
0.103483
-1.482603
-2.624585
-2.254808
-1.213898
-0.622691
-0.895434
-1.522715
-1.852061
-1.183415
-0.198174
0.219497
0.316218
0.240647
0.241892
0.458658
1.262588
2.783367
4.418903
5.296228
5.176184
4.545794
4.033582
3.952723
4.459339
4.967199
4.349870
2.638452
0.649313
-0.922467
-1.657664
-1.386162
-0.515990
-0.121022
-0.290204
-0.141546
0.557577
1.189836
1.571742
1.804681
1.904201
1.862528
1.425267
0.243477
-1.392368
-2.358637
-2.616141
-2.767285
-3.179978
-2.976273
-2.432960
-2.977204
-4.212796
-5.321501
-5.774313
-5.424750
-4.204084
-2.816412
-1.709882
-0.291110
1.276629
2.281152
2.626982
2.378807
1.495575
0.562895
0.384383
0.223910
-0.895991
-2.211821
-3.165960
-4.225838
-5.824675
-7.361313
-8.363346
-9.121867
-9.583698
-9.952229
-10.409083
-10.788188
-10.318270
-8.542162
-6.101452
-3.984802
-2.982146
-3.250846
-4.138432
-4.592798
-4.726837
-4.554544
-3.591072
-2.126895
-1.051465
-0.645301
-0.248156
0.066885
0.088656
0.664003
2.123204
3.560325
4.178278
4.179212
3.873813
3.258661
3.203927
4.045798
5.119362
5.802625
5.881619
5.681649
5.554763
5.822844
6.669380
7.731749
8.427140
8.255471
7.073681
5.935742
6.169924
7.567237
8.204783
7.407076
6.316408
5.248133
3.681329
1.632167
-0.119058
-1.431467
-2.431945
-3.483115
-4.800499
-5.008867
-3.747149
-2.192160
-1.102113
-0.455237
0.246374
1.055591
1.422569
1.065234
0.376997
0.494244
1.683811
3.001197
3.624437
3.820678
4.503940
5.271172
5.787429
6.054266
6.127662
6.379260
6.884632
7.463400
7.814206
7.496057
6.642681
5.451250
3.648399
1.955641
1.393669
1.949423
2.810265
3.634409
3.921461
3.018947
1.335519
-0.103465
-0.945024
-1.362381
-1.277478
-0.779259
-0.398908
-0.948750
-2.360678
-4.266780
-6.446250
-7.958008
-8.553256
-8.955996
-9.682797
-10.708154
-11.245246
-10.518133
-8.637530
-6.820059
-6.097922
-6.366623
-7.334446
-8.522144
-8.998281
-8.095454
-6.179086
-4.784261
-4.732635
-5.184824
-5.879280
-6.817870
-7.648543
-8.473307
-9.243647
-9.750261
-9.859109
-9.862218
-9.726933
-9.144434
-8.121251
-6.956875
-6.123090
-5.386647
-4.829649
-4.447121
-3.905673
-3.266884
-2.315852
-1.255972
-0.552805
-0.301207
-0.501489
-0.970161
-1.440699
-1.654664
-0.944345
0.964559
3.358619
5.047647
5.801195
6.684118
7.725028
8.469246
8.863281
8.671396
8.081746
7.127918
5.511665
3.496402
1.787472
0.448318
-0.696774
-0.866267
-0.313312
0.478800
1.451290
2.054004
2.649565
3.605573
4.923581
6.156998
6.953775
7.064491
6.563475
6.002437
5.585390
5.370181
5.317312
5.412168
5.124807
4.309373
3.189161
1.987778
1.232989
1.107036
1.775370
2.653939
3.149670
3.595020
3.801523
3.018122
1.439188
0.499044
0.605406
1.319457
1.926526
1.878322
1.555508
1.357092
1.260684
1.226476
1.438266
1.729672
1.479320
0.254302
-1.553837
-3.179109
-4.079445
-4.296832
-4.278793
-4.724762
-5.417352
-6.026595
-6.902985
-7.573495
-7.221445
-5.963770
-4.433661
-2.892045
-1.518679
-0.310142
0.652085
1.309224
1.822993
2.167268
2.346093
2.273009
2.064953
2.185310
2.437219
2.907138
3.296507
2.817261
1.649467
0.728293
0.658942
0.476698
-0.451006
-1.622222
-2.807432
-4.002594
-4.568298
-4.207851
-4.092780
-4.603126
-4.267870
-3.185598
-2.588170
-2.341859
-1.606660
-0.361114
0.752258
1.585110
1.821158
1.725061
1.697384
2.130293
3.029699
3.870637
4.215223
3.642989
2.754470
1.853823
1.383285
1.609381
2.216449
2.765050
2.538644
1.506756
0.533024
0.541111
1.144447
1.437408
1.191410
0.978688
1.002947
0.667382
-0.016189
-0.244772
0.520594
2.119122
3.754037
4.775976
4.715022
3.755906
2.849039
2.025208
0.429169
-2.282417
-5.238758
-7.536717
-9.071800
-9.791447
-9.875415
-9.871371
-9.980530
-9.935746
-9.302243
-8.281237
-7.161023
-5.627182
-3.399195
-1.046187
0.360145
0.206513
-0.624782
-1.314574
-2.451890
-3.698989
-3.763987
-2.363875
-0.231364
1.656392
2.344630
1.886221
0.935814
0.099232
-0.349537
-0.298532
0.421428
1.359709
1.758408
1.168447
0.110746
-0.622896
-0.961260
-0.672343
0.390026
1.656409
2.685500
3.641508
4.463786
4.638879
